[{
 "type":
 "schnitzler-tagebuch",
 "color":
 "#037a33",
 "filename":
 "entry__1885-08-18",
 "caption":
 "Tagebuch",
 "idno":
 "https://schnitzler-tagebuch.acdh.oeaw.ac.at/entry__1885-08-18.html",
 "head":
 "Tagebuch, 18. August 1885",
 "desc":
{"listBibl":
  [
 {
 "title":
 "La princesse des Canaries",
 "ref":
 "pmb80855"}
 ],
 "listPlace":
  [
 {
 "placeName":
 "Rigi Kulm",
 "ref":
 "pmb91598"}
 ,  {
 "placeName":
 "Vitznau",
 "ref":
 "pmb92021"}
 ,  {
 "placeName":
 "Flüelen",
 "ref":
 "pmb53229"}
 ,  {
 "placeName":
 "Axenstraße",
 "ref":
 "pmb53630"}
 ,  {
 "placeName":
 "Brunnen",
 "ref":
 "pmb53632"}
 ,  {
 "placeName":
 "Axenstein",
 "ref":
 "pmb90290"}
 ,  {
 "placeName":
 "Luzern",
 "ref":
 "pmb967"}
 ]
}
}, {
 "type":
 "wienerschnitzler",
 "color":
 "#ECDA98",
 "caption":
 "Wiener Schnitzler",
 "idno":
 "https://wienerschnitzler.org/tag.html#1885-08-18",
 "head":
 "Rigi Kulm"
}, {
 "type":
 "wienerschnitzler",
 "color":
 "#ECDA98",
 "caption":
 "Wiener Schnitzler",
 "idno":
 "https://wienerschnitzler.org/tag.html#1885-08-18",
 "head":
 "Vitznau"
}, {
 "type":
 "wienerschnitzler",
 "color":
 "#ECDA98",
 "caption":
 "Wiener Schnitzler",
 "idno":
 "https://wienerschnitzler.org/tag.html#1885-08-18",
 "head":
 "Brunnen",
 "desc":
{"listPlace":
  [
 {
 "placeName":
 "Axenstraße",
 "ref":
 ""}
 ]
}
}, {
 "type":
 "wienerschnitzler",
 "color":
 "#ECDA98",
 "caption":
 "Wiener Schnitzler",
 "idno":
 "https://wienerschnitzler.org/tag.html#1885-08-18",
 "head":
 "Luzern"
}, {
 "type":
 "wienerschnitzler",
 "color":
 "#ECDA98",
 "caption":
 "Wiener Schnitzler",
 "idno":
 "https://wienerschnitzler.org/tag.html#1885-08-18",
 "head":
 "Flüelen",
 "desc":
{"listPlace":
  [
 {
 "placeName":
 "Axenstraße",
 "ref":
 ""}
 ]
}
}, {
 "type":
 "wienerschnitzler",
 "color":
 "#ECDA98",
 "caption":
 "Wiener Schnitzler",
 "idno":
 "https://wienerschnitzler.org/tag.html#1885-08-18",
 "head":
 "Morschach",
 "desc":
{"listPlace":
  [
 {
 "placeName":
 "Axenstein",
 "ref":
 ""}
 ]
}
}, {
 "type":
 "schnitzler-events",
 "color":
 "#9BC53D",
 "filename":
 "entity/207936/",
 "caption":
 "Ereignisse in der PMB",
 "idno":
 "https://pmb.acdh.oeaw.ac.at/entity/207936/",
 "head":
 "Aufführung von La princesse des Canaries, 18.8.1885",
 "desc":
{"listBibl":
  [
 {
 "title":
 "La princesse des Canaries",
 "ref":
 ""}
 ],
 "listPerson":
  [
{
 "persName":
 "Arthur Schnitzler",
 "ref":
 ""}],
 "listPlace":
  [
 {
 "placeName":
 "Luzern",
 "ref":
 ""}
 ]
}
}] 