[{
 "type":
 "schnitzler-tagebuch",
 "color":
 "#037a33",
 "filename":
 "entry__1886-04-13",
 "caption":
 "Tagebuch",
 "idno":
 "https://schnitzler-tagebuch.acdh.oeaw.ac.at/entry__1886-04-13.html",
 "head":
 "Tagebuch, 13. April 1886",
 "desc":
{"listPerson":
  [
{
 "persName":
 "Peter Altenberg",
 "ref":
 "person_13162"},
 {
 "persName":
 "Bazant",
 "ref":
 "person_13502"},
 {
 "persName":
 "Alfred Benvenisti",
 "ref":
 "person_13606"},
 {
 "persName":
 "Bertha Salcher",
 "ref":
 "person_19528"},
 {
 "persName":
 "Josef Salcher",
 "ref":
 "person_19529"},
 {
 "persName":
 "Olga Waissnix",
 "ref":
 "person_21047"},
 {
 "persName":
 "Johann Schnitzler",
 "ref":
 "person_19824"},
 {
 "persName":
 "Anna Holitscher",
 "ref":
 "person_16321"}],
 "listPlace":
  [
 {
 "placeName":
 "Bad VÃ¶slau",
 "ref":
 "pmb992"}
 ,  {
 "placeName":
 "Meran",
 "ref":
 "pmb43520"}
 ,  {
 "placeName":
 "Naiftal",
 "ref":
 "pmb90162"}
 ,  {
 "placeName":
 "Partschins",
 "ref":
 "pmb91435"}
 ,  {
 "placeName":
 "Bozen",
 "ref":
 "pmb40260"}
 ,  {
 "placeName":
 "Ponte Adige",
 "ref":
 "pmb91751"}
 ,  {
 "placeName":
 "",
 "ref":
 "pmb91574"}
 ,  {
 "placeName":
 "St. Valentin",
 "ref":
 "pmb58821"}
 ]
}
}, {
 "type":
 "wienerschnitzler",
 "color":
 "#ECDA98",
 "caption":
 "Wiener Schnitzler",
 "idno":
 "https://wienerschnitzler.org/tag.html#1886-04-13",
 "head":
 "Wien",
 "desc":
{"listPlace":
  [
 {
 "placeName":
 "I., Innere Stadt",
 "ref":
 ""}
 ]
}
}] 