[{
 "type":
 "schnitzler-tagebuch",
 "color":
 "#037a33",
 "filename":
 "entry__1888-07-25",
 "caption":
 "Tagebuch",
 "idno":
 "https://schnitzler-tagebuch.acdh.oeaw.ac.at/entry__1888-07-25.html",
 "head":
 "Tagebuch, 25. Juli 1888",
 "desc":
{"listPlace":
  [
 {
 "placeName":
 "Newport",
 "ref":
 "pmb91348"}
 ,  {
 "placeName":
 "Ryde",
 "ref":
 "pmb91626"}
 ,  {
 "placeName":
 "London",
 "ref":
 "pmb224"}
 ]
}
}, {
 "type":
 "wienerschnitzler",
 "color":
 "#ECDA98",
 "caption":
 "Wiener Schnitzler",
 "idno":
 "https://wienerschnitzler.org/tag.html#1888-07-25",
 "head":
 "London",
 "desc":
{"listPlace":
  [
 {
 "placeName":
 "Honor Oak",
 "ref":
 ""}
 ,  {
 "placeName":
 "18, Cromwell Place",
 "ref":
 ""}
 ]
}
}, {
 "type":
 "wienerschnitzler",
 "color":
 "#ECDA98",
 "caption":
 "Wiener Schnitzler",
 "idno":
 "https://wienerschnitzler.org/tag.html#1888-07-25",
 "head":
 "Isle of Wight",
 "desc":
{"listPlace":
  [
 {
 "placeName":
 "Newport",
 "ref":
 ""}
 ,  {
 "placeName":
 "Cowes",
 "ref":
 ""}
 ,  {
 "placeName":
 "Ryde",
 "ref":
 ""}
 ]
}
}] 