[{
 "type":
 "schnitzler-orte",
 "color":
 "#045344",
 "caption":
 "Aufenthaltsorte",
 "idno":
 "https://pmb.acdh.oeaw.ac.at/entity/213/",
 "head":
 "Bad Ischl"
}{
 "type":
 "schnitzler-briefe",
 "color":
 "#A63437",
 "caption":
 "Briefe mit Autorinnen und Autoren",
 "idno":
 "https://schnitzler-briefe.acdh.oeaw.ac.at/L02642.html",
 "head":
 "Paul Goldmann an Arthur Schnitzler, 4. 8. 1889",
 "desc":
{"listPerson":
  [
{
 "persName":
 "Paul Goldmann",
 "ref":
 "pmb11485"},
 {
 "persName":
 "Fedor Mamroth",
 "ref":
 "pmb4986"},
 {
 "persName":
 "Julius Schnitzler",
 "ref":
 "pmb12698"}],
 "listBibl":
  [
 {
 "title":
 "Der Sohn. Aus den Papieren eines Arztes",
 "ref":
 "pmb30257"}
 ],
 "listOrg":
  [
 {
 "orgName":
 "Josef Eberle Stein-, Buch und Musikaliendruckerei",
 "ref":
 "pmb53104"}
 ,  {
 "orgName":
 "An der schönen blauen Donau",
 "ref":
 "pmb29698"}
 ],
 "listPlace":
  [
 {
 "placeName":
 "Wien",
 "ref":
 "pmb50"}
 ,  {
 "placeName":
 "Seidengasse",
 "ref":
 "pmb53101"}
 ,  {
 "placeName":
 "Berggasse",
 "ref":
 "pmb52510"}
 ,  {
 "placeName":
 "Traunkirchen",
 "ref":
 "pmb88392"}
 ,  {
 "placeName":
 "Reichenau",
 "ref":
 "pmb41251"}
 ,  {
 "placeName":
 "Bad Ischl",
 "ref":
 "pmb213"}
 ]
}
}{
 "type":
 "schnitzler-cmif",
 "subtype":
 "#j7685005-64da-4e31-99b6-b4641aa1628c",
 "color":
 "#654321",
 "caption":
 "Gedruckte Briefwechsel",
 "head":
 "Arthur Schnitzler an Marie Glümer, 4. 8. 1889",
 "desc":
{"listPerson":
  [
{
 "persName":
 "Glümer, Marie",
 "ref":
 "https://d-nb.info/gnd/128385022"}],
 "bibl":
 "Arthur Schnitzler: Briefe 1875–1912. Hrsg. v. Therese Nickl u. Heinrich Schnitzler. Frankfurt am Main: S. Fischer 1981."
}
}{
 "type":
 "schnitzler-tagebuch",
 "color":
 "#037a33",
 "caption":
 "Tagebuch",
 "idno":
 "https://schnitzler-tagebuch.acdh.oeaw.ac.at/entry__1889-08-04.html",
 "head":
 "Tagebuch, 4. August 1889",
 "desc":
{"listPlace":
  [
 {
 "placeName":
 "Bad Ischl",
 "ref":
 "pmb213"}
 ,  {
 "placeName":
 "Bad Goisern am Hallstättersee",
 "ref":
 "pmb90731"}
 ]
}
}] 