[{
 "type":
 "schnitzler-tagebuch",
 "color":
 "#037a33",
 "filename":
 "entry__1890-09-19",
 "caption":
 "Tagebuch",
 "idno":
 "https://schnitzler-tagebuch.acdh.oeaw.ac.at/entry__1890-09-19.html",
 "head":
 "Tagebuch, 19. September 1890",
 "desc":
{"listPerson":
  [
{
 "persName":
 "Marie Glümer",
 "ref":
 "person_15485"}],
 "listPlace":
  [
 {
 "placeName":
 "Wien",
 "ref":
 "pmb50"}
 ,  {
 "placeName":
 "Salzburg",
 "ref":
 "pmb30"}
 ,  {
 "placeName":
 "Parsch",
 "ref":
 "pmb49759"}
 ,  {
 "placeName":
 "Mönchsberg",
 "ref":
 "pmb91270"}
 ]
}
}, {
 "type":
 "schnitzler-orte",
 "color":
 "#045344",
 "caption":
 "Aufenthaltsorte",
 "head":
 "Salzburg",
 "desc":
{"listPlace":
  [
 {
 "placeName":
 "Österreichischer Hof",
 "ref":
 ""}
 ,  {
 "placeName":
 "Parsch",
 "ref":
 ""}
 ,  {
 "placeName":
 "Mönchsberg",
 "ref":
 ""}
 ,  {
 "placeName":
 "Hauptbahnhof Salzburg",
 "ref":
 ""}
 ]
}
}, {
 "type":
 "schnitzler-orte",
 "color":
 "#045344",
 "caption":
 "Aufenthaltsorte",
 "head":
 "Wien",
 "desc":
{"listPlace":
  [
 {
 "placeName":
 "I., Innere Stadt",
 "ref":
 ""}
 ]
}
}, {
 "type":
 "schnitzler-mikrofilme-daten",
 "color":
 "#6e7b8b",
 "filename":
 "1589026_0022",
 "caption":
 "Mikroverfilmung des Nachlasses",
 "idno":
 "https://schnitzler-mikrofilme.acdh.oeaw.ac.at/1589026_0022.html",
 "head":
 "Mappe A130",
 "text":
 "Datumsangabe auf Blatt von Dramatische Fragmente"
}] 