[{
 "type":
 "schnitzler-tagebuch",
 "color":
 "#037a33",
 "filename":
 "entry__1890-05-22",
 "caption":
 "Tagebuch",
 "idno":
 "https://schnitzler-tagebuch.acdh.oeaw.ac.at/entry__1890-05-22.html",
 "head":
 "Tagebuch, 22. Mai 1890",
 "desc":
{"listPerson":
  [
{
 "persName":
 "Marie Glümer",
 "ref":
 "person_15485"}],
 "listPlace":
  [
 {
 "placeName":
 "Ringstraße",
 "ref":
 "pmb112"}
 ]
}
}, {
 "type":
 "schnitzler-briefe",
 "color":
 "#A63437",
 "filename":
 "L00003",
 "caption":
 "Briefe mit Autorinnen und Autoren",
 "idno":
 "https://schnitzler-briefe.acdh.oeaw.ac.at/L00003.html",
 "head":
 "Michael Konstantin an Arthur Schnitzler, 22. 5. 1890",
 "desc":
{"listPerson":
  [
{
 "persName":
 "Michael Konstantin",
 "ref":
 "pmb41355"},
 {
 "persName":
 "Arthur Schnitzler",
 "ref":
 "pmb2121"},
 {
 "persName":
 "Gerhart Hauptmann",
 "ref":
 "pmb11617"},
 {
 "persName":
 "Michael Konstantin",
 "ref":
 "pmb41355"}],
 "listBibl":
  [
 {
 "title":
 "Anatols Hochzeitsmorgen",
 "ref":
 "pmb30033"}
 ,  {
 "title":
 "Die Frage an das Schicksal",
 "ref":
 "pmb30749"}
 ,  {
 "title":
 "Der Apostel",
 "ref":
 "pmb31877"}
 ,  {
 "title":
 "Moderne Dichtung. Monatsschrift für Literatur und Kritik",
 "ref":
 "pmb35950"}
 ,  {
 "title":
 "Budapester Tagblatt",
 "ref":
 "pmb41715"}
 ],
 "listPlace":
  [
 {
 "placeName":
 "Ordination Arthur Schnitzler [Bösendorferstraße 11]",
 "ref":
 "pmb167789"}
 ,  {
 "placeName":
 "Kärntnerring 12/Bösendorferstraße 11",
 "ref":
 "pmb167805"}
 ,  {
 "placeName":
 "Österreich",
 "ref":
 "pmb41240"}
 ,  {
 "placeName":
 "Výstaviště",
 "ref":
 "pmb41352"}
 ,  {
 "placeName":
 "Wien",
 "ref":
 "pmb50"}
 ,  {
 "placeName":
 "Brünn",
 "ref":
 "pmb833"}
 ],
 "listOrg":
  [
 {
 "orgName":
 "Moderne Dichtung/Moderne Rundschau",
 "ref":
 "pmb29417"}
 ,  {
 "orgName":
 "Budapester Tagblatt",
 "ref":
 "pmb41718"}
 ]
}
}, {
 "type":
 "wienerschnitzler",
 "color":
 "#6F5106",
 "caption":
 "Wiener Schnitzler",
 "idno":
 "https://wienerschnitzler.org/tag.html#1890-05-22",
 "head":
 "Wien",
 "desc":
{"listPlace":
  [
 {
 "placeName":
 "IV., Wieden",
 "ref":
 ""}
 ,  {
 "placeName":
 "I., Innere Stadt",
 "ref":
 ""}
 ]
}
}, {
 "type":
 "kalliope-verbund",
 "color":
 "#003574",
 "caption":
 "Kalliope Verbundkatalog",
 "idno":
 "http://kalliope-verbund.info/DE-2498-HS00038034",
 "head":
 "Konstantin, Michal an Schnitzler, Arthur [Briefe]",
 "text":
 "1 Kte"
}] 