[{
 "type":
 "schnitzler-tagebuch",
 "color":
 "#037a33",
 "filename":
 "entry__1891-09-12",
 "caption":
 "Tagebuch",
 "idno":
 "https://schnitzler-tagebuch.acdh.oeaw.ac.at/entry__1891-09-12.html",
 "head":
 "Tagebuch, 12. September 1891",
 "desc":
{"listPerson":
  [
{
 "persName":
 "Marie Glümer",
 "ref":
 "person_15485"}]
}
}, {
 "type":
 "schnitzler-briefe",
 "color":
 "#A63437",
 "filename":
 "L03105",
 "caption":
 "Briefe mit Autorinnen und Autoren",
 "idno":
 "https://schnitzler-briefe.acdh.oeaw.ac.at/L03105.html",
 "head":
 "Felix Salten an Arthur Schnitzler, 12. 9. 1891",
 "desc":
{"listPerson":
  [
{
 "persName":
 "Felix Salten",
 "ref":
 "pmb2167"},
 {
 "persName":
 "Arthur Schnitzler",
 "ref":
 "pmb2121"},
 {
 "persName":
 "Felix Salten",
 "ref":
 "pmb2167"},
 {
 "persName":
 "Marie Glümer",
 "ref":
 "pmb14953"},
 {
 "persName":
 "Bertha Karlsburg",
 "ref":
 "pmb19143"},
 {
 "persName":
 "Philipp Salzmann",
 "ref":
 "pmb142892"},
 {
 "persName":
 "?? [Bergdirektor]",
 "ref":
 "pmb145568"},
 {
 "persName":
 "?? [Ingenieur]",
 "ref":
 "pmb145571"},
 {
 "persName":
 "Michael Emil Salzmann",
 "ref":
 "pmb45493"}],
 "listPlace":
  [
 {
 "placeName":
 "Miskolc",
 "ref":
 "pmb44142"}
 ,  {
 "placeName":
 "Wien",
 "ref":
 "pmb50"}
 ,  {
 "placeName":
 "Opava",
 "ref":
 "pmb36539"}
 ,  {
 "placeName":
 "Uppony",
 "ref":
 "pmb144316"}
 ,  {
 "placeName":
 "Ungarn",
 "ref":
 "pmb35512"}
 ,  {
 "placeName":
 "Upponyi-szoros",
 "ref":
 "pmb144326"}
 ,  {
 "placeName":
 "Café Kremser",
 "ref":
 "pmb46"}
 ,  {
 "placeName":
 "Italien",
 "ref":
 "pmb40306"}
 ]
}
}, {
 "type":
 "wienerschnitzler",
 "color":
 "#6F5106",
 "caption":
 "Wiener Schnitzler",
 "idno":
 "https://wienerschnitzler.org/tag.html#1891-09-12",
 "head":
 "Wien",
 "desc":
{"listPlace":
  [
 {
 "placeName":
 "I., Innere Stadt",
 "ref":
 ""}
 ]
}
}] 