[{
 "type":
 "schnitzler-tagebuch",
 "color":
 "#037a33",
 "filename":
 "entry__1891-12-15",
 "caption":
 "Tagebuch",
 "idno":
 "https://schnitzler-tagebuch.acdh.oeaw.ac.at/entry__1891-12-15.html",
 "head":
 "Tagebuch, 15. Dezember 1891",
 "desc":
{"listPerson":
  [
{
 "persName":
 "Marie Glümer",
 "ref":
 "person_15485"}],
 "listPlace":
  [
 {
 "placeName":
 "Deutsches Volkstheater",
 "ref":
 "pmb92202"}
 ]
}
}, {
 "type":
 "schnitzler-briefe",
 "color":
 "#A63437",
 "filename":
 "L00052",
 "caption":
 "Briefe mit Autorinnen und Autoren",
 "idno":
 "https://schnitzler-briefe.acdh.oeaw.ac.at/L00052.html",
 "head":
 "Oscar Blumenthal an Arthur Schnitzler, 15. 12. 1891",
 "desc":
{"listPerson":
  [
{
 "persName":
 "Oscar Blumenthal",
 "ref":
 "pmb14328"},
 {
 "persName":
 "Arthur Schnitzler",
 "ref":
 "pmb2121"},
 {
 "persName":
 "Oskar Blumenthal",
 "ref":
 "pmb14328"},
 {
 "persName":
 "Emanuel Reicher",
 "ref":
 "pmb12491"}],
 "listBibl":
  [
 {
 "title":
 "Das Märchen. Schauspiel in drei Aufzügen",
 "ref":
 "pmb29823"}
 ],
 "listPlace":
  [
 {
 "placeName":
 "Berlin",
 "ref":
 "pmb168"}
 ,  {
 "placeName":
 "Wien",
 "ref":
 "pmb50"}
 ,  {
 "placeName":
 "Kapelle-Ufer",
 "ref":
 "pmb34999"}
 ],
 "listOrg":
  [
 {
 "orgName":
 "Lessing-Theater",
 "ref":
 "pmb35053"}
 ,  {
 "orgName":
 "Emanuel Reicher’s Deutsche Gastspielgesellschaft",
 "ref":
 "pmb29252"}
 ,  {
 "orgName":
 "Internationale Ausstellung für Musik und Theaterwesen",
 "ref":
 "pmb45127"}
 ]
}
}, {
 "type":
 "schnitzler-briefe",
 "color":
 "#A63437",
 "filename":
 "L00053",
 "caption":
 "Briefe mit Autorinnen und Autoren",
 "idno":
 "https://schnitzler-briefe.acdh.oeaw.ac.at/L00053.html",
 "head":
 "Wilhelm Bölsche an Arthur Schnitzler, 15. 12. 1891",
 "desc":
{"listPerson":
  [
{
 "persName":
 "Wilhelm Bölsche",
 "ref":
 "pmb11061"},
 {
 "persName":
 "Arthur Schnitzler",
 "ref":
 "pmb2121"},
 {
 "persName":
 "Wilhelm Bölsche",
 "ref":
 "pmb11061"},
 {
 "persName":
 "Otto Brahm",
 "ref":
 "pmb10986"}],
 "listBibl":
  [
 {
 "title":
 "Freie Bühne für modernes Leben",
 "ref":
 "pmb36149"}
 ,  {
 "title":
 "Freie Bühne für den Entwickelungskampf der Zeit",
 "ref":
 "pmb36166"}
 ,  {
 "title":
 "Der Sohn. Aus den Papieren eines Arztes",
 "ref":
 "pmb30257"}
 ],
 "listPlace":
  [
 {
 "placeName":
 "Berlin",
 "ref":
 "pmb168"}
 ,  {
 "placeName":
 "Wien",
 "ref":
 "pmb50"}
 ,  {
 "placeName":
 "Linkstraße",
 "ref":
 "pmb1272"}
 ,  {
 "placeName":
 "Friedrichshagen",
 "ref":
 "pmb1275"}
 ,  {
 "placeName":
 "Peter-Hille-Straße",
 "ref":
 "pmb1276"}
 ],
 "listOrg":
  [
 {
 "orgName":
 "S. Fischer Verlag",
 "ref":
 "pmb29639"}
 ]
}
}, {
 "type":
 "wienerschnitzler",
 "color":
 "#6F5106",
 "caption":
 "Wiener Schnitzler",
 "idno":
 "https://wienerschnitzler.org/tag.html#1891-12-15",
 "head":
 "Wien",
 "desc":
{"listPlace":
  [
 {
 "placeName":
 "VII., Neubau",
 "ref":
 ""}
 ,  {
 "placeName":
 "I., Innere Stadt",
 "ref":
 ""}
 ]
}
}, {
 "type":
 "schnitzler-bahr",
 "color":
 "#639FF9",
 "filename":
 "L041683",
 "caption":
 "Schnitzler/Bahr",
 "idno":
 "https://schnitzler-bahr.acdh.oeaw.ac.at/L041683.html",
 "head":
 "Reicher an Bahr, 15. 12. 1891",
 "desc":
{"listPerson":
  [
{
 "persName":
 "Emanuel Reicher",
 "ref":
 "pmb12491"},
 {
 "persName":
 "Hermann Bahr",
 "ref":
 "pmb10815"},
 {
 "persName":
 "Oskar Blumenthal",
 "ref":
 "pmb14328"},
 {
 "persName":
 "Sigmund Lautenburg",
 "ref":
 "pmb2598"}],
 "listBibl":
  [
 {
 "title":
 "Das Märchen. Schauspiel in drei Aufzügen",
 "ref":
 "pmb29823"}
 ],
 "listPlace":
  [
 {
 "placeName":
 "Berlin",
 "ref":
 "pmb168"}
 ,  {
 "placeName":
 "Wien",
 "ref":
 "pmb50"}
 ,  {
 "placeName":
 "Alexanderstraße",
 "ref":
 "pmb822"}
 ],
 "listOrg":
  [
 {
 "orgName":
 "Emanuel Reicher’s Deutsche Gastspielgesellschaft",
 "ref":
 "pmb29252"}
 ]
}
}] 