[{
 "type":
 "schnitzler-tagebuch",
 "color":
 "#037a33",
 "filename":
 "entry__1892-09-07",
 "caption":
 "Tagebuch",
 "idno":
 "https://schnitzler-tagebuch.acdh.oeaw.ac.at/entry__1892-09-07.html",
 "head":
 "Tagebuch, 7. September 1892",
 "desc":
{"listPerson":
  [
{
 "persName":
 "Richard Beer-Hofmann",
 "ref":
 "person_13551"},
 {
 "persName":
 "Marie Glümer",
 "ref":
 "person_15485"},
 {
 "persName":
 "Heinrich Heine",
 "ref":
 "person_16047"},
 {
 "persName":
 "Sandor Rosenberg",
 "ref":
 "person_19377"},
 {
 "persName":
 "Julius Schnitzler",
 "ref":
 "person_19827"},
 {
 "persName":
 "Josef Sprinz",
 "ref":
 "person_20297"},
 {
 "persName":
 "Ludwig Ganghofer",
 "ref":
 "person_15336"},
 {
 "persName":
 "Marie Singer",
 "ref":
 "person_20136"},
 {
 "persName":
 "Julie Laska",
 "ref":
 "person_17336"},
 {
 "persName":
 "Thaller",
 "ref":
 "person_20688"}],
 "listBibl":
  [
 {
 "title":
 "Das Märchen. Schauspiel in drei Aufzügen",
 "ref":
 "pmb29823"}
 ,  {
 "title":
 "Boccaccio. Komische Operette in 3 Acten",
 "ref":
 "pmb81387"}
 ],
 "listPlace":
  [
 {
 "placeName":
 "Bad Ischl",
 "ref":
 "pmb213"}
 ,  {
 "placeName":
 "Salzburg",
 "ref":
 "pmb30"}
 ,  {
 "placeName":
 "Bad Vöslau",
 "ref":
 "pmb992"}
 ]
}
}, {
 "type":
 "schnitzler-briefe",
 "color":
 "#A63437",
 "filename":
 "L00121",
 "caption":
 "Briefe mit Autorinnen und Autoren",
 "idno":
 "https://schnitzler-briefe.acdh.oeaw.ac.at/L00121.html",
 "head":
 "Hugo von Hofmannsthal an Arthur Schnitzler, 7. 9. [1892]",
 "desc":
{"listPerson":
  [
{
 "persName":
 "Hugo von Hofmannsthal",
 "ref":
 "pmb11740"},
 {
 "persName":
 "Hermann Bahr",
 "ref":
 "pmb10815"},
 {
 "persName":
 "Édouard Rod",
 "ref":
 "pmb4311"},
 {
 "persName":
 "Louis Charles de Bourbon",
 "ref":
 "pmb4315"},
 {
 "persName":
 "Antoine Simon",
 "ref":
 "pmb4319"}],
 "listBibl":
  [
 {
 "title":
 "Pandore",
 "ref":
 "pmb34242"}
 ,  {
 "title":
 "A Midsommer nights dreame",
 "ref":
 "pmb34239"}
 ,  {
 "title":
 "Reise in die mittäglichen Provinzen von Frankreich",
 "ref":
 "pmb32117"}
 ],
 "listPlace":
  [
 {
 "placeName":
 "Lélex",
 "ref":
 "pmb45896"}
 ,  {
 "placeName":
 "Bad Ischl",
 "ref":
 "pmb213"}
 ,  {
 "placeName":
 "Mont Blanc",
 "ref":
 "pmb565"}
 ,  {
 "placeName":
 "Frankreich",
 "ref":
 "pmb166"}
 ,  {
 "placeName":
 "Arles",
 "ref":
 "pmb641"}
 ,  {
 "placeName":
 "Buchs",
 "ref":
 "pmb859"}
 ,  {
 "placeName":
 "Genf",
 "ref":
 "pmb562"}
 ]
}
}, {
 "type":
 "wienerschnitzler",
 "color":
 "#ECDA98",
 "caption":
 "Wiener Schnitzler",
 "idno":
 "https://wienerschnitzler.org/tag.html#1892-09-07",
 "head":
 "Bad Ischl",
 "desc":
{"listPlace":
  [
 {
 "placeName":
 "Lehártheater",
 "ref":
 ""}
 ]
}
}, {
 "type":
 "schnitzler-bahr",
 "color":
 "#639FF9",
 "filename":
 "L041417",
 "caption":
 "Schnitzler/Bahr",
 "idno":
 "https://schnitzler-bahr.acdh.oeaw.ac.at/L041417.html",
 "head":
 "Hofmannsthal an Schnitzler, 7. 9. [1892]",
 "desc":
{"listPerson":
  [
{
 "persName":
 "Hugo von Hofmannsthal",
 "ref":
 "pmb11740"},
 {
 "persName":
 "Édouard Rod",
 "ref":
 "pmb4311"},
 {
 "persName":
 "Louis Charles de Bourbon",
 "ref":
 "pmb4315"},
 {
 "persName":
 "Antoine Simon",
 "ref":
 "pmb4319"},
 {
 "persName":
 "Hermann Bahr",
 "ref":
 "pmb10815"}],
 "listBibl":
  [
 {
 "title":
 "Reise in die mittäglichen Provinzen von Frankreich",
 "ref":
 "pmb32117"}
 ],
 "listPlace":
  [
 {
 "placeName":
 "Lélex",
 "ref":
 "pmb45896"}
 ,  {
 "placeName":
 "Frankreich",
 "ref":
 "pmb166"}
 ,  {
 "placeName":
 "Arles",
 "ref":
 "pmb641"}
 ,  {
 "placeName":
 "Buchs",
 "ref":
 "pmb859"}
 ,  {
 "placeName":
 "Genf",
 "ref":
 "pmb562"}
 ]
}
}, {
 "type":
 "schnitzler-events",
 "color":
 "#9BC53D",
 "filename":
 "entity/208569/",
 "caption":
 "Ereignisse in der PMB",
 "idno":
 "https://pmb.acdh.oeaw.ac.at/entity/208569/",
 "head":
 "Aufführung von Boccaccio. Komische Operette in 3 Acten, 7.9.1892",
 "desc":
{"listOrg":
  [
 {
 "orgName":
 "Saisontheater Ischl",
 "ref":
 ""}
 ],
 "listBibl":
  [
 {
 "title":
 "Boccaccio. Komische Operette in 3 Acten",
 "ref":
 ""}
 ],
 "listPerson":
  [
{
 "persName":
 "Arthur Schnitzler",
 "ref":
 ""}],
 "listPlace":
  [
 {
 "placeName":
 "Lehártheater",
 "ref":
 ""}
 ]
}
}] 