{
 "date":
 {
 "when-iso":
 "1893-05-03",
 "written":
 "Mittwoch, 3. Mai 1893"
},
"listEvent":
 [{
 "type":
 "schnitzler-orte",
 "idno":
 "https://pmb.acdh.oeaw.ac.at/entity/50/",
 "head":
 "Wien"
}, {
 "type":
 "schnitzler-orte",
 "idno":
 "https://pmb.acdh.oeaw.ac.at/entity/412/",
 "head":
 "Grillparzerstraße"
}, {
 "type":
 "schnitzler-briefe",
 "idno":
 "https://schnitzler-briefe.acdh.oeaw.ac.at/L00208.html",
 "head":
 "Arthur Schnitzler an Richard Beer-Hofmann, 3. 5. 1893",
 "desc":
{"listPerson":
  [
{
 "persName":
 "Richard Beer-Hofmann",
 "ref":
 "pmb10863"},
 {
 "persName":
 "Johann Schnitzler",
 "ref":
 "pmb12695"},
 {
 "persName":
 "Louise Schnitzler",
 "ref":
 "pmb12701"},
 {
 "persName":
 "Johanna Willheim",
 "ref":
 "pmb41373"},
 {
 "persName":
 "Julius Schnitzler",
 "ref":
 "pmb12698"},
 {
 "persName":
 "Gisela Hajek",
 "ref":
 "pmb2461"},
 {
 "persName":
 "Markus Hajek",
 "ref":
 "pmb2284"}],
 "listOrg":
  [
 {
 "orgName":
 "M. Engel und Söhne",
 "ref":
 "pmb41364"}
 ,  {
 "orgName":
 "Allgemeine Poliklinik",
 "ref":
 "pmb41367"}
 ,  {
 "orgName":
 "Dannebrogorden",
 "ref":
 "pmb41395"}
 ],
 "listPlace":
  [
 {
 "placeName":
 "Lichtenfelsgasse",
 "ref":
 "pmb95"}
 ,  {
 "placeName":
 "Wien",
 "ref":
 "pmb50"}
 ,  {
 "placeName":
 "Wollzeile",
 "ref":
 "pmb338"}
 ,  {
 "placeName":
 "Dänemark",
 "ref":
 "pmb43570"}
 ,  {
 "placeName":
 "Burgring",
 "ref":
 "pmb274"}
 ,  {
 "placeName":
 "Wiener Zentralfriedhof",
 "ref":
 "pmb41376"}
 ]}

}, {
 "type":
 "schnitzler-briefe",
 "idno":
 "https://schnitzler-briefe.acdh.oeaw.ac.at/L00209.html",
 "head":
 "Arthur von Suttner an Arthur Schnitzler, 3. 5. 1893",
 "desc":
{"listPerson":
  [
{
 "persName":
 "Arthur Gundaccar von Suttner",
 "ref":
 "pmb4149"},
 {
 "persName":
 "Johann Schnitzler",
 "ref":
 "pmb12695"},
 {
 "persName":
 "Bertha von Suttner",
 "ref":
 "pmb12906"}],
 "listPlace":
  [
 {
 "placeName":
 "Harmannsdorf",
 "ref":
 "pmb49283"}
 ,  {
 "placeName":
 "Wien",
 "ref":
 "pmb50"}
 ,  {
 "placeName":
 "Schloss Harmannsdorf",
 "ref":
 "pmb49303"}
 ,  {
 "placeName":
 "Eggenburg",
 "ref":
 "pmb49301"}
 ]}

}, {
 "type":
 "schnitzler-briefe",
 "idno":
 "https://schnitzler-briefe.acdh.oeaw.ac.at/L00210.html",
 "head":
 "Bertha von Suttner an Arthur Schnitzler, 3. 5. 1893",
 "desc":
{"listPerson":
  [
{
 "persName":
 "Bertha von Suttner",
 "ref":
 "pmb12906"},
 {
 "persName":
 "Johann Schnitzler",
 "ref":
 "pmb12695"}],
 "listPlace":
  [
 {
 "placeName":
 "Harmannsdorf",
 "ref":
 "pmb49283"}
 ,  {
 "placeName":
 "Wien",
 "ref":
 "pmb50"}
 ]}

}, {
 "type":
 "schnitzler-cmif",
 "subtype":
 "#d2b0f559-bde7-4114-82b9-741a8810c463",
 "head":
 "Olga Waissnix an Arthur Schnitzler, 3.5.1893",
 "desc":
{"listPerson":
  [
{
 "persName":
 "Waissnix, Olga",
 "ref":
 "https://d-nb.info/gnd/118628526"}],
 "bibl":
 "Arthur Schnitzler und Waissnix, Olga: Liebe, die starb vor der Zeit. Ein Briefwechsel. Mit einem Vorwort von Hans Weigel. Mit 16 Seiten Kunstdruckbildern. Hg. v. Therese Nickl und Heinrich Schnitzler. Wien, München, Zürich: Verlag Fritz Molden 1970. (PDF: https://schnitzler-briefe.acdh.oeaw.ac.at)"}

}, {
 "type":
 "schnitzler-cmif",
 "subtype":
 "#d2b0f559-bde7-4114-82b9-741a8810c463",
 "head":
 "Olga Waissnix an Arthur Schnitzler, 3.5.1893",
 "desc":
{"listPerson":
  [
{
 "persName":
 "Waissnix, Olga",
 "ref":
 "https://d-nb.info/gnd/118628526"}],
 "bibl":
 "Arthur Schnitzler und Waissnix, Olga: Liebe, die starb vor der Zeit. Ein Briefwechsel. Mit einem Vorwort von Hans Weigel. Mit 16 Seiten Kunstdruckbildern. Hg. v. Therese Nickl und Heinrich Schnitzler. Wien, München, Zürich: Verlag Fritz Molden 1970. (PDF: https://schnitzler-briefe.acdh.oeaw.ac.at)"}

}, {
 "type":
 "schnitzler-tagebuch",
 "idno":
 "https://schnitzler-tagebuch.acdh.oeaw.ac.at/entry__1893-05-03.html",
 "head":
 "Tagebuch, 3. Mai 1893"
}] 
}