[{
 "type":
 "schnitzler-tagebuch",
 "color":
 "#037a33",
 "filename":
 "entry__1893-07-05",
 "caption":
 "Tagebuch",
 "idno":
 "https://schnitzler-tagebuch.acdh.oeaw.ac.at/entry__1893-07-05.html",
 "head":
 "Tagebuch, 5. Juli 1893",
 "desc":
{"listPerson":
  [
{
 "persName":
 "Regina Eibenschütz",
 "ref":
 "person_14661"},
 {
 "persName":
 "Friedrich Kapper",
 "ref":
 "person_16709"},
 {
 "persName":
 "Ignaz Wild",
 "ref":
 "person_21323"},
 {
 "persName":
 "Adalbert von Mengershausen",
 "ref":
 "person_18076"},
 {
 "persName":
 "Hermine von Schaffgotsch",
 "ref":
 "person_19611"}],
 "listBibl":
  [
 {
 "title":
 "Die Frage an das Schicksal",
 "ref":
 "pmb30749"}
 ,  {
 "title":
 "Abschiedssouper",
 "ref":
 "pmb30005"}
 ],
 "listPlace":
  [
 {
 "placeName":
 "Salzburg",
 "ref":
 "pmb30"}
 ,  {
 "placeName":
 "Anzenau",
 "ref":
 "pmb90254"}
 ]
}
}, {
 "type":
 "schnitzler-briefe",
 "color":
 "#A63437",
 "filename":
 "L00233",
 "caption":
 "Briefe mit Autorinnen und Autoren",
 "idno":
 "https://schnitzler-briefe.acdh.oeaw.ac.at/L00233.html",
 "head":
 "Arthur Schnitzler an Hugo von Hofmannsthal, 5. 7. 1893",
 "desc":
{"listPerson":
  [
{
 "persName":
 "Hugo von Hofmannsthal",
 "ref":
 "pmb11740"},
 {
 "persName":
 "Richard Beer-Hofmann",
 "ref":
 "pmb10863"},
 {
 "persName":
 "?? [Badekabinenvermieterin in Strobl]",
 "ref":
 "pmb27762"}],
 "listPlace":
  [
 {
 "placeName":
 "Bad Ischl",
 "ref":
 "pmb213"}
 ,  {
 "placeName":
 "Wien",
 "ref":
 "pmb50"}
 ,  {
 "placeName":
 "Hotel und Pension Rudolfshöhe (Leopold Petter)",
 "ref":
 "pmb414"}
 ,  {
 "placeName":
 "Strobl",
 "ref":
 "pmb895"}
 ]
}
}, {
 "type":
 "schnitzler-briefe",
 "color":
 "#A63437",
 "filename":
 "L02958",
 "caption":
 "Briefe mit Autorinnen und Autoren",
 "idno":
 "https://schnitzler-briefe.acdh.oeaw.ac.at/L02958.html",
 "head":
 "Arthur Schnitzler an Felix Salten, 5. 7. 1893",
 "desc":
{"listPerson":
  [
{
 "persName":
 "Felix Salten",
 "ref":
 "pmb2167"},
 {
 "persName":
 "Richard Beer-Hofmann",
 "ref":
 "pmb10863"},
 {
 "persName":
 "Josef Jarno",
 "ref":
 "pmb2601"},
 {
 "persName":
 "Ignaz Wild",
 "ref":
 "pmb5336"},
 {
 "persName":
 "Paul Horn",
 "ref":
 "pmb18523"},
 {
 "persName":
 "Grethe Wreden",
 "ref":
 "pmb27355"},
 {
 "persName":
 "Richard Specht",
 "ref":
 "pmb2456"}],
 "listBibl":
  [
 {
 "title":
 "Artifex",
 "ref":
 "pmb29821"}
 ,  {
 "title":
 "Das Märchen. Schauspiel in drei Aufzügen",
 "ref":
 "pmb29823"}
 ,  {
 "title":
 "Anatol",
 "ref":
 "pmb29935"}
 ,  {
 "title":
 "Abschiedssouper",
 "ref":
 "pmb30005"}
 ,  {
 "title":
 "Die Frage an das Schicksal",
 "ref":
 "pmb30749"}
 ],
 "listOrg":
  [
 {
 "orgName":
 "Saisontheater Ischl",
 "ref":
 "pmb42649"}
 ],
 "listPlace":
  [
 {
 "placeName":
 "Bad Ischl",
 "ref":
 "pmb213"}
 ,  {
 "placeName":
 "Wien",
 "ref":
 "pmb50"}
 ,  {
 "placeName":
 "Hotel und Pension Rudolfshöhe (Leopold Petter)",
 "ref":
 "pmb414"}
 ,  {
 "placeName":
 "Strobl",
 "ref":
 "pmb895"}
 ,  {
 "placeName":
 "Bad Aussee",
 "ref":
 "pmb415"}
 ,  {
 "placeName":
 "Anzenau",
 "ref":
 "pmb90254"}
 ,  {
 "placeName":
 "Salzburg",
 "ref":
 "pmb30"}
 ,  {
 "placeName":
 "Ungarn",
 "ref":
 "pmb35512"}
 ,  {
 "placeName":
 "Stadttheater (Bad Ischl)",
 "ref":
 "pmb1179"}
 ,  {
 "placeName":
 "Salzkammergut",
 "ref":
 "pmb429"}
 ]
}
}, {
 "type":
 "schnitzler-orte",
 "color":
 "#045344",
 "filename":
 "entity/213/",
 "caption":
 "Aufenthaltsorte",
 "idno":
 "https://pmb.acdh.oeaw.ac.at/entity/213/",
 "head":
 "Bad Ischl"
}, {
 "type":
 "schnitzler-orte",
 "color":
 "#045344",
 "filename":
 "entity/414/",
 "caption":
 "Aufenthaltsorte",
 "idno":
 "https://pmb.acdh.oeaw.ac.at/entity/414/",
 "head":
 "Hotel und Pension Rudolfshöhe (Leopold Petter)"
}, {
 "type":
 "schnitzler-orte",
 "color":
 "#045344",
 "filename":
 "entity/90254/",
 "caption":
 "Aufenthaltsorte",
 "idno":
 "https://pmb.acdh.oeaw.ac.at/entity/90254/",
 "head":
 "Anzenau"
}, {
 "type":
 "schnitzler-cmif",
 "subtype":
 "#d2b0f559-bde7-4114-82b9-741a8810c463",
 "color":
 "#654321",
 "caption":
 "Gedruckte Briefwechsel",
 "head":
 "Olga Waissnix an Arthur Schnitzler, 5.7.1893",
 "source":
 "Arthur Schnitzler und Waissnix, Olga: Liebe, die starb vor der Zeit. Ein Briefwechsel. Mit einem Vorwort von Hans Weigel. Mit 16 Seiten Kunstdruckbildern. Hg. v. Therese Nickl und Heinrich Schnitzler. Wien, München, Zürich: Verlag Fritz Molden 1970. (PDF: https://schnitzler-briefe.acdh.oeaw.ac.at)"
}, {
 "type":
 "schnitzler-cmif",
 "subtype":
 "#j7685005-64da-4e31-99b6-b4641aa1628c",
 "color":
 "#654321",
 "caption":
 "Gedruckte Briefwechsel",
 "head":
 "Arthur Schnitzler an Felix Salten, 5. 7. 1893",
 "source":
 "Arthur Schnitzler: Briefe 1875–1912. Hrsg. v. Therese Nickl u. Heinrich Schnitzler. Frankfurt am Main: S. Fischer 1981."
}] 