[{
 "type":
 "schnitzler-tagebuch",
 "color":
 "#037a33",
 "filename":
 "entry__1893-08-17",
 "caption":
 "Tagebuch",
 "idno":
 "https://schnitzler-tagebuch.acdh.oeaw.ac.at/entry__1893-08-17.html",
 "head":
 "Tagebuch, 17. August 1893",
 "desc":
{"listPlace":
  [
 {
 "placeName":
 "Wien",
 "ref":
 "pmb50"}
 ]
}
}, {
 "type":
 "schnitzler-briefe",
 "color":
 "#A63437",
 "filename":
 "L02961",
 "caption":
 "Briefe mit Autorinnen und Autoren",
 "idno":
 "https://schnitzler-briefe.acdh.oeaw.ac.at/L02961.html",
 "head":
 "Arthur Schnitzler an Felix Salten, 17. 8. 1893",
 "source":
 "Arthur Schnitzler – Briefwechsel mit Autorinnen und Autoren. Digitale Edition herausgegeben von Martin Anton Müller, Gerd-Hermann Susen und Laura Untner, 2018–[2024]"
}, {
 "type":
 "schnitzler-briefe",
 "color":
 "#A63437",
 "filename":
 "L02961",
 "caption":
 "Briefe mit Autorinnen und Autoren",
 "idno":
 "https://schnitzler-briefe.acdh.oeaw.ac.at/L02961.html",
 "head":
 "Arthur Schnitzler an Felix Salten, 17. 8. 1893",
 "desc":
{"listPerson":
  [
{
 "persName":
 "Felix Salten",
 "ref":
 "pmb2167"}],
 "listPlace":
  [
 {
 "placeName":
 "Wien",
 "ref":
 "pmb50"}
 ,  {
 "placeName":
 "Dölsach",
 "ref":
 "pmb945"}
 ,  {
 "placeName":
 "Pressbaum",
 "ref":
 "pmb44271"}
 ]
}
}, {
 "type":
 "schnitzler-briefe",
 "color":
 "#A63437",
 "filename":
 "L03125",
 "caption":
 "Briefe mit Autorinnen und Autoren",
 "idno":
 "https://schnitzler-briefe.acdh.oeaw.ac.at/L03125.html",
 "head":
 "Felix Salten an Arthur Schnitzler, 17. 8. 1893",
 "desc":
{"listPerson":
  [
{
 "persName":
 "Felix Salten",
 "ref":
 "pmb2167"},
 {
 "persName":
 "Michael Emil Salzmann",
 "ref":
 "pmb45493"}],
 "listPlace":
  [
 {
 "placeName":
 "Heiligenblut am Großglockner",
 "ref":
 "pmb90843"}
 ,  {
 "placeName":
 "I., Innere Stadt",
 "ref":
 "pmb51"}
 ,  {
 "placeName":
 "Wien",
 "ref":
 "pmb50"}
 ,  {
 "placeName":
 "Grillparzerstraße",
 "ref":
 "pmb412"}
 ,  {
 "placeName":
 "Kärnten",
 "ref":
 "pmb651"}
 ,  {
 "placeName":
 "Robert Bernard’s Gasthof",
 "ref":
 "pmb144473"}
 ,  {
 "placeName":
 "Cortina d'Ampezzo",
 "ref":
 "pmb34199"}
 ,  {
 "placeName":
 "Großglockner",
 "ref":
 "pmb90779"}
 ,  {
 "placeName":
 "Mittewald an der Drau",
 "ref":
 "pmb144475"}
 ,  {
 "placeName":
 "Lienz",
 "ref":
 "pmb897"}
 ]
}
}, {
 "type":
 "schnitzler-orte",
 "color":
 "#045344",
 "filename":
 "entity/44271/",
 "caption":
 "Aufenthaltsorte",
 "idno":
 "https://pmb.acdh.oeaw.ac.at/entity/44271/",
 "head":
 "Pressbaum"
}, {
 "type":
 "schnitzler-cmif",
 "subtype":
 "#j7685005-64da-4e31-99b6-b4641aa1628c",
 "color":
 "#654321",
 "caption":
 "Gedruckte Briefwechsel",
 "head":
 "Arthur Schnitzler an Felix Salten, 17. 8. 1893",
 "source":
 "Arthur Schnitzler: Briefe 1875–1912. Hrsg. v. Therese Nickl u. Heinrich Schnitzler. Frankfurt am Main: S. Fischer 1981."
}, {
 "type":
 "schnitzler-cmif",
 "subtype":
 "#asbw_0a380dfe-61d4-4b9e-8641-01eba8e50760",
 "color":
 "#654321",
 "caption":
 "Gedruckte Briefwechsel",
 "head":
 "Erhalt von Karl Kraus an Arthur Schnitzler, 12. 8. 1893",
 "source":
 "Arthur Schnitzler – Briefwechsel mit Autorinnen und Autoren. Digitale Edition herausgegeben von Martin Anton Müller, Gerd-Hermann Susen und Laura Untner, 2018–[2024]"
}] 