[{
 "type":
 "schnitzler-tagebuch",
 "color":
 "#037a33",
 "filename":
 "entry__1893-09-30",
 "caption":
 "Tagebuch",
 "idno":
 "https://schnitzler-tagebuch.acdh.oeaw.ac.at/entry__1893-09-30.html",
 "head":
 "Tagebuch, 30. September 1893",
 "desc":
{"listPerson":
  [
{
 "persName":
 "Marie Glümer",
 "ref":
 "person_15485"},
 {
 "persName":
 "Josefine Lydia von Weisswasser",
 "ref":
 "person_21214"}]
}
}, {
 "type":
 "schnitzler-briefe",
 "color":
 "#A63437",
 "filename":
 "L02718",
 "caption":
 "Briefe mit Autorinnen und Autoren",
 "idno":
 "https://schnitzler-briefe.acdh.oeaw.ac.at/L02718.html",
 "head":
 "Paul Goldmann an Arthur Schnitzler, [zwischen 29. 9. und
                  2. 10. 1893]",
 "desc":
{"listPerson":
  [
{
 "persName":
 "Hermann Bahr",
 "ref":
 "pmb10815"},
 {
 "persName":
 "Julius von Gans-Ludassy",
 "ref":
 "pmb11406"},
 {
 "persName":
 "Paul Goldmann",
 "ref":
 "pmb11485"},
 {
 "persName":
 "Robert Hirschfeld",
 "ref":
 "pmb11707"},
 {
 "persName":
 "Henri Léon Lavedan",
 "ref":
 "pmb2488"},
 {
 "persName":
 "Daniel Spitzer",
 "ref":
 "pmb25237"},
 {
 "persName":
 "Carl von Torresani-Lanzenfeld",
 "ref":
 "pmb26121"},
 {
 "persName":
 "Georges Courteline",
 "ref":
 "pmb4865"},
 {
 "persName":
 "Aurélien Scholl",
 "ref":
 "pmb4869"},
 {
 "persName":
 "Gabriel Engelsmann",
 "ref":
 "pmb93093"}],
 "listBibl":
  [
 {
 "title":
 "Zwei Freunde Burckhards",
 "ref":
 "pmb30267"}
 ,  {
 "title":
 "Das junge Österreich",
 "ref":
 "pmb30271"}
 ,  {
 "title":
 "Tagebuch",
 "ref":
 "pmb33243"}
 ,  {
 "title":
 "Deutsche Zeitung",
 "ref":
 "pmb41471"}
 ,  {
 "title":
 "Wiener Sonn- und Montagszeitung",
 "ref":
 "pmb41479"}
 ,  {
 "title":
 "Zola über die Anonymität der Presse",
 "ref":
 "pmb93091"}
 ],
 "listOrg":
  [
 {
 "orgName":
 "Wiener Sonn- und Montagszeitung",
 "ref":
 "pmb29525"}
 ,  {
 "orgName":
 "An der schönen blauen Donau",
 "ref":
 "pmb29698"}
 ],
 "listPlace":
  [
 {
 "placeName":
 "Frankreich",
 "ref":
 "pmb166"}
 ,  {
 "placeName":
 "Paris",
 "ref":
 "pmb182"}
 ,  {
 "placeName":
 "Wien",
 "ref":
 "pmb50"}
 ]
}
}, {
 "type":
 "schnitzler-briefe",
 "color":
 "#A63437",
 "filename":
 "L00267",
 "caption":
 "Briefe mit Autorinnen und Autoren",
 "idno":
 "https://schnitzler-briefe.acdh.oeaw.ac.at/L00267.html",
 "head":
 "Karl Kraus, Karl Rosner, Julius Schaumberger an Arthur Schnitzler, 30. 9. 1893",
 "desc":
{"listPerson":
  [
{
 "persName":
 "Hermann Bahr",
 "ref":
 "pmb10815"},
 {
 "persName":
 "Richard Beer-Hofmann",
 "ref":
 "pmb10863"},
 {
 "persName":
 "Hugo von Hofmannsthal",
 "ref":
 "pmb11740"},
 {
 "persName":
 "Karl Kraus",
 "ref":
 "pmb11988"},
 {
 "persName":
 "Karl Peter Rosner",
 "ref":
 "pmb12564"},
 {
 "persName":
 "Julius Schaumberger",
 "ref":
 "pmb4498"}],
 "listPlace":
  [
 {
 "placeName":
 "Café Luitpold",
 "ref":
 "pmb100"}
 ,  {
 "placeName":
 "Grillparzerstraße",
 "ref":
 "pmb412"}
 ,  {
 "placeName":
 "München",
 "ref":
 "pmb45258"}
 ,  {
 "placeName":
 "Wien",
 "ref":
 "pmb50"}
 ,  {
 "placeName":
 "I., Innere Stadt",
 "ref":
 "pmb51"}
 ]
}
}, {
 "type":
 "wienerschnitzler",
 "color":
 "#ECDA98",
 "caption":
 "Wiener Schnitzler",
 "idno":
 "https://wienerschnitzler.org/tag.html#1893-09-30",
 "head":
 "Wien",
 "desc":
{"listPlace":
  [
 {
 "placeName":
 "I., Innere Stadt",
 "ref":
 ""}
 ]
}
}, {
 "type":
 "schnitzler-bahr",
 "color":
 "#639FF9",
 "filename":
 "L041524",
 "caption":
 "Schnitzler/Bahr",
 "idno":
 "https://schnitzler-bahr.acdh.oeaw.ac.at/L041524.html",
 "head":
 "Karl Rosner auf Karte von Kraus an Schnitzler, 30. 9. 1893",
 "desc":
{"listPerson":
  [
{
 "persName":
 "Karl Kraus",
 "ref":
 "pmb11988"},
 {
 "persName":
 "Karl Peter Rosner",
 "ref":
 "pmb12564"},
 {
 "persName":
 "Julius Schaumberger",
 "ref":
 "pmb4498"},
 {
 "persName":
 "Richard Beer-Hofmann",
 "ref":
 "pmb10863"},
 {
 "persName":
 "Hugo von Hofmannsthal",
 "ref":
 "pmb11740"},
 {
 "persName":
 "Hermann Bahr",
 "ref":
 "pmb10815"}],
 "listPlace":
  [
 {
 "placeName":
 "München",
 "ref":
 "pmb45258"}
 ,  {
 "placeName":
 "Wien",
 "ref":
 "pmb50"}
 ,  {
 "placeName":
 "I., Innere Stadt",
 "ref":
 "pmb51"}
 ,  {
 "placeName":
 "Grillparzerstraße",
 "ref":
 "pmb412"}
 ,  {
 "placeName":
 "Café Luitpold",
 "ref":
 "pmb100"}
 ]
}
}] 