[{
 "type":
 "schnitzler-tagebuch",
 "color":
 "#037a33",
 "filename":
 "entry__1893-11-16",
 "caption":
 "Tagebuch",
 "idno":
 "https://schnitzler-tagebuch.acdh.oeaw.ac.at/entry__1893-11-16.html",
 "head":
 "Tagebuch, 16. November 1893"
}, {
 "type":
 "schnitzler-briefe",
 "color":
 "#A63437",
 "filename":
 "L00284",
 "caption":
 "Briefe mit Autorinnen und Autoren",
 "idno":
 "https://schnitzler-briefe.acdh.oeaw.ac.at/L00284.html",
 "head":
 "Wilhelm Bölsche an Arthur Schnitzler, 16. 11. 1893",
 "desc":
{"listPerson":
  [
{
 "persName":
 "Otto Julius Bierbaum",
 "ref":
 "pmb10928"},
 {
 "persName":
 "Wilhelm Bölsche",
 "ref":
 "pmb11061"}],
 "listBibl":
  [
 {
 "title":
 "Freie Bühne für den Entwickelungskampf der Zeit",
 "ref":
 "pmb36166"}
 ],
 "listPlace":
  [
 {
 "placeName":
 "Frankgasse 1",
 "ref":
 "pmb168934"}
 ,  {
 "placeName":
 "Enge [Zürich]",
 "ref":
 "pmb34215"}
 ,  {
 "placeName":
 "Seewartstraße",
 "ref":
 "pmb34218"}
 ,  {
 "placeName":
 "Köthenerstraße",
 "ref":
 "pmb359"}
 ,  {
 "placeName":
 "Zürich",
 "ref":
 "pmb484"}
 ,  {
 "placeName":
 "Wien",
 "ref":
 "pmb50"}
 ,  {
 "placeName":
 "IX., Alsergrund",
 "ref":
 "pmb59"}
 ]
}
}, {
 "type":
 "wienerschnitzler",
 "color":
 "#ECDA98",
 "caption":
 "Wiener Schnitzler",
 "idno":
 "https://wienerschnitzler.org/tag.html#1893-11-16",
 "head":
 "Wien",
 "desc":
{"listPlace":
  [
 {
 "placeName":
 "IX., Alsergrund",
 "ref":
 ""}
 ]
}
}] 