{
 "date":
 {
 "when-iso":
 "1893-08-08",
 "written":
 "Dienstag, 8. August 1893"
},
"listEvent":
 [{
 "type":
 "schnitzler-orte",
 "idno":
 "https://pmb.acdh.oeaw.ac.at/entity/50/",
 "head":
 "Wien"
}, {
 "type":
 "schnitzler-orte",
 "idno":
 "https://pmb.acdh.oeaw.ac.at/entity/412/",
 "head":
 "Grillparzerstraße"
}, {
 "type":
 "schnitzler-briefe",
 "idno":
 "https://schnitzler-briefe.acdh.oeaw.ac.at/L02711.html",
 "head":
 "Paul Goldmann an Arthur Schnitzler, 8. 8. 1893",
 "desc":
{"listPerson":
  [
{
 "persName":
 "Paul Goldmann",
 "ref":
 "pmb11485"},
 {
 "persName":
 "Leopold Sonnemann",
 "ref":
 "pmb87771"},
 {
 "persName":
 "Fedor Mamroth",
 "ref":
 "pmb4986"},
 {
 "persName":
 "André Antoine",
 "ref":
 "pmb2211"},
 {
 "persName":
 "Gerhart Hauptmann",
 "ref":
 "pmb11617"},
 {
 "persName":
 "Florentine Galliny",
 "ref":
 "pmb7331"},
 {
 "persName":
 "Hugo von Hofmannsthal",
 "ref":
 "pmb11740"},
 {
 "persName":
 "Theodor Herzl",
 "ref":
 "pmb11673"}],
 "listBibl":
  [
 {
 "title":
 "Frankfurter Zeitung",
 "ref":
 "pmb36344"}
 ,  {
 "title":
 "Anatol",
 "ref":
 "pmb29935"}
 ,  {
 "title":
 "Die Weber. Schauspiel aus den vierziger Jahren",
 "ref":
 "pmb29827"}
 ,  {
 "title":
 "Les Tisserands. Drame en cinq actes, en prose",
 "ref":
 "pmb92910"}
 ,  {
 "title":
 "L'Assomption de Hannele Mattern. Drame de rêve en deux parties",
 "ref":
 "pmb92918"}
 ,  {
 "title":
 "Feuilleton. Literatur [Anatol]",
 "ref":
 "pmb89826"}
 ,  {
 "title":
 "Wiener Abendpost",
 "ref":
 "pmb41264"}
 ,  {
 "title":
 "Anatols Hochzeitsmorgen",
 "ref":
 "pmb30033"}
 ,  {
 "title":
 "Tagebuch",
 "ref":
 "pmb33243"}
 ,  {
 "title":
 "Die Weber",
 "ref":
 "pmb76925"}
 ,  {
 "title":
 "Sterben. Novelle",
 "ref":
 "pmb30117"}
 ],
 "listOrg":
  [
 {
 "orgName":
 "Frankfurter Zeitung",
 "ref":
 "pmb29442"}
 ,  {
 "orgName":
 "Théâtre Libre",
 "ref":
 "pmb88609"}
 ],
 "listPlace":
  [
 {
 "placeName":
 "Paris",
 "ref":
 "pmb182"}
 ,  {
 "placeName":
 "Wien",
 "ref":
 "pmb50"}
 ,  {
 "placeName":
 "rue Richelieu",
 "ref":
 "pmb34187"}
 ,  {
 "placeName":
 "Salzburg",
 "ref":
 "pmb30"}
 ,  {
 "placeName":
 "Hellbrunn",
 "ref":
 "pmb31"}
 ,  {
 "placeName":
 "Berlin",
 "ref":
 "pmb168"}
 ,  {
 "placeName":
 "Deutschland",
 "ref":
 "pmb151"}
 ,  {
 "placeName":
 "Österreich",
 "ref":
 "pmb41240"}
 ]}

}, {
 "type":
 "schnitzler-tagebuch",
 "idno":
 "https://schnitzler-tagebuch.acdh.oeaw.ac.at/entry__1893-08-08.html",
 "head":
 "Tagebuch, 8. August 1893",
 "desc":
{"listPerson":
  [
{
 "persName":
 "Emerich von Bukovics",
 "ref":
 "person_14056"},
 {
 "persName":
 "Oskar Friedrich Eirich",
 "ref":
 "person_14673"},
 {
 "persName":
 "Theodor Entsch",
 "ref":
 "person_14766"},
 {
 "persName":
 "Marie Glümer",
 "ref":
 "person_15485"},
 {
 "persName":
 "Leopold Müller",
 "ref":
 "person_18302"},
 {
 "persName":
 "Felix Salten",
 "ref":
 "person_19542"},
 {
 "persName":
 "Josefine Lydia von Weisswasser",
 "ref":
 "person_21214"}],
 "listBibl":
  [
 {
 "title":
 "Das Märchen. Schauspiel in drei Aufzügen",
 "ref":
 "pmb29823"}
 ],
 "listPlace":
  [
 {
 "placeName":
 "Deutsches Volkstheater",
 "ref":
 "pmb92202"}
 ,  {
 "placeName":
 "Purkersdorf",
 "ref":
 "pmb91552"}
 ]}

}] 
}