[{
 "type":
 "schnitzler-tagebuch",
 "color":
 "#037a33",
 "filename":
 "entry__1893-07-22",
 "caption":
 "Tagebuch",
 "idno":
 "https://schnitzler-tagebuch.acdh.oeaw.ac.at/entry__1893-07-22.html",
 "head":
 "Tagebuch, 22. Juli 1893",
 "desc":
{"listPerson":
  [
{
 "persName":
 "Marie Glümer",
 "ref":
 "person_15485"},
 {
 "persName":
 "Josefine Lydia von Weisswasser",
 "ref":
 "person_21214"}]
}
}, {
 "type":
 "schnitzler-briefe",
 "color":
 "#A63437",
 "filename":
 "L00240",
 "caption":
 "Briefe mit Autorinnen und Autoren",
 "idno":
 "https://schnitzler-briefe.acdh.oeaw.ac.at/L00240.html",
 "head":
 "Arthur Schnitzler an Richard Beer-Hofmann, 22. 7. 1893",
 "desc":
{"listPerson":
  [
{
 "persName":
 "Arthur Schnitzler",
 "ref":
 "pmb2121"},
 {
 "persName":
 "Richard Beer-Hofmann",
 "ref":
 "pmb10863"},
 {
 "persName":
 "Ludwig Bauer",
 "ref":
 "pmb10848"},
 {
 "persName":
 "Richard Beer-Hofmann",
 "ref":
 "pmb10863"},
 {
 "persName":
 "Marianne Benedict",
 "ref":
 "pmb13970"},
 {
 "persName":
 "Markus Benedict",
 "ref":
 "pmb13973"},
 {
 "persName":
 "Bertha Flegmann",
 "ref":
 "pmb16312"},
 {
 "persName":
 "Karoline Gribl",
 "ref":
 "pmb17377"},
 {
 "persName":
 "Felix Salten",
 "ref":
 "pmb2167"},
 {
 "persName":
 "Heinrich Osten",
 "ref":
 "pmb2509"},
 {
 "persName":
 "Josef Jarno",
 "ref":
 "pmb2601"},
 {
 "persName":
 "Grethe Wreden",
 "ref":
 "pmb27355"},
 {
 "persName":
 "Josefine Skura",
 "ref":
 "pmb29193"},
 {
 "persName":
 "Carl Freund",
 "ref":
 "pmb39775"},
 {
 "persName":
 "Henri Murger",
 "ref":
 "pmb8987"},
 {
 "persName":
 "Johann Schnitzler",
 "ref":
 "pmb12695"},
 {
 "persName":
 "Markus Hajek",
 "ref":
 "pmb2284"},
 {
 "persName":
 "?? [Schreibkraft für Arthur Schnitzler]",
 "ref":
 "pmb27711"}],
 "listBibl":
  [
 {
 "title":
 "Abschiedssouper",
 "ref":
 "pmb30005"}
 ,  {
 "title":
 "Das Kind",
 "ref":
 "pmb30437"}
 ,  {
 "title":
 "Der Tod Georgs",
 "ref":
 "pmb31535"}
 ,  {
 "title":
 "Wiener Allgemeine Zeitung",
 "ref":
 "pmb39950"}
 ,  {
 "title":
 "Die Presse",
 "ref":
 "pmb41189"}
 ,  {
 "title":
 "Illustrirtes Wiener Extrablatt",
 "ref":
 "pmb41484"}
 ,  {
 "title":
 "Ischler Wochenblatt",
 "ref":
 "pmb42152"}
 ,  {
 "title":
 "[Abschiedsouper in Ischl]",
 "ref":
 "pmb33440"}
 ,  {
 "title":
 "Ischler Brief",
 "ref":
 "pmb33442"}
 ,  {
 "title":
 "Aus Ischl",
 "ref":
 "pmb41191"}
 ],
 "listPlace":
  [
 {
 "placeName":
 "Bad Ischl",
 "ref":
 "pmb213"}
 ,  {
 "placeName":
 "Salzburg",
 "ref":
 "pmb30"}
 ,  {
 "placeName":
 "Grillparzerstraße",
 "ref":
 "pmb412"}
 ,  {
 "placeName":
 "Tulln an der Donau",
 "ref":
 "pmb41239"}
 ,  {
 "placeName":
 "Schulgasse",
 "ref":
 "pmb41463"}
 ,  {
 "placeName":
 "Wien",
 "ref":
 "pmb50"}
 ,  {
 "placeName":
 "Kahlenberg",
 "ref":
 "pmb574"}
 ,  {
 "placeName":
 "IX., Alsergrund",
 "ref":
 "pmb59"}
 ,  {
 "placeName":
 "Donau",
 "ref":
 "pmb59370"}
 ,  {
 "placeName":
 "Klosterneuburg",
 "ref":
 "pmb865"}
 ,  {
 "placeName":
 "Wohnung und Ordination Johann Schnitzler Burgring 1",
 "ref":
 "pmb168765"}
 ],
 "listOrg":
  [
 {
 "orgName":
 "Berliner Börsen-Courier",
 "ref":
 "pmb29406"}
 ]
}
}, {
 "type":
 "wienerschnitzler",
 "color":
 "#6F5106",
 "caption":
 "Wiener Schnitzler",
 "idno":
 "https://wienerschnitzler.org/tag.html#1893-07-22",
 "head":
 "Wien",
 "desc":
{"listPlace":
  [
 {
 "placeName":
 "I., Innere Stadt",
 "ref":
 ""}
 ]
}
}] 