[{
 "type":
 "schnitzler-tagebuch",
 "color":
 "#037a33",
 "filename":
 "entry__1893-06-04",
 "caption":
 "Tagebuch",
 "idno":
 "https://schnitzler-tagebuch.acdh.oeaw.ac.at/entry__1893-06-04.html",
 "head":
 "Tagebuch, 4. Juni 1893",
 "desc":
{"listPerson":
  [
{
 "persName":
 "Gustav Schwarzkopf",
 "ref":
 "person_19986"},
 {
 "persName":
 "Max Schwarzkopf",
 "ref":
 "person_19987"},
 {
 "persName":
 "Hugo von Hofmannsthal",
 "ref":
 "person_16293"},
 {
 "persName":
 "Rudolf Schwarzkopf",
 "ref":
 "person_19988"}],
 "listPlace":
  [
 {
 "placeName":
 "Brühl",
 "ref":
 "pmb44413"}
 ,  {
 "placeName":
 "Brunn am Gebirge",
 "ref":
 "pmb40201"}
 ]
}
}, {
 "type":
 "schnitzler-briefe",
 "color":
 "#A63437",
 "filename":
 "L00216",
 "caption":
 "Briefe mit Autorinnen und Autoren",
 "idno":
 "https://schnitzler-briefe.acdh.oeaw.ac.at/L00216.html",
 "head":
 "Fedor Mamroth an Arthur Schnitzler, 4. 6. 1893",
 "desc":
{"listPerson":
  [
{
 "persName":
 "Fedor Mamroth",
 "ref":
 "pmb4986"}],
 "listBibl":
  [
 {
 "title":
 "Sterben. Novelle",
 "ref":
 "pmb30117"}
 ],
 "listOrg":
  [
 {
 "orgName":
 "Frankfurter Zeitung",
 "ref":
 "pmb29442"}
 ],
 "listPlace":
  [
 {
 "placeName":
 "Frankfurt am Main",
 "ref":
 "pmb146"}
 ,  {
 "placeName":
 "Wien",
 "ref":
 "pmb50"}
 ]
}
}, {
 "type":
 "schnitzler-briefe",
 "color":
 "#A63437",
 "filename":
 "L02710",
 "caption":
 "Briefe mit Autorinnen und Autoren",
 "idno":
 "https://schnitzler-briefe.acdh.oeaw.ac.at/L02710.html",
 "head":
 "Paul Goldmann, Fedor Mamroth an Arthur Schnitzler, 4. 6. 1893",
 "desc":
{"listPerson":
  [
{
 "persName":
 "Paul Goldmann",
 "ref":
 "pmb11485"},
 {
 "persName":
 "Fedor Mamroth",
 "ref":
 "pmb4986"},
 {
 "persName":
 "Samuel Fischer",
 "ref":
 "pmb11324"},
 {
 "persName":
 "Wilhelm Friedrich",
 "ref":
 "pmb89803"},
 {
 "persName":
 "Salo Schottlaender",
 "ref":
 "pmb89393"},
 {
 "persName":
 "Edgar Pierson",
 "ref":
 "pmb2595"},
 {
 "persName":
 "Carl Freund",
 "ref":
 "pmb39775"},
 {
 "persName":
 "Max Jeckel",
 "ref":
 "pmb89816"}],
 "listBibl":
  [
 {
 "title":
 "Frankfurter Zeitung",
 "ref":
 "pmb36344"}
 ],
 "listOrg":
  [
 {
 "orgName":
 "Frankfurter Zeitung",
 "ref":
 "pmb29442"}
 ,  {
 "orgName":
 "Verlag Wilhelm Friedrich",
 "ref":
 "pmb89810"}
 ,  {
 "orgName":
 "S. Schottländer",
 "ref":
 "pmb89394"}
 ,  {
 "orgName":
 "E. Pierson’s Verlag",
 "ref":
 "pmb29771"}
 ,  {
 "orgName":
 "S. Fischer Verlag",
 "ref":
 "pmb29639"}
 ,  {
 "orgName":
 "Freund &amp; Jeckel",
 "ref":
 "pmb39772"}
 ],
 "listPlace":
  [
 {
 "placeName":
 "Frankfurt am Main",
 "ref":
 "pmb146"}
 ,  {
 "placeName":
 "Wien",
 "ref":
 "pmb50"}
 ,  {
 "placeName":
 "Leipzig",
 "ref":
 "pmb864"}
 ,  {
 "placeName":
 "Breslau",
 "ref":
 "pmb677"}
 ,  {
 "placeName":
 "Dresden",
 "ref":
 "pmb866"}
 ,  {
 "placeName":
 "Berlin",
 "ref":
 "pmb168"}
 ,  {
 "placeName":
 "Köthenerstraße",
 "ref":
 "pmb359"}
 ,  {
 "placeName":
 "Altonaer Straße",
 "ref":
 "pmb89813"}
 ]
}
}, {
 "type":
 "wienerschnitzler",
 "color":
 "#ECDA98",
 "caption":
 "Wiener Schnitzler",
 "head":
 "Wien",
 "desc":
{"listPlace":
  [
 {
 "placeName":
 "I., Innere Stadt",
 "ref":
 ""}
 ]
}
}, {
 "type":
 "wienerschnitzler",
 "color":
 "#ECDA98",
 "caption":
 "Wiener Schnitzler",
 "head":
 "Brühl"
}, {
 "type":
 "wienerschnitzler",
 "color":
 "#ECDA98",
 "caption":
 "Wiener Schnitzler",
 "head":
 "Brunn am Gebirge"
}, {
 "type":
 "wienerschnitzler",
 "color":
 "#ECDA98",
 "caption":
 "Wiener Schnitzler",
 "head":
 "Mödling",
 "desc":
{"listPlace":
  [
 {
 "placeName":
 "Zum goldenen Stern",
 "ref":
 ""}
 ]
}
}] 