[{
 "type":
 "schnitzler-tagebuch",
 "color":
 "#037a33",
 "filename":
 "entry__1893-03-05",
 "caption":
 "Tagebuch",
 "idno":
 "https://schnitzler-tagebuch.acdh.oeaw.ac.at/entry__1893-03-05.html",
 "head":
 "Tagebuch, 5. März 1893",
 "desc":
{"listPerson":
  [
{
 "persName":
 "Moritz Rosenthal",
 "ref":
 "person_19394"},
 {
 "persName":
 "Sophie Link",
 "ref":
 "person_17574"}],
 "listPlace":
  [
 {
 "placeName":
 "Ika",
 "ref":
 "pmb90921"}
 ,  {
 "placeName":
 "Volosko",
 "ref":
 "pmb40091"}
 ]
}
}, {
 "type":
 "schnitzler-briefe",
 "color":
 "#A63437",
 "filename":
 "L00185",
 "caption":
 "Briefe mit Autorinnen und Autoren",
 "idno":
 "https://schnitzler-briefe.acdh.oeaw.ac.at/L00185.html",
 "head":
 "Arthur Schnitzler an Richard Beer-Hofmann, 5. 3. 1893",
 "desc":
{"listPerson":
  [
{
 "persName":
 "Richard Beer-Hofmann",
 "ref":
 "pmb10863"},
 {
 "persName":
 "Hugo von Hofmannsthal",
 "ref":
 "pmb11740"},
 {
 "persName":
 "Gustav Schwarzkopf",
 "ref":
 "pmb12740"},
 {
 "persName":
 "Sophie Link",
 "ref":
 "pmb20489"},
 {
 "persName":
 "Felix Salten",
 "ref":
 "pmb2167"},
 {
 "persName":
 "Marie Rosenthal",
 "ref":
 "pmb23603"},
 {
 "persName":
 "Moriz Rosenthal",
 "ref":
 "pmb23605"},
 {
 "persName":
 "Rudolf Schwarzkopf",
 "ref":
 "pmb24651"},
 {
 "persName":
 "Harry Löwenstein",
 "ref":
 "pmb40081"}],
 "listBibl":
  [
 {
 "title":
 "Familie",
 "ref":
 "pmb30195"}
 ,  {
 "title":
 "Das Kind",
 "ref":
 "pmb30437"}
 ,  {
 "title":
 "Die kleine Komödie",
 "ref":
 "pmb31975"}
 ],
 "listPlace":
  [
 {
 "placeName":
 "Berlin",
 "ref":
 "pmb168"}
 ,  {
 "placeName":
 "Wollzeile",
 "ref":
 "pmb338"}
 ,  {
 "placeName":
 "Opatija",
 "ref":
 "pmb38096"}
 ,  {
 "placeName":
 "Lovran",
 "ref":
 "pmb40087"}
 ,  {
 "placeName":
 "Volosko",
 "ref":
 "pmb40091"}
 ,  {
 "placeName":
 "Wien",
 "ref":
 "pmb50"}
 ,  {
 "placeName":
 "I., Innere Stadt",
 "ref":
 "pmb51"}
 ,  {
 "placeName":
 "Pension Quisisana",
 "ref":
 "pmb756"}
 ]
}
}, {
 "type":
 "schnitzler-briefe",
 "color":
 "#A63437",
 "filename":
 "L00186",
 "caption":
 "Briefe mit Autorinnen und Autoren",
 "idno":
 "https://schnitzler-briefe.acdh.oeaw.ac.at/L00186.html",
 "head":
 "Fedor Mamroth an Arthur Schnitzler, 5. 3. 1893",
 "desc":
{"listPerson":
  [
{
 "persName":
 "Leo N. von Tolstoi",
 "ref":
 "pmb3739"},
 {
 "persName":
 "Fedor Mamroth",
 "ref":
 "pmb4986"}],
 "listBibl":
  [
 {
 "title":
 "Sterben. Novelle",
 "ref":
 "pmb30117"}
 ,  {
 "title":
 "Krieg und Frieden",
 "ref":
 "pmb34996"}
 ],
 "listOrg":
  [
 {
 "orgName":
 "Frankfurter Zeitung",
 "ref":
 "pmb29442"}
 ],
 "listPlace":
  [
 {
 "placeName":
 "Frankfurt am Main",
 "ref":
 "pmb146"}
 ,  {
 "placeName":
 "Deutschland",
 "ref":
 "pmb151"}
 ,  {
 "placeName":
 "Österreich",
 "ref":
 "pmb41240"}
 ,  {
 "placeName":
 "Wien",
 "ref":
 "pmb50"}
 ]
}
}, {
 "type":
 "wienerschnitzler",
 "color":
 "#6F5106",
 "caption":
 "Wiener Schnitzler",
 "idno":
 "https://wienerschnitzler.org/tag.html#1893-03-05",
 "head":
 "Opatija",
 "desc":
{"listPlace":
  [
 {
 "placeName":
 "Pension Quisisana",
 "ref":
 ""}
 ]
}
}, {
 "type":
 "wienerschnitzler",
 "color":
 "#6F5106",
 "caption":
 "Wiener Schnitzler",
 "idno":
 "https://wienerschnitzler.org/tag.html#1893-03-05",
 "head":
 "Ika"
}, {
 "type":
 "wienerschnitzler",
 "color":
 "#6F5106",
 "caption":
 "Wiener Schnitzler",
 "idno":
 "https://wienerschnitzler.org/tag.html#1893-03-05",
 "head":
 "Volosko"
}] 