[{
 "type":
 "schnitzler-tagebuch",
 "color":
 "#037a33",
 "filename":
 "entry__1893-10-24",
 "caption":
 "Tagebuch",
 "idno":
 "https://schnitzler-tagebuch.acdh.oeaw.ac.at/entry__1893-10-24.html",
 "head":
 "Tagebuch, 24. Oktober 1893",
 "desc":
{"listPerson":
  [
{
 "persName":
 "Josef Redlich",
 "ref":
 "person_19096"},
 {
 "persName":
 "Felix Salten",
 "ref":
 "person_19542"},
 {
 "persName":
 "Adele Sandrock",
 "ref":
 "person_19564"},
 {
 "persName":
 "Eugenie B.",
 "ref":
 "person_13333"}],
 "listBibl":
  [
 {
 "title":
 "Liebelei. Schauspiel in drei Akten",
 "ref":
 "pmb29917"}
 ,  {
 "title":
 "Das Märchen. Schauspiel in drei Aufzügen",
 "ref":
 "pmb29823"}
 ],
 "listPlace":
  [
 {
 "placeName":
 "Deutsches Volkstheater",
 "ref":
 "pmb92202"}
 ,  {
 "placeName":
 "IV., Wieden",
 "ref":
 "pmb54"}
 ,  {
 "placeName":
 "Paulanergasse",
 "ref":
 "pmb92438"}
 ]
}
}, {
 "type":
 "schnitzler-briefe",
 "color":
 "#A63437",
 "filename":
 "L03130",
 "caption":
 "Briefe mit Autorinnen und Autoren",
 "idno":
 "https://schnitzler-briefe.acdh.oeaw.ac.at/L03130.html",
 "head":
 "Felix Salten an Arthur Schnitzler, [24?. 10. 1893]",
 "desc":
{"listPerson":
  [
{
 "persName":
 "Jens Peter Jacobsen",
 "ref":
 "pmb11809"},
 {
 "persName":
 "W. Bogdanovits",
 "ref":
 "pmb144609"},
 {
 "persName":
 "Felix Salten",
 "ref":
 "pmb2167"},
 {
 "persName":
 "Vladimir Galaktionovič Korolenko",
 "ref":
 "pmb65098"}],
 "listOrg":
  [
 {
 "orgName":
 "»Phönix« Versicherung",
 "ref":
 "pmb142908"}
 ],
 "listPlace":
  [
 {
 "placeName":
 "Hotel Erzherzog Karl [Wien]",
 "ref":
 "pmb144606"}
 ,  {
 "placeName":
 "Kärntnerring 12/Bösendorferstraße 11",
 "ref":
 "pmb167805"}
 ,  {
 "placeName":
 "Währinger Straße",
 "ref":
 "pmb312"}
 ,  {
 "placeName":
 "Kärntner Straße",
 "ref":
 "pmb40387"}
 ,  {
 "placeName":
 "Wien",
 "ref":
 "pmb50"}
 ]
}
}, {
 "type":
 "schnitzler-briefe",
 "color":
 "#A63437",
 "filename":
 "L00275",
 "caption":
 "Briefe mit Autorinnen und Autoren",
 "idno":
 "https://schnitzler-briefe.acdh.oeaw.ac.at/L00275.html",
 "head":
 "Richard Beer-Hofmann an Arthur Schnitzler, [24?. 10. 1893]",
 "desc":
{"listPerson":
  [
{
 "persName":
 "Richard Beer-Hofmann",
 "ref":
 "pmb10863"},
 {
 "persName":
 "Julius Meixner",
 "ref":
 "pmb4127"}],
 "listBibl":
  [
 {
 "title":
 "Das Märchen. Schauspiel in drei Aufzügen",
 "ref":
 "pmb29823"}
 ],
 "listPlace":
  [
 {
 "placeName":
 "Wien",
 "ref":
 "pmb50"}
 ]
}
}, {
 "type":
 "wienerschnitzler",
 "color":
 "#ECDA98",
 "caption":
 "Wiener Schnitzler",
 "idno":
 "https://wienerschnitzler.org/tag.html#1893-10-24",
 "head":
 "Wien",
 "desc":
{"listPlace":
  [
 {
 "placeName":
 "I., Innere Stadt",
 "ref":
 ""}
 ,  {
 "placeName":
 "IX., Alsergrund",
 "ref":
 ""}
 ,  {
 "placeName":
 "IV., Wieden",
 "ref":
 ""}
 ]
}
}] 