[{
 "type":
 "schnitzler-tagebuch",
 "color":
 "#037a33",
 "filename":
 "entry__1893-06-29",
 "caption":
 "Tagebuch",
 "idno":
 "https://schnitzler-tagebuch.acdh.oeaw.ac.at/entry__1893-06-29.html",
 "head":
 "Tagebuch, 29. Juni 1893",
 "desc":
{"listPerson":
  [
{
 "persName":
 "Franz Joseph I. von Österreich-Ungarn",
 "ref":
 "person_15150"},
 {
 "persName":
 "Lucie Freisinger",
 "ref":
 "person_15161"},
 {
 "persName":
 "Louise Schnitzler",
 "ref":
 "person_19831"},
 {
 "persName":
 "Gustav Schwarzkopf",
 "ref":
 "person_19986"},
 {
 "persName":
 "Felix Viktor Wachtel",
 "ref":
 "person_21006"},
 {
 "persName":
 "Winterstein",
 "ref":
 "person_21386"},
 {
 "persName":
 "Johann Schnitzler",
 "ref":
 "person_19824"}],
 "listPlace":
  [
 {
 "placeName":
 "Franzensbad",
 "ref":
 "pmb390"}
 ,  {
 "placeName":
 "Deutsches Volkstheater",
 "ref":
 "pmb92202"}
 ]
}
}, {
 "type":
 "schnitzler-briefe",
 "color":
 "#A63437",
 "filename":
 "L03831",
 "caption":
 "Briefe mit Autorinnen und Autoren",
 "idno":
 "https://schnitzler-briefe.acdh.oeaw.ac.at/L03831.html",
 "head":
 "Theodor Herzl an Arthur Schnitzler, 29. 6. 1893",
 "desc":
{"listPerson":
  [
{
 "persName":
 "Theodor Herzl",
 "ref":
 "pmb11673"},
 {
 "persName":
 "Arthur Schnitzler",
 "ref":
 "pmb2121"},
 {
 "persName":
 "Theodor Herzl",
 "ref":
 "pmb11673"},
 {
 "persName":
 "Heinrich Schnitzler",
 "ref":
 "pmb12692"},
 {
 "persName":
 "Paul Marx",
 "ref":
 "pmb21647"},
 {
 "persName":
 "Olga Schnitzler",
 "ref":
 "pmb2173"},
 {
 "persName":
 "Ambros Eberle",
 "ref":
 "pmb296534"},
 {
 "persName":
 "Julie Herzl",
 "ref":
 "pmb2812"},
 {
 "persName":
 "?? [Arzt in Brunnen]",
 "ref":
 "pmb298247"},
 {
 "persName":
 "Margarethe Neumann",
 "ref":
 "pmb18233"},
 {
 "persName":
 "Hans Herzl",
 "ref":
 "pmb18230"},
 {
 "persName":
 "Pauline Hüft",
 "ref":
 "pmb296738"}],
 "listPlace":
  [
 {
 "placeName":
 "Morschach",
 "ref":
 "pmb49170"}
 ,  {
 "placeName":
 "Wien",
 "ref":
 "pmb50"}
 ,  {
 "placeName":
 "Hotel &amp; Pension Frohnalp",
 "ref":
 "pmb296532"}
 ,  {
 "placeName":
 "Vierwaldstättersee",
 "ref":
 "pmb39755"}
 ,  {
 "placeName":
 "Hotel Axenstein",
 "ref":
 "pmb53636"}
 ,  {
 "placeName":
 "Axenstein",
 "ref":
 "pmb53227"}
 ,  {
 "placeName":
 "Österreich-Ungarn",
 "ref":
 "pmb687"}
 ,  {
 "placeName":
 "Brunnen",
 "ref":
 "pmb53632"}
 ],
 "listOrg":
  [
 {
 "orgName":
 "Landesmuseum Burgenland",
 "ref":
 "pmb298922"}
 ]
}
}, {
 "type":
 "wienerschnitzler",
 "color":
 "#6F5106",
 "caption":
 "Wiener Schnitzler",
 "idno":
 "https://wienerschnitzler.org/tag.html#1893-06-29",
 "head":
 "Wien",
 "desc":
{"listPlace":
  [
 {
 "placeName":
 "I., Innere Stadt",
 "ref":
 ""}
 ]
}
}, {
 "type":
 "schnitzler-traeume",
 "subtype":
 "#ISBN978-3-8353-1029-2",
 "color":
 "#1193CC",
 "caption":
 "Traumtagebuch",
 "head":
 "Traum vom 29. Juni 1893",
 "source":
 "Arthur Schnitzler: Träume. Das Traumtagebuch 1875–1931. Herausgegeben von Peter Michael Braunwarth und Leo A. Lensing. Göttingen: Wallstein 2012 (Bibliothek Janowitz, Bd. 20)"
}] 