[{
 "type":
 "schnitzler-tagebuch",
 "color":
 "#037a33",
 "filename":
 "entry__1893-11-14",
 "caption":
 "Tagebuch",
 "idno":
 "https://schnitzler-tagebuch.acdh.oeaw.ac.at/entry__1893-11-14.html",
 "head":
 "Tagebuch, 14. November 1893",
 "desc":
{"listPerson":
  [
{
 "persName":
 "Felix Salten",
 "ref":
 "person_19542"},
 {
 "persName":
 "Josefine Lydia von Weisswasser",
 "ref":
 "person_21214"}]
}
}, {
 "type":
 "schnitzler-briefe",
 "color":
 "#A63437",
 "filename":
 "L00282",
 "caption":
 "Briefe mit Autorinnen und Autoren",
 "idno":
 "https://schnitzler-briefe.acdh.oeaw.ac.at/L00282.html",
 "head":
 "Arthur Schnitzler an Wilhelm Bölsche, [12.? 11. 1893]",
 "desc":
{"listPerson":
  [
{
 "persName":
 "Wilhelm Bölsche",
 "ref":
 "pmb11061"},
 {
 "persName":
 "Samuel Fischer",
 "ref":
 "pmb11324"}],
 "listBibl":
  [
 {
 "title":
 "Das Märchen. Schauspiel in drei Aufzügen",
 "ref":
 "pmb29823"}
 ],
 "listOrg":
  [
 {
 "orgName":
 "Neue Rundschau, Neue Deutsche Rundschau, Freie Bühne",
 "ref":
 "pmb29212"}
 ],
 "listPlace":
  [
 {
 "placeName":
 "Wien",
 "ref":
 "pmb50"}
 ,  {
 "placeName":
 "Berlin",
 "ref":
 "pmb168"}
 ,  {
 "placeName":
 "Frankgasse 1",
 "ref":
 "pmb168934"}
 ,  {
 "placeName":
 "Friedrichshagen",
 "ref":
 "pmb1275"}
 ,  {
 "placeName":
 "Zürich",
 "ref":
 "pmb484"}
 ,  {
 "placeName":
 "Volkstheater",
 "ref":
 "pmb20"}
 ]
}
}, {
 "type":
 "URL",
 "subtype":
 "wienerschnitzler",
 "head":
 "Wien",
 "desc":
{"listPlace":
  [
 {
 "placeName":
 "I., Innere Stadt",
 "ref":
 ""}
 ]
}
}, {
 "type":
 "schnitzler-events",
 "color":
 "#9BC53D",
 "filename":
 "entity/208629/",
 "caption":
 "Ereignisse in der PMB",
 "idno":
 "https://pmb.acdh.oeaw.ac.at/entity/208629/",
 "head":
 "Erstes Rosé-Quartett, 14.11.1893",
 "desc":
{"listOrg":
  [
 {
 "orgName":
 "Rosé-Quartett",
 "ref":
 ""}
 ],
 "listPerson":
  [
{
 "persName":
 "Anton Rückauf",
 "ref":
 ""},
 {
 "persName":
 "Franz Bartolomey",
 "ref":
 ""},
 {
 "persName":
 "Arthur Schnitzler",
 "ref":
 ""}],
 "listPlace":
  [
 {
 "placeName":
 "Bösendorfer-Saal",
 "ref":
 ""}
 ]
}
}, {
 "type":
 "schnitzler-events",
 "color":
 "#9BC53D",
 "filename":
 "entity/184470/",
 "caption":
 "Ereignisse in der PMB",
 "idno":
 "https://pmb.acdh.oeaw.ac.at/entity/184470/",
 "head":
 "Vereinstreffen Saubermänner, 14.11.1893",
 "desc":
{"listOrg":
  [
 {
 "orgName":
 "Die Saubermänner. Tischgesellschaft",
 "ref":
 ""}
 ],
 "listPerson":
  [
{
 "persName":
 "Arthur Schnitzler",
 "ref":
 ""}],
 "listPlace":
  [
 {
 "placeName":
 "Hotel Bristol Wien",
 "ref":
 ""}
 ]
}
}] 