[{
 "type":
 "schnitzler-tagebuch",
 "color":
 "#037a33",
 "filename":
 "entry__1893-06-13",
 "caption":
 "Tagebuch",
 "idno":
 "https://schnitzler-tagebuch.acdh.oeaw.ac.at/entry__1893-06-13.html",
 "head":
 "Tagebuch, 13. Juni 1893"
}, {
 "type":
 "schnitzler-briefe",
 "color":
 "#A63437",
 "filename":
 "L03944",
 "caption":
 "Briefe mit Autorinnen und Autoren",
 "idno":
 "https://schnitzler-briefe.acdh.oeaw.ac.at/L03944.html",
 "head":
 "Arthur Schnitzler an Theodor Herzl, 13. 6. 1893",
 "desc":
{"listPerson":
  [
{
 "persName":
 "Arthur Schnitzler",
 "ref":
 "pmb2121"},
 {
 "persName":
 "Theodor Herzl",
 "ref":
 "pmb11673"},
 {
 "persName":
 "Theodor Herzl",
 "ref":
 "pmb11673"},
 {
 "persName":
 "Ludwig Schlesinger",
 "ref":
 "pmb299034"},
 {
 "persName":
 "Margarethe Neumann",
 "ref":
 "pmb18233"},
 {
 "persName":
 "Johann Schnitzler",
 "ref":
 "pmb12695"}],
 "listBibl":
  [
 {
 "title":
 "Das Märchen. Schauspiel in drei Aufzügen",
 "ref":
 "pmb29823"}
 ,  {
 "title":
 "Die kleine Komödie",
 "ref":
 "pmb31975"}
 ,  {
 "title":
 "Der Flüchtling. Lustspiel in einem Aufzug",
 "ref":
 "pmb63073"}
 ],
 "listPlace":
  [
 {
 "placeName":
 "Wien",
 "ref":
 "pmb50"}
 ,  {
 "placeName":
 "Paris",
 "ref":
 "pmb182"}
 ,  {
 "placeName":
 "Bruck an der Leitha",
 "ref":
 "pmb299026"}
 ,  {
 "placeName":
 "Rathaus [Wien]",
 "ref":
 "pmb373"}
 ,  {
 "placeName":
 "Rathauspark",
 "ref":
 "pmb91568"}
 ,  {
 "placeName":
 "Berlin",
 "ref":
 "pmb168"}
 ,  {
 "placeName":
 "Prag",
 "ref":
 "pmb652"}
 ,  {
 "placeName":
 "Wohnung und Ordination Arthur Schnitzler Grillparzerstraße 7/3. Stock",
 "ref":
 "pmb167782"}
 ,  {
 "placeName":
 "Café Reichsrath (Inh. Karl Auböck)",
 "ref":
 "pmb50178"}
 ],
 "listOrg":
  [
 {
 "orgName":
 "Internationale klinische Rundschau",
 "ref":
 "pmb39399"}
 ]
}
}, {
 "type":
 "schnitzler-briefe",
 "color":
 "#A63437",
 "filename":
 "L02954",
 "caption":
 "Briefe mit Autorinnen und Autoren",
 "idno":
 "https://schnitzler-briefe.acdh.oeaw.ac.at/L02954.html",
 "head":
 "Arthur Schnitzler an Felix Salten, [13. 6. 1893?]",
 "desc":
{"listPerson":
  [
{
 "persName":
 "Arthur Schnitzler",
 "ref":
 "pmb2121"},
 {
 "persName":
 "Felix Salten",
 "ref":
 "pmb2167"},
 {
 "persName":
 "Felix Salten",
 "ref":
 "pmb2167"},
 {
 "persName":
 "Richard Beer-Hofmann",
 "ref":
 "pmb10863"},
 {
 "persName":
 "Ernst von Dohnányi",
 "ref":
 "pmb11165"}],
 "listBibl":
  [
 {
 "title":
 "Familie",
 "ref":
 "pmb30195"}
 ,  {
 "title":
 "Der Schleier der Pierrette. Pantomime in drei Bildern",
 "ref":
 "pmb30215"}
 ],
 "listPlace":
  [
 {
 "placeName":
 "Wien",
 "ref":
 "pmb50"}
 ,  {
 "placeName":
 "Kärntnerring 12/Bösendorferstraße 11",
 "ref":
 "pmb167805"}
 ]
}
}, {
 "type":
 "wienerschnitzler",
 "color":
 "#6F5106",
 "caption":
 "Wiener Schnitzler",
 "idno":
 "https://wienerschnitzler.org/tag.html#1893-06-13",
 "head":
 "Wien",
 "desc":
{"listPlace":
  [
 {
 "placeName":
 "I., Innere Stadt",
 "ref":
 ""}
 ]
}
}] 