[{
 "type":
 "schnitzler-tagebuch",
 "color":
 "#037a33",
 "filename":
 "entry__1894-06-04",
 "caption":
 "Tagebuch",
 "idno":
 "https://schnitzler-tagebuch.acdh.oeaw.ac.at/entry__1894-06-04.html",
 "head":
 "Tagebuch, 4. Juni 1894",
 "desc":
{"listPerson":
  [
{
 "persName":
 "Michael Georg Conrad",
 "ref":
 "person_14265"}],
 "listPlace":
  [
 {
 "placeName":
 "München",
 "ref":
 "pmb45258"}
 ]
}
}, {
 "type":
 "URL",
 "subtype":
 "wienerschnitzler",
 "head":
 "München",
 "desc":
{"listPlace":
  [
 {
 "placeName":
 "Alte Pinakothek",
 "ref":
 ""}
 ,  {
 "placeName":
 "Ratskeller München",
 "ref":
 ""}
 ,  {
 "placeName":
 "Café Luitpold",
 "ref":
 ""}
 ,  {
 "placeName":
 "Staatstheater am Gärtnerplatz",
 "ref":
 ""}
 ]
}
}, {
 "type":
 "schnitzler-bahr",
 "color":
 "#639FF9",
 "filename":
 "L041533",
 "caption":
 "Schnitzler/Bahr",
 "idno":
 "https://schnitzler-bahr.acdh.oeaw.ac.at/L041533.html",
 "head":
 "Schnitzler an Sandrock, [4.] 6. 1894",
 "desc":
{"listPerson":
  [
{
 "persName":
 "Adele Sandrock",
 "ref":
 "pmb12618"},
 {
 "persName":
 "Hermann Bahr",
 "ref":
 "pmb10815"},
 {
 "persName":
 "Richard Beer-Hofmann",
 "ref":
 "pmb10863"},
 {
 "persName":
 "Andreas Dippel",
 "ref":
 "pmb4551"},
 {
 "persName":
 "Michael Georg Conrad",
 "ref":
 "pmb11098"}],
 "listBibl":
  [
 {
 "title":
 "Lohengrin",
 "ref":
 "pmb30823"}
 ],
 "listPlace":
  [
 {
 "placeName":
 "München",
 "ref":
 "pmb45258"}
 ,  {
 "placeName":
 "Wien",
 "ref":
 "pmb50"}
 ,  {
 "placeName":
 "Salzburg",
 "ref":
 "pmb30"}
 ,  {
 "placeName":
 "Café Wittelsbach",
 "ref":
 "pmb654"}
 ,  {
 "placeName":
 "Alte Pinakothek",
 "ref":
 "pmb511"}
 ,  {
 "placeName":
 "Grodemange",
 "ref":
 "pmb676"}
 ,  {
 "placeName":
 "Café Opera",
 "ref":
 "pmb689"}
 ]
}
}, {
 "type":
 "schnitzler-events",
 "color":
 "#9BC53D",
 "filename":
 "entity/208675/",
 "caption":
 "Ereignisse in der PMB",
 "idno":
 "https://pmb.acdh.oeaw.ac.at/entity/208675/",
 "head":
 "Aufführung von Jugend. Ein Liebesdrama, 4.6.1894",
 "desc":
{"listOrg":
  [
 {
 "orgName":
 "Staatstheater am Gärtnerplatz",
 "ref":
 ""}
 ],
 "listBibl":
  [
 {
 "title":
 "Jugend. Ein Liebesdrama",
 "ref":
 ""}
 ],
 "listPerson":
  [
{
 "persName":
 "Arthur Schnitzler",
 "ref":
 ""}],
 "listPlace":
  [
 {
 "placeName":
 "Staatstheater am Gärtnerplatz",
 "ref":
 ""}
 ]
}
}, {
 "type":
 "schnitzler-cmif",
 "subtype":
 "#g21edf0a-7af3-4163-813b-7d55aaaf2eba",
 "color":
 "#654321",
 "caption":
 "Gedruckte Briefwechsel",
 "head":
 "Arthur Schnitzler an Adele Sandrock, 4.6.1894",
 "source":
 "Renate Wagner (Hg.): Dilly. Geschichte einer Liebe in Briefen, Bildern und Dokumenten. Wien/München: Amalthea 1975."
}, {
 "type":
 "schnitzler-cmif",
 "subtype":
 "#g21edf0a-7af3-4163-813b-7d55aaaf2eba",
 "color":
 "#654321",
 "caption":
 "Gedruckte Briefwechsel",
 "head":
 "Adele Sandrock an Arthur Schnitzler, 4.6.1894",
 "source":
 "Renate Wagner (Hg.): Dilly. Geschichte einer Liebe in Briefen, Bildern und Dokumenten. Wien/München: Amalthea 1975."
}, {
 "type":
 "schnitzler-cmif",
 "subtype":
 "#hbas_0a380dfe-61d4-4b9e-8641-01eba8e50777",
 "color":
 "#654321",
 "caption":
 "Gedruckte Briefwechsel",
 "head":
 "Arthur Schnitzler an Adele Sandrock, 4.6.1894",
 "source":
 "Hermann Bahr, Arthur Schnitzler. Briefwechsel, Aufzeichnungen, Dokumente 1891–1931. Herausgegeben von Kurt Ifkovits, Martin Anton Müller. Göttingen: Wallstein Verlag 2018"
}] 