[{
 "type":
 "schnitzler-orte",
 "color":
 "#045344",
 "caption":
 "Aufenthaltsorte",
 "idno":
 "https://pmb.acdh.oeaw.ac.at/entity/50/",
 "head":
 "Wien"
}, {
 "type":
 "schnitzler-briefe",
 "color":
 "#A63437",
 "caption":
 "Briefe mit Autorinnen und Autoren",
 "idno":
 "https://schnitzler-briefe.acdh.oeaw.ac.at/L00297.html",
 "head":
 "Karl Kraus, Arthur Schnitzler, Richard Beer-Hofmann, Hugo von Hofmannsthal an Richard Dehmel, 10. 2. 1894",
 "desc":
{"listPerson":
  [
{
 "persName":
 "Karl Kraus",
 "ref":
 "pmb11988"},
 {
 "persName":
 "Richard Beer-Hofmann",
 "ref":
 "pmb10863"},
 {
 "persName":
 "Hugo von Hofmannsthal",
 "ref":
 "pmb11740"},
 {
 "persName":
 "Richard Dehmel",
 "ref":
 "pmb11148"},
 {
 "persName":
 "Detlev von Liliencron",
 "ref":
 "pmb12071"},
 {
 "persName":
 "Otto Julius Bierbaum",
 "ref":
 "pmb10928"},
 {
 "persName":
 "Johannes Schlaf",
 "ref":
 "pmb12664"},
 {
 "persName":
 "Paul Scheerbart",
 "ref":
 "pmb5666"},
 {
 "persName":
 "Max Halbe",
 "ref":
 "pmb11565"}],
 "listBibl":
  [
 {
 "title":
 "Novellen",
 "ref":
 "pmb32832"}
 ],
 "listOrg":
  [
 {
 "orgName":
 "Freund &amp; Jeckel",
 "ref":
 "pmb39772"}
 ],
 "listPlace":
  [
 {
 "placeName":
 "I., Innere Stadt",
 "ref":
 "pmb51"}
 ,  {
 "placeName":
 "Berlin-Pankow",
 "ref":
 "pmb17871"}
 ,  {
 "placeName":
 "Wien",
 "ref":
 "pmb50"}
 ,  {
 "placeName":
 "Mahlerstraße",
 "ref":
 "pmb1178"}
 ,  {
 "placeName":
 "Parkstraße",
 "ref":
 "pmb43459"}
 ,  {
 "placeName":
 "Café Central",
 "ref":
 "pmb262"}
 ,  {
 "placeName":
 "Café Griensteidl",
 "ref":
 "pmb34"}
 ,  {
 "placeName":
 "Berlin",
 "ref":
 "pmb168"}
 ]
}
}, {
 "type":
 "schnitzler-tagebuch",
 "color":
 "#037a33",
 "caption":
 "Tagebuch",
 "idno":
 "https://schnitzler-tagebuch.acdh.oeaw.ac.at/entry__1894-02-10.html",
 "head":
 "Tagebuch, 10. Februar 1894",
 "desc":
{"listPerson":
  [
{
 "persName":
 "Richard Beer-Hofmann",
 "ref":
 "person_13551"},
 {
 "persName":
 "Hugo von Hofmannsthal",
 "ref":
 "person_16293"}],
 "listBibl":
  [
 {
 "title":
 "Platonische Liebe",
 "ref":
 "pmb35903"}
 ]
}
}] 