[{
 "type":
 "schnitzler-tagebuch",
 "color":
 "#037a33",
 "filename":
 "entry__1894-10-07",
 "caption":
 "Tagebuch",
 "idno":
 "https://schnitzler-tagebuch.acdh.oeaw.ac.at/entry__1894-10-07.html",
 "head":
 "Tagebuch, 7. Oktober 1894",
 "desc":
{"listPerson":
  [
{
 "persName":
 "Hugo Gerlach",
 "ref":
 "person_15400"},
 {
 "persName":
 "Olga von Golovin",
 "ref":
 "person_15558"},
 {
 "persName":
 "Karl Kraus",
 "ref":
 "person_17108"},
 {
 "persName":
 "Adele Sandrock",
 "ref":
 "person_19564"},
 {
 "persName":
 "Helene Schnitzler",
 "ref":
 "person_19823"},
 {
 "persName":
 "Julius Schnitzler",
 "ref":
 "person_19827"},
 {
 "persName":
 "Minnie Littmann",
 "ref":
 "person_17597"},
 {
 "persName":
 "Hermann Bahr",
 "ref":
 "person_13374"},
 {
 "persName":
 "Hermann Sudermann",
 "ref":
 "person_20563"}],
 "listBibl":
  [
 {
 "title":
 "Lolo’s Vater",
 "ref":
 "pmb78262"}
 ,  {
 "title":
 "Die Schmetterlingsschlacht. Komödie in 4 Akten",
 "ref":
 "pmb30397"}
 ]
}
}, {
 "type":
 "schnitzler-briefe",
 "color":
 "#A63437",
 "filename":
 "L00378",
 "caption":
 "Briefe mit Autorinnen und Autoren",
 "idno":
 "https://schnitzler-briefe.acdh.oeaw.ac.at/L00378.html",
 "head":
 "Richard Beer-Hofmann an Arthur Schnitzler, 7. 10. 1894",
 "desc":
{"listPerson":
  [
{
 "persName":
 "Richard Beer-Hofmann",
 "ref":
 "pmb10863"},
 {
 "persName":
 "Hermann Bahr",
 "ref":
 "pmb10815"}],
 "listBibl":
  [
 {
 "title":
 "Die Zeit. Wiener Wochenschrift",
 "ref":
 "pmb36340"}
 ,  {
 "title":
 "Die Schmetterlingsschlacht. Komödie in 4 Akten",
 "ref":
 "pmb30397"}
 ],
 "listPlace":
  [
 {
 "placeName":
 "Hotel Quirinale",
 "ref":
 "pmb769"}
 ,  {
 "placeName":
 "IX., Alsergrund",
 "ref":
 "pmb59"}
 ,  {
 "placeName":
 "Engelsburg",
 "ref":
 "pmb41949"}
 ,  {
 "placeName":
 "Petersdom",
 "ref":
 "pmb41955"}
 ,  {
 "placeName":
 "Rom",
 "ref":
 "pmb445"}
 ,  {
 "placeName":
 "Wien",
 "ref":
 "pmb50"}
 ,  {
 "placeName":
 "Österreich",
 "ref":
 "pmb41240"}
 ,  {
 "placeName":
 "Frankgasse 1",
 "ref":
 "pmb168934"}
 ]
}
}, {
 "type":
 "schnitzler-briefe",
 "color":
 "#A63437",
 "filename":
 "L00379",
 "caption":
 "Briefe mit Autorinnen und Autoren",
 "idno":
 "https://schnitzler-briefe.acdh.oeaw.ac.at/L00379.html",
 "head":
 "Friedrich M. Fels an Arthur Schnitzler, 7. 10. 1894",
 "desc":
{"listPerson":
  [
{
 "persName":
 "Friedrich Michael Fels",
 "ref":
 "pmb2450"},
 {
 "persName":
 "Julius von Gans-Ludassy",
 "ref":
 "pmb11406"}],
 "listOrg":
  [
 {
 "orgName":
 "Wiener Allgemeine Zeitung",
 "ref":
 "pmb29670"}
 ],
 "listPlace":
  [
 {
 "placeName":
 "Wien",
 "ref":
 "pmb50"}
 ,  {
 "placeName":
 "IX., Alsergrund",
 "ref":
 "pmb59"}
 ,  {
 "placeName":
 "Frankgasse 1",
 "ref":
 "pmb168934"}
 ,  {
 "placeName":
 "Währinger Gürtel",
 "ref":
 "pmb727"}
 ]
}
}, {
 "type":
 "URL",
 "subtype":
 "wienerschnitzler",
 "head":
 "Wien",
 "desc":
{"listPlace":
  [
 {
 "placeName":
 "IX., Alsergrund",
 "ref":
 ""}
 ,  {
 "placeName":
 "VII., Neubau",
 "ref":
 ""}
 ,  {
 "placeName":
 "I., Innere Stadt",
 "ref":
 ""}
 ]
}
}, {
 "type":
 "schnitzler-bahr",
 "color":
 "#639FF9",
 "filename":
 "D041115",
 "caption":
 "Schnitzler/Bahr",
 "idno":
 "https://schnitzler-bahr.acdh.oeaw.ac.at/D041115.html",
 "head":
 "Tagebuch von Schnitzler, 7. 10. 1894",
 "desc":
{"listPerson":
  [
{
 "persName":
 "Karl Kraus",
 "ref":
 "pmb11988"},
 {
 "persName":
 "Hugo Gerlach",
 "ref":
 "pmb2820"},
 {
 "persName":
 "Adele Sandrock",
 "ref":
 "pmb12618"},
 {
 "persName":
 "Johanna Simonetta Sandrock",
 "ref":
 "pmb2589"},
 {
 "persName":
 "Christian Sandrock",
 "ref":
 "pmb2591"},
 {
 "persName":
 "Hermann Bahr",
 "ref":
 "pmb10815"},
 {
 "persName":
 "Olga von Golovin",
 "ref":
 "pmb17222"},
 {
 "persName":
 "Hermann Sudermann",
 "ref":
 "pmb12899"},
 {
 "persName":
 "Julius Schnitzler",
 "ref":
 "pmb12698"},
 {
 "persName":
 "Helene Schnitzler",
 "ref":
 "pmb24423"},
 {
 "persName":
 "Hermine Littmann",
 "ref":
 "pmb28680"}],
 "listBibl":
  [
 {
 "title":
 "Die Schmetterlingsschlacht",
 "ref":
 "pmb30397"}
 ,  {
 "title":
 "Lolos Vater",
 "ref":
 "pmb30399"}
 ],
 "listPlace":
  [
 {
 "placeName":
 "Berlin",
 "ref":
 "pmb168"}
 ]
}
}, {
 "type":
 "schnitzler-cmif",
 "subtype":
 "#g21edf0a-7af3-4163-813b-7d55aaaf2eba",
 "color":
 "#654321",
 "caption":
 "Gedruckte Briefwechsel",
 "head":
 "Adele Sandrock an Arthur Schnitzler, 7.10.1894",
 "source":
 "Renate Wagner (Hg.): Dilly. Geschichte einer Liebe in Briefen, Bildern und Dokumenten. Wien/München: Amalthea 1975."
}] 