{
 "date":
 {
 "when-iso":
 "1894-11-06",
 "written":
 "Dienstag, 6. November 1894"
},
"listEvent":
 [{
 "type":
 "schnitzler-orte",
 "idno":
 "https://pmb.acdh.oeaw.ac.at/entity/50/",
 "head":
 "Wien"
}, {
 "type":
 "schnitzler-briefe",
 "idno":
 "https://schnitzler-briefe.acdh.oeaw.ac.at/L00397.html",
 "head":
 "Friedrich M. Fels an Arthur Schnitzler, 6. 11. 1894",
 "desc":
{"listPerson":
  [
{
 "persName":
 "Friedrich Michael Fels",
 "ref":
 "pmb2450"},
 {
 "persName":
 "Hermann Bahr",
 "ref":
 "pmb10815"},
 {
 "persName":
 "Jakob Julius David",
 "ref":
 "pmb2416"},
 {
 "persName":
 "Charles Sealsfield",
 "ref":
 "pmb4688"},
 {
 "persName":
 "Friedrich Uhl",
 "ref":
 "pmb12987"},
 {
 "persName":
 "Eduard Pötzl",
 "ref":
 "pmb12460"},
 {
 "persName":
 "Paul von Schönthan-Pernwald",
 "ref":
 "pmb24705"},
 {
 "persName":
 "Emil Granichstaedten",
 "ref":
 "pmb2586"}],
 "listBibl":
  [
 {
 "title":
 "Skandinavien in Deutschland",
 "ref":
 "pmb41919"}
 ,  {
 "title":
 "Das Kajütenbuch oder nationale Charakteristiken",
 "ref":
 "pmb32728"}
 ],
 "listOrg":
  [
 {
 "orgName":
 "Die Zukunft",
 "ref":
 "pmb29631"}
 ,  {
 "orgName":
 "Die Nation",
 "ref":
 "pmb29807"}
 ,  {
 "orgName":
 "Vossische Zeitung",
 "ref":
 "pmb29331"}
 ,  {
 "orgName":
 "Die Gegenwart",
 "ref":
 "pmb29808"}
 ,  {
 "orgName":
 "Wiener Allgemeine Zeitung",
 "ref":
 "pmb29670"}
 ,  {
 "orgName":
 "Philipp Reclam jun.",
 "ref":
 "pmb29666"}
 ,  {
 "orgName":
 "Wiener Zeitung",
 "ref":
 "pmb29310"}
 ,  {
 "orgName":
 "Neues Wiener Tagblatt",
 "ref":
 "pmb29414"}
 ,  {
 "orgName":
 "Wiener Tagblatt",
 "ref":
 "pmb29312"}
 ,  {
 "orgName":
 "Die Presse",
 "ref":
 "pmb29270"}
 ],
 "listPlace":
  [
 {
 "placeName":
 "Wien",
 "ref":
 "pmb50"}
 ,  {
 "placeName":
 "Währinger Gürtel",
 "ref":
 "pmb727"}
 ,  {
 "placeName":
 "Berlin",
 "ref":
 "pmb168"}
 ,  {
 "placeName":
 "Brünn",
 "ref":
 "pmb833"}
 ,  {
 "placeName":
 "Olomouc",
 "ref":
 "pmb44176"}
 ]}

}, {
 "type":
 "schnitzler-tagebuch",
 "idno":
 "https://schnitzler-tagebuch.acdh.oeaw.ac.at/entry__1894-11-06.html",
 "head":
 "Tagebuch, 6. November 1894",
 "desc":
{"listPerson":
  [
{
 "persName":
 "Gisela Hajek",
 "ref":
 "person_15854"},
 {
 "persName":
 "Else Singer",
 "ref":
 "person_19143"},
 {
 "persName":
 "Adele Sandrock",
 "ref":
 "person_19564"},
 {
 "persName":
 "Heinz Tovote",
 "ref":
 "person_20784"},
 {
 "persName":
 "Marie Reinhard",
 "ref":
 "person_19150"},
 {
 "persName":
 "Johann Schnitzler",
 "ref":
 "person_19824"}]}

}, {
 "type":
 "schnitzler-bahr",
 "idno":
 "https://schnitzler-bahr.acdh.oeaw.ac.at/L041605.html",
 "head":
 "Friedrich Michael Fels an Schnitzler, 6. 11. 1894",
 "desc":
{"listPerson":
  [
{
 "persName":
 "Friedrich Michael Fels",
 "ref":
 "pmb2450"},
 {
 "persName":
 "Hermann Bahr",
 "ref":
 "pmb10815"},
 {
 "persName":
 "Jakob Julius David",
 "ref":
 "pmb2416"},
 {
 "persName":
 "Charles Sealsfield",
 "ref":
 "pmb4688"},
 {
 "persName":
 "Friedrich Uhl",
 "ref":
 "pmb12987"},
 {
 "persName":
 "Eduard Pötzl",
 "ref":
 "pmb12460"},
 {
 "persName":
 "Paul von Schönthan-Pernwald",
 "ref":
 "pmb24705"},
 {
 "persName":
 "Emil Granichstaedten",
 "ref":
 "pmb2586"}],
 "listPlace":
  [
 {
 "placeName":
 "Wien",
 "ref":
 "pmb50"}
 ,  {
 "placeName":
 "Währinger Gürtel",
 "ref":
 "pmb727"}
 ,  {
 "placeName":
 "Skandinavien",
 "ref":
 "pmb745"}
 ,  {
 "placeName":
 "Deutschland",
 "ref":
 "pmb151"}
 ,  {
 "placeName":
 "Berlin",
 "ref":
 "pmb168"}
 ,  {
 "placeName":
 "Brünn",
 "ref":
 "pmb833"}
 ,  {
 "placeName":
 "Olomouc",
 "ref":
 "pmb44176"}
 ],
 "listOrg":
  [
 {
 "orgName":
 "Die Zukunft",
 "ref":
 "pmb29631"}
 ,  {
 "orgName":
 "Die Nation",
 "ref":
 "pmb29807"}
 ,  {
 "orgName":
 "Vossische Zeitung",
 "ref":
 "pmb29331"}
 ,  {
 "orgName":
 "Die Gegenwart",
 "ref":
 "pmb29808"}
 ]}

}] 
}