{
 "date":
 {
 "when-iso":
 "1894-09-16",
 "written":
 "Sonntag, 16. September 1894"
},
"listEvent":
 [{
 "type":
 "schnitzler-orte",
 "idno":
 "https://pmb.acdh.oeaw.ac.at/entity/50/",
 "head":
 "Wien"
}, {
 "type":
 "schnitzler-briefe",
 "idno":
 "https://schnitzler-briefe.acdh.oeaw.ac.at/L00370.html",
 "head":
 "Richard Beer-Hofmann an Arthur Schnitzler, 16. 9. 1894",
 "desc":
{"listPerson":
  [
{
 "persName":
 "Richard Beer-Hofmann",
 "ref":
 "pmb10863"},
 {
 "persName":
 "Hugo von Hofmannsthal",
 "ref":
 "pmb11740"},
 {
 "persName":
 "Hermann Bahr",
 "ref":
 "pmb10815"},
 {
 "persName":
 "Adele Sandrock",
 "ref":
 "pmb12618"}],
 "listPlace":
  [
 {
 "placeName":
 "Bellagio",
 "ref":
 "pmb984"}
 ,  {
 "placeName":
 "IX., Alsergrund",
 "ref":
 "pmb59"}
 ,  {
 "placeName":
 "Wien",
 "ref":
 "pmb50"}
 ,  {
 "placeName":
 "Österreich",
 "ref":
 "pmb41240"}
 ,  {
 "placeName":
 "Frankgasse",
 "ref":
 "pmb397"}
 ,  {
 "placeName":
 "Pallanza",
 "ref":
 "pmb44205"}
 ]}

}, {
 "type":
 "schnitzler-tagebuch",
 "idno":
 "https://schnitzler-tagebuch.acdh.oeaw.ac.at/entry__1894-09-16.html",
 "head":
 "Tagebuch, 16. September 1894",
 "desc":
{"listPerson":
  [
{
 "persName":
 "Felix Salten",
 "ref":
 "person_19542"}],
 "listPlace":
  [
 {
 "placeName":
 "Schwechat",
 "ref":
 "pmb42535"}
 ,  {
 "placeName":
 "Baden bei Wien",
 "ref":
 "pmb662"}
 ]}

}] 
}