[{
 "type":
 "schnitzler-tagebuch",
 "color":
 "#037a33",
 "filename":
 "entry__1894-03-09",
 "caption":
 "Tagebuch",
 "idno":
 "https://schnitzler-tagebuch.acdh.oeaw.ac.at/entry__1894-03-09.html",
 "head":
 "Tagebuch, 9. März 1894",
 "desc":
{"listPerson":
  [
{
 "persName":
 "Marie Glümer",
 "ref":
 "person_15485"},
 {
 "persName":
 "Adele Sandrock",
 "ref":
 "person_19564"}],
 "listBibl":
  [
 {
 "title":
 "Liebelei. Schauspiel in drei Akten",
 "ref":
 "pmb29917"}
 ]
}
}, {
 "type":
 "schnitzler-briefe",
 "color":
 "#A63437",
 "filename":
 "L00304",
 "caption":
 "Briefe mit Autorinnen und Autoren",
 "idno":
 "https://schnitzler-briefe.acdh.oeaw.ac.at/L00304.html",
 "head":
 "Hugo von Hofmannsthal an Arthur Schnitzler, 9. 3. 1894",
 "desc":
{"listPerson":
  [
{
 "persName":
 "Hugo von Hofmannsthal",
 "ref":
 "pmb11740"}],
 "listBibl":
  [
 {
 "title":
 "Die Nibelungen",
 "ref":
 "pmb34235"}
 ],
 "listPlace":
  [
 {
 "placeName":
 "Wien",
 "ref":
 "pmb50"}
 ,  {
 "placeName":
 "Arsenal",
 "ref":
 "pmb257"}
 ,  {
 "placeName":
 "Stephansdom",
 "ref":
 "pmb567"}
 ]
}
}, {
 "type":
 "schnitzler-briefe",
 "color":
 "#A63437",
 "filename":
 "L00305",
 "caption":
 "Briefe mit Autorinnen und Autoren",
 "idno":
 "https://schnitzler-briefe.acdh.oeaw.ac.at/L00305.html",
 "head":
 "Arthur Schnitzler an Hugo von Hofmannsthal, [9. 3. 1894]",
 "desc":
{"listPerson":
  [
{
 "persName":
 "Hugo von Hofmannsthal",
 "ref":
 "pmb11740"},
 {
 "persName":
 "Carl Karlweis",
 "ref":
 "pmb13082"},
 {
 "persName":
 "Paul Goldmann",
 "ref":
 "pmb11485"},
 {
 "persName":
 "Henri Albert",
 "ref":
 "pmb2801"},
 {
 "persName":
 "Richard Beer-Hofmann",
 "ref":
 "pmb10863"}],
 "listBibl":
  [
 {
 "title":
 "Der Tod des Tizian. Ein Bruchstück",
 "ref":
 "pmb31639"}
 ,  {
 "title":
 "Der Thor und der Tod",
 "ref":
 "pmb30279"}
 ,  {
 "title":
 "Le nouvel almanach de M. Bierbaum",
 "ref":
 "pmb34296"}
 ,  {
 "title":
 "Mercure de France",
 "ref":
 "pmb36349"}
 ,  {
 "title":
 "Moderner Musen-Almanach auf das Jahr 1894. Ein Jahrbuch deutscher Kunst",
 "ref":
 "pmb32252"}
 ],
 "listOrg":
  [
 {
 "orgName":
 "Nouvelle Revue",
 "ref":
 "pmb34277"}
 ],
 "listPlace":
  [
 {
 "placeName":
 "Wien",
 "ref":
 "pmb50"}
 ,  {
 "placeName":
 "rue Richelieu",
 "ref":
 "pmb34187"}
 ,  {
 "placeName":
 "rue Jacob",
 "ref":
 "pmb34189"}
 ,  {
 "placeName":
 "Café Central",
 "ref":
 "pmb262"}
 ,  {
 "placeName":
 "Arsenal",
 "ref":
 "pmb257"}
 ]
}
}, {
 "type":
 "URL",
 "subtype":
 "wienerschnitzler",
 "head":
 "Wien",
 "desc":
{"listPlace":
  [
 {
 "placeName":
 "IX., Alsergrund",
 "ref":
 ""}
 ]
}
}, {
 "type":
 "kalliope-verbund",
 "color":
 "#003574",
 "caption":
 "Kalliope Verbundkatalog",
 "idno":
 "http://kalliope-verbund.info/DE-2498-HS00081061",
 "head":
 "Schnitzler, Arthur: Liebelei [Dramatisches] (Drucktitel)",
 "text":
 "Letztes Objekt aus der Mappe. 32 Bl."
}] 