[{
 "type":
 "schnitzler-tagebuch",
 "color":
 "#037a33",
 "filename":
 "entry__1894-04-02",
 "caption":
 "Tagebuch",
 "idno":
 "https://schnitzler-tagebuch.acdh.oeaw.ac.at/entry__1894-04-02.html",
 "head":
 "Tagebuch, 2. April 1894",
 "desc":
{"listPerson":
  [
{
 "persName":
 "Theodor Baumgarten",
 "ref":
 "person_13491"},
 {
 "persName":
 "Marie Glümer",
 "ref":
 "person_15485"},
 {
 "persName":
 "Paul Goldmann",
 "ref":
 "person_15529"},
 {
 "persName":
 "Robert Nhil",
 "ref":
 "person_18438"},
 {
 "persName":
 "Felix Salten",
 "ref":
 "person_19542"},
 {
 "persName":
 "Adele Sandrock",
 "ref":
 "person_19564"}],
 "listBibl":
  [
 {
 "title":
 "Die Brillanten-Königin",
 "ref":
 "pmb30439"}
 ]
}
}, {
 "type":
 "schnitzler-briefe",
 "color":
 "#A63437",
 "filename":
 "L00309",
 "caption":
 "Briefe mit Autorinnen und Autoren",
 "idno":
 "https://schnitzler-briefe.acdh.oeaw.ac.at/L00309.html",
 "head":
 "Arthur Schnitzler an Richard Beer-Hofmann, [2. 4. 1894?]",
 "desc":
{"listPerson":
  [
{
 "persName":
 "Richard Beer-Hofmann",
 "ref":
 "pmb10863"},
 {
 "persName":
 "Hermann Bahr",
 "ref":
 "pmb10815"}],
 "listOrg":
  [
 {
 "orgName":
 "Vorwärts",
 "ref":
 "pmb29783"}
 ],
 "listPlace":
  [
 {
 "placeName":
 "Wien",
 "ref":
 "pmb50"}
 ,  {
 "placeName":
 "Untere Augartenstraße",
 "ref":
 "pmb630"}
 ]
}
}, {
 "type":
 "schnitzler-briefe",
 "color":
 "#A63437",
 "filename":
 "L03029",
 "caption":
 "Briefe mit Autorinnen und Autoren",
 "idno":
 "https://schnitzler-briefe.acdh.oeaw.ac.at/L03029.html",
 "head":
 "Arthur Schnitzler an Felix Salten, [2. 4. 1894?]",
 "desc":
{"listPerson":
  [
{
 "persName":
 "Felix Salten",
 "ref":
 "pmb2167"},
 {
 "persName":
 "Adele Sandrock",
 "ref":
 "pmb12618"},
 {
 "persName":
 "Gustav Kadelburg",
 "ref":
 "pmb11845"},
 {
 "persName":
 "Heinrich Kadelburg",
 "ref":
 "pmb11848"}],
 "listBibl":
  [
 {
 "title":
 "Neues Wiener Journal",
 "ref":
 "pmb36376"}
 ,  {
 "title":
 "Theater und Kunst. [Fräulein Adele Sandrock dürfte…]",
 "ref":
 "pmb143036"}
 ,  {
 "title":
 "Hinter den Coulissen [Sandrock im Volkstheater]",
 "ref":
 "pmb33105"}
 ,  {
 "title":
 "Adele Sandrock und das Volkstheater",
 "ref":
 "pmb33099"}
 ,  {
 "title":
 "Das Märchen. Schauspiel in drei Aufzügen",
 "ref":
 "pmb29823"}
 ,  {
 "title":
 "Der Fall Sandrock",
 "ref":
 "pmb33097"}
 ],
 "listPlace":
  [
 {
 "placeName":
 "Wien",
 "ref":
 "pmb50"}
 ,  {
 "placeName":
 "Café Central",
 "ref":
 "pmb262"}
 ]
}
}, {
 "type":
 "schnitzler-briefe",
 "color":
 "#A63437",
 "filename":
 "L00310",
 "caption":
 "Briefe mit Autorinnen und Autoren",
 "idno":
 "https://schnitzler-briefe.acdh.oeaw.ac.at/L00310.html",
 "head":
 "Hermann Bahr an Arthur Schnitzler, 2. 4. 1894",
 "desc":
{"listPerson":
  [
{
 "persName":
 "Hermann Bahr",
 "ref":
 "pmb10815"},
 {
 "persName":
 "Heinrich Schnitzler",
 "ref":
 "pmb12692"},
 {
 "persName":
 "Sándor Wolf",
 "ref":
 "pmb4342"},
 {
 "persName":
 "Frieda Löwy",
 "ref":
 "pmb28549"}],
 "listPlace":
  [
 {
 "placeName":
 "Wolf-Museum",
 "ref":
 "pmb569"}
 ,  {
 "placeName":
 "Eisenstadt",
 "ref":
 "pmb49163"}
 ,  {
 "placeName":
 "Israel",
 "ref":
 "pmb45508"}
 ,  {
 "placeName":
 "Luzern",
 "ref":
 "pmb967"}
 ,  {
 "placeName":
 "Wien",
 "ref":
 "pmb50"}
 ]
}
}, {
 "type":
 "wienerschnitzler",
 "color":
 "#ECDA98",
 "caption":
 "Wiener Schnitzler",
 "head":
 "Wien",
 "desc":
{"listPlace":
  [
 {
 "placeName":
 "I., Innere Stadt",
 "ref":
 ""}
 ,  {
 "placeName":
 "II., Leopoldstadt",
 "ref":
 ""}
 ,  {
 "placeName":
 "IX., Alsergrund",
 "ref":
 ""}
 ]
}
}, {
 "type":
 "schnitzler-bahr",
 "color":
 "#639FF9",
 "filename":
 "L041164",
 "caption":
 "Schnitzler/Bahr",
 "idno":
 "https://schnitzler-bahr.acdh.oeaw.ac.at/L041164.html",
 "head":
 "Bahr an Schnitzler, 2. 4. 1894",
 "desc":
{"listPerson":
  [
{
 "persName":
 "Hermann Bahr",
 "ref":
 "pmb10815"},
 {
 "persName":
 "Heinrich Schnitzler",
 "ref":
 "pmb12692"},
 {
 "persName":
 "Sándor Wolf",
 "ref":
 "pmb4342"},
 {
 "persName":
 "Frieda Löwy",
 "ref":
 "pmb28549"}],
 "listPlace":
  [
 {
 "placeName":
 "Wien",
 "ref":
 "pmb50"}
 ,  {
 "placeName":
 "Wolf-Museum",
 "ref":
 "pmb569"}
 ,  {
 "placeName":
 "Israel",
 "ref":
 "pmb45508"}
 ,  {
 "placeName":
 "Luzern",
 "ref":
 "pmb967"}
 ]
}
}, {
 "type":
 "schnitzler-bahr",
 "color":
 "#639FF9",
 "filename":
 "L041502",
 "caption":
 "Schnitzler/Bahr",
 "idno":
 "https://schnitzler-bahr.acdh.oeaw.ac.at/L041502.html",
 "head":
 "Schnitzler an Beer-Hofmann, [2. 4. 1894?]",
 "desc":
{"listPerson":
  [
{
 "persName":
 "Richard Beer-Hofmann",
 "ref":
 "pmb10863"},
 {
 "persName":
 "Hermann Bahr",
 "ref":
 "pmb10815"}],
 "listPlace":
  [
 {
 "placeName":
 "Wien",
 "ref":
 "pmb50"}
 ,  {
 "placeName":
 "Untere Augartenstraße",
 "ref":
 "pmb630"}
 ],
 "listOrg":
  [
 {
 "orgName":
 "Vorwärts",
 "ref":
 "pmb29783"}
 ]
}
}, {
 "type":
 "schnitzler-events",
 "color":
 "#9BC53D",
 "filename":
 "entity/208663/",
 "caption":
 "Ereignisse in der PMB",
 "idno":
 "https://pmb.acdh.oeaw.ac.at/entity/208663/",
 "head":
 "Aufführung von Die Brillanten-Königin, 2.4.1894",
 "desc":
{"listOrg":
  [
 {
 "orgName":
 "Carl-Theater",
 "ref":
 ""}
 ],
 "listBibl":
  [
 {
 "title":
 "Die Brillanten-Königin",
 "ref":
 ""}
 ],
 "listPerson":
  [
{
 "persName":
 "Arthur Schnitzler",
 "ref":
 ""}],
 "listPlace":
  [
 {
 "placeName":
 "Carl-Theater",
 "ref":
 ""}
 ]
}
}] 