[{
 "type":
 "schnitzler-tagebuch",
 "color":
 "#037a33",
 "filename":
 "entry__1895-02-11",
 "caption":
 "Tagebuch",
 "idno":
 "https://schnitzler-tagebuch.acdh.oeaw.ac.at/entry__1895-02-11.html",
 "head":
 "Tagebuch, 11. Februar 1895",
 "desc":
{"listPerson":
  [
{
 "persName":
 "Richard Beer-Hofmann",
 "ref":
 "person_13551"},
 {
 "persName":
 "Max Eugen Burckhard",
 "ref":
 "person_14065"},
 {
 "persName":
 "Leopold Kaufmann",
 "ref":
 "person_16775"},
 {
 "persName":
 "Felix Salten",
 "ref":
 "person_19542"},
 {
 "persName":
 "Adele Sandrock",
 "ref":
 "person_19564"},
 {
 "persName":
 "Helene Schnitzler",
 "ref":
 "person_19823"},
 {
 "persName":
 "Julius Schnitzler",
 "ref":
 "person_19827"},
 {
 "persName":
 "Marie Reinhard",
 "ref":
 "person_19150"},
 {
 "persName":
 "Florentine Galliny",
 "ref":
 "person_21058"},
 {
 "persName":
 "Hermann Bahr",
 "ref":
 "person_13374"}],
 "listBibl":
  [
 {
 "title":
 "Anatol",
 "ref":
 "pmb29935"}
 ,  {
 "title":
 "Sterben. Novelle",
 "ref":
 "pmb30117"}
 ],
 "listPlace":
  [
 {
 "placeName":
 "Prater",
 "ref":
 "pmb91530"}
 ,  {
 "placeName":
 "A.gasse",
 "ref":
 "pmb92131"}
 ,  {
 "placeName":
 "Ringstraße",
 "ref":
 "pmb112"}
 ,  {
 "placeName":
 "Ronacher",
 "ref":
 "pmb92490"}
 ]
}
}, {
 "type":
 "schnitzler-orte",
 "color":
 "#045344",
 "caption":
 "Aufenthaltsorte",
 "head":
 "Wien",
 "desc":
{"listPlace":
  [
 {
 "placeName":
 "I., Innere Stadt",
 "ref":
 ""}
 ,  {
 "placeName":
 "II., Leopoldstadt",
 "ref":
 ""}
 ,  {
 "placeName":
 "IX., Alsergrund",
 "ref":
 ""}
 ]
}
}, {
 "type":
 "schnitzler-orte",
 "color":
 "#045344",
 "caption":
 "Aufenthaltsorte",
 "head":
 "A.gasse"
}, {
 "type":
 "schnitzler-bahr",
 "color":
 "#639FF9",
 "filename":
 "D041140",
 "caption":
 "Schnitzler/Bahr",
 "idno":
 "https://schnitzler-bahr.acdh.oeaw.ac.at/D041140.html",
 "head":
 "Tagebuch von Schnitzler, 11. 2. 1895",
 "desc":
{"listPerson":
  [
{
 "persName":
 "Adele Sandrock",
 "ref":
 "pmb12618"},
 {
 "persName":
 "Felix Salten",
 "ref":
 "pmb2167"},
 {
 "persName":
 "Marie Reinhard",
 "ref":
 "pmb2378"},
 {
 "persName":
 "Leopold Kaufmann",
 "ref":
 "pmb19226"},
 {
 "persName":
 "Ernestine Kaufmann",
 "ref":
 "pmb27836"},
 {
 "persName":
 "Julius Schnitzler",
 "ref":
 "pmb12698"},
 {
 "persName":
 "Helene Schnitzler",
 "ref":
 "pmb24423"},
 {
 "persName":
 "Richard Beer-Hofmann",
 "ref":
 "pmb10863"},
 {
 "persName":
 "Hermann Bahr",
 "ref":
 "pmb10815"},
 {
 "persName":
 "Florentine Galliny",
 "ref":
 "pmb7331"},
 {
 "persName":
 "Max Eugen Burckhard",
 "ref":
 "pmb11036"}],
 "listBibl":
  [
 {
 "title":
 "Feuilleton. Literatur. »Sterben«",
 "ref":
 "pmb30431"}
 ,  {
 "title":
 "Sterben. Novelle",
 "ref":
 "pmb30117"}
 ,  {
 "title":
 "Anatol",
 "ref":
 "pmb29935"}
 ],
 "listPlace":
  [
 {
 "placeName":
 "Prater",
 "ref":
 "pmb8"}
 ,  {
 "placeName":
 "Ringstraße",
 "ref":
 "pmb112"}
 ,  {
 "placeName":
 "Etablissement Ronacher",
 "ref":
 "pmb19"}
 ],
 "listOrg":
  [
 {
 "orgName":
 "Wiener Abendpost",
 "ref":
 "pmb29622"}
 ]
}
}, {
 "type":
 "schnitzler-events",
 "color":
 "#9BC53D",
 "filename":
 "entity/199060/",
 "caption":
 "Ereignisse in der PMB",
 "idno":
 "https://pmb.acdh.oeaw.ac.at/entity/199060/",
 "head":
 "Wohltätigkeits-Elite-Redoute, 11.2.1895",
 "desc":
{"listPerson":
  [
{
 "persName":
 "Arthur Schnitzler",
 "ref":
 ""},
 {
 "persName":
 "Richard Beer-Hofmann",
 "ref":
 ""}],
 "listPlace":
  [
 {
 "placeName":
 "Ronacher",
 "ref":
 ""}
 ]
}
}] 