[{
 "type":
 "schnitzler-tagebuch",
 "color":
 "#037a33",
 "filename":
 "entry__1895-04-03",
 "caption":
 "Tagebuch",
 "idno":
 "https://schnitzler-tagebuch.acdh.oeaw.ac.at/entry__1895-04-03.html",
 "head":
 "Tagebuch, 3. April 1895",
 "desc":
{"listPerson":
  [
{
 "persName":
 "Marie Glümer",
 "ref":
 "person_15485"},
 {
 "persName":
 "Marie Reinhard",
 "ref":
 "person_19150"}],
 "listPlace":
  [
 {
 "placeName":
 "Antwerp",
 "ref":
 "pmb90252"}
 ]
}
}, {
 "type":
 "schnitzler-briefe",
 "color":
 "#A63437",
 "filename":
 "L02733",
 "caption":
 "Briefe mit Autorinnen und Autoren",
 "idno":
 "https://schnitzler-briefe.acdh.oeaw.ac.at/L02733.html",
 "head":
 "Paul Goldmann an Arthur Schnitzler, 3. 4. [1895]",
 "desc":
{"listPerson":
  [
{
 "persName":
 "Paul Goldmann",
 "ref":
 "pmb11485"},
 {
 "persName":
 "Leopold Sonnemann",
 "ref":
 "pmb87771"},
 {
 "persName":
 "Gaspard Vallette",
 "ref":
 "pmb40665"},
 {
 "persName":
 "Albert Langen",
 "ref":
 "pmb3379"}],
 "listBibl":
  [
 {
 "title":
 "Sterben. Novelle",
 "ref":
 "pmb30117"}
 ,  {
 "title":
 "Mourir. Roman",
 "ref":
 "pmb40662"}
 ,  {
 "title":
 "Tagebuch",
 "ref":
 "pmb33243"}
 ,  {
 "title":
 "Sterben. Novelle von Arthur Schnitzler",
 "ref":
 "pmb41991"}
 ],
 "listOrg":
  [
 {
 "orgName":
 "Frankfurter Zeitung",
 "ref":
 "pmb29442"}
 ,  {
 "orgName":
 "Albert Langen",
 "ref":
 "pmb29654"}
 ],
 "listPlace":
  [
 {
 "placeName":
 "Paris",
 "ref":
 "pmb182"}
 ,  {
 "placeName":
 "Wien",
 "ref":
 "pmb50"}
 ,  {
 "placeName":
 "rue Feydeau",
 "ref":
 "pmb42671"}
 ,  {
 "placeName":
 "Cannes",
 "ref":
 "pmb56147"}
 ,  {
 "placeName":
 "Frankreich",
 "ref":
 "pmb166"}
 ,  {
 "placeName":
 "Schweiz",
 "ref":
 "pmb43435"}
 ]
}
}, {
 "type":
 "wienerschnitzler",
 "color":
 "#ECDA98",
 "caption":
 "Wiener Schnitzler",
 "head":
 "Wien",
 "desc":
{"listPlace":
  [
 {
 "placeName":
 "IX., Alsergrund",
 "ref":
 ""}
 ,  {
 "placeName":
 "?? [»bei Uns«, Absteigequartier I Marie Reinhard und Arthur Schnitzler]",
 "ref":
 ""}
 ]
}
}, {
 "type":
 "schnitzler-cmif",
 "subtype":
 "#i9ac725a-7aa1-4b66-9aaa-3fb96c91d495",
 "color":
 "#654321",
 "caption":
 "Gedruckte Briefwechsel",
 "head":
 "Theodor Herzl an Arthur Schnitzler, 3.4.1895",
 "source":
 "Theodor Herzl: Briefe und autobiographische Notizen. 1866–1895. Bearbeitet von Johannes Wachten in Zusammenarbeit mit Chaya Harel, Daisy Tycho, Manfred Winkler. Berlin: Propyläen 1983. (Theodor Herzl: Briefe und Tagebücher. Hg. Alex Bein, Hermann Greive, Moshe Schaerf, Julius H. Schoeps. Erster Band)"
}] 