[{
 "type":
 "schnitzler-tagebuch",
 "color":
 "#037a33",
 "filename":
 "entry__1895-07-28",
 "caption":
 "Tagebuch",
 "idno":
 "https://schnitzler-tagebuch.acdh.oeaw.ac.at/entry__1895-07-28.html",
 "head":
 "Tagebuch, 28. Juli 1895",
 "desc":
{"listPerson":
  [
{
 "persName":
 "Katharina Kohn",
 "ref":
 "person_14798"}],
 "listPlace":
  [
 {
 "placeName":
 "Gstättenberg",
 "ref":
 "pmb90795"}
 ]
}
}, {
 "type":
 "schnitzler-briefe",
 "color":
 "#A63437",
 "filename":
 "L00467",
 "caption":
 "Briefe mit Autorinnen und Autoren",
 "idno":
 "https://schnitzler-briefe.acdh.oeaw.ac.at/L00467.html",
 "head":
 "Arthur Schnitzler an Hugo von Hofmannsthal, 28. 7. 1895",
 "desc":
{"listPerson":
  [
{
 "persName":
 "Arthur Schnitzler",
 "ref":
 "pmb2121"},
 {
 "persName":
 "Hugo von Hofmannsthal",
 "ref":
 "pmb11740"},
 {
 "persName":
 "Paul Goldmann",
 "ref":
 "pmb11485"},
 {
 "persName":
 "Hugo von Hofmannsthal",
 "ref":
 "pmb11740"},
 {
 "persName":
 "Ernst Otto Lindner",
 "ref":
 "pmb33941"},
 {
 "persName":
 "Julius Frauenstädt",
 "ref":
 "pmb33945"},
 {
 "persName":
 "Ludwig Schemann",
 "ref":
 "pmb33958"},
 {
 "persName":
 "Arthur Schopenhauer",
 "ref":
 "pmb5787"}],
 "listBibl":
  [
 {
 "title":
 "Die Kartause von Parma",
 "ref":
 "pmb33935"}
 ,  {
 "title":
 "West-östlicher Divan",
 "ref":
 "pmb33937"}
 ,  {
 "title":
 "Arthur Schopenhauer. Von ihm. Über ihn",
 "ref":
 "pmb33939"}
 ,  {
 "title":
 "Schopenhauer-Briefe",
 "ref":
 "pmb33954"}
 ,  {
 "title":
 "Freiwild. Schauspiel in 3 Akten",
 "ref":
 "pmb29899"}
 ,  {
 "title":
 "Die Frau des Weisen. Erzählung",
 "ref":
 "pmb30075"}
 ],
 "listPlace":
  [
 {
 "placeName":
 "Bad Ischl",
 "ref":
 "pmb213"}
 ,  {
 "placeName":
 "Kopenhagen",
 "ref":
 "pmb36300"}
 ,  {
 "placeName":
 "Hodonín",
 "ref":
 "pmb49823"}
 ,  {
 "placeName":
 "Wien",
 "ref":
 "pmb50"}
 ,  {
 "placeName":
 "Strobl",
 "ref":
 "pmb895"}
 ]
}
}, {
 "type":
 "schnitzler-briefe",
 "color":
 "#A63437",
 "filename":
 "L03894",
 "caption":
 "Briefe mit Autorinnen und Autoren",
 "idno":
 "https://schnitzler-briefe.acdh.oeaw.ac.at/L03894.html",
 "head":
 "Theodor Herzl an Arthur Schnitzler, [zwischen 28. 7.  und 5. 8. 1895?]",
 "desc":
{"listPerson":
  [
{
 "persName":
 "Theodor Herzl",
 "ref":
 "pmb11673"},
 {
 "persName":
 "Arthur Schnitzler",
 "ref":
 "pmb2121"},
 {
 "persName":
 "Theodor Herzl",
 "ref":
 "pmb11673"}],
 "listPlace":
  [
 {
 "placeName":
 "Bad Aussee",
 "ref":
 "pmb415"}
 ,  {
 "placeName":
 "Bad Ischl",
 "ref":
 "pmb213"}
 ,  {
 "placeName":
 "Villa Fuchs",
 "ref":
 "pmb298721"}
 ,  {
 "placeName":
 "Bahnhof Bad Aussee",
 "ref":
 "pmb263516"}
 ,  {
 "placeName":
 "Paris",
 "ref":
 "pmb182"}
 ]
}
}, {
 "type":
 "wienerschnitzler",
 "color":
 "#6F5106",
 "caption":
 "Wiener Schnitzler",
 "idno":
 "https://wienerschnitzler.org/tag.html#1895-07-28",
 "head":
 "Bad Ischl",
 "desc":
{"listPlace":
  [
 {
 "placeName":
 "Hotel und Pension Rudolfshöhe (Leopold Petter)",
 "ref":
 ""}
 ]
}
}, {
 "type":
 "wienerschnitzler",
 "color":
 "#6F5106",
 "caption":
 "Wiener Schnitzler",
 "idno":
 "https://wienerschnitzler.org/tag.html#1895-07-28",
 "head":
 "Gstättenberg"
}, {
 "type":
 "schnitzler-cmif",
 "subtype":
 "#j7685005-64da-4e31-99b6-b4641aa1628c",
 "color":
 "#654321",
 "caption":
 "Gedruckte Briefwechsel",
 "head":
 "Arthur Schnitzler an Gustav Schwarzkopf, 28. 7. 1895",
 "source":
 "Arthur Schnitzler: Briefe 1875–1912. Hrsg. v. Therese Nickl u. Heinrich Schnitzler. Frankfurt am Main: S. Fischer 1981."
}] 