[{
 "type":
 "schnitzler-orte",
 "color":
 "#045344",
 "caption":
 "Aufenthaltsorte",
 "idno":
 "https://pmb.acdh.oeaw.ac.at/entity/50/",
 "head":
 "Wien"
}, {
 "type":
 "schnitzler-briefe",
 "color":
 "#A63437",
 "caption":
 "Briefe mit Autorinnen und Autoren",
 "idno":
 "https://schnitzler-briefe.acdh.oeaw.ac.at/L00490.html",
 "head":
 "Arthur Schnitzler an Richard Beer-Hofmann, 23. 9. 1895",
 "desc":
{"listPerson":
  [
{
 "persName":
 "Richard Beer-Hofmann",
 "ref":
 "pmb10863"},
 {
 "persName":
 "Gaspard Vallette",
 "ref":
 "pmb40665"}],
 "listBibl":
  [
 {
 "title":
 "Mourir. Roman",
 "ref":
 "pmb40662"}
 ,  {
 "title":
 "Sterben. Novelle",
 "ref":
 "pmb30117"}
 ],
 "listOrg":
  [
 {
 "orgName":
 "Burgtheater",
 "ref":
 "pmb36247"}
 ,  {
 "orgName":
 "La Semaine Littéraire",
 "ref":
 "pmb40684"}
 ,  {
 "orgName":
 "Éditions Perrin",
 "ref":
 "pmb40681"}
 ],
 "listPlace":
  [
 {
 "placeName":
 "IX., Alsergrund",
 "ref":
 "pmb59"}
 ,  {
 "placeName":
 "Wien",
 "ref":
 "pmb50"}
 ,  {
 "placeName":
 "Gardone Riviera",
 "ref":
 "pmb374"}
 ,  {
 "placeName":
 "Lago di Garda",
 "ref":
 "pmb39975"}
 ,  {
 "placeName":
 "Italien",
 "ref":
 "pmb40306"}
 ,  {
 "placeName":
 "Riva del Garda",
 "ref":
 "pmb465"}
 ,  {
 "placeName":
 "Paris",
 "ref":
 "pmb182"}
 ]
}
}, {
 "type":
 "schnitzler-briefe",
 "color":
 "#A63437",
 "caption":
 "Briefe mit Autorinnen und Autoren",
 "idno":
 "https://schnitzler-briefe.acdh.oeaw.ac.at/L00491.html",
 "head":
 "Richard Beer-Hofmann an Arthur Schnitzler, 23. 9. 1895",
 "desc":
{"listPerson":
  [
{
 "persName":
 "Richard Beer-Hofmann",
 "ref":
 "pmb10863"}],
 "listBibl":
  [
 {
 "title":
 "Liebelei. Schauspiel in drei Akten",
 "ref":
 "pmb29917"}
 ],
 "listPlace":
  [
 {
 "placeName":
 "IX., Alsergrund",
 "ref":
 "pmb59"}
 ,  {
 "placeName":
 "Gardone Riviera",
 "ref":
 "pmb374"}
 ,  {
 "placeName":
 "Wien",
 "ref":
 "pmb50"}
 ,  {
 "placeName":
 "Frankgasse",
 "ref":
 "pmb397"}
 ,  {
 "placeName":
 "Österreich",
 "ref":
 "pmb41240"}
 ,  {
 "placeName":
 "Grand Hotel Gardone",
 "ref":
 "pmb40858"}
 ]
}
}, {
 "type":
 "schnitzler-briefe",
 "color":
 "#A63437",
 "caption":
 "Briefe mit Autorinnen und Autoren",
 "idno":
 "https://schnitzler-briefe.acdh.oeaw.ac.at/L02748.html",
 "head":
 "Paul Goldmann an Arthur Schnitzler, 23. 9. [1895]",
 "desc":
{"listPerson":
  [
{
 "persName":
 "Paul Goldmann",
 "ref":
 "pmb11485"},
 {
 "persName":
 "Leopold Sonnemann",
 "ref":
 "pmb87771"},
 {
 "persName":
 "Adele Sandrock",
 "ref":
 "pmb12618"},
 {
 "persName":
 "Ludwig Speidel",
 "ref":
 "pmb12816"},
 {
 "persName":
 "Max Eugen Burckhard",
 "ref":
 "pmb11036"},
 {
 "persName":
 "Hermann Bahr",
 "ref":
 "pmb10815"},
 {
 "persName":
 "Friedrich Uhl",
 "ref":
 "pmb12987"},
 {
 "persName":
 "Theodor Herzl",
 "ref":
 "pmb11673"},
 {
 "persName":
 "Regina Candiani",
 "ref":
 "pmb14842"},
 {
 "persName":
 "[MMe. Georges] Aubry",
 "ref":
 "pmb93009"},
 {
 "persName":
 "Georges Aubry",
 "ref":
 "pmb13561"},
 {
 "persName":
 "Ida Van-Jung",
 "ref":
 "pmb26391"},
 {
 "persName":
 "Anton Rubinstein",
 "ref":
 "pmb23705"},
 {
 "persName":
 "Richard Wagner",
 "ref":
 "pmb13024"},
 {
 "persName":
 "Peter Nansen",
 "ref":
 "pmb2357"},
 {
 "persName":
 "Mathilde Mann",
 "ref":
 "pmb87229"},
 {
 "persName":
 "Paul Schulz",
 "ref":
 "pmb24566"},
 {
 "persName":
 "Berthold Frischauer",
 "ref":
 "pmb16710"},
 {
 "persName":
 "Fedor Mamroth",
 "ref":
 "pmb4986"},
 {
 "persName":
 "Johann Wolfgang von Goethe",
 "ref":
 "pmb11461"}],
 "listBibl":
  [
 {
 "title":
 "Liebelei. Schauspiel in drei Akten",
 "ref":
 "pmb29917"}
 ,  {
 "title":
 "Anatol",
 "ref":
 "pmb29935"}
 ,  {
 "title":
 "Sterben. Novelle",
 "ref":
 "pmb30117"}
 ,  {
 "title":
 "Wiener Brief [Die neue Saison im Burgtheater]",
 "ref":
 "pmb93507"}
 ,  {
 "title":
 "Die kleine Komödie",
 "ref":
 "pmb31975"}
 ,  {
 "title":
 "La petite comédie. Mœurs viennois",
 "ref":
 "pmb93019"}
 ,  {
 "title":
 "La Liberté",
 "ref":
 "pmb93004"}
 ,  {
 "title":
 "Die Musik und ihre Meister. Eine Unterredung",
 "ref":
 "pmb93024"}
 ,  {
 "title":
 "Julies Tagebuch. Roman",
 "ref":
 "pmb76784"}
 ,  {
 "title":
 "Neue Deutsche Rundschau",
 "ref":
 "pmb36152"}
 ,  {
 "title":
 "Julies Dagbog. Roman",
 "ref":
 "pmb93513"}
 ],
 "listOrg":
  [
 {
 "orgName":
 "Frankfurter Zeitung",
 "ref":
 "pmb29442"}
 ,  {
 "orgName":
 "Burgtheater",
 "ref":
 "pmb36247"}
 ,  {
 "orgName":
 "Neue Freie Presse",
 "ref":
 "pmb29351"}
 ,  {
 "orgName":
 "La Liberté",
 "ref":
 "pmb93006"}
 ,  {
 "orgName":
 "S. Fischer Verlag",
 "ref":
 "pmb29639"}
 ],
 "listPlace":
  [
 {
 "placeName":
 "Paris",
 "ref":
 "pmb182"}
 ,  {
 "placeName":
 "Wien",
 "ref":
 "pmb50"}
 ,  {
 "placeName":
 "rue Feydeau",
 "ref":
 "pmb42671"}
 ,  {
 "placeName":
 "Deutschland",
 "ref":
 "pmb151"}
 ,  {
 "placeName":
 "Frankreich",
 "ref":
 "pmb166"}
 ]
}
}, {
 "type":
 "schnitzler-tagebuch",
 "color":
 "#037a33",
 "caption":
 "Tagebuch",
 "idno":
 "https://schnitzler-tagebuch.acdh.oeaw.ac.at/entry__1895-09-23.html",
 "head":
 "Tagebuch, 23. September 1895",
 "desc":
{"listPerson":
  [
{
 "persName":
 "Marie Glümer",
 "ref":
 "person_15485"},
 {
 "persName":
 "John Henry Mackay",
 "ref":
 "person_17771"},
 {
 "persName":
 "Marie Reinhard",
 "ref":
 "person_19150"},
 {
 "persName":
 "Max Weinberg",
 "ref":
 "person_21163"}],
 "listPlace":
  [
 {
 "placeName":
 "Frankreich",
 "ref":
 "pmb166"}
 ]
}
}] 