[{
 "type":
 "schnitzler-tagebuch",
 "color":
 "#037a33",
 "filename":
 "entry__1895-08-09",
 "caption":
 "Tagebuch",
 "idno":
 "https://schnitzler-tagebuch.acdh.oeaw.ac.at/entry__1895-08-09.html",
 "head":
 "Tagebuch, 9. August 1895",
 "desc":
{"listPerson":
  [
{
 "persName":
 "Richard Beer-Hofmann",
 "ref":
 "person_13551"},
 {
 "persName":
 "Josef Jarno",
 "ref":
 "person_16517"},
 {
 "persName":
 "Adele Sandrock",
 "ref":
 "person_19564"},
 {
 "persName":
 "Lou Brion",
 "ref":
 "person_13979"},
 {
 "persName":
 "Rosa Bahr",
 "ref":
 "person_13375"},
 {
 "persName":
 "Irma Fabiani",
 "ref":
 "person_14849"}],
 "listBibl":
  [
 {
 "title":
 "Das Stiftungsfest",
 "ref":
 "pmb77640"}
 ]
}
}, {
 "type":
 "schnitzler-briefe",
 "color":
 "#A63437",
 "filename":
 "L00470",
 "caption":
 "Briefe mit Autorinnen und Autoren",
 "idno":
 "https://schnitzler-briefe.acdh.oeaw.ac.at/L00470.html",
 "head":
 "Lou Andreas-Salomé an Arthur Schnitzler, 9. 8. 1895",
 "desc":
{"listPerson":
  [
{
 "persName":
 "Lou Andreas-Salomé",
 "ref":
 "pmb10762"},
 {
 "persName":
 "Arthur Schnitzler",
 "ref":
 "pmb2121"},
 {
 "persName":
 "Lou Andreas-Salomé",
 "ref":
 "pmb10762"}],
 "listPlace":
  [
 {
 "placeName":
 "Berlin",
 "ref":
 "pmb168"}
 ,  {
 "placeName":
 "Frankgasse 1",
 "ref":
 "pmb168934"}
 ,  {
 "placeName":
 "Salzburg",
 "ref":
 "pmb30"}
 ,  {
 "placeName":
 "München",
 "ref":
 "pmb45258"}
 ,  {
 "placeName":
 "Wien",
 "ref":
 "pmb50"}
 ,  {
 "placeName":
 "IX., Alsergrund",
 "ref":
 "pmb59"}
 ,  {
 "placeName":
 "Schmargendorf",
 "ref":
 "pmb61048"}
 ]
}
}, {
 "type":
 "schnitzler-briefe",
 "color":
 "#A63437",
 "filename":
 "L00471",
 "caption":
 "Briefe mit Autorinnen und Autoren",
 "idno":
 "https://schnitzler-briefe.acdh.oeaw.ac.at/L00471.html",
 "head":
 "Hugo von Hofmannsthal an Arthur Schnitzler, 9. 8. [1895]",
 "desc":
{"listPerson":
  [
{
 "persName":
 "Hugo von Hofmannsthal",
 "ref":
 "pmb11740"},
 {
 "persName":
 "Arthur Schnitzler",
 "ref":
 "pmb2121"},
 {
 "persName":
 "Richard Beer-Hofmann",
 "ref":
 "pmb10863"},
 {
 "persName":
 "Hugo von Hofmannsthal",
 "ref":
 "pmb11740"},
 {
 "persName":
 "Fedor Mamroth",
 "ref":
 "pmb4986"}],
 "listPlace":
  [
 {
 "placeName":
 "Znaim",
 "ref":
 "pmb33978"}
 ,  {
 "placeName":
 "Dänemark",
 "ref":
 "pmb43570"}
 ,  {
 "placeName":
 "München",
 "ref":
 "pmb45258"}
 ,  {
 "placeName":
 "Hodonín",
 "ref":
 "pmb49823"}
 ,  {
 "placeName":
 "Wien",
 "ref":
 "pmb50"}
 ,  {
 "placeName":
 "Stockerau",
 "ref":
 "pmb54769"}
 ],
 "listOrg":
  [
 {
 "orgName":
 "Frankfurter Zeitung",
 "ref":
 "pmb29442"}
 ]
}
}, {
 "type":
 "schnitzler-briefe",
 "color":
 "#A63437",
 "filename":
 "L02743",
 "caption":
 "Briefe mit Autorinnen und Autoren",
 "idno":
 "https://schnitzler-briefe.acdh.oeaw.ac.at/L02743.html",
 "head":
 "Paul Goldmann an Arthur Schnitzler, 9. 8. [1895]",
 "desc":
{"listPerson":
  [
{
 "persName":
 "Paul Goldmann",
 "ref":
 "pmb11485"},
 {
 "persName":
 "Arthur Schnitzler",
 "ref":
 "pmb2121"},
 {
 "persName":
 "Paul Goldmann",
 "ref":
 "pmb11485"},
 {
 "persName":
 "Henri Albert",
 "ref":
 "pmb2801"},
 {
 "persName":
 "Charles Simon",
 "ref":
 "pmb24952"},
 {
 "persName":
 "Albert Langen",
 "ref":
 "pmb3379"},
 {
 "persName":
 "?? [Kindheitsfreund von Paul Goldmann]",
 "ref":
 "pmb93501"},
 {
 "persName":
 "Regina Candiani",
 "ref":
 "pmb14842"},
 {
 "persName":
 "Richard Beer-Hofmann",
 "ref":
 "pmb10863"},
 {
 "persName":
 "Peter Michael Braunwarth",
 "ref":
 "pmb119261"},
 {
 "persName":
 "Reinhard Urbach",
 "ref":
 "pmb65504"},
 {
 "persName":
 "Werner Welzig",
 "ref":
 "pmb143327"},
 {
 "persName":
 "Richard Miklin",
 "ref":
 "pmb143331"},
 {
 "persName":
 "Konstanze Fliedl",
 "ref":
 "pmb119271"},
 {
 "persName":
 "Walter Ruprechter",
 "ref":
 "pmb143334"},
 {
 "persName":
 "Susanne Pertlik",
 "ref":
 "pmb143337"}],
 "listBibl":
  [
 {
 "title":
 "Revue pour les jeunes filles",
 "ref":
 "pmb92976"}
 ,  {
 "title":
 "Freiwild. Schauspiel in 3 Akten",
 "ref":
 "pmb29899"}
 ,  {
 "title":
 "Tagebuch",
 "ref":
 "pmb33243"}
 ],
 "listPlace":
  [
 {
 "placeName":
 "Bad Tölz",
 "ref":
 "pmb424"}
 ,  {
 "placeName":
 "Wien",
 "ref":
 "pmb50"}
 ,  {
 "placeName":
 "Paris",
 "ref":
 "pmb182"}
 ,  {
 "placeName":
 "München",
 "ref":
 "pmb45258"}
 ,  {
 "placeName":
 "Straßburg",
 "ref":
 "pmb319"}
 ,  {
 "placeName":
 "Schwarzwald",
 "ref":
 "pmb92965"}
 ,  {
 "placeName":
 "Bayern",
 "ref":
 "pmb314"}
 ]
}
}, {
 "type":
 "wienerschnitzler",
 "color":
 "#6F5106",
 "caption":
 "Wiener Schnitzler",
 "idno":
 "https://wienerschnitzler.org/tag.html#1895-08-09",
 "head":
 "Bad Ischl",
 "desc":
{"listPlace":
  [
 {
 "placeName":
 "Hotel und Pension Rudolfshöhe (Leopold Petter)",
 "ref":
 ""}
 ,  {
 "placeName":
 "Lehártheater",
 "ref":
 ""}
 ]
}
}, {
 "type":
 "URL",
 "subtype":
 "schnitzler-kultur",
 "filename":
 "pmb208764",
 "idno":
 "https://schnitzler-kultur.acdh.oeaw.ac.at/pmb208764.html",
 "head":
 "Aufführung von Das Stiftungsfest, 9.8.1895",
 "desc":
{"listOrg":
  [
 {
 "orgName":
 "Saisontheater Ischl",
 "ref":
 ""}
 ],
 "listBibl":
  [
 {
 "title":
 "Das Stiftungsfest",
 "ref":
 ""}
 ],
 "listPerson":
  [
{
 "persName":
 "Arthur Schnitzler",
 "ref":
 ""}],
 "listPlace":
  [
 {
 "placeName":
 "Lehártheater",
 "ref":
 ""}
 ]
}
}] 