[{
 "type":
 "schnitzler-tagebuch",
 "color":
 "#037a33",
 "filename":
 "entry__1895-09-21",
 "caption":
 "Tagebuch",
 "idno":
 "https://schnitzler-tagebuch.acdh.oeaw.ac.at/entry__1895-09-21.html",
 "head":
 "Tagebuch, 21. September 1895",
 "desc":
{"listPerson":
  [
{
 "persName":
 "Marie Glümer",
 "ref":
 "person_15485"},
 {
 "persName":
 "Friedrich Michael Fels",
 "ref":
 "person_14942"},
 {
 "persName":
 "Marie Reinhard",
 "ref":
 "person_19150"}],
 "listBibl":
  [
 {
 "title":
 "Die Doppelhochzeit",
 "ref":
 "pmb41143"}
 ],
 "listPlace":
  [
 {
 "placeName":
 "VIII., Josefstadt",
 "ref":
 "pmb58"}
 ,  {
 "placeName":
 "Zürich",
 "ref":
 "pmb484"}
 ]
}
}, {
 "type":
 "schnitzler-briefe",
 "color":
 "#A63437",
 "filename":
 "L00489",
 "caption":
 "Briefe mit Autorinnen und Autoren",
 "idno":
 "https://schnitzler-briefe.acdh.oeaw.ac.at/L00489.html",
 "head":
 "Arthur Schnitzler an Richard Beer-Hofmann, 21. 9. 1895",
 "desc":
{"listPerson":
  [
{
 "persName":
 "Arthur Schnitzler",
 "ref":
 "pmb2121"},
 {
 "persName":
 "Richard Beer-Hofmann",
 "ref":
 "pmb10863"},
 {
 "persName":
 "Richard Beer-Hofmann",
 "ref":
 "pmb10863"},
 {
 "persName":
 "Max Eugen Burckhard",
 "ref":
 "pmb11036"},
 {
 "persName":
 "Giuseppe Giacosa",
 "ref":
 "pmb11431"},
 {
 "persName":
 "Hugo von Hofmannsthal",
 "ref":
 "pmb11740"},
 {
 "persName":
 "Anna Kallina",
 "ref":
 "pmb11860"},
 {
 "persName":
 "Friedrich Mitterwurzer",
 "ref":
 "pmb12265"},
 {
 "persName":
 "Adele Sandrock",
 "ref":
 "pmb12618"},
 {
 "persName":
 "Adolf von Sonnenthal",
 "ref":
 "pmb12809"},
 {
 "persName":
 "Josef Hellmesberger",
 "ref":
 "pmb18093"},
 {
 "persName":
 "Victor Léon",
 "ref":
 "pmb2337"},
 {
 "persName":
 "Friedrich Michael Fels",
 "ref":
 "pmb2450"},
 {
 "persName":
 "Heinrich von Waldberg",
 "ref":
 "pmb26602"},
 {
 "persName":
 "Heinrich Laube",
 "ref":
 "pmb2702"},
 {
 "persName":
 "Anna Dandler",
 "ref":
 "pmb4501"}],
 "listBibl":
  [
 {
 "title":
 "Liebelei. Schauspiel in drei Akten",
 "ref":
 "pmb29917"}
 ,  {
 "title":
 "Rechte der Seele. Schauspiel in einem Act",
 "ref":
 "pmb31711"}
 ,  {
 "title":
 "Ein Pelikan. Schauspiel in fünf Aufzügen",
 "ref":
 "pmb41136"}
 ,  {
 "title":
 "Die Doppelhochzeit",
 "ref":
 "pmb41143"}
 ],
 "listPlace":
  [
 {
 "placeName":
 "Sprottau",
 "ref":
 "pmb1004"}
 ,  {
 "placeName":
 "Burgtheater",
 "ref":
 "pmb14"}
 ,  {
 "placeName":
 "Gardone Riviera",
 "ref":
 "pmb374"}
 ,  {
 "placeName":
 "Theater in der Josefstadt",
 "ref":
 "pmb40"}
 ,  {
 "placeName":
 "Riva del Garda",
 "ref":
 "pmb465"}
 ,  {
 "placeName":
 "Wien",
 "ref":
 "pmb50"}
 ],
 "listOrg":
  [
 {
 "orgName":
 "Burgtheater",
 "ref":
 "pmb36247"}
 ,  {
 "orgName":
 "Nationaltheater München",
 "ref":
 "pmb44112"}
 ]
}
}, {
 "type":
 "wienerschnitzler",
 "color":
 "#6F5106",
 "caption":
 "Wiener Schnitzler",
 "idno":
 "https://wienerschnitzler.org/tag.html#1895-09-21",
 "head":
 "Wien",
 "desc":
{"listPlace":
  [
 {
 "placeName":
 "IX., Alsergrund",
 "ref":
 ""}
 ,  {
 "placeName":
 "VIII., Josefstadt",
 "ref":
 ""}
 ]
}
}, {
 "type":
 "schnitzler-kultur",
 "color":
 "#6B4C5A",
 "filename":
 "pmb41148",
 "caption":
 "Kulturveranstaltungen",
 "idno":
 "https://schnitzler-kultur.acdh.oeaw.ac.at/pmb41148.html",
 "head":
 "Uraufführung von Die Doppelhochzeit, 21.9.1895",
 "desc":
{"listOrg":
  [
 {
 "orgName":
 "Theater in der Josefstadt",
 "ref":
 ""}
 ],
 "listBibl":
  [
 {
 "title":
 "Die Doppelhochzeit",
 "ref":
 ""}
 ],
 "listPerson":
  [
{
 "persName":
 "Arthur Schnitzler",
 "ref":
 ""}],
 "listPlace":
  [
 {
 "placeName":
 "Theater in der Josefstadt",
 "ref":
 ""}
 ]
}
}] 