[{
 "type":
 "schnitzler-tagebuch",
 "color":
 "#037a33",
 "filename":
 "entry__1895-04-16",
 "caption":
 "Tagebuch",
 "idno":
 "https://schnitzler-tagebuch.acdh.oeaw.ac.at/entry__1895-04-16.html",
 "head":
 "Tagebuch, 16. April 1895",
 "desc":
{"listPerson":
  [
{
 "persName":
 "Marie Glümer",
 "ref":
 "person_15485"},
 {
 "persName":
 "Moriz Necker",
 "ref":
 "person_18372"},
 {
 "persName":
 "Adele Sandrock",
 "ref":
 "person_19564"},
 {
 "persName":
 "Marie Reinhard",
 "ref":
 "person_19150"},
 {
 "persName":
 "Hugo von Hofmannsthal",
 "ref":
 "person_16293"}],
 "listBibl":
  [
 {
 "title":
 "Sterben. Novelle",
 "ref":
 "pmb30117"}
 ]
}
}, {
 "type":
 "schnitzler-briefe",
 "color":
 "#A63437",
 "filename":
 "L03858",
 "caption":
 "Briefe mit Autorinnen und Autoren",
 "idno":
 "https://schnitzler-briefe.acdh.oeaw.ac.at/L03858.html",
 "head":
 "Theodor Herzl an Arthur Schnitzler, 16. 4. 1895",
 "desc":
{"listPerson":
  [
{
 "persName":
 "Theodor Herzl",
 "ref":
 "pmb11673"},
 {
 "persName":
 "Arthur Schnitzler",
 "ref":
 "pmb2121"},
 {
 "persName":
 "Theodor Herzl",
 "ref":
 "pmb11673"}],
 "listBibl":
  [
 {
 "title":
 "Das neue Ghetto. Schauspiel in vier Acten",
 "ref":
 "pmb76499"}
 ],
 "listPlace":
  [
 {
 "placeName":
 "Paris",
 "ref":
 "pmb182"}
 ,  {
 "placeName":
 "Wien",
 "ref":
 "pmb50"}
 ,  {
 "placeName":
 "8, Rue de Monceau",
 "ref":
 "pmb296731"}
 ,  {
 "placeName":
 "37, Rue Cambon",
 "ref":
 "pmb298742"}
 ,  {
 "placeName":
 "place de la Madeleine",
 "ref":
 "pmb298761"}
 ],
 "listOrg":
  [
 {
 "orgName":
 "Neue Freie Presse",
 "ref":
 "pmb29351"}
 ]
}
}, {
 "type":
 "schnitzler-briefe",
 "color":
 "#A63437",
 "filename":
 "L00429",
 "caption":
 "Briefe mit Autorinnen und Autoren",
 "idno":
 "https://schnitzler-briefe.acdh.oeaw.ac.at/L00429.html",
 "head":
 "Laura Marholm an Arthur Schnitzler, 16. 4. 1895",
 "desc":
{"listPerson":
  [
{
 "persName":
 "Laura Marholm",
 "ref":
 "pmb12183"},
 {
 "persName":
 "Arthur Schnitzler",
 "ref":
 "pmb2121"},
 {
 "persName":
 "Laura Marholm",
 "ref":
 "pmb12183"},
 {
 "persName":
 "Heinrich Kraft",
 "ref":
 "pmb5652"},
 {
 "persName":
 "Havelock Ellis",
 "ref":
 "pmb5679"},
 {
 "persName":
 "Ola Hansson",
 "ref":
 "pmb4804"}],
 "listBibl":
  [
 {
 "title":
 "Das Buch der Frauen",
 "ref":
 "pmb33518"}
 ,  {
 "title":
 "Mann und Weib",
 "ref":
 "pmb33520"}
 ],
 "listPlace":
  [
 {
 "placeName":
 "Oberbayern",
 "ref":
 "pmb1201"}
 ,  {
 "placeName":
 "Universitäts-Frauenklinik",
 "ref":
 "pmb1218"}
 ,  {
 "placeName":
 "Straßburg",
 "ref":
 "pmb319"}
 ,  {
 "placeName":
 "Wien",
 "ref":
 "pmb50"}
 ,  {
 "placeName":
 "Schliersee",
 "ref":
 "pmb936"}
 ]
}
}, {
 "type":
 "wienerschnitzler",
 "color":
 "#6F5106",
 "caption":
 "Wiener Schnitzler",
 "idno":
 "https://wienerschnitzler.org/tag.html#1895-04-16",
 "head":
 "Wien",
 "desc":
{"listPlace":
  [
 {
 "placeName":
 "III., Landstraße",
 "ref":
 ""}
 ,  {
 "placeName":
 "IX., Alsergrund",
 "ref":
 ""}
 ]
}
}] 