[{
 "type":
 "schnitzler-tagebuch",
 "color":
 "#037a33",
 "filename":
 "entry__1895-09-19",
 "caption":
 "Tagebuch",
 "idno":
 "https://schnitzler-tagebuch.acdh.oeaw.ac.at/entry__1895-09-19.html",
 "head":
 "Tagebuch, 19. September 1895",
 "desc":
{"listPerson":
  [
{
 "persName":
 "Felix Salten",
 "ref":
 "person_19542"},
 {
 "persName":
 "Adele Sandrock",
 "ref":
 "person_19564"},
 {
 "persName":
 "Louise Schnitzler",
 "ref":
 "person_19831"},
 {
 "persName":
 "Marie Reinhard",
 "ref":
 "person_19150"},
 {
 "persName":
 "Erna Grunert",
 "ref":
 "person_15719"}],
 "listBibl":
  [
 {
 "title":
 "Schafhaxl",
 "ref":
 "pmb81171"}
 ]
}
}, {
 "type":
 "schnitzler-briefe",
 "color":
 "#A63437",
 "filename":
 "L00487",
 "caption":
 "Briefe mit Autorinnen und Autoren",
 "idno":
 "https://schnitzler-briefe.acdh.oeaw.ac.at/L00487.html",
 "head":
 "Arthur Schnitzler an Richard Beer-Hofmann, 19. 9. 1895",
 "desc":
{"listPerson":
  [
{
 "persName":
 "Arthur Schnitzler",
 "ref":
 "pmb2121"},
 {
 "persName":
 "Richard Beer-Hofmann",
 "ref":
 "pmb10863"},
 {
 "persName":
 "Richard Beer-Hofmann",
 "ref":
 "pmb10863"}],
 "listBibl":
  [
 {
 "title":
 "Liebelei. Schauspiel in drei Akten",
 "ref":
 "pmb29917"}
 ],
 "listPlace":
  [
 {
 "placeName":
 "Riva del Garda",
 "ref":
 "pmb465"}
 ,  {
 "placeName":
 "Wien",
 "ref":
 "pmb50"}
 ,  {
 "placeName":
 "IX., Alsergrund",
 "ref":
 "pmb59"}
 ,  {
 "placeName":
 "Schönberg im Stubaital",
 "ref":
 "pmb759"}
 ]
}
}, {
 "type":
 "schnitzler-briefe",
 "color":
 "#A63437",
 "filename":
 "L00488",
 "caption":
 "Briefe mit Autorinnen und Autoren",
 "idno":
 "https://schnitzler-briefe.acdh.oeaw.ac.at/L00488.html",
 "head":
 "Friedrich M. Fels an Arthur Schnitzler, 19. 9. 1895",
 "desc":
{"listPerson":
  [
{
 "persName":
 "Friedrich M. Fels",
 "ref":
 "pmb2450"},
 {
 "persName":
 "Arthur Schnitzler",
 "ref":
 "pmb2121"},
 {
 "persName":
 "Richard Beer-Hofmann",
 "ref":
 "pmb10863"},
 {
 "persName":
 "Hugo von Hofmannsthal",
 "ref":
 "pmb11740"},
 {
 "persName":
 "John Henry Mackay",
 "ref":
 "pmb12152"},
 {
 "persName":
 "Felix Salten",
 "ref":
 "pmb2167"},
 {
 "persName":
 "Max Pollandt",
 "ref":
 "pmb22759"},
 {
 "persName":
 "Friedrich Michael Fels",
 "ref":
 "pmb2450"},
 {
 "persName":
 "Josefine Sorger",
 "ref":
 "pmb42356"},
 {
 "persName":
 "Jenny Neuhut",
 "ref":
 "pmb42362"},
 {
 "persName":
 "?? [Vermieterin von F. M. Fels in Zürich]",
 "ref":
 "pmb42387"},
 {
 "persName":
 "?? [Amerikanische Studentin in Zürich 1]",
 "ref":
 "pmb42390"},
 {
 "persName":
 "?? [Amerikanische Studentin in Zürich 2]",
 "ref":
 "pmb42393"},
 {
 "persName":
 "Hugo Bettauer",
 "ref":
 "pmb6294"}],
 "listBibl":
  [
 {
 "title":
 "Die kleine Komödie",
 "ref":
 "pmb31975"}
 ,  {
 "title":
 "Neue Deutsche Rundschau",
 "ref":
 "pmb36152"}
 ,  {
 "title":
 "Neue Zürcher Zeitung",
 "ref":
 "pmb42406"}
 ,  {
 "title":
 "Bulgarische Volksdichtungen",
 "ref":
 "pmb43130"}
 ],
 "listPlace":
  [
 {
 "placeName":
 "Bad Ischl",
 "ref":
 "pmb213"}
 ,  {
 "placeName":
 "Café Griensteidl",
 "ref":
 "pmb34"}
 ,  {
 "placeName":
 "Volkstheater [Zürich]",
 "ref":
 "pmb42359"}
 ,  {
 "placeName":
 "Rämistrasse",
 "ref":
 "pmb42383"}
 ,  {
 "placeName":
 "Schweiz",
 "ref":
 "pmb43435"}
 ,  {
 "placeName":
 "Zürich",
 "ref":
 "pmb484"}
 ,  {
 "placeName":
 "Wien",
 "ref":
 "pmb50"}
 ,  {
 "placeName":
 "Stadttheater [Zürich]",
 "ref":
 "pmb777"}
 ]
}
}, {
 "type":
 "wienerschnitzler",
 "color":
 "#6F5106",
 "caption":
 "Wiener Schnitzler",
 "idno":
 "https://wienerschnitzler.org/tag.html#1895-09-19",
 "head":
 "Wien",
 "desc":
{"listPlace":
  [
 {
 "placeName":
 "II., Leopoldstadt",
 "ref":
 ""}
 ,  {
 "placeName":
 "IX., Alsergrund",
 "ref":
 ""}
 ,  {
 "placeName":
 "Jantsch-Theater",
 "ref":
 ""}
 ]
}
}, {
 "type":
 "URL",
 "subtype":
 "pmb",
 "filename":
 "entity/208779/",
 "idno":
 "https://pmb.acdh.oeaw.ac.at/entity/208779/",
 "head":
 "Aufführung von Schafhaxl, 19.9.1895",
 "desc":
{"listBibl":
  [
 {
 "title":
 "Schafhaxl. Große französische Ausstattungs-Feerie mit Gesang und Ballet in 5 Aufzügen und 14 Bildern",
 "ref":
 ""}
 ],
 "listPerson":
  [
{
 "persName":
 "Arthur Schnitzler",
 "ref":
 ""}],
 "listPlace":
  [
 {
 "placeName":
 "Jantsch-Theater",
 "ref":
 ""}
 ]
}
}] 