[{
 "type":
 "schnitzler-tagebuch",
 "color":
 "#037a33",
 "filename":
 "entry__1895-12-08",
 "caption":
 "Tagebuch",
 "idno":
 "https://schnitzler-tagebuch.acdh.oeaw.ac.at/entry__1895-12-08.html",
 "head":
 "Tagebuch, 8. Dezember 1895",
 "desc":
{"listPerson":
  [
{
 "persName":
 "Max Eugen Burckhard",
 "ref":
 "person_14065"},
 {
 "persName":
 "Eugen Herz",
 "ref":
 "person_16145"},
 {
 "persName":
 "Carl Karlweis",
 "ref":
 "person_16730"},
 {
 "persName":
 "Friedrich Mitterwurzer",
 "ref":
 "person_18190"},
 {
 "persName":
 "Charlotte Pohl",
 "ref":
 "person_18844"},
 {
 "persName":
 "Felix Salten",
 "ref":
 "person_19542"},
 {
 "persName":
 "Adele Sandrock",
 "ref":
 "person_19564"},
 {
 "persName":
 "Katharina Schratt",
 "ref":
 "person_19877"},
 {
 "persName":
 "Gustav Schwarzkopf",
 "ref":
 "person_19986"},
 {
 "persName":
 "Samuel Wärndorfer",
 "ref":
 "person_21017"},
 {
 "persName":
 "Hermine von Schaffgotsch",
 "ref":
 "person_19611"}],
 "listBibl":
  [
 {
 "title":
 "Liebelei. Schauspiel in drei Akten",
 "ref":
 "pmb29917"}
 ,  {
 "title":
 "Einen Jux will er sich machen",
 "ref":
 "pmb77429"}
 ]
}
}, {
 "type":
 "schnitzler-briefe",
 "color":
 "#A63437",
 "filename":
 "L00520",
 "caption":
 "Briefe mit Autorinnen und Autoren",
 "idno":
 "https://schnitzler-briefe.acdh.oeaw.ac.at/L00520.html",
 "head":
 "Lou Andreas-Salomé an Arthur Schnitzler, 8. 12. 1895",
 "desc":
{"listPerson":
  [
{
 "persName":
 "Lou Andreas-Salomé",
 "ref":
 "pmb10762"}],
 "listPlace":
  [
 {
 "placeName":
 "Frankgasse 1",
 "ref":
 "pmb168934"}
 ,  {
 "placeName":
 "Café Griensteidl",
 "ref":
 "pmb34"}
 ,  {
 "placeName":
 "Wien",
 "ref":
 "pmb50"}
 ,  {
 "placeName":
 "I., Innere Stadt",
 "ref":
 "pmb51"}
 ,  {
 "placeName":
 "IX., Alsergrund",
 "ref":
 "pmb59"}
 ]
}
}, {
 "type":
 "wienerschnitzler",
 "color":
 "#6F5106",
 "caption":
 "Wiener Schnitzler",
 "idno":
 "https://wienerschnitzler.org/tag.html#1895-12-08",
 "head":
 "Wien",
 "desc":
{"listPlace":
  [
 {
 "placeName":
 "II., Leopoldstadt",
 "ref":
 ""}
 ,  {
 "placeName":
 "IV., Wieden",
 "ref":
 ""}
 ,  {
 "placeName":
 "IX., Alsergrund",
 "ref":
 ""}
 ]
}
}, {
 "type":
 "schnitzler-kultur",
 "color":
 "#6B4C5A",
 "filename":
 "pmb208803",
 "caption":
 "Kulturveranstaltungen",
 "idno":
 "https://schnitzler-kultur.acdh.oeaw.ac.at/pmb208803.html",
 "head":
 "Aufführung von Einen Jux will er sich machen, 8.12.1895",
 "desc":
{"listOrg":
  [
 {
 "orgName":
 "Carl-Theater",
 "ref":
 ""}
 ],
 "listBibl":
  [
 {
 "title":
 "Einen Jux will er sich machen",
 "ref":
 ""}
 ],
 "listPerson":
  [
{
 "persName":
 "Arthur Schnitzler",
 "ref":
 ""}],
 "listPlace":
  [
 {
 "placeName":
 "Carl-Theater",
 "ref":
 ""}
 ]
}
}, {
 "type":
 "kalliope-verbund",
 "color":
 "#003574",
 "caption":
 "Kalliope Verbundkatalog",
 "idno":
 "http://kalliope-verbund.info/DE-2498-HS00037659",
 "head":
 "Koblenzer, Martin an Schnitzler, Arthur [Briefe]",
 "text":
 "2 Bl."
}] 