[{
 "type":
 "schnitzler-tagebuch",
 "color":
 "#037a33",
 "filename":
 "entry__1895-07-25",
 "caption":
 "Tagebuch",
 "idno":
 "https://schnitzler-tagebuch.acdh.oeaw.ac.at/entry__1895-07-25.html",
 "head":
 "Tagebuch, 25. Juli 1895",
 "desc":
{"listPerson":
  [
{
 "persName":
 "Richard Beer-Hofmann",
 "ref":
 "person_13551"},
 {
 "persName":
 "Katharina Kohn",
 "ref":
 "person_14798"},
 {
 "persName":
 "Carla Ernst",
 "ref":
 "person_14801"},
 {
 "persName":
 "Alexander Wilhelm Neuman",
 "ref":
 "person_18407"},
 {
 "persName":
 "Arthur Pserhofer",
 "ref":
 "person_18985"},
 {
 "persName":
 "Lou Brion",
 "ref":
 "person_13979"}],
 "listBibl":
  [
 {
 "title":
 "Die Dragoner",
 "ref":
 "pmb80215"}
 ],
 "listPlace":
  [
 {
 "placeName":
 "Strobl",
 "ref":
 "pmb91852"}
 ]
}
}, {
 "type":
 "schnitzler-briefe",
 "color":
 "#A63437",
 "filename":
 "L00466",
 "caption":
 "Briefe mit Autorinnen und Autoren",
 "idno":
 "https://schnitzler-briefe.acdh.oeaw.ac.at/L00466.html",
 "head":
 "Arthur Schnitzler an Richard Beer-Hofmann, [25. 7. 1895?]",
 "desc":
{"listPerson":
  [
{
 "persName":
 "Richard Beer-Hofmann",
 "ref":
 "pmb10863"},
 {
 "persName":
 "Carla Ernst",
 "ref":
 "pmb15999"},
 {
 "persName":
 "Katharina Kohn",
 "ref":
 "pmb27859"}],
 "listBibl":
  [
 {
 "title":
 "Tagebuch",
 "ref":
 "pmb33243"}
 ],
 "listPlace":
  [
 {
 "placeName":
 "Bad Ischl",
 "ref":
 "pmb213"}
 ,  {
 "placeName":
 "Eglmoosgasse",
 "ref":
 "pmb766"}
 ,  {
 "placeName":
 "Strobl",
 "ref":
 "pmb895"}
 ]
}
}, {
 "type":
 "schnitzler-briefe",
 "color":
 "#A63437",
 "filename":
 "L02741",
 "caption":
 "Briefe mit Autorinnen und Autoren",
 "idno":
 "https://schnitzler-briefe.acdh.oeaw.ac.at/L02741.html",
 "head":
 "Paul Goldmann an Arthur Schnitzler, 25. 7. [1895]",
 "desc":
{"listPerson":
  [
{
 "persName":
 "Lou Andreas-Salomé",
 "ref":
 "pmb10762"},
 {
 "persName":
 "Richard Beer-Hofmann",
 "ref":
 "pmb10863"},
 {
 "persName":
 "Paul Goldmann",
 "ref":
 "pmb11485"},
 {
 "persName":
 "Julius Schnitzler",
 "ref":
 "pmb12698"},
 {
 "persName":
 "Louise Schnitzler",
 "ref":
 "pmb12701"},
 {
 "persName":
 "Henry Becque",
 "ref":
 "pmb13897"},
 {
 "persName":
 "Clementine Goldmann",
 "ref":
 "pmb17163"},
 {
 "persName":
 "Hans Schnitzler",
 "ref":
 "pmb24420"},
 {
 "persName":
 "Helene Schnitzler",
 "ref":
 "pmb24423"},
 {
 "persName":
 "Leopold Sonnemann",
 "ref":
 "pmb87771"},
 {
 "persName":
 "Lucien Muhlfeld",
 "ref":
 "pmb92935"}],
 "listBibl":
  [
 {
 "title":
 "La Revue blanche",
 "ref":
 "pmb88057"}
 ,  {
 "title":
 "Querelles littéraires",
 "ref":
 "pmb92932"}
 ,  {
 "title":
 "Pour le Cœur gros de la Poupée",
 "ref":
 "pmb92938"}
 ],
 "listOrg":
  [
 {
 "orgName":
 "Frankfurter Zeitung",
 "ref":
 "pmb29442"}
 ],
 "listPlace":
  [
 {
 "placeName":
 "Paris",
 "ref":
 "pmb182"}
 ,  {
 "placeName":
 "Bad Ischl",
 "ref":
 "pmb213"}
 ,  {
 "placeName":
 "Kopenhagen",
 "ref":
 "pmb36300"}
 ,  {
 "placeName":
 "Bad Tölz",
 "ref":
 "pmb424"}
 ,  {
 "placeName":
 "rue Feydeau",
 "ref":
 "pmb42671"}
 ,  {
 "placeName":
 "München",
 "ref":
 "pmb45258"}
 ]
}
}, {
 "type":
 "wienerschnitzler",
 "color":
 "#ECDA98",
 "caption":
 "Wiener Schnitzler",
 "idno":
 "https://wienerschnitzler.org/tag.html#1895-07-25",
 "head":
 "Bad Ischl",
 "desc":
{"listPlace":
  [
 {
 "placeName":
 "Hotel und Pension Rudolfshöhe (Leopold Petter)",
 "ref":
 ""}
 ,  {
 "placeName":
 "Hotel zum goldenen Kreuz [Bad Ischl]",
 "ref":
 ""}
 ,  {
 "placeName":
 "Hotel Kaiserkrone",
 "ref":
 ""}
 ,  {
 "placeName":
 "Lehártheater",
 "ref":
 ""}
 ]
}
}, {
 "type":
 "wienerschnitzler",
 "color":
 "#ECDA98",
 "caption":
 "Wiener Schnitzler",
 "idno":
 "https://wienerschnitzler.org/tag.html#1895-07-25",
 "head":
 "Strobl"
}, {
 "type":
 "schnitzler-kultur",
 "color":
 "#6B4C5A",
 "filename":
 "pmb208757",
 "caption":
 "Kulturveranstaltungen",
 "idno":
 "https://schnitzler-kultur.acdh.oeaw.ac.at/pmb208757.html",
 "head":
 "Aufführung von Die Dragoner. Schwank in drei
                        Akten, 25.7.1895",
 "desc":
{"listOrg":
  [
 {
 "orgName":
 "Saisontheater Ischl",
 "ref":
 ""}
 ],
 "listBibl":
  [
 {
 "title":
 "Die Dragoner. Schwank in drei Akten",
 "ref":
 ""}
 ],
 "listPerson":
  [
{
 "persName":
 "Arthur Schnitzler",
 "ref":
 ""}],
 "listPlace":
  [
 {
 "placeName":
 "Lehártheater",
 "ref":
 ""}
 ]
}
}] 