[{
 "type":
 "schnitzler-tagebuch",
 "color":
 "#037a33",
 "filename":
 "entry__1895-05-19",
 "caption":
 "Tagebuch",
 "idno":
 "https://schnitzler-tagebuch.acdh.oeaw.ac.at/entry__1895-05-19.html",
 "head":
 "Tagebuch, 19. Mai 1895",
 "desc":
{"listPerson":
  [
{
 "persName":
 "Lou Andreas-Salomé",
 "ref":
 "person_13196"},
 {
 "persName":
 "Richard Beer-Hofmann",
 "ref":
 "person_13551"},
 {
 "persName":
 "Felix Salten",
 "ref":
 "person_19542"},
 {
 "persName":
 "Marie Reinhard",
 "ref":
 "person_19150"},
 {
 "persName":
 "Hugo von Hofmannsthal",
 "ref":
 "person_16293"}],
 "listPlace":
  [
 {
 "placeName":
 "Wien",
 "ref":
 "pmb50"}
 ]
}
}, {
 "type":
 "schnitzler-briefe",
 "color":
 "#A63437",
 "filename":
 "L02735",
 "caption":
 "Briefe mit Autorinnen und Autoren",
 "idno":
 "https://schnitzler-briefe.acdh.oeaw.ac.at/L02735.html",
 "head":
 "Paul Goldmann an Arthur Schnitzler, 19. 5. [1895]",
 "desc":
{"listPerson":
  [
{
 "persName":
 "Paul Goldmann",
 "ref":
 "pmb11485"},
 {
 "persName":
 "Arthur Schnitzler",
 "ref":
 "pmb2121"},
 {
 "persName":
 "Paul Goldmann",
 "ref":
 "pmb11485"},
 {
 "persName":
 "Leopold Sonnemann",
 "ref":
 "pmb87771"},
 {
 "persName":
 "Lou Andreas-Salomé",
 "ref":
 "pmb10762"},
 {
 "persName":
 "Richard Beer-Hofmann",
 "ref":
 "pmb10863"},
 {
 "persName":
 "Oscar Wilde",
 "ref":
 "pmb13115"},
 {
 "persName":
 "Paul Adam",
 "ref":
 "pmb92677"},
 {
 "persName":
 "Henri-Gabriel Ibels",
 "ref":
 "pmb92786"},
 {
 "persName":
 "Adolphe Léon Willette",
 "ref":
 "pmb92789"},
 {
 "persName":
 "A. B.",
 "ref":
 "pmb118019"},
 {
 "persName":
 "Richard Wagner",
 "ref":
 "pmb13024"},
 {
 "persName":
 "Etienne Decrept",
 "ref":
 "pmb92797"}],
 "listBibl":
  [
 {
 "title":
 "Frankfurter Zeitung",
 "ref":
 "pmb36344"}
 ,  {
 "title":
 "Pariser Malerei. (Der Salon der Champs Elysées.) [I].",
 "ref":
 "pmb92818"}
 ,  {
 "title":
 "Die Kammer",
 "ref":
 "pmb93375"}
 ,  {
 "title":
 "Tannhäuser und der Sängerkrieg auf Wartburg",
 "ref":
 "pmb31425"}
 ,  {
 "title":
 "La Revue blanche",
 "ref":
 "pmb88057"}
 ,  {
 "title":
 "»L’Assaut malicieux«",
 "ref":
 "pmb92793"}
 ,  {
 "title":
 "L’amour s’amuse. Saynète",
 "ref":
 "pmb92798"}
 ,  {
 "title":
 "Le Courrier français",
 "ref":
 "pmb88148"}
 ,  {
 "title":
 "Les Funérailles",
 "ref":
 "pmb92821"}
 ,  {
 "title":
 "Firnißtag im Salon de Champs Elysées",
 "ref":
 "pmb117926"}
 ,  {
 "title":
 "»Tannhäuser« in Paris",
 "ref":
 "pmb93368"}
 ,  {
 "title":
 "Eine japanische Kaiserstadt",
 "ref":
 "pmb118017"}
 ,  {
 "title":
 "Japan",
 "ref":
 "pmb93372"}
 ],
 "listPlace":
  [
 {
 "placeName":
 "Paris",
 "ref":
 "pmb182"}
 ,  {
 "placeName":
 "Wien",
 "ref":
 "pmb50"}
 ,  {
 "placeName":
 "rue Feydeau",
 "ref":
 "pmb42671"}
 ,  {
 "placeName":
 "Frankfurt am Main",
 "ref":
 "pmb146"}
 ,  {
 "placeName":
 "Japan",
 "ref":
 "pmb318"}
 ,  {
 "placeName":
 "Kahlenberg",
 "ref":
 "pmb574"}
 ,  {
 "placeName":
 "Kopenhagen",
 "ref":
 "pmb36300"}
 ,  {
 "placeName":
 "Bad Tölz",
 "ref":
 "pmb424"}
 ],
 "listOrg":
  [
 {
 "orgName":
 "Frankfurter Zeitung",
 "ref":
 "pmb29442"}
 ]
}
}, {
 "type":
 "schnitzler-briefe",
 "color":
 "#A63437",
 "filename":
 "L03862",
 "caption":
 "Briefe mit Autorinnen und Autoren",
 "idno":
 "https://schnitzler-briefe.acdh.oeaw.ac.at/L03862.html",
 "head":
 "Theodor Herzl an Arthur Schnitzler, 19. 5. 1895",
 "desc":
{"listPerson":
  [
{
 "persName":
 "Theodor Herzl",
 "ref":
 "pmb11673"},
 {
 "persName":
 "Arthur Schnitzler",
 "ref":
 "pmb2121"},
 {
 "persName":
 "Theodor Herzl",
 "ref":
 "pmb11673"},
 {
 "persName":
 "Heinrich Teweles",
 "ref":
 "pmb12932"},
 {
 "persName":
 "Friedrich Schik",
 "ref":
 "pmb2420"},
 {
 "persName":
 "Oskar Blumenthal",
 "ref":
 "pmb14328"},
 {
 "persName":
 "Otto Brahm",
 "ref":
 "pmb10986"}],
 "listBibl":
  [
 {
 "title":
 "Das neue Ghetto. Schauspiel in vier Acten",
 "ref":
 "pmb76499"}
 ],
 "listPlace":
  [
 {
 "placeName":
 "Paris",
 "ref":
 "pmb182"}
 ,  {
 "placeName":
 "Wien",
 "ref":
 "pmb50"}
 ,  {
 "placeName":
 "Prag",
 "ref":
 "pmb652"}
 ,  {
 "placeName":
 "Berlin",
 "ref":
 "pmb168"}
 ],
 "listOrg":
  [
 {
 "orgName":
 "Ständetheater",
 "ref":
 "pmb298754"}
 ]
}
}, {
 "type":
 "wienerschnitzler",
 "color":
 "#6F5106",
 "caption":
 "Wiener Schnitzler",
 "idno":
 "https://wienerschnitzler.org/tag.html#1895-05-19",
 "head":
 "Wien",
 "desc":
{"listPlace":
  [
 {
 "placeName":
 "I., Innere Stadt",
 "ref":
 ""}
 ,  {
 "placeName":
 "IX., Alsergrund",
 "ref":
 ""}
 ,  {
 "placeName":
 "?? [»bei Uns«, Absteigequartier II Marie Reinhard und Arthur Schnitzler]",
 "ref":
 ""}
 ]
}
}] 