[{
 "type":
 "schnitzler-tagebuch",
 "color":
 "#037a33",
 "filename":
 "entry__1895-07-22",
 "caption":
 "Tagebuch",
 "idno":
 "https://schnitzler-tagebuch.acdh.oeaw.ac.at/entry__1895-07-22.html",
 "head":
 "Tagebuch, 22. Juli 1895",
 "desc":
{"listBibl":
  [
 {
 "title":
 "Hänsel und Grethel",
 "ref":
 "pmb30447"}
 ]
}
}, {
 "type":
 "schnitzler-briefe",
 "color":
 "#A63437",
 "filename":
 "L03159",
 "caption":
 "Briefe mit Autorinnen und Autoren",
 "idno":
 "https://schnitzler-briefe.acdh.oeaw.ac.at/L03159.html",
 "head":
 "Felix Salten an Arthur Schnitzler, 22. 7. 1895",
 "desc":
{"listPerson":
  [
{
 "persName":
 "Richard Beer-Hofmann",
 "ref":
 "pmb10863"},
 {
 "persName":
 "Paul Goldmann",
 "ref":
 "pmb11485"},
 {
 "persName":
 "Hugo von Hofmannsthal",
 "ref":
 "pmb11740"},
 {
 "persName":
 "Julius Schnitzler",
 "ref":
 "pmb12698"},
 {
 "persName":
 "Maria Charlotte Lamberg",
 "ref":
 "pmb143356"},
 {
 "persName":
 "Felix Salten",
 "ref":
 "pmb2167"},
 {
 "persName":
 "Alexander Wilhelm Neuman",
 "ref":
 "pmb21876"},
 {
 "persName":
 "Moriz Rosenthal",
 "ref":
 "pmb23605"},
 {
 "persName":
 "Hans Schnitzler",
 "ref":
 "pmb24420"},
 {
 "persName":
 "Helene Schnitzler",
 "ref":
 "pmb24423"},
 {
 "persName":
 "Charlotte Pohl-Glas",
 "ref":
 "pmb3784"},
 {
 "persName":
 "Caroline Kotter",
 "ref":
 "pmb89578"}],
 "listBibl":
  [
 {
 "title":
 "Die Münchener Kunstausstellungen. II. Im königl. Glaspalast",
 "ref":
 "pmb144701"}
 ,  {
 "title":
 "Die Münchener Kunstausstellungen. I. Im königl. Glaspalast",
 "ref":
 "pmb144705"}
 ,  {
 "title":
 "Münchener Brief. (Orig.-Corr. der »Wiener Allg. Ztg.«)",
 "ref":
 "pmb144711"}
 ,  {
 "title":
 "Quer durch den Wurstelprater",
 "ref":
 "pmb30969"}
 ,  {
 "title":
 "Der Tod Georgs",
 "ref":
 "pmb31535"}
 ,  {
 "title":
 "Wiener Allgemeine Zeitung",
 "ref":
 "pmb39950"}
 ],
 "listOrg":
  [
 {
 "orgName":
 "Frankfurter Zeitung",
 "ref":
 "pmb29442"}
 ],
 "listPlace":
  [
 {
 "placeName":
 "Rügen",
 "ref":
 "pmb142884"}
 ,  {
 "placeName":
 "Paris",
 "ref":
 "pmb182"}
 ,  {
 "placeName":
 "Bad Ischl",
 "ref":
 "pmb213"}
 ,  {
 "placeName":
 "Kopenhagen",
 "ref":
 "pmb36300"}
 ,  {
 "placeName":
 "Hotel und Pension Rudolfshöhe (Leopold Petter)",
 "ref":
 "pmb414"}
 ,  {
 "placeName":
 "München",
 "ref":
 "pmb45258"}
 ,  {
 "placeName":
 "Glaspalast",
 "ref":
 "pmb497"}
 ,  {
 "placeName":
 "Szczecin",
 "ref":
 "pmb49847"}
 ,  {
 "placeName":
 "Wien",
 "ref":
 "pmb50"}
 ,  {
 "placeName":
 "Skandinavien",
 "ref":
 "pmb745"}
 ,  {
 "placeName":
 "Sylt",
 "ref":
 "pmb91863"}
 ]
}
}, {
 "type":
 "wienerschnitzler",
 "color":
 "#ECDA98",
 "caption":
 "Wiener Schnitzler",
 "idno":
 "https://wienerschnitzler.org/tag.html#1895-07-22",
 "head":
 "Bad Ischl",
 "desc":
{"listPlace":
  [
 {
 "placeName":
 "Hotel und Pension Rudolfshöhe (Leopold Petter)",
 "ref":
 ""}
 ,  {
 "placeName":
 "Lehártheater",
 "ref":
 ""}
 ]
}
}, {
 "type":
 "schnitzler-kultur",
 "color":
 "#6B4C5A",
 "filename":
 "pmb208754",
 "caption":
 "Kulturveranstaltungen",
 "idno":
 "https://schnitzler-kultur.acdh.oeaw.ac.at/pmb208754.html",
 "head":
 "Aufführung von Hänsel und Grethel,
                        22.7.1895",
 "desc":
{"listOrg":
  [
 {
 "orgName":
 "Saisontheater Ischl",
 "ref":
 ""}
 ],
 "listBibl":
  [
 {
 "title":
 "Hänsel und Gretel. Märchenspiel in drei Bildern",
 "ref":
 ""}
 ],
 "listPerson":
  [
{
 "persName":
 "Arthur Schnitzler",
 "ref":
 ""}],
 "listPlace":
  [
 {
 "placeName":
 "Lehártheater",
 "ref":
 ""}
 ]
}
}] 