{
 "date":
 {
 "when-iso":
 "1895-05-20",
 "written":
 "Montag, 20. Mai 1895"
},
"listEvent":
 [{
 "type":
 "schnitzler-orte",
 "idno":
 "https://pmb.acdh.oeaw.ac.at/entity/50/",
 "head":
 "Wien"
}, {
 "type":
 "schnitzler-orte",
 "idno":
 "https://pmb.acdh.oeaw.ac.at/entity/91223/",
 "head":
 "Melk"
}, {
 "type":
 "schnitzler-orte",
 "idno":
 "https://pmb.acdh.oeaw.ac.at/entity/531/",
 "head":
 "Wachau"
}, {
 "type":
 "schnitzler-orte",
 "idno":
 "https://pmb.acdh.oeaw.ac.at/entity/36545/",
 "head":
 "Krems"
}, {
 "type":
 "schnitzler-briefe",
 "idno":
 "https://schnitzler-briefe.acdh.oeaw.ac.at/L00444.html",
 "head":
 "Friedrich M. Fels an Arthur Schnitzler, 20. 5. 1895",
 "desc":
{"listPerson":
  [
{
 "persName":
 "Friedrich Michael Fels",
 "ref":
 "pmb2450"},
 {
 "persName":
 "Richard Beer-Hofmann",
 "ref":
 "pmb10863"},
 {
 "persName":
 "Fanny Gröger",
 "ref":
 "pmb17465"},
 {
 "persName":
 "Robert Hirschfeld",
 "ref":
 "pmb11707"},
 {
 "persName":
 "Raoul Bourse",
 "ref":
 "pmb14456"},
 {
 "persName":
 "Gaspard Vallette",
 "ref":
 "pmb40665"}],
 "listBibl":
  [
 {
 "title":
 "Adhimukti",
 "ref":
 "pmb41994"}
 ,  {
 "title":
 "Sterben. Novelle",
 "ref":
 "pmb30117"}
 ],
 "listPlace":
  [
 {
 "placeName":
 "I., Innere Stadt",
 "ref":
 "pmb51"}
 ,  {
 "placeName":
 "IX., Alsergrund",
 "ref":
 "pmb59"}
 ,  {
 "placeName":
 "Wien",
 "ref":
 "pmb50"}
 ,  {
 "placeName":
 "Frankgasse",
 "ref":
 "pmb397"}
 ,  {
 "placeName":
 "Ossiacher See",
 "ref":
 "pmb40374"}
 ,  {
 "placeName":
 "Währinger Gürtel",
 "ref":
 "pmb727"}
 ]}

}, {
 "type":
 "schnitzler-cmif",
 "subtype":
 "#w6429315-92be-4f82-b2f1-926125f9bfa5",
 "head":
 "Eugen Deimel an Arthur Schnitzler, 20.5.1895?",
 "desc":
{"listPerson":
  [
{
 "persName":
 "Deimel, Eugen",
 "ref":
 "https://d-nb.info/gnd/124896847"}],
 "bibl":
 "Heinz P. Adamek (Hg.): In die Neue Welt... Arthur Schnitzler - Eugen Deimel. Briefwechsel. Holzhausen Verlag: Wien 2003"}

}, {
 "type":
 "schnitzler-tagebuch",
 "idno":
 "https://schnitzler-tagebuch.acdh.oeaw.ac.at/entry__1895-05-20.html",
 "head":
 "Tagebuch, 20. Mai 1895",
 "desc":
{"listPerson":
  [
{
 "persName":
 "Lou Andreas-Salomé",
 "ref":
 "person_13196"},
 {
 "persName":
 "Richard Beer-Hofmann",
 "ref":
 "person_13551"}],
 "listPlace":
  [
 {
 "placeName":
 "Melk",
 "ref":
 "pmb91223"}
 ,  {
 "placeName":
 "Wachau",
 "ref":
 "pmb531"}
 ,  {
 "placeName":
 "Krems",
 "ref":
 "pmb36545"}
 ,  {
 "placeName":
 "Wien",
 "ref":
 "pmb50"}
 ]}

}] 
}