[{
 "type":
 "schnitzler-tagebuch",
 "color":
 "#037a33",
 "filename":
 "entry__1895-11-16",
 "caption":
 "Tagebuch",
 "idno":
 "https://schnitzler-tagebuch.acdh.oeaw.ac.at/entry__1895-11-16.html",
 "head":
 "Tagebuch, 16. November 1895",
 "desc":
{"listPerson":
  [
{
 "persName":
 "Emma Altmann",
 "ref":
 "person_13169"},
 {
 "persName":
 "Paul Hammerschlag",
 "ref":
 "person_15890"},
 {
 "persName":
 "Ludmilla Karplus",
 "ref":
 "person_16738"},
 {
 "persName":
 "Rudolf Kaufmann",
 "ref":
 "person_16777"},
 {
 "persName":
 "Marie Reinhard",
 "ref":
 "person_19150"}]
}
}, {
 "type":
 "schnitzler-briefe",
 "color":
 "#A63437",
 "filename":
 "L00513",
 "caption":
 "Briefe mit Autorinnen und Autoren",
 "idno":
 "https://schnitzler-briefe.acdh.oeaw.ac.at/L00513.html",
 "head":
 "Arthur Schnitzler an Richard Beer-Hofmann, 1[6.?] 11. 1895",
 "desc":
{"listPerson":
  [
{
 "persName":
 "Richard Beer-Hofmann",
 "ref":
 "pmb10863"}],
 "listBibl":
  [
 {
 "title":
 "Jabuka",
 "ref":
 "pmb42459"}
 ,  {
 "title":
 "Tagebuch",
 "ref":
 "pmb33243"}
 ],
 "listPlace":
  [
 {
 "placeName":
 "I., Innere Stadt",
 "ref":
 "pmb51"}
 ,  {
 "placeName":
 "Wien",
 "ref":
 "pmb50"}
 ,  {
 "placeName":
 "Wollzeile",
 "ref":
 "pmb338"}
 ,  {
 "placeName":
 "Theater an der Wien",
 "ref":
 "pmb37"}
 ]
}
}, {
 "type":
 "schnitzler-briefe",
 "color":
 "#A63437",
 "filename":
 "L03166",
 "caption":
 "Briefe mit Autorinnen und Autoren",
 "idno":
 "https://schnitzler-briefe.acdh.oeaw.ac.at/L03166.html",
 "head":
 "Felix Salten an Arthur Schnitzler, [16. 11. 1895]",
 "desc":
{"listPerson":
  [
{
 "persName":
 "Felix Salten",
 "ref":
 "pmb2167"},
 {
 "persName":
 "Giuseppe Giacosa",
 "ref":
 "pmb11431"},
 {
 "persName":
 "Ludmilla Karplus",
 "ref":
 "pmb19149"},
 {
 "persName":
 "Siegmund Karplus",
 "ref":
 "pmb19153"}],
 "listBibl":
  [
 {
 "title":
 "Rechte der Seele. Schauspiel in einem Act",
 "ref":
 "pmb31711"}
 ,  {
 "title":
 "Liebelei. Schauspiel in drei Akten",
 "ref":
 "pmb29917"}
 ],
 "listPlace":
  [
 {
 "placeName":
 "Wien",
 "ref":
 "pmb50"}
 ,  {
 "placeName":
 "Burgtheater",
 "ref":
 "pmb14"}
 ,  {
 "placeName":
 "Ronacher",
 "ref":
 "pmb19"}
 ]
}
}, {
 "type":
 "wienerschnitzler",
 "color":
 "#ECDA98",
 "caption":
 "Wiener Schnitzler",
 "head":
 "Wien",
 "desc":
{"listPlace":
  [
 {
 "placeName":
 "I., Innere Stadt",
 "ref":
 ""}
 ,  {
 "placeName":
 "IX., Alsergrund",
 "ref":
 ""}
 ]
}
}] 