[{
 "type":
 "schnitzler-tagebuch",
 "color":
 "#037a33",
 "filename":
 "entry__1895-08-21",
 "caption":
 "Tagebuch",
 "idno":
 "https://schnitzler-tagebuch.acdh.oeaw.ac.at/entry__1895-08-21.html",
 "head":
 "Tagebuch, 21. August 1895",
 "desc":
{"listPerson":
  [
{
 "persName":
 "Richard Beer-Hofmann",
 "ref":
 "person_13551"},
 {
 "persName":
 "Felix Markbreiter",
 "ref":
 "person_17901"}],
 "listPlace":
  [
 {
 "placeName":
 "Leopoldskron",
 "ref":
 "pmb91137"}
 ,  {
 "placeName":
 "Hellbrunn",
 "ref":
 "pmb31"}
 ]
}
}, {
 "type":
 "schnitzler-briefe",
 "color":
 "#A63437",
 "filename":
 "L00476",
 "caption":
 "Briefe mit Autorinnen und Autoren",
 "idno":
 "https://schnitzler-briefe.acdh.oeaw.ac.at/L00476.html",
 "head":
 "Hugo von Hofmannsthal an Arthur Schnitzler, 21. [8. 1895]",
 "desc":
{"listPerson":
  [
{
 "persName":
 "Hugo von Hofmannsthal",
 "ref":
 "pmb11740"},
 {
 "persName":
 "Arthur Schnitzler",
 "ref":
 "pmb2121"},
 {
 "persName":
 "Hugo von Hofmannsthal",
 "ref":
 "pmb11740"},
 {
 "persName":
 "Paul Goldmann",
 "ref":
 "pmb11485"},
 {
 "persName":
 "Lou Andreas-Salomé",
 "ref":
 "pmb10762"},
 {
 "persName":
 "Johann Wolfgang von Goethe",
 "ref":
 "pmb11461"}],
 "listBibl":
  [
 {
 "title":
 "Faust. Eine Tragödie",
 "ref":
 "pmb30247"}
 ,  {
 "title":
 "Wilhelm Meisters Wanderjahre",
 "ref":
 "pmb31131"}
 ],
 "listPlace":
  [
 {
 "placeName":
 "Znojmo",
 "ref":
 "pmb33976"}
 ,  {
 "placeName":
 "Wien",
 "ref":
 "pmb50"}
 ,  {
 "placeName":
 "Dobšice u Znojma",
 "ref":
 "pmb33985"}
 ,  {
 "placeName":
 "Znaim",
 "ref":
 "pmb33978"}
 ],
 "listOrg":
  [
 {
 "orgName":
 "Hoch- und Deutschmeisterkapelle",
 "ref":
 "pmb34379"}
 ]
}
}, {
 "type":
 "wienerschnitzler",
 "color":
 "#6F5106",
 "caption":
 "Wiener Schnitzler",
 "idno":
 "https://wienerschnitzler.org/tag.html#1895-08-21",
 "head":
 "Salzburg",
 "desc":
{"listPlace":
  [
 {
 "placeName":
 "Café Tomaselli",
 "ref":
 ""}
 ,  {
 "placeName":
 "Petersfriedhof",
 "ref":
 ""}
 ,  {
 "placeName":
 "Festung Hohensalzburg",
 "ref":
 ""}
 ,  {
 "placeName":
 "Hellbrunn",
 "ref":
 ""}
 ]
}
}, {
 "type":
 "wienerschnitzler",
 "color":
 "#6F5106",
 "caption":
 "Wiener Schnitzler",
 "idno":
 "https://wienerschnitzler.org/tag.html#1895-08-21",
 "head":
 "Leopoldskron"
}] 