[{
 "type":
 "schnitzler-tagebuch",
 "color":
 "#037a33",
 "filename":
 "entry__1896-06-04",
 "caption":
 "Tagebuch",
 "idno":
 "https://schnitzler-tagebuch.acdh.oeaw.ac.at/entry__1896-06-04.html",
 "head":
 "Tagebuch, 4. Juni 1896",
 "desc":
{"listPerson":
  [
{
 "persName":
 "Richard Beer-Hofmann",
 "ref":
 "person_13551"},
 {
 "persName":
 "Paula Beer-Hofmann",
 "ref":
 "person_13550"}],
 "listPlace":
  [
 {
 "placeName":
 "Prater",
 "ref":
 "pmb91530"}
 ]
}
}, {
 "type":
 "schnitzler-briefe",
 "color":
 "#A63437",
 "filename":
 "L00549",
 "caption":
 "Briefe mit Autorinnen und Autoren",
 "idno":
 "https://schnitzler-briefe.acdh.oeaw.ac.at/L00549.html",
 "head":
 "Arthur Schnitzler an Richard Beer-Hofmann, [4. 6. 1896?]",
 "desc":
{"listPerson":
  [
{
 "persName":
 "Richard Beer-Hofmann",
 "ref":
 "pmb10863"},
 {
 "persName":
 "Hugo von Hofmannsthal",
 "ref":
 "pmb11740"},
 {
 "persName":
 "Christine Schönberger",
 "ref":
 "pmb24686"}],
 "listPlace":
  [
 {
 "placeName":
 "Wien",
 "ref":
 "pmb50"}
 ,  {
 "placeName":
 "Wollzeile",
 "ref":
 "pmb338"}
 ,  {
 "placeName":
 "Prater",
 "ref":
 "pmb8"}
 ,  {
 "placeName":
 "Südbahnhof",
 "ref":
 "pmb132"}
 ]
}
}, {
 "type":
 "schnitzler-briefe",
 "color":
 "#A63437",
 "filename":
 "L02776",
 "caption":
 "Briefe mit Autorinnen und Autoren",
 "idno":
 "https://schnitzler-briefe.acdh.oeaw.ac.at/L02776.html",
 "head":
 "Paul Goldmann an Arthur Schnitzler, 4. 6. [1896]",
 "desc":
{"listPerson":
  [
{
 "persName":
 "Paul Goldmann",
 "ref":
 "pmb11485"},
 {
 "persName":
 "Leopold Sonnemann",
 "ref":
 "pmb87771"},
 {
 "persName":
 "Richard Beer-Hofmann",
 "ref":
 "pmb10863"},
 {
 "persName":
 "André Antoine",
 "ref":
 "pmb2211"},
 {
 "persName":
 "Paul Ginisty",
 "ref":
 "pmb28001"},
 {
 "persName":
 "Christian Schefer",
 "ref":
 "pmb93611"},
 {
 "persName":
 "Juliette Adam",
 "ref":
 "pmb93814"},
 {
 "persName":
 "Richard Dehmel",
 "ref":
 "pmb11148"},
 {
 "persName":
 "Hugo von Hofmannsthal",
 "ref":
 "pmb11740"},
 {
 "persName":
 "Johann Wolfgang von Goethe",
 "ref":
 "pmb11461"}],
 "listBibl":
  [
 {
 "title":
 "Frankfurter Zeitung",
 "ref":
 "pmb36344"}
 ,  {
 "title":
 "Liebelei. Schauspiel in drei Akten",
 "ref":
 "pmb29917"}
 ,  {
 "title":
 "Un jeune écrivain viennois: M. Arthur Schnitzler",
 "ref":
 "pmb93622"}
 ,  {
 "title":
 "La Nouvelle Revue",
 "ref":
 "pmb93619"}
 ,  {
 "title":
 "L’Illustration",
 "ref":
 "pmb92868"}
 ],
 "listOrg":
  [
 {
 "orgName":
 "Frankfurter Zeitung",
 "ref":
 "pmb29442"}
 ,  {
 "orgName":
 "Odéon",
 "ref":
 "pmb93494"}
 ],
 "listPlace":
  [
 {
 "placeName":
 "Paris",
 "ref":
 "pmb182"}
 ,  {
 "placeName":
 "Wien",
 "ref":
 "pmb50"}
 ,  {
 "placeName":
 "rue Feydeau",
 "ref":
 "pmb42671"}
 ,  {
 "placeName":
 "Dänemark",
 "ref":
 "pmb43570"}
 ,  {
 "placeName":
 "Skodsborg",
 "ref":
 "pmb958"}
 ,  {
 "placeName":
 "Berlin",
 "ref":
 "pmb168"}
 ]
}
}, {
 "type":
 "schnitzler-orte",
 "color":
 "#045344",
 "filename":
 "entity/50/",
 "caption":
 "Aufenthaltsorte",
 "idno":
 "https://pmb.acdh.oeaw.ac.at/entity/50/",
 "head":
 "Wien"
}, {
 "type":
 "schnitzler-orte",
 "color":
 "#045344",
 "filename":
 "entity/992/",
 "caption":
 "Aufenthaltsorte",
 "idno":
 "https://pmb.acdh.oeaw.ac.at/entity/992/",
 "head":
 "Bad Vöslau"
}] 