[{
 "type":
 "schnitzler-tagebuch",
 "color":
 "#037a33",
 "filename":
 "entry__1896-07-14",
 "caption":
 "Tagebuch",
 "idno":
 "https://schnitzler-tagebuch.acdh.oeaw.ac.at/entry__1896-07-14.html",
 "head":
 "Tagebuch, 14. Juli 1896",
 "desc":
{"listPlace":
  [
 {
 "placeName":
 "Nes",
 "ref":
 "pmb91318"}
 ,  {
 "placeName":
 "Romsdal",
 "ref":
 "pmb91612"}
 ,  {
 "placeName":
 "Molde",
 "ref":
 "pmb91263"}
 ,  {
 "placeName":
 "Kristiansund",
 "ref":
 "pmb91075"}
 ]
}
}, {
 "type":
 "schnitzler-briefe",
 "color":
 "#A63437",
 "filename":
 "L02781",
 "caption":
 "Briefe mit Autorinnen und Autoren",
 "idno":
 "https://schnitzler-briefe.acdh.oeaw.ac.at/L02781.html",
 "head":
 "Paul Goldmann an Arthur Schnitzler, 14. 7. [1896]",
 "desc":
{"listPerson":
  [
{
 "persName":
 "Hermann Bahr",
 "ref":
 "pmb10815"},
 {
 "persName":
 "Richard Beer-Hofmann",
 "ref":
 "pmb10863"},
 {
 "persName":
 "Paul Goldmann",
 "ref":
 "pmb11485"},
 {
 "persName":
 "Pierre Loti",
 "ref":
 "pmb12114"},
 {
 "persName":
 "Friedrich von Schiller",
 "ref":
 "pmb12654"},
 {
 "persName":
 "Peter Altenberg",
 "ref":
 "pmb2147"},
 {
 "persName":
 "André Antoine",
 "ref":
 "pmb2211"},
 {
 "persName":
 "Jean Thorel",
 "ref":
 "pmb3966"},
 {
 "persName":
 "duc d’Orléans
   
      Louis Philippe Robert d’Orléans",
 "ref":
 "pmb5617"},
 {
 "persName":
 "Félix Faure",
 "ref":
 "pmb57436"},
 {
 "persName":
 "Leopold Sonnemann",
 "ref":
 "pmb87771"}],
 "listBibl":
  [
 {
 "title":
 "Liebelei. Schauspiel in drei Akten",
 "ref":
 "pmb29917"}
 ,  {
 "title":
 "Wie ich es sehe",
 "ref":
 "pmb30965"}
 ,  {
 "title":
 "Don Karlos, Infant von Spanien",
 "ref":
 "pmb33023"}
 ,  {
 "title":
 "Frankfurter Zeitung",
 "ref":
 "pmb36344"}
 ,  {
 "title":
 "Wallenstein",
 "ref":
 "pmb77041"}
 ,  {
 "title":
 "Amourette. Pièce en trois actes. Adaptée de Arthur Schnitzler",
 "ref":
 "pmb92876"}
 ],
 "listOrg":
  [
 {
 "orgName":
 "Frankfurter Zeitung",
 "ref":
 "pmb29442"}
 ],
 "listPlace":
  [
 {
 "placeName":
 "Frankreich",
 "ref":
 "pmb166"}
 ,  {
 "placeName":
 "Paris",
 "ref":
 "pmb182"}
 ,  {
 "placeName":
 "Oslo",
 "ref":
 "pmb36296"}
 ,  {
 "placeName":
 "Kopenhagen",
 "ref":
 "pmb36300"}
 ,  {
 "placeName":
 "Spanien",
 "ref":
 "pmb388"}
 ,  {
 "placeName":
 "Nordkap",
 "ref":
 "pmb41072"}
 ,  {
 "placeName":
 "rue Feydeau",
 "ref":
 "pmb42671"}
 ,  {
 "placeName":
 "Dänemark",
 "ref":
 "pmb43570"}
 ,  {
 "placeName":
 "Orléans",
 "ref":
 "pmb53818"}
 ,  {
 "placeName":
 "Norwegen",
 "ref":
 "pmb64465"}
 ,  {
 "placeName":
 "Hendaye",
 "ref":
 "pmb64640"}
 ]
}
}, {
 "type":
 "schnitzler-briefe",
 "color":
 "#A63437",
 "filename":
 "L03174",
 "caption":
 "Briefe mit Autorinnen und Autoren",
 "idno":
 "https://schnitzler-briefe.acdh.oeaw.ac.at/L03174.html",
 "head":
 "Felix Salten an Arthur Schnitzler, 14. 7. [1896]",
 "desc":
{"listPerson":
  [
{
 "persName":
 "Richard Beer-Hofmann",
 "ref":
 "pmb10863"},
 {
 "persName":
 "Paul Goldmann",
 "ref":
 "pmb11485"},
 {
 "persName":
 "Theodor Schiemann",
 "ref":
 "pmb168807"},
 {
 "persName":
 "Albert Leitzmann",
 "ref":
 "pmb20273"},
 {
 "persName":
 "Felix Salten",
 "ref":
 "pmb2167"},
 {
 "persName":
 "Ottilie Salten",
 "ref":
 "pmb23918"},
 {
 "persName":
 "Victor Hehn",
 "ref":
 "pmb52648"}],
 "listBibl":
  [
 {
 "title":
 "Über Goethes Hermann und Dorothea",
 "ref":
 "pmb144906"}
 ,  {
 "title":
 "Die Wahlverwandtschaften",
 "ref":
 "pmb31675"}
 ],
 "listOrg":
  [
 {
 "orgName":
 "J.G. Cotta’sche Buchhandlung Nachfolger",
 "ref":
 "pmb29215"}
 ],
 "listPlace":
  [
 {
 "placeName":
 "Hörlgasse 16",
 "ref":
 "pmb199347"}
 ,  {
 "placeName":
 "Kopenhagen",
 "ref":
 "pmb36300"}
 ,  {
 "placeName":
 "Trondheim",
 "ref":
 "pmb40290"}
 ,  {
 "placeName":
 "Nordkap",
 "ref":
 "pmb41072"}
 ,  {
 "placeName":
 "Wien",
 "ref":
 "pmb50"}
 ,  {
 "placeName":
 "Skandinavien",
 "ref":
 "pmb745"}
 ]
}
}, {
 "type":
 "wienerschnitzler",
 "color":
 "#6F5106",
 "caption":
 "Wiener Schnitzler",
 "idno":
 "https://wienerschnitzler.org/tag.html#1896-07-14",
 "head":
 "Nes"
}, {
 "type":
 "wienerschnitzler",
 "color":
 "#6F5106",
 "caption":
 "Wiener Schnitzler",
 "idno":
 "https://wienerschnitzler.org/tag.html#1896-07-14",
 "head":
 "Romsdal"
}, {
 "type":
 "wienerschnitzler",
 "color":
 "#6F5106",
 "caption":
 "Wiener Schnitzler",
 "idno":
 "https://wienerschnitzler.org/tag.html#1896-07-14",
 "head":
 "Molde"
}, {
 "type":
 "wienerschnitzler",
 "color":
 "#6F5106",
 "caption":
 "Wiener Schnitzler",
 "idno":
 "https://wienerschnitzler.org/tag.html#1896-07-14",
 "head":
 "Kristiansund"
}, {
 "type":
 "schnitzler-cmif",
 "subtype":
 "#g21edf0a-7af3-4163-813b-7d55aaaf2eba",
 "color":
 "#654321",
 "caption":
 "Gedruckte Briefwechsel",
 "head":
 "Adele Sandrock an Arthur Schnitzler, 14.7.1896",
 "source":
 "Renate Wagner (Hg.): Dilly. Geschichte einer Liebe in Briefen, Bildern und Dokumenten. Wien/München: Amalthea 1975."
}, {
 "type":
 "kalliope-verbund",
 "color":
 "#003574",
 "caption":
 "Kalliope Verbundkatalog",
 "idno":
 "http://kalliope-verbund.info/DE-2498-HS00069469",
 "head":
 "Reiter, Emil an Sandrock, Adele [Briefe]",
 "desc":
{"listPerson":
  [
{
 "persName":
 "Adele (1863-1937) Sandrock",
 "ref":
 "http://d-nb.info/gnd/118605429"}]
}
}] 