[{
 "type":
 "schnitzler-tagebuch",
 "color":
 "#037a33",
 "filename":
 "entry__1896-09-07",
 "caption":
 "Tagebuch",
 "idno":
 "https://schnitzler-tagebuch.acdh.oeaw.ac.at/entry__1896-09-07.html",
 "head":
 "Tagebuch, 7. September 1896",
 "desc":
{"listPerson":
  [
{
 "persName":
 "Auguste Chlum",
 "ref":
 "person_14199"},
 {
 "persName":
 "Marie Glümer",
 "ref":
 "person_15485"},
 {
 "persName":
 "Karl Langkammer",
 "ref":
 "person_17312"},
 {
 "persName":
 "Agnes Sorma",
 "ref":
 "person_20219"},
 {
 "persName":
 "Marie Reinhard",
 "ref":
 "person_19150"}],
 "listBibl":
  [
 {
 "title":
 "Das Märchen. Schauspiel in drei Aufzügen",
 "ref":
 "pmb29823"}
 ],
 "listPlace":
  [
 {
 "placeName":
 "Graz",
 "ref":
 "pmb860"}
 ,  {
 "placeName":
 "Prater",
 "ref":
 "pmb91530"}
 ]
}
}, {
 "type":
 "schnitzler-briefe",
 "color":
 "#A63437",
 "filename":
 "L00586",
 "caption":
 "Briefe mit Autorinnen und Autoren",
 "idno":
 "https://schnitzler-briefe.acdh.oeaw.ac.at/L00586.html",
 "head":
 "Arthur Schnitzler an Richard Beer-Hofmann, 7. 9. 1896",
 "desc":
{"listPerson":
  [
{
 "persName":
 "Richard Beer-Hofmann",
 "ref":
 "pmb10863"},
 {
 "persName":
 "Otto Brahm",
 "ref":
 "pmb10986"},
 {
 "persName":
 "Max Eugen Burckhard",
 "ref":
 "pmb11036"},
 {
 "persName":
 "Samuel Fischer",
 "ref":
 "pmb11324"},
 {
 "persName":
 "Hugo von Hofmannsthal",
 "ref":
 "pmb11740"},
 {
 "persName":
 "Demetrius Mito von Minotto",
 "ref":
 "pmb21496"},
 {
 "persName":
 "Agnes Sorma",
 "ref":
 "pmb2299"}],
 "listBibl":
  [
 {
 "title":
 "Freiwild. Schauspiel in 3 Akten",
 "ref":
 "pmb29899"}
 ],
 "listPlace":
  [
 {
 "placeName":
 "Berlin",
 "ref":
 "pmb168"}
 ,  {
 "placeName":
 "Altaussee",
 "ref":
 "pmb34401"}
 ,  {
 "placeName":
 "Wien",
 "ref":
 "pmb50"}
 ,  {
 "placeName":
 "I., Innere Stadt",
 "ref":
 "pmb51"}
 ,  {
 "placeName":
 "Baden bei Wien",
 "ref":
 "pmb662"}
 ,  {
 "placeName":
 "Kaiser-Franz-Ring",
 "ref":
 "pmb680"}
 ]
}
}, {
 "type":
 "schnitzler-briefe",
 "color":
 "#A63437",
 "filename":
 "L02784",
 "caption":
 "Briefe mit Autorinnen und Autoren",
 "idno":
 "https://schnitzler-briefe.acdh.oeaw.ac.at/L02784.html",
 "head":
 "Paul Goldmann an Arthur Schnitzler, 7. 9. [1896]",
 "desc":
{"listPerson":
  [
{
 "persName":
 "Paula Beer-Hofmann",
 "ref":
 "pmb10860"},
 {
 "persName":
 "Richard Beer-Hofmann",
 "ref":
 "pmb10863"},
 {
 "persName":
 "Tristan Bernard",
 "ref":
 "pmb10893"},
 {
 "persName":
 "Otto Brahm",
 "ref":
 "pmb10986"},
 {
 "persName":
 "Max Eugen Burckhard",
 "ref":
 "pmb11036"},
 {
 "persName":
 "Jean-Louis Forain",
 "ref":
 "pmb112447"},
 {
 "persName":
 "Samuel Fischer",
 "ref":
 "pmb11324"},
 {
 "persName":
 "Paul Goldmann",
 "ref":
 "pmb11485"},
 {
 "persName":
 "George Auriol",
 "ref":
 "pmb117952"},
 {
 "persName":
 "Maurice O’Reilly",
 "ref":
 "pmb117960"},
 {
 "persName":
 "Narcisse Lebeau",
 "ref":
 "pmb117965"},
 {
 "persName":
 "Alfred Kerr",
 "ref":
 "pmb11910"},
 {
 "persName":
 "Friedrich Mitterwurzer",
 "ref":
 "pmb12265"},
 {
 "persName":
 "Rudolf Rittner",
 "ref":
 "pmb12530"},
 {
 "persName":
 "Julius Schnitzler",
 "ref":
 "pmb12698"},
 {
 "persName":
 "Louise Schnitzler",
 "ref":
 "pmb12701"},
 {
 "persName":
 "Alphonse Allais",
 "ref":
 "pmb13313"},
 {
 "persName":
 "Clementine Goldmann",
 "ref":
 "pmb17163"},
 {
 "persName":
 "Peter Altenberg",
 "ref":
 "pmb2147"},
 {
 "persName":
 "Markus Hajek",
 "ref":
 "pmb2284"},
 {
 "persName":
 "Peter Nansen",
 "ref":
 "pmb2357"},
 {
 "persName":
 "Marie Reinhard",
 "ref":
 "pmb2378"},
 {
 "persName":
 "Helene Schnitzler",
 "ref":
 "pmb24423"},
 {
 "persName":
 "Gisela Hajek",
 "ref":
 "pmb2461"},
 {
 "persName":
 "Franz Joseph I. von Österreich-Ungarn",
 "ref":
 "pmb2513"},
 {
 "persName":
 "Pierre Veber",
 "ref":
 "pmb26421"},
 {
 "persName":
 "Hedwig Fischer",
 "ref":
 "pmb2657"},
 {
 "persName":
 "Léon Xanrof",
 "ref":
 "pmb27405"},
 {
 "persName":
 "Betty Nansen",
 "ref":
 "pmb2910"},
 {
 "persName":
 "Oskar Bie",
 "ref":
 "pmb2914"},
 {
 "persName":
 "Georges Courteline",
 "ref":
 "pmb4865"},
 {
 "persName":
 "Ferdinand Gregorovius",
 "ref":
 "pmb7531"},
 {
 "persName":
 "Leopold Sonnemann",
 "ref":
 "pmb87771"}],
 "listBibl":
  [
 {
 "title":
 "Neue französische Humoristen. Alphonse Allais",
 "ref":
 "pmb117932"}
 ,  {
 "title":
 "Neue französische Humoristen. Georges Courteline",
 "ref":
 "pmb117935"}
 ,  {
 "title":
 "Neue französische Humoristen. L. Xanrof",
 "ref":
 "pmb117940"}
 ,  {
 "title":
 "Neue französische Humoristen. Tristan Bernard. – Georges Auriol. – Bill Sharp. – Maurice O’Reilly",
 "ref":
 "pmb117944"}
 ,  {
 "title":
 "Neue französische Humoristen. Pierre Veber",
 "ref":
 "pmb117947"}
 ,  {
 "title":
 "Neue französische Humoristen. Narcisse Lebeau",
 "ref":
 "pmb117967"}
 ,  {
 "title":
 "Neue französische Humoristen",
 "ref":
 "pmb118028"}
 ,  {
 "title":
 "Freiwild. Schauspiel in 3 Akten",
 "ref":
 "pmb29899"}
 ,  {
 "title":
 "Liebelei. Schauspiel in drei Akten",
 "ref":
 "pmb29917"}
 ,  {
 "title":
 "Wie ich es sehe",
 "ref":
 "pmb30965"}
 ,  {
 "title":
 "Frankfurter Zeitung",
 "ref":
 "pmb36344"}
 ],
 "listOrg":
  [
 {
 "orgName":
 "Frankfurter Zeitung",
 "ref":
 "pmb29442"}
 ],
 "listPlace":
  [
 {
 "placeName":
 "Frankfurt am Main",
 "ref":
 "pmb146"}
 ,  {
 "placeName":
 "Berlin",
 "ref":
 "pmb168"}
 ,  {
 "placeName":
 "Paris",
 "ref":
 "pmb182"}
 ,  {
 "placeName":
 "Kopenhagen",
 "ref":
 "pmb36300"}
 ,  {
 "placeName":
 "Österreich",
 "ref":
 "pmb41240"}
 ,  {
 "placeName":
 "rue Feydeau",
 "ref":
 "pmb42671"}
 ,  {
 "placeName":
 "München",
 "ref":
 "pmb45258"}
 ,  {
 "placeName":
 "Hagenbecks Tierpark",
 "ref":
 "pmb478"}
 ,  {
 "placeName":
 "Wien",
 "ref":
 "pmb50"}
 ,  {
 "placeName":
 "Hamburg",
 "ref":
 "pmb506"}
 ,  {
 "placeName":
 "Baden bei Wien",
 "ref":
 "pmb662"}
 ,  {
 "placeName":
 "Kaiser-Franz-Ring",
 "ref":
 "pmb680"}
 ,  {
 "placeName":
 "Skodsborg",
 "ref":
 "pmb958"}
 ]
}
}, {
 "type":
 "wienerschnitzler",
 "color":
 "#6F5106",
 "caption":
 "Wiener Schnitzler",
 "idno":
 "https://wienerschnitzler.org/tag.html#1896-09-07",
 "head":
 "Wien",
 "desc":
{"listPlace":
  [
 {
 "placeName":
 "XXIII., Liesing",
 "ref":
 ""}
 ,  {
 "placeName":
 "IX., Alsergrund",
 "ref":
 ""}
 ]
}
}] 