[{
 "type":
 "schnitzler-tagebuch",
 "color":
 "#037a33",
 "filename":
 "entry__1896-11-01",
 "caption":
 "Tagebuch",
 "idno":
 "https://schnitzler-tagebuch.acdh.oeaw.ac.at/entry__1896-11-01.html",
 "head":
 "Tagebuch, 1. November 1896",
 "desc":
{"listPerson":
  [
{
 "persName":
 "Otto Brahm",
 "ref":
 "person_13913"},
 {
 "persName":
 "Alfons? Langer",
 "ref":
 "person_17304"},
 {
 "persName":
 "Hans Olden",
 "ref":
 "person_18544"},
 {
 "persName":
 "Agnes Sorma",
 "ref":
 "person_20219"},
 {
 "persName":
 "Paul Jonas",
 "ref":
 "person_16574"}],
 "listBibl":
  [
 {
 "title":
 "College Crampton. Komödie in fünf Akten",
 "ref":
 "pmb31941"}
 ,  {
 "title":
 "Hanneles Himmelfahrt. Traumdichtung in zwei Teilen",
 "ref":
 "pmb31511"}
 ]
}
}, {
 "type":
 "schnitzler-briefe",
 "color":
 "#A63437",
 "filename":
 "L00610",
 "caption":
 "Briefe mit Autorinnen und Autoren",
 "idno":
 "https://schnitzler-briefe.acdh.oeaw.ac.at/L00610.html",
 "head":
 "Max Burckhard an Arthur Schnitzler, [zwischen 27. 10. und
                  1. 11. 1896]",
 "desc":
{"listPerson":
  [
{
 "persName":
 "Max Eugen Burckhard",
 "ref":
 "pmb11036"},
 {
 "persName":
 "Maria Dorothea von Österreich",
 "ref":
 "pmb29145"},
 {
 "persName":
 "duc d’Orléans
                          Louis Philippe Robert d’Orléans",
 "ref":
 "pmb5617"}],
 "listBibl":
  [
 {
 "title":
 "Freiwild. Schauspiel in 3 Akten",
 "ref":
 "pmb29899"}
 ],
 "listPlace":
  [
 {
 "placeName":
 "Wien",
 "ref":
 "pmb50"}
 ,  {
 "placeName":
 "Berlin",
 "ref":
 "pmb168"}
 ,  {
 "placeName":
 "Schloss Schönbrunn",
 "ref":
 "pmb21799"}
 ,  {
 "placeName":
 "Deutsches Theater Berlin",
 "ref":
 "pmb3"}
 ]
}
}, {
 "type":
 "schnitzler-briefe",
 "color":
 "#A63437",
 "filename":
 "L02789",
 "caption":
 "Briefe mit Autorinnen und Autoren",
 "idno":
 "https://schnitzler-briefe.acdh.oeaw.ac.at/L02789.html",
 "head":
 "Paul Goldmann an Arthur Schnitzler, 1. 11. [1896]",
 "desc":
{"listPerson":
  [
{
 "persName":
 "Paul Goldmann",
 "ref":
 "pmb11485"},
 {
 "persName":
 "Leopold Sonnemann",
 "ref":
 "pmb87771"},
 {
 "persName":
 "Hermann Nissen",
 "ref":
 "pmb21985"}],
 "listBibl":
  [
 {
 "title":
 "Frankfurter Zeitung",
 "ref":
 "pmb36344"}
 ,  {
 "title":
 "Freiwild. Schauspiel in 3 Akten",
 "ref":
 "pmb29899"}
 ,  {
 "title":
 "Liebelei. Schauspiel in drei Akten",
 "ref":
 "pmb29917"}
 ],
 "listOrg":
  [
 {
 "orgName":
 "Frankfurter Zeitung",
 "ref":
 "pmb29442"}
 ],
 "listPlace":
  [
 {
 "placeName":
 "Paris",
 "ref":
 "pmb182"}
 ,  {
 "placeName":
 "Wien",
 "ref":
 "pmb50"}
 ,  {
 "placeName":
 "rue Feydeau",
 "ref":
 "pmb42671"}
 ,  {
 "placeName":
 "Berlin",
 "ref":
 "pmb168"}
 ,  {
 "placeName":
 "Deutsches Theater Berlin",
 "ref":
 "pmb3"}
 ]
}
}, {
 "type":
 "wienerschnitzler",
 "color":
 "#ECDA98",
 "caption":
 "Wiener Schnitzler",
 "head":
 "Berlin",
 "desc":
{"listPlace":
  [
 {
 "placeName":
 "Deutsches Theater Berlin",
 "ref":
 ""}
 ,  {
 "placeName":
 "Lessing-Theater",
 "ref":
 ""}
 ]
}
}, {
 "type":
 "schnitzler-events",
 "color":
 "#9BC53D",
 "filename":
 "entity/208869/",
 "caption":
 "Ereignisse in der PMB",
 "idno":
 "https://pmb.acdh.oeaw.ac.at/entity/208869/",
 "head":
 "Aufführung von College Crampton. Komödie in fünf Akten, 1.11.1896",
 "desc":
{"listOrg":
  [
 {
 "orgName":
 "Lessing-Theater",
 "ref":
 ""}
 ],
 "listBibl":
  [
 {
 "title":
 "College Crampton. Komödie in fünf Akten",
 "ref":
 ""}
 ],
 "listPerson":
  [
{
 "persName":
 "Arthur Schnitzler",
 "ref":
 ""}],
 "listPlace":
  [
 {
 "placeName":
 "Lessing-Theater",
 "ref":
 ""}
 ]
}
}, {
 "type":
 "schnitzler-events",
 "color":
 "#9BC53D",
 "filename":
 "entity/208868/",
 "caption":
 "Ereignisse in der PMB",
 "idno":
 "https://pmb.acdh.oeaw.ac.at/entity/208868/",
 "head":
 "Aufführung von Hanneles Himmelfahrt, 1.11.1896",
 "desc":
{"listOrg":
  [
 {
 "orgName":
 "Deutsches Theater Berlin",
 "ref":
 ""}
 ],
 "listBibl":
  [
 {
 "title":
 "Hanneles Himmelfahrt. Traumdichtung in zwei Teilen",
 "ref":
 ""}
 ],
 "listPerson":
  [
{
 "persName":
 "Arthur Schnitzler",
 "ref":
 ""}],
 "listPlace":
  [
 {
 "placeName":
 "Deutsches Theater Berlin",
 "ref":
 ""}
 ]
}
}] 