[{
 "type":
 "schnitzler-tagebuch",
 "color":
 "#037a33",
 "filename":
 "entry__1896-09-13",
 "caption":
 "Tagebuch",
 "idno":
 "https://schnitzler-tagebuch.acdh.oeaw.ac.at/entry__1896-09-13.html",
 "head":
 "Tagebuch, 13. September 1896",
 "desc":
{"listPerson":
  [
{
 "persName":
 "Max Eugen Burckhard",
 "ref":
 "person_14065"},
 {
 "persName":
 "Oskar Hofmeister",
 "ref":
 "person_16296"},
 {
 "persName":
 "Wilhelmine Mitterwurzer",
 "ref":
 "person_18191"},
 {
 "persName":
 "Josef Moser",
 "ref":
 "person_18266"},
 {
 "persName":
 "Felix Salten",
 "ref":
 "person_19542"},
 {
 "persName":
 "Hermann Schöne",
 "ref":
 "person_19848"},
 {
 "persName":
 "Max Schwarzkopf",
 "ref":
 "person_19987"},
 {
 "persName":
 "Hugo Thimig",
 "ref":
 "person_20714"},
 {
 "persName":
 "Ottilie Salten",
 "ref":
 "person_19543"},
 {
 "persName":
 "Jakob Schreiner",
 "ref":
 "person_19884"}],
 "listPlace":
  [
 {
 "placeName":
 "Mödling",
 "ref":
 "pmb968"}
 ,  {
 "placeName":
 "Neuhaus",
 "ref":
 "pmb47414"}
 ,  {
 "placeName":
 "Baden bei Wien",
 "ref":
 "pmb662"}
 ]
}
}, {
 "type":
 "schnitzler-briefe",
 "color":
 "#A63437",
 "filename":
 "L00588",
 "caption":
 "Briefe mit Autorinnen und Autoren",
 "idno":
 "https://schnitzler-briefe.acdh.oeaw.ac.at/L00588.html",
 "head":
 "Arthur Schnitzler an Richard Beer-Hofmann, [13. 9. 1896]",
 "desc":
{"listPerson":
  [
{
 "persName":
 "Arthur Schnitzler",
 "ref":
 "pmb2121"},
 {
 "persName":
 "Richard Beer-Hofmann",
 "ref":
 "pmb10863"},
 {
 "persName":
 "Richard Beer-Hofmann",
 "ref":
 "pmb10863"},
 {
 "persName":
 "Gustav Schwarzkopf",
 "ref":
 "pmb12740"},
 {
 "persName":
 "Christine Schönberger",
 "ref":
 "pmb24686"}],
 "listPlace":
  [
 {
 "placeName":
 "Pottenstein",
 "ref":
 "pmb40112"}
 ,  {
 "placeName":
 "Antonsgasse",
 "ref":
 "pmb40115"}
 ,  {
 "placeName":
 "Alland",
 "ref":
 "pmb44715"}
 ,  {
 "placeName":
 "Neuhaus",
 "ref":
 "pmb47414"}
 ,  {
 "placeName":
 "Wien",
 "ref":
 "pmb50"}
 ,  {
 "placeName":
 "Baden bei Wien",
 "ref":
 "pmb662"}
 ,  {
 "placeName":
 "Kaiser-Franz-Ring",
 "ref":
 "pmb680"}
 ,  {
 "placeName":
 "Mödling",
 "ref":
 "pmb968"}
 ]
}
}, {
 "type":
 "wienerschnitzler",
 "color":
 "#6F5106",
 "caption":
 "Wiener Schnitzler",
 "idno":
 "https://wienerschnitzler.org/tag.html#1896-09-13",
 "head":
 "Wien",
 "desc":
{"listPlace":
  [
 {
 "placeName":
 "IX., Alsergrund",
 "ref":
 ""}
 ]
}
}, {
 "type":
 "wienerschnitzler",
 "color":
 "#6F5106",
 "caption":
 "Wiener Schnitzler",
 "idno":
 "https://wienerschnitzler.org/tag.html#1896-09-13",
 "head":
 "Mödling"
}, {
 "type":
 "wienerschnitzler",
 "color":
 "#6F5106",
 "caption":
 "Wiener Schnitzler",
 "idno":
 "https://wienerschnitzler.org/tag.html#1896-09-13",
 "head":
 "Neuhaus"
}, {
 "type":
 "wienerschnitzler",
 "color":
 "#6F5106",
 "caption":
 "Wiener Schnitzler",
 "idno":
 "https://wienerschnitzler.org/tag.html#1896-09-13",
 "head":
 "Baden bei Wien"
}] 