[{
 "type":
 "schnitzler-tagebuch",
 "color":
 "#037a33",
 "filename":
 "entry__1896-04-29",
 "caption":
 "Tagebuch",
 "idno":
 "https://schnitzler-tagebuch.acdh.oeaw.ac.at/entry__1896-04-29.html",
 "head":
 "Tagebuch, 29. April 1896",
 "desc":
{"listPerson":
  [
{
 "persName":
 "Marie Reinhard",
 "ref":
 "person_19150"}],
 "listPlace":
  [
 {
 "placeName":
 "Prater",
 "ref":
 "pmb91530"}
 ]
}
}, {
 "type":
 "schnitzler-briefe",
 "color":
 "#A63437",
 "filename":
 "L02772",
 "caption":
 "Briefe mit Autorinnen und Autoren",
 "idno":
 "https://schnitzler-briefe.acdh.oeaw.ac.at/L02772.html",
 "head":
 "Paul Goldmann an Arthur Schnitzler, 29. 4. [1896]",
 "desc":
{"listPerson":
  [
{
 "persName":
 "Paula Beer-Hofmann",
 "ref":
 "pmb10860"},
 {
 "persName":
 "Richard Beer-Hofmann",
 "ref":
 "pmb10863"},
 {
 "persName":
 "Alfred von Berger",
 "ref":
 "pmb10883"},
 {
 "persName":
 "Paul Goldmann",
 "ref":
 "pmb11485"},
 {
 "persName":
 "Maximilian Harden",
 "ref":
 "pmb11581"},
 {
 "persName":
 "Heinrich Kanner",
 "ref":
 "pmb11867"},
 {
 "persName":
 "Alfred Kerr",
 "ref":
 "pmb11910"},
 {
 "persName":
 "Marie Glümer",
 "ref":
 "pmb14953"},
 {
 "persName":
 "Clementine Goldmann",
 "ref":
 "pmb17163"},
 {
 "persName":
 "Peter Altenberg",
 "ref":
 "pmb2147"},
 {
 "persName":
 "Théodore de Wyzewa",
 "ref":
 "pmb27373"},
 {
 "persName":
 "Albert Langen",
 "ref":
 "pmb3379"},
 {
 "persName":
 "Heinz Monnard",
 "ref":
 "pmb3960"},
 {
 "persName":
 "Pierre Lalo",
 "ref":
 "pmb8429"},
 {
 "persName":
 "Leopold Sonnemann",
 "ref":
 "pmb87771"},
 {
 "persName":
 "Léon Bourgeois",
 "ref":
 "pmb88000"},
 {
 "persName":
 "Hermann Mamroth",
 "ref":
 "pmb93541"},
 {
 "persName":
 "Christian Schefer",
 "ref":
 "pmb93611"},
 {
 "persName":
 "Henri de Riaz",
 "ref":
 "pmb93707"},
 {
 "persName":
 "Adele Doré",
 "ref":
 "pmb93713"},
 {
 "persName":
 "Rudolf Leyrer",
 "ref":
 "pmb93718"},
 {
 "persName":
 "Beck",
 "ref":
 "pmb93723"}],
 "listBibl":
  [
 {
 "title":
 "Freiwild. Schauspiel in 3 Akten",
 "ref":
 "pmb29899"}
 ,  {
 "title":
 "Liebelei. Schauspiel in drei Akten",
 "ref":
 "pmb29917"}
 ,  {
 "title":
 "Die überspannte Person",
 "ref":
 "pmb30391"}
 ,  {
 "title":
 "Burgtheater [Rechte der Seele, Liebelei]",
 "ref":
 "pmb33965"}
 ,  {
 "title":
 "Frankfurter Zeitung",
 "ref":
 "pmb36344"}
 ,  {
 "title":
 "Die Zukunft",
 "ref":
 "pmb40042"}
 ,  {
 "title":
 "Mourir. Roman",
 "ref":
 "pmb40662"}
 ,  {
 "title":
 "Simplicissimus",
 "ref":
 "pmb50245"}
 ,  {
 "title":
 "Montags-Revue. Wochenschrift für Politik, Finanzen, Kunst und Literatur",
 "ref":
 "pmb93272"}
 ,  {
 "title":
 "[Man schreibt uns aus Köln]",
 "ref":
 "pmb93703"}
 ,  {
 "title":
 "Theaternotizen [Liebelei]",
 "ref":
 "pmb93709"}
 ],
 "listOrg":
  [
 {
 "orgName":
 "Die Zeit. Wiener Wochenschrift",
 "ref":
 "pmb29209"}
 ,  {
 "orgName":
 "Frankfurter Zeitung",
 "ref":
 "pmb29442"}
 ,  {
 "orgName":
 "Simplicissimus",
 "ref":
 "pmb29714"}
 ],
 "listPlace":
  [
 {
 "placeName":
 "Köln",
 "ref":
 "pmb145"}
 ,  {
 "placeName":
 "Frankfurt am Main",
 "ref":
 "pmb146"}
 ,  {
 "placeName":
 "Deutschland",
 "ref":
 "pmb151"}
 ,  {
 "placeName":
 "Berlin",
 "ref":
 "pmb168"}
 ,  {
 "placeName":
 "Paris",
 "ref":
 "pmb182"}
 ,  {
 "placeName":
 "rue Feydeau",
 "ref":
 "pmb42671"}
 ,  {
 "placeName":
 "Dänemark",
 "ref":
 "pmb43570"}
 ,  {
 "placeName":
 "Wien",
 "ref":
 "pmb50"}
 ,  {
 "placeName":
 "Rue Coëtlogon",
 "ref":
 "pmb93700"}
 ,  {
 "placeName":
 "Skodsborg",
 "ref":
 "pmb958"}
 ]
}
}, {
 "type":
 "wienerschnitzler",
 "color":
 "#ECDA98",
 "caption":
 "Wiener Schnitzler",
 "idno":
 "https://wienerschnitzler.org/tag.html#1896-04-29",
 "head":
 "Wien",
 "desc":
{"listPlace":
  [
 {
 "placeName":
 "I., Innere Stadt",
 "ref":
 ""}
 ,  {
 "placeName":
 "IX., Alsergrund",
 "ref":
 ""}
 ]
}
}, {
 "type":
 "wienerschnitzler",
 "color":
 "#ECDA98",
 "caption":
 "Wiener Schnitzler",
 "idno":
 "https://wienerschnitzler.org/tag.html#1896-04-29",
 "head":
 "Brunn am Gebirge"
}] 