[{
 "type":
 "schnitzler-tagebuch",
 "color":
 "#037a33",
 "filename":
 "entry__1896-07-21",
 "caption":
 "Tagebuch",
 "idno":
 "https://schnitzler-tagebuch.acdh.oeaw.ac.at/entry__1896-07-21.html",
 "head":
 "Tagebuch, 21. Juli 1896",
 "desc":
{"listPerson":
  [
{
 "persName":
 "G. Goldschmidt",
 "ref":
 "person_15545"}],
 "listPlace":
  [
 {
 "placeName":
 "Berlin",
 "ref":
 "pmb168"}
 ]
}
}, {
 "type":
 "schnitzler-briefe",
 "color":
 "#A63437",
 "filename":
 "L03175",
 "caption":
 "Briefe mit Autorinnen und Autoren",
 "idno":
 "https://schnitzler-briefe.acdh.oeaw.ac.at/L03175.html",
 "head":
 "Felix Salten an Arthur Schnitzler, 21. 7. 1896",
 "desc":
{"listPerson":
  [
{
 "persName":
 "Felix Salten",
 "ref":
 "pmb2167"},
 {
 "persName":
 "Ilma Seiler-Willborn",
 "ref":
 "pmb144898"},
 {
 "persName":
 "Ottilie Salten",
 "ref":
 "pmb23918"},
 {
 "persName":
 "Wilhelmine Mitterwurzer",
 "ref":
 "pmb12268"},
 {
 "persName":
 "Alexander Zeitlin",
 "ref":
 "pmb27456"},
 {
 "persName":
 "Szigfrid Pongrácz",
 "ref":
 "pmb144970"},
 {
 "persName":
 "Edmond Huot de Goncourt",
 "ref":
 "pmb11500"},
 {
 "persName":
 "Alphonse Daudet",
 "ref":
 "pmb11134"},
 {
 "persName":
 "Max Nordau",
 "ref":
 "pmb12365"},
 {
 "persName":
 "Georges Ohnet",
 "ref":
 "pmb12371"},
 {
 "persName":
 "Jules Huot de Goncourt",
 "ref":
 "pmb2925"},
 {
 "persName":
 "Richard Beer-Hofmann",
 "ref":
 "pmb10863"}],
 "listBibl":
  [
 {
 "title":
 "Liebelei. Schauspiel in drei Akten",
 "ref":
 "pmb29917"}
 ,  {
 "title":
 "Adam und Eva",
 "ref":
 "pmb144980"}
 ,  {
 "title":
 "Die Schülerausstellung der Akademie",
 "ref":
 "pmb144966"}
 ,  {
 "title":
 "Wiener Allgemeine Zeitung",
 "ref":
 "pmb39950"}
 ,  {
 "title":
 "Frankfurter Zeitung",
 "ref":
 "pmb36344"}
 ,  {
 "title":
 "† Edmond de Goncourt",
 "ref":
 "pmb144985"}
 ,  {
 "title":
 "Neue Freie Presse",
 "ref":
 "pmb36374"}
 ],
 "listOrg":
  [
 {
 "orgName":
 "Sommertheater Ischl",
 "ref":
 "pmb167746"}
 ,  {
 "orgName":
 "Akademie der Bildenden Künste Wien",
 "ref":
 "pmb60329"}
 ,  {
 "orgName":
 "Académie Goncourt",
 "ref":
 "pmb144964"}
 ],
 "listPlace":
  [
 {
 "placeName":
 "Wien",
 "ref":
 "pmb50"}
 ,  {
 "placeName":
 "Trondheim",
 "ref":
 "pmb40290"}
 ,  {
 "placeName":
 "Jihlava",
 "ref":
 "pmb44092"}
 ,  {
 "placeName":
 "Nordkap",
 "ref":
 "pmb41072"}
 ,  {
 "placeName":
 "Bad Ischl",
 "ref":
 "pmb213"}
 ,  {
 "placeName":
 "Bad Aussee",
 "ref":
 "pmb415"}
 ,  {
 "placeName":
 "Valle d’Ampezzo",
 "ref":
 "pmb34207"}
 ,  {
 "placeName":
 "München",
 "ref":
 "pmb45258"}
 ,  {
 "placeName":
 "Salzburg",
 "ref":
 "pmb30"}
 ,  {
 "placeName":
 "Schliersee",
 "ref":
 "pmb936"}
 ,  {
 "placeName":
 "Tegernsee",
 "ref":
 "pmb39752"}
 ,  {
 "placeName":
 "Innsbruck",
 "ref":
 "pmb867"}
 ,  {
 "placeName":
 "Draveil",
 "ref":
 "pmb144955"}
 ,  {
 "placeName":
 "Haus von Alphonse Daudet",
 "ref":
 "pmb144957"}
 ,  {
 "placeName":
 "Frankreich",
 "ref":
 "pmb166"}
 ,  {
 "placeName":
 "Kopenhagen",
 "ref":
 "pmb36300"}
 ,  {
 "placeName":
 "Skodsborg",
 "ref":
 "pmb958"}
 ]
}
}, {
 "type":
 "schnitzler-orte",
 "color":
 "#045344",
 "filename":
 "entity/91181/",
 "caption":
 "Aufenthaltsorte",
 "idno":
 "https://pmb.acdh.oeaw.ac.at/entity/91181/",
 "head":
 "Lyngenfjorden"
}, {
 "type":
 "kalliope-verbund",
 "color":
 "#003574",
 "caption":
 "Kalliope Verbundkatalog",
 "idno":
 "http://kalliope-verbund.info/DE-2498-HS00736728",
 "head":
 "Salten, Felix an Schnitzler, Arthur [Briefe]",
 "text":
 "3 Blatt Abschrift Kopie",
 "desc":
{"listPerson":
  [
{
 "persName":
 "Felix (1869-1947) Salten",
 "ref":
 "http://d-nb.info/gnd/118840819"}]
}
}] 