[{
 "type":
 "schnitzler-tagebuch",
 "color":
 "#037a33",
 "filename":
 "entry__1896-10-08",
 "caption":
 "Tagebuch",
 "idno":
 "https://schnitzler-tagebuch.acdh.oeaw.ac.at/entry__1896-10-08.html",
 "head":
 "Tagebuch, 8. Oktober 1896",
 "desc":
{"listPerson":
  [
{
 "persName":
 "Leo Ebermann",
 "ref":
 "person_14597"},
 {
 "persName":
 "Marie Reinhard",
 "ref":
 "person_19150"}]
}
}, {
 "type":
 "schnitzler-briefe",
 "color":
 "#A63437",
 "filename":
 "L00602",
 "caption":
 "Briefe mit Autorinnen und Autoren",
 "idno":
 "https://schnitzler-briefe.acdh.oeaw.ac.at/L00602.html",
 "head":
 "Arthur Schnitzler an Georg Brandes, 8. 10. 1896",
 "desc":
{"listPerson":
  [
{
 "persName":
 "Georg Brandes",
 "ref":
 "pmb10992"},
 {
 "persName":
 "Alfred Forster",
 "ref":
 "pmb29100"}],
 "listBibl":
  [
 {
 "title":
 "Eindrücke aus Russland",
 "ref":
 "pmb33255"}
 ,  {
 "title":
 "Censur in Polen",
 "ref":
 "pmb32063"}
 ],
 "listOrg":
  [
 {
 "orgName":
 "Siegismund u Volkening",
 "ref":
 "pmb29490"}
 ,  {
 "orgName":
 "Die Zeit. Wiener Wochenschrift",
 "ref":
 "pmb29209"}
 ],
 "listPlace":
  [
 {
 "placeName":
 "Wien",
 "ref":
 "pmb50"}
 ,  {
 "placeName":
 "Polen",
 "ref":
 "pmb313"}
 ,  {
 "placeName":
 "Deutschland",
 "ref":
 "pmb151"}
 ,  {
 "placeName":
 "Dänemark",
 "ref":
 "pmb43570"}
 ]
}
}, {
 "type":
 "schnitzler-briefe",
 "color":
 "#A63437",
 "filename":
 "L00603",
 "caption":
 "Briefe mit Autorinnen und Autoren",
 "idno":
 "https://schnitzler-briefe.acdh.oeaw.ac.at/L00603.html",
 "head":
 "Hermann Bahr an Arthur Schnitzler, 8. 10. 1896",
 "desc":
{"listPerson":
  [
{
 "persName":
 "Hermann Bahr",
 "ref":
 "pmb10815"},
 {
 "persName":
 "Isidor Singer",
 "ref":
 "pmb12790"},
 {
 "persName":
 "Heinrich Kanner",
 "ref":
 "pmb11867"},
 {
 "persName":
 "Georg Brandes",
 "ref":
 "pmb10992"},
 {
 "persName":
 "Adele Neustädter",
 "ref":
 "pmb2361"}],
 "listBibl":
  [
 {
 "title":
 "Censur in Polen",
 "ref":
 "pmb32063"}
 ,  {
 "title":
 "Polen",
 "ref":
 "pmb32065"}
 ,  {
 "title":
 "Die Frau des Weisen. Erzählung",
 "ref":
 "pmb30075"}
 ,  {
 "title":
 "Die Zeit. Wiener Wochenschrift",
 "ref":
 "pmb36340"}
 ,  {
 "title":
 "Freiwild. Schauspiel in 3 Akten",
 "ref":
 "pmb29899"}
 ],
 "listOrg":
  [
 {
 "orgName":
 "Die Zeit. Wiener Wochenschrift",
 "ref":
 "pmb29209"}
 ],
 "listPlace":
  [
 {
 "placeName":
 "Wien",
 "ref":
 "pmb50"}
 ,  {
 "placeName":
 "Günthergasse",
 "ref":
 "pmb296"}
 ,  {
 "placeName":
 "Berlin",
 "ref":
 "pmb168"}
 ,  {
 "placeName":
 "Frankgasse 1",
 "ref":
 "pmb168934"}
 ]
}
}, {
 "type":
 "wienerschnitzler",
 "color":
 "#ECDA98",
 "caption":
 "Wiener Schnitzler",
 "idno":
 "https://wienerschnitzler.org/tag.html#1896-10-08",
 "head":
 "Wien",
 "desc":
{"listPlace":
  [
 {
 "placeName":
 "IX., Alsergrund",
 "ref":
 ""}
 ]
}
}, {
 "type":
 "schnitzler-bahr",
 "color":
 "#639FF9",
 "filename":
 "L041188",
 "caption":
 "Schnitzler/Bahr",
 "idno":
 "https://schnitzler-bahr.acdh.oeaw.ac.at/L041188.html",
 "head":
 "Bahr an Schnitzler, 8. 10. 1896",
 "desc":
{"listPerson":
  [
{
 "persName":
 "Hermann Bahr",
 "ref":
 "pmb10815"},
 {
 "persName":
 "Isidor Singer",
 "ref":
 "pmb12790"},
 {
 "persName":
 "Heinrich Kanner",
 "ref":
 "pmb11867"},
 {
 "persName":
 "Georg Brandes",
 "ref":
 "pmb10992"},
 {
 "persName":
 "Adele Neustädter",
 "ref":
 "pmb2361"}],
 "listBibl":
  [
 {
 "title":
 "Censur in Polen",
 "ref":
 "pmb32063"}
 ,  {
 "title":
 "Polen",
 "ref":
 "pmb32065"}
 ,  {
 "title":
 "Die Frau des Weisen. Erzählung",
 "ref":
 "pmb30075"}
 ,  {
 "title":
 "Freiwild. Schauspiel in 3 Akten",
 "ref":
 "pmb29899"}
 ],
 "listPlace":
  [
 {
 "placeName":
 "Wien",
 "ref":
 "pmb50"}
 ,  {
 "placeName":
 "Günthergasse",
 "ref":
 "pmb296"}
 ,  {
 "placeName":
 "Berlin",
 "ref":
 "pmb168"}
 ,  {
 "placeName":
 "Frankgasse",
 "ref":
 "pmb397"}
 ],
 "listOrg":
  [
 {
 "orgName":
 "Die Zeit. Wiener Wochenschrift",
 "ref":
 "pmb29209"}
 ]
}
}, {
 "type":
 "schnitzler-bahr",
 "color":
 "#639FF9",
 "filename":
 "L041463",
 "caption":
 "Schnitzler/Bahr",
 "idno":
 "https://schnitzler-bahr.acdh.oeaw.ac.at/L041463.html",
 "head":
 "Bahr an Georg Brandes, 8. 10. 1896",
 "desc":
{"listPerson":
  [
{
 "persName":
 "Hermann Bahr",
 "ref":
 "pmb10815"},
 {
 "persName":
 "Georg Brandes",
 "ref":
 "pmb10992"},
 {
 "persName":
 "Isidor Singer",
 "ref":
 "pmb12790"},
 {
 "persName":
 "Heinrich Kanner",
 "ref":
 "pmb11867"},
 {
 "persName":
 "Adele Neustädter",
 "ref":
 "pmb2361"},
 {
 "persName":
 "Max Neustädter",
 "ref":
 "pmb4416"},
 {
 "persName":
 "William Shakespeare",
 "ref":
 "pmb2412"}],
 "listBibl":
  [
 {
 "title":
 "Censur in Polen",
 "ref":
 "pmb32063"}
 ,  {
 "title":
 "Polen",
 "ref":
 "pmb32065"}
 ,  {
 "title":
 "Der düstere Shakespeare",
 "ref":
 "pmb30459"}
 ,  {
 "title":
 "Othello",
 "ref":
 "pmb32736"}
 ,  {
 "title":
 "William Shakespeare",
 "ref":
 "pmb32159"}
 ],
 "listPlace":
  [
 {
 "placeName":
 "Wien",
 "ref":
 "pmb50"}
 ,  {
 "placeName":
 "Kopenhagen",
 "ref":
 "pmb36300"}
 ,  {
 "placeName":
 "Günthergasse",
 "ref":
 "pmb296"}
 ,  {
 "placeName":
 "Berlin",
 "ref":
 "pmb168"}
 ,  {
 "placeName":
 "Deutschland",
 "ref":
 "pmb151"}
 ],
 "listOrg":
  [
 {
 "orgName":
 "Die Zeit. Wiener Wochenschrift",
 "ref":
 "pmb29209"}
 ,  {
 "orgName":
 "Berliner Tageblatt",
 "ref":
 "pmb29329"}
 ]
}
}, {
 "type":
 "kalliope-verbund",
 "color":
 "#003574",
 "caption":
 "Kalliope Verbundkatalog",
 "idno":
 "http://kalliope-verbund.info/DE-2498-HS00085743",
 "head":
 "Schnitzler, Arthur an Unbekannt [Briefe]",
 "text":
 "1 Bl.Abschr."
}] 