[{
 "type":
 "schnitzler-orte",
 "idno":
 "https://pmb.acdh.oeaw.ac.at/entity/483/",
 "head":
 "Reichenau an der Rax"
}, {
 "type":
 "schnitzler-briefe",
 "idno":
 "https://schnitzler-briefe.acdh.oeaw.ac.at/L02777.html",
 "head":
 "Paul Goldmann an Arthur Schnitzler, 15. 6. [1896]",
 "desc":
{"listPerson":
  [
{
 "persName":
 "Paul Goldmann",
 "ref":
 "pmb11485"},
 {
 "persName":
 "Leopold Sonnemann",
 "ref":
 "pmb87771"},
 {
 "persName":
 "Christian Schefer",
 "ref":
 "pmb93611"},
 {
 "persName":
 "Richard Wagner",
 "ref":
 "pmb13024"}],
 "listBibl":
  [
 {
 "title":
 "Frankfurter Zeitung",
 "ref":
 "pmb36344"}
 ,  {
 "title":
 "La Nouvelle Revue",
 "ref":
 "pmb93619"}
 ,  {
 "title":
 "Un jeune écrivain viennois: M. Arthur Schnitzler",
 "ref":
 "pmb93622"}
 ,  {
 "title":
 "Neue Deutsche Rundschau",
 "ref":
 "pmb36152"}
 ],
 "listOrg":
  [
 {
 "orgName":
 "Frankfurter Zeitung",
 "ref":
 "pmb29442"}
 ,  {
 "orgName":
 "Nouvelle Revue",
 "ref":
 "pmb34277"}
 ],
 "listPlace":
  [
 {
 "placeName":
 "Paris",
 "ref":
 "pmb182"}
 ,  {
 "placeName":
 "Wien",
 "ref":
 "pmb50"}
 ,  {
 "placeName":
 "rue Feydeau",
 "ref":
 "pmb42671"}
 ,  {
 "placeName":
 "Melun",
 "ref":
 "pmb91225"}
 ,  {
 "placeName":
 "Dänemark",
 "ref":
 "pmb43570"}
 ,  {
 "placeName":
 "Kopenhagen",
 "ref":
 "pmb36300"}
 ,  {
 "placeName":
 "Berlin",
 "ref":
 "pmb168"}
 ,  {
 "placeName":
 "Schweiz",
 "ref":
 "pmb43435"}
 ,  {
 "placeName":
 "Hamburg",
 "ref":
 "pmb506"}
 ,  {
 "placeName":
 "Stavanger",
 "ref":
 "pmb42572"}
 ,  {
 "placeName":
 "Norwegen",
 "ref":
 "pmb64465"}
 ,  {
 "placeName":
 "Rue Doré",
 "ref":
 "pmb93762"}
 ,  {
 "placeName":
 "Frankreich",
 "ref":
 "pmb166"}
 ,  {
 "placeName":
 "Deutschland",
 "ref":
 "pmb151"}
 ]}

}, {
 "type":
 "schnitzler-cmif",
 "subtype":
 "#ya489e21-54d5-40de-a56d-f4548e894428",
 "head":
 "Arthur Schnitzler an Otto Brahm, 15.6.1896",
 "desc":
{"listPerson":
  [
{
 "persName":
 "Brahm, Otto",
 "ref":
 "https://d-nb.info/gnd/118514245"}],
 "bibl":
 "Der Briefwechsel Arthur Schnitzler – Otto Brahm. Vollständige Ausgabe. Hg., eingel. und erl. von Oskar Seidlin. Tübingen: Niemeyer, 1975."}

}, {
 "type":
 "schnitzler-tagebuch",
 "idno":
 "https://schnitzler-tagebuch.acdh.oeaw.ac.at/entry__1896-06-15.html",
 "head":
 "Tagebuch, 15. Juni 1896",
 "desc":
{"listPerson":
  [
{
 "persName":
 "Marie Reinhard",
 "ref":
 "person_19150"}],
 "listPlace":
  [
 {
 "placeName":
 "",
 "ref":
 "pmb91574"}
 ,  {
 "placeName":
 "Sollenau",
 "ref":
 "pmb91770"}
 ]}

}] 