[{
 "type":
 "schnitzler-tagebuch",
 "color":
 "#037a33",
 "filename":
 "entry__1896-09-26",
 "caption":
 "Tagebuch",
 "idno":
 "https://schnitzler-tagebuch.acdh.oeaw.ac.at/entry__1896-09-26.html",
 "head":
 "Tagebuch, 26. September 1896",
 "desc":
{"listPerson":
  [
{
 "persName":
 "Emerich von Bukovics",
 "ref":
 "person_14056"},
 {
 "persName":
 "Marie Reinhard",
 "ref":
 "person_19150"},
 {
 "persName":
 "Ernst von Wolzogen",
 "ref":
 "person_21465"}],
 "listBibl":
  [
 {
 "title":
 "Freiwild. Schauspiel in 3 Akten",
 "ref":
 "pmb29899"}
 ,  {
 "title":
 "Ein unbeschriebenes Blatt",
 "ref":
 "pmb31301"}
 ],
 "listPlace":
  [
 {
 "placeName":
 "Dornbacher Park",
 "ref":
 "pmb176"}
 ,  {
 "placeName":
 "Deutsches Volkstheater",
 "ref":
 "pmb92202"}
 ]
}
}, {
 "type":
 "schnitzler-briefe",
 "color":
 "#A63437",
 "filename":
 "L02786",
 "caption":
 "Briefe mit Autorinnen und Autoren",
 "idno":
 "https://schnitzler-briefe.acdh.oeaw.ac.at/L02786.html",
 "head":
 "Paul Goldmann an Arthur Schnitzler, 26. 9. [1896]",
 "desc":
{"listPerson":
  [
{
 "persName":
 "Hermann Bahr",
 "ref":
 "pmb10815"},
 {
 "persName":
 "Richard Beer-Hofmann",
 "ref":
 "pmb10863"},
 {
 "persName":
 "Samuel Fischer",
 "ref":
 "pmb11324"},
 {
 "persName":
 "Johann Wolfgang von Goethe",
 "ref":
 "pmb11461"},
 {
 "persName":
 "Paul Goldmann",
 "ref":
 "pmb11485"},
 {
 "persName":
 "Franz Grillparzer",
 "ref":
 "pmb11518"},
 {
 "persName":
 "Arthur Holitscher",
 "ref":
 "pmb11749"},
 {
 "persName":
 "Henrik Ibsen",
 "ref":
 "pmb11798"},
 {
 "persName":
 "Lucie Dreyfus",
 "ref":
 "pmb117980"},
 {
 "persName":
 "Friedrich von Schiller",
 "ref":
 "pmb12654"},
 {
 "persName":
 "Leo Ebermann",
 "ref":
 "pmb2157"},
 {
 "persName":
 "Peter Nansen",
 "ref":
 "pmb2357"},
 {
 "persName":
 "Marie Reinhard",
 "ref":
 "pmb2378"},
 {
 "persName":
 "Betty Nansen",
 "ref":
 "pmb2910"},
 {
 "persName":
 "Jean Thorel",
 "ref":
 "pmb3966"},
 {
 "persName":
 "Alfred Dreyfus",
 "ref":
 "pmb4216"},
 {
 "persName":
 "Leopold Sonnemann",
 "ref":
 "pmb87771"}],
 "listBibl":
  [
 {
 "title":
 "[Meldung aus Paris. Brief von Lucie Dreyfus]",
 "ref":
 "pmb117978"}
 ,  {
 "title":
 "Brief aus dem Norden",
 "ref":
 "pmb140808"}
 ,  {
 "title":
 "Briefe aus dem Norden. II. Das Kopenhagener Theater",
 "ref":
 "pmb140811"}
 ,  {
 "title":
 "Freiwild. Schauspiel in 3 Akten",
 "ref":
 "pmb29899"}
 ,  {
 "title":
 "Liebelei. Schauspiel in drei Akten",
 "ref":
 "pmb29917"}
 ,  {
 "title":
 "Die Athenerin. Drama in drei Aufzügen",
 "ref":
 "pmb30417"}
 ,  {
 "title":
 "Juana. Drama",
 "ref":
 "pmb30461"}
 ,  {
 "title":
 "Don Quijote",
 "ref":
 "pmb31515"}
 ,  {
 "title":
 "Briefwechsel zwischen Schiller und Goethe",
 "ref":
 "pmb32408"}
 ,  {
 "title":
 "Neue Deutsche Rundschau",
 "ref":
 "pmb36152"}
 ,  {
 "title":
 "Frankfurter Zeitung",
 "ref":
 "pmb36344"}
 ,  {
 "title":
 "Samfundets Støtter. Skuespil i fire Akter",
 "ref":
 "pmb77002"}
 ,  {
 "title":
 "Die Enthüllungen über die Affaire Dreyfus",
 "ref":
 "pmb88967"}
 ,  {
 "title":
 "Amourette. Pièce en trois actes. Adaptée de Arthur Schnitzler",
 "ref":
 "pmb92876"}
 ],
 "listOrg":
  [
 {
 "orgName":
 "Frankfurter Zeitung",
 "ref":
 "pmb29442"}
 ,  {
 "orgName":
 "Neues Theater",
 "ref":
 "pmb45434"}
 ,  {
 "orgName":
 "Det Kongelige Teater",
 "ref":
 "pmb58993"}
 ],
 "listPlace":
  [
 {
 "placeName":
 "Auxerre",
 "ref":
 "pmb112478"}
 ,  {
 "placeName":
 "Deutschland",
 "ref":
 "pmb151"}
 ,  {
 "placeName":
 "Frankreich",
 "ref":
 "pmb166"}
 ,  {
 "placeName":
 "Berlin",
 "ref":
 "pmb168"}
 ,  {
 "placeName":
 "Paris",
 "ref":
 "pmb182"}
 ,  {
 "placeName":
 "Weimar",
 "ref":
 "pmb197"}
 ,  {
 "placeName":
 "Kopenhagen",
 "ref":
 "pmb36300"}
 ,  {
 "placeName":
 "rue Feydeau",
 "ref":
 "pmb42671"}
 ,  {
 "placeName":
 "Wien",
 "ref":
 "pmb50"}
 ,  {
 "placeName":
 "Jena",
 "ref":
 "pmb876"}
 ,  {
 "placeName":
 "Rue de Milan",
 "ref":
 "pmb93477"}
 ]
}
}, {
 "type":
 "wienerschnitzler",
 "color":
 "#6F5106",
 "caption":
 "Wiener Schnitzler",
 "idno":
 "https://wienerschnitzler.org/tag.html#1896-09-26",
 "head":
 "Wien",
 "desc":
{"listPlace":
  [
 {
 "placeName":
 "VII., Neubau",
 "ref":
 ""}
 ,  {
 "placeName":
 "III., Landstraße",
 "ref":
 ""}
 ,  {
 "placeName":
 "IX., Alsergrund",
 "ref":
 ""}
 ]
}
}, {
 "type":
 "schnitzler-kultur",
 "color":
 "#6B4C5A",
 "filename":
 "pmb208854",
 "caption":
 "Kulturveranstaltungen",
 "idno":
 "https://schnitzler-kultur.acdh.oeaw.ac.at/pmb208854.html",
 "head":
 "Premiere von Ein unbeschriebenes Blatt, 26.9.1896",
 "desc":
{"listOrg":
  [
 {
 "orgName":
 "Volkstheater",
 "ref":
 ""}
 ],
 "listBibl":
  [
 {
 "title":
 "Ein unbeschriebenes Blatt",
 "ref":
 ""}
 ],
 "listPerson":
  [
{
 "persName":
 "Arthur Schnitzler",
 "ref":
 ""}],
 "listPlace":
  [
 {
 "placeName":
 "Volkstheater",
 "ref":
 ""}
 ]
}
}, {
 "type":
 "kalliope-verbund",
 "color":
 "#003574",
 "caption":
 "Kalliope Verbundkatalog",
 "idno":
 "http://kalliope-verbund.info/DE-2498-HS00530864",
 "head":
 "Schnitzler, Arthur an S. Fischer-Verlag [Briefe]",
 "text":
 "2 Bl.",
 "desc":
{"listPerson":
  [
{
 "persName":
 "Oscar (1864-1938) Bie",
 "ref":
 "http://d-nb.info/gnd/116161795"}]
}
}] 