[{
 "type":
 "schnitzler-orte",
 "idno":
 "https://pmb.acdh.oeaw.ac.at/entity/224/",
 "head":
 "London"
}, {
 "type":
 "schnitzler-briefe",
 "idno":
 "https://schnitzler-briefe.acdh.oeaw.ac.at/L00681.html",
 "head":
 "Arthur Schnitzler an Richard Beer-Hofmann, 29. 5. 1897",
 "desc":
{"listPerson":
  [
{
 "persName":
 "Richard Beer-Hofmann",
 "ref":
 "pmb10863"}],
 "listPlace":
  [
 {
 "placeName":
 "Forest Hill",
 "ref":
 "pmb43409"}
 ,  {
 "placeName":
 "I., Innere Stadt",
 "ref":
 "pmb51"}
 ,  {
 "placeName":
 "Österreich",
 "ref":
 "pmb41240"}
 ,  {
 "placeName":
 "London",
 "ref":
 "pmb224"}
 ,  {
 "placeName":
 "Wien",
 "ref":
 "pmb50"}
 ,  {
 "placeName":
 "Wollzeile",
 "ref":
 "pmb338"}
 ,  {
 "placeName":
 "Paris",
 "ref":
 "pmb182"}
 ]}

}, {
 "type":
 "schnitzler-briefe",
 "idno":
 "https://schnitzler-briefe.acdh.oeaw.ac.at/L02964.html",
 "head":
 "Arthur Schnitzler an Felix Salten, 29. 5. 1897",
 "desc":
{"listPerson":
  [
{
 "persName":
 "Felix Salten",
 "ref":
 "pmb2167"}],
 "listPlace":
  [
 {
 "placeName":
 "Wien",
 "ref":
 "pmb50"}
 ]}

}, {
 "type":
 "schnitzler-cmif",
 "subtype":
 "#d2b0f559-bde7-4114-82b9-741a8810c463",
 "head":
 "Arthur Schnitzler an Olga Waissnix, 29.5.1897",
 "desc":
{"listPerson":
  [
{
 "persName":
 "Waissnix, Olga",
 "ref":
 "https://d-nb.info/gnd/118628526"}],
 "bibl":
 "Arthur Schnitzler und Waissnix, Olga: Liebe, die starb vor der Zeit. Ein Briefwechsel. Mit einem Vorwort von Hans Weigel. Mit 16 Seiten Kunstdruckbildern. Hg. v. Therese Nickl und Heinrich Schnitzler. Wien, München, Zürich: Verlag Fritz Molden 1970. (PDF: https://schnitzler-briefe.acdh.oeaw.ac.at)"}

}, {
 "type":
 "schnitzler-tagebuch",
 "idno":
 "https://schnitzler-tagebuch.acdh.oeaw.ac.at/entry__1897-05-29.html",
 "head":
 "Tagebuch, 29. Mai 1897",
 "desc":
{"listPerson":
  [
{
 "persName":
 "Leons",
 "ref":
 "person_17456"},
 {
 "persName":
 "Felix Markbreiter",
 "ref":
 "person_17901"},
 {
 "persName":
 "Julie Markbreiter",
 "ref":
 "person_17904"},
 {
 "persName":
 "Hermann Oelsner",
 "ref":
 "person_18521"}]}

}] 