[{
 "type":
 "schnitzler-orte",
 "color":
 "#045344",
 "caption":
 "Aufenthaltsorte",
 "idno":
 "https://pmb.acdh.oeaw.ac.at/entity/50/",
 "head":
 "Wien"
}{
 "type":
 "schnitzler-briefe",
 "color":
 "#A63437",
 "caption":
 "Briefe mit Autorinnen und Autoren",
 "idno":
 "https://schnitzler-briefe.acdh.oeaw.ac.at/L02805.html",
 "head":
 "Paul Goldmann an Arthur Schnitzler, 11. 3. [1897]",
 "desc":
{"listPerson":
  [
{
 "persName":
 "Paul Goldmann",
 "ref":
 "pmb11485"},
 {
 "persName":
 "Leopold Sonnemann",
 "ref":
 "pmb87771"},
 {
 "persName":
 "Arthur Klein",
 "ref":
 "pmb19386"},
 {
 "persName":
 "Richard Klein",
 "ref":
 "pmb19419"},
 {
 "persName":
 "Richard Beer-Hofmann",
 "ref":
 "pmb10863"},
 {
 "persName":
 "Peter Nansen",
 "ref":
 "pmb2357"},
 {
 "persName":
 "Honoré de Balzac",
 "ref":
 "pmb10825"},
 {
 "persName":
 "Marie Reinhard",
 "ref":
 "pmb2378"},
 {
 "persName":
 "Carl Reinhard",
 "ref":
 "pmb40587"}],
 "listBibl":
  [
 {
 "title":
 "Die deutsche Orientpolitik und das Ausland",
 "ref":
 "pmb118416"}
 ,  {
 "title":
 "Frankreich. [Zum Tod des Persers Djemal-ed-din]",
 "ref":
 "pmb141964"}
 ,  {
 "title":
 "Frankfurter Zeitung",
 "ref":
 "pmb36344"}
 ,  {
 "title":
 "Politiken",
 "ref":
 "pmb36357"}
 ,  {
 "title":
 "Arthur Schnitzler. »Elskovsleg«s Forfatter",
 "ref":
 "pmb30470"}
 ,  {
 "title":
 "Illusions perdues",
 "ref":
 "pmb76712"}
 ],
 "listOrg":
  [
 {
 "orgName":
 "Frankfurter Zeitung",
 "ref":
 "pmb29442"}
 ,  {
 "orgName":
 "Reichsrat",
 "ref":
 "pmb118423"}
 ,  {
 "orgName":
 "Christlichsoziale Partei",
 "ref":
 "pmb118429"}
 ],
 "listPlace":
  [
 {
 "placeName":
 "Paris",
 "ref":
 "pmb182"}
 ,  {
 "placeName":
 "Wien",
 "ref":
 "pmb50"}
 ,  {
 "placeName":
 "rue Feydeau",
 "ref":
 "pmb42671"}
 ,  {
 "placeName":
 "Türkei",
 "ref":
 "pmb773"}
 ,  {
 "placeName":
 "Griechenland",
 "ref":
 "pmb44293"}
 ,  {
 "placeName":
 "Kreta",
 "ref":
 "pmb118407"}
 ,  {
 "placeName":
 "Nizza",
 "ref":
 "pmb926"}
 ,  {
 "placeName":
 "Schweiz",
 "ref":
 "pmb43435"}
 ,  {
 "placeName":
 "Zürich",
 "ref":
 "pmb484"}
 ,  {
 "placeName":
 "München",
 "ref":
 "pmb45258"}
 ,  {
 "placeName":
 "Frankreich",
 "ref":
 "pmb166"}
 ,  {
 "placeName":
 "16. Arrondissement (Passy)",
 "ref":
 "pmb47026"}
 ,  {
 "placeName":
 "Im Reichsrat vertretene Königreiche und Länder",
 "ref":
 "pmb118426"}
 ,  {
 "placeName":
 "Österreich-Ungarn",
 "ref":
 "pmb687"}
 ,  {
 "placeName":
 "Europa",
 "ref":
 "pmb468"}
 ]
}
}{
 "type":
 "schnitzler-cmif",
 "subtype":
 "#w6429315-92be-4f82-b2f1-926125f9bfa5",
 "color":
 "#654321",
 "caption":
 "Gedruckte Briefwechsel",
 "head":
 "Eugen Deimel an Arthur Schnitzler, 11.3.1897",
 "desc":
{"listPerson":
  [
{
 "persName":
 "Deimel, Eugen",
 "ref":
 "https://d-nb.info/gnd/124896847"}],
 "bibl":
 "Heinz P. Adamek (Hg.): In die Neue Welt... Arthur Schnitzler - Eugen Deimel. Briefwechsel. Holzhausen Verlag: Wien 2003"
}
}{
 "type":
 "schnitzler-tagebuch",
 "color":
 "#037a33",
 "caption":
 "Tagebuch",
 "idno":
 "https://schnitzler-tagebuch.acdh.oeaw.ac.at/entry__1897-03-11.html",
 "head":
 "Tagebuch, 11. März 1897",
 "desc":
{"listPerson":
  [
{
 "persName":
 "Marianne Benedict",
 "ref":
 "person_13581"},
 {
 "persName":
 "Georg Hirschfeld",
 "ref":
 "person_16222"},
 {
 "persName":
 "Marie Reinhard",
 "ref":
 "person_19150"},
 {
 "persName":
 "Hugo von Hofmannsthal",
 "ref":
 "person_16293"},
 {
 "persName":
 "Hermine von Schaffgotsch",
 "ref":
 "person_19611"}]
}
}] 