[{
 "type":
 "schnitzler-tagebuch",
 "color":
 "#037a33",
 "filename":
 "entry__1897-07-21",
 "caption":
 "Tagebuch",
 "idno":
 "https://schnitzler-tagebuch.acdh.oeaw.ac.at/entry__1897-07-21.html",
 "head":
 "Tagebuch, 21. Juli 1897",
 "desc":
{"listPerson":
  [
{
 "persName":
 "Else Singer",
 "ref":
 "person_19143"}]
}
}, {
 "type":
 "schnitzler-briefe",
 "color":
 "#A63437",
 "filename":
 "L00709",
 "caption":
 "Briefe mit Autorinnen und Autoren",
 "idno":
 "https://schnitzler-briefe.acdh.oeaw.ac.at/L00709.html",
 "head":
 "Arthur Schnitzler an Hugo von Hofmannsthal, 21. 7. 1897",
 "desc":
{"listPerson":
  [
{
 "persName":
 "Hugo von Hofmannsthal",
 "ref":
 "pmb11740"},
 {
 "persName":
 "Wolfgang Amadeus Mozart",
 "ref":
 "pmb12303"},
 {
 "persName":
 "Richard Beer-Hofmann",
 "ref":
 "pmb10863"},
 {
 "persName":
 "Carl Reinhard",
 "ref":
 "pmb23209"},
 {
 "persName":
 "Franz Reinhard",
 "ref":
 "pmb23212"},
 {
 "persName":
 "Louis Loeb",
 "ref":
 "pmb20548"},
 {
 "persName":
 "Regina Loeb",
 "ref":
 "pmb28299"},
 {
 "persName":
 "Clara Katharina Pollaczek",
 "ref":
 "pmb12435"},
 {
 "persName":
 "Max Eugen Burckhard",
 "ref":
 "pmb11036"},
 {
 "persName":
 "Hermann Bahr",
 "ref":
 "pmb10815"},
 {
 "persName":
 "Peter Altenberg",
 "ref":
 "pmb2147"}],
 "listBibl":
  [
 {
 "title":
 "W. A. Mozart",
 "ref":
 "pmb34255"}
 ,  {
 "title":
 "Agnes Jordan. Schauspiel in fünf Akten",
 "ref":
 "pmb30474"}
 ],
 "listPlace":
  [
 {
 "placeName":
 "Bad Ischl",
 "ref":
 "pmb213"}
 ,  {
 "placeName":
 "Bad Fusch",
 "ref":
 "pmb573"}
 ,  {
 "placeName":
 "Salzburg",
 "ref":
 "pmb30"}
 ,  {
 "placeName":
 "Berchtesgaden",
 "ref":
 "pmb797"}
 ,  {
 "placeName":
 "Ramsau bei Berchtesgaden",
 "ref":
 "pmb54764"}
 ,  {
 "placeName":
 "Zell am See",
 "ref":
 "pmb40336"}
 ,  {
 "placeName":
 "Wien",
 "ref":
 "pmb50"}
 ,  {
 "placeName":
 "Bad Aussee",
 "ref":
 "pmb415"}
 ]
}
}, {
 "type":
 "schnitzler-orte",
 "color":
 "#045344",
 "caption":
 "Aufenthaltsorte",
 "head":
 "Bad Ischl",
 "desc":
{"listPlace":
  [
 {
 "placeName":
 "Hotel und Pension Rudolfshöhe (Leopold Petter)",
 "ref":
 ""}
 ]
}
}, {
 "type":
 "pollaczek",
 "color":
 "#1e81b0",
 "filename":
 "ckp012",
 "caption":
 "Pollaczek: Schnitzler und ich",
 "idno":
 "https://pollaczek.acdh.oeaw.ac.at/ckp012.html",
 "head":
 "Arthur Schnitzler an Hugo von Hofmannsthal, 21. Juli 1897"
}, {
 "type":
 "schnitzler-cmif",
 "subtype":
 "#d2b0f559-bde7-4114-82b9-741a8810c463",
 "color":
 "#654321",
 "caption":
 "Gedruckte Briefwechsel",
 "head":
 "Arthur Schnitzler an Olga Waissnix, 21.7.1897",
 "source":
 "Arthur Schnitzler und Waissnix, Olga: Liebe, die starb vor der Zeit. Ein Briefwechsel. Mit einem Vorwort von Hans Weigel. Mit 16 Seiten Kunstdruckbildern. Hg. v. Therese Nickl und Heinrich Schnitzler. Wien, München, Zürich: Verlag Fritz Molden 1970. (PDF: https://schnitzler-briefe.acdh.oeaw.ac.at)"
}] 