[{
 "type":
 "schnitzler-tagebuch",
 "color":
 "#037a33",
 "filename":
 "entry__1897-07-09",
 "caption":
 "Tagebuch",
 "idno":
 "https://schnitzler-tagebuch.acdh.oeaw.ac.at/entry__1897-07-09.html",
 "head":
 "Tagebuch, 9. Juli 1897",
 "desc":
{"listPerson":
  [
{
 "persName":
 "Rosa Freudenthal",
 "ref":
 "person_15178"},
 {
 "persName":
 "Josef Jarno",
 "ref":
 "person_16517"}],
 "listBibl":
  [
 {
 "title":
 "Aschermittwoch. Schwank",
 "ref":
 "pmb32340"}
 ]
}
}, {
 "type":
 "schnitzler-briefe",
 "color":
 "#A63437",
 "filename":
 "L00696",
 "caption":
 "Briefe mit Autorinnen und Autoren",
 "idno":
 "https://schnitzler-briefe.acdh.oeaw.ac.at/L00696.html",
 "head":
 "Arthur Schnitzler an Georg Brandes, 9. 7. 1897",
 "desc":
{"listPerson":
  [
{
 "persName":
 "Arthur Schnitzler",
 "ref":
 "pmb2121"},
 {
 "persName":
 "Georg Brandes",
 "ref":
 "pmb10992"},
 {
 "persName":
 "Georg Brandes",
 "ref":
 "pmb10992"}],
 "listBibl":
  [
 {
 "title":
 "William Shakespeare",
 "ref":
 "pmb32159"}
 ,  {
 "title":
 "[Krankheit von Georg Brandes]",
 "ref":
 "pmb33279"}
 ],
 "listPlace":
  [
 {
 "placeName":
 "Bad Ischl",
 "ref":
 "pmb213"}
 ,  {
 "placeName":
 "Kopenhagen",
 "ref":
 "pmb36300"}
 ,  {
 "placeName":
 "Hotel und Pension Rudolfshöhe (Leopold Petter)",
 "ref":
 "pmb414"}
 ],
 "listOrg":
  [
 {
 "orgName":
 "Agramer Zeitung",
 "ref":
 "pmb29506"}
 ]
}
}, {
 "type":
 "schnitzler-briefe",
 "color":
 "#A63437",
 "filename":
 "L00697",
 "caption":
 "Briefe mit Autorinnen und Autoren",
 "idno":
 "https://schnitzler-briefe.acdh.oeaw.ac.at/L00697.html",
 "head":
 "Hugo von Hofmannsthal an Arthur Schnitzler, 9. [7. 1897]",
 "desc":
{"listPerson":
  [
{
 "persName":
 "Hugo von Hofmannsthal",
 "ref":
 "pmb11740"},
 {
 "persName":
 "Arthur Schnitzler",
 "ref":
 "pmb2121"},
 {
 "persName":
 "Leopold von Andrian-Werburg",
 "ref":
 "pmb10765"},
 {
 "persName":
 "Hugo von Hofmannsthal",
 "ref":
 "pmb11740"}],
 "listPlace":
  [
 {
 "placeName":
 "Bad Ischl",
 "ref":
 "pmb213"}
 ,  {
 "placeName":
 "Salzburg",
 "ref":
 "pmb30"}
 ,  {
 "placeName":
 "Liechtensteinstraße [Hinterbrühl]",
 "ref":
 "pmb34305"}
 ,  {
 "placeName":
 "Wien",
 "ref":
 "pmb50"}
 ,  {
 "placeName":
 "Bad Fusch",
 "ref":
 "pmb573"}
 ]
}
}, {
 "type":
 "schnitzler-briefe",
 "color":
 "#A63437",
 "filename":
 "L00698",
 "caption":
 "Briefe mit Autorinnen und Autoren",
 "idno":
 "https://schnitzler-briefe.acdh.oeaw.ac.at/L00698.html",
 "head":
 "Arthur Schnitzler an Hugo von Hofmannsthal, 9. 7. 1897",
 "desc":
{"listPerson":
  [
{
 "persName":
 "Arthur Schnitzler",
 "ref":
 "pmb2121"},
 {
 "persName":
 "Hugo von Hofmannsthal",
 "ref":
 "pmb11740"},
 {
 "persName":
 "Leopold von Andrian-Werburg",
 "ref":
 "pmb10765"},
 {
 "persName":
 "Hugo von Hofmannsthal",
 "ref":
 "pmb11740"}],
 "listPlace":
  [
 {
 "placeName":
 "Bad Ischl",
 "ref":
 "pmb213"}
 ,  {
 "placeName":
 "Salzburg",
 "ref":
 "pmb30"}
 ,  {
 "placeName":
 "Bruck an der Großglocknerstraße",
 "ref":
 "pmb34191"}
 ,  {
 "placeName":
 "Fusch an der Großglocknerstraße",
 "ref":
 "pmb34194"}
 ,  {
 "placeName":
 "Wien",
 "ref":
 "pmb50"}
 ]
}
}, {
 "type":
 "wienerschnitzler",
 "color":
 "#6F5106",
 "caption":
 "Wiener Schnitzler",
 "idno":
 "https://wienerschnitzler.org/tag.html#1897-07-09",
 "head":
 "Bad Ischl",
 "desc":
{"listPlace":
  [
 {
 "placeName":
 "Hotel und Pension Rudolfshöhe (Leopold Petter)",
 "ref":
 ""}
 ,  {
 "placeName":
 "Lehártheater",
 "ref":
 ""}
 ]
}
}, {
 "type":
 "URL",
 "subtype":
 "pmb",
 "filename":
 "entity/208955/",
 "idno":
 "https://pmb.acdh.oeaw.ac.at/entity/208955/",
 "head":
 "Premiere von Aschermittwoch. Schwank, 9.7.1897",
 "desc":
{"listOrg":
  [
 {
 "orgName":
 "Saisontheater Ischl",
 "ref":
 ""}
 ],
 "listBibl":
  [
 {
 "title":
 "Aschermittwoch. Schwank",
 "ref":
 ""}
 ],
 "listPerson":
  [
{
 "persName":
 "Arthur Schnitzler",
 "ref":
 ""}],
 "listPlace":
  [
 {
 "placeName":
 "Lehártheater",
 "ref":
 ""}
 ]
}
}] 