[{
 "type":
 "schnitzler-tagebuch",
 "color":
 "#037a33",
 "filename":
 "entry__1897-08-09",
 "caption":
 "Tagebuch",
 "idno":
 "https://schnitzler-tagebuch.acdh.oeaw.ac.at/entry__1897-08-09.html",
 "head":
 "Tagebuch, 9. August 1897",
 "desc":
{"listPerson":
  [
{
 "persName":
 "Minna Hamon",
 "ref":
 "person_15892"}],
 "listBibl":
  [
 {
 "title":
 "Tristan und Isolde",
 "ref":
 "pmb29897"}
 ],
 "listPlace":
  [
 {
 "placeName":
 "Wien Mauer",
 "ref":
 "pmb91217"}
 ]
}
}, {
 "type":
 "schnitzler-briefe",
 "color":
 "#A63437",
 "filename":
 "L00715",
 "caption":
 "Briefe mit Autorinnen und Autoren",
 "idno":
 "https://schnitzler-briefe.acdh.oeaw.ac.at/L00715.html",
 "head":
 "Hugo von Hofmannsthal an Arthur Schnitzler, [9. 8. 1897]",
 "desc":
{"listPerson":
  [
{
 "persName":
 "Leopold von Andrian-Werburg",
 "ref":
 "pmb10765"},
 {
 "persName":
 "Hugo August von Hofmannsthal",
 "ref":
 "pmb11737"},
 {
 "persName":
 "Hugo von Hofmannsthal",
 "ref":
 "pmb11740"},
 {
 "persName":
 "Anna von Hofmannsthal",
 "ref":
 "pmb18404"}],
 "listPlace":
  [
 {
 "placeName":
 "Salzburg",
 "ref":
 "pmb30"}
 ,  {
 "placeName":
 "Wien",
 "ref":
 "pmb50"}
 ,  {
 "placeName":
 "Habsburgergasse",
 "ref":
 "pmb791"}
 ]
}
}, {
 "type":
 "schnitzler-briefe",
 "color":
 "#A63437",
 "filename":
 "L03715",
 "caption":
 "Briefe mit Autorinnen und Autoren",
 "idno":
 "https://schnitzler-briefe.acdh.oeaw.ac.at/L03715.html",
 "head":
 "Elsa Plessner an Arthur Schnitzler, 9. 8. 1897",
 "desc":
{"listPerson":
  [
{
 "persName":
 "Elsa Plessner",
 "ref":
 "pmb2128"}],
 "listBibl":
  [
 {
 "title":
 "Der gläserne Käfig. Eine Parabel",
 "ref":
 "pmb30265"}
 ,  {
 "title":
 "Warten",
 "ref":
 "pmb32316"}
 ,  {
 "title":
 "Magazin für die Literatur des Auslandes",
 "ref":
 "pmb40968"}
 ],
 "listOrg":
  [
 {
 "orgName":
 "Die Zeit. Wiener Wochenschrift",
 "ref":
 "pmb29209"}
 ],
 "listPlace":
  [
 {
 "placeName":
 "Fröschelgasse 6",
 "ref":
 "pmb295164"}
 ,  {
 "placeName":
 "Wien",
 "ref":
 "pmb50"}
 ]
}
}, {
 "type":
 "wienerschnitzler",
 "color":
 "#6F5106",
 "caption":
 "Wiener Schnitzler",
 "idno":
 "https://wienerschnitzler.org/tag.html#1897-08-09",
 "head":
 "Wien",
 "desc":
{"listPlace":
  [
 {
 "placeName":
 "I., Innere Stadt",
 "ref":
 ""}
 ,  {
 "placeName":
 "IX., Alsergrund",
 "ref":
 ""}
 ,  {
 "placeName":
 "XXIII., Liesing",
 "ref":
 ""}
 ]
}
}, {
 "type":
 "schnitzler-kultur",
 "color":
 "#6B4C5A",
 "filename":
 "pmb208958",
 "caption":
 "Kulturveranstaltungen",
 "idno":
 "https://schnitzler-kultur.acdh.oeaw.ac.at/pmb208958.html",
 "head":
 "Aufführung von Tristan und Isolde, 9.8.1897",
 "desc":
{"listOrg":
  [
 {
 "orgName":
 "K.K. Hof-Oper",
 "ref":
 ""}
 ],
 "listBibl":
  [
 {
 "title":
 "Tristan und Isolde",
 "ref":
 ""}
 ],
 "listPerson":
  [
{
 "persName":
 "Arthur Schnitzler",
 "ref":
 ""}],
 "listPlace":
  [
 {
 "placeName":
 "Oper",
 "ref":
 ""}
 ]
}
}, {
 "type":
 "kalliope-verbund",
 "color":
 "#003574",
 "caption":
 "Kalliope Verbundkatalog",
 "idno":
 "http://kalliope-verbund.info/DE-2498-HS00082004",
 "head":
 "Schnitzler, Arthur: Das Vermächtnis [Dramatisches] (Drucktitel)",
 "text":
 "Erstes Objekt aus der Mappe. 1 Mappe"
}] 