[{
 "type":
 "schnitzler-tagebuch",
 "color":
 "#037a33",
 "filename":
 "entry__1897-10-02",
 "caption":
 "Tagebuch",
 "idno":
 "https://schnitzler-tagebuch.acdh.oeaw.ac.at/entry__1897-10-02.html",
 "head":
 "Tagebuch, 2. Oktober 1897",
 "desc":
{"listPerson":
  [
{
 "persName":
 "Rosa Freudenthal",
 "ref":
 "person_15178"}],
 "listBibl":
  [
 {
 "title":
 "Das Vermächtnis. Schauspiel in drei Akten",
 "ref":
 "pmb30219"}
 ,  {
 "title":
 "Der Weg ins Freie. Roman",
 "ref":
 "pmb29923"}
 ],
 "listPlace":
  [
 {
 "placeName":
 "Wien Mauer",
 "ref":
 "pmb91217"}
 ]
}
}, {
 "type":
 "schnitzler-briefe",
 "color":
 "#A63437",
 "filename":
 "L00726",
 "caption":
 "Briefe mit Autorinnen und Autoren",
 "idno":
 "https://schnitzler-briefe.acdh.oeaw.ac.at/L00726.html",
 "head":
 "Arthur Schnitzler an Richard Beer-Hofmann, 2. 10. 1897",
 "desc":
{"listPerson":
  [
{
 "persName":
 "Leopold von Andrian-Werburg",
 "ref":
 "pmb10765"},
 {
 "persName":
 "Richard Beer-Hofmann",
 "ref":
 "pmb10863"},
 {
 "persName":
 "William Busnach",
 "ref":
 "pmb14723"},
 {
 "persName":
 "Stendhal",
 "ref":
 "pmb28820"},
 {
 "persName":
 "John Milton",
 "ref":
 "pmb42793"},
 {
 "persName":
 "Joris-Karl Huysmans",
 "ref":
 "pmb5449"},
 {
 "persName":
 "Georges Duval",
 "ref":
 "pmb6892"}],
 "listBibl":
  [
 {
 "title":
 "En route",
 "ref":
 "pmb33418"}
 ,  {
 "title":
 "Der Stellvertreter. Schwank in 3 Acten",
 "ref":
 "pmb42786"}
 ],
 "listPlace":
  [
 {
 "placeName":
 "Carl-Theater",
 "ref":
 "pmb118"}
 ,  {
 "placeName":
 "Baden-Baden",
 "ref":
 "pmb228"}
 ,  {
 "placeName":
 "Wollzeile",
 "ref":
 "pmb338"}
 ,  {
 "placeName":
 "Sanatorium Frey-Dengler",
 "ref":
 "pmb42783"}
 ,  {
 "placeName":
 "Wien",
 "ref":
 "pmb50"}
 ,  {
 "placeName":
 "I., Innere Stadt",
 "ref":
 "pmb51"}
 ,  {
 "placeName":
 "IX., Alsergrund",
 "ref":
 "pmb59"}
 ]
}
}, {
 "type":
 "schnitzler-briefe",
 "color":
 "#A63437",
 "filename":
 "L00727",
 "caption":
 "Briefe mit Autorinnen und Autoren",
 "idno":
 "https://schnitzler-briefe.acdh.oeaw.ac.at/L00727.html",
 "head":
 "Max Burckhard an Arthur Schnitzler, [2. 10. 1897?]",
 "desc":
{"listPerson":
  [
{
 "persName":
 "Max Eugen Burckhard",
 "ref":
 "pmb11036"}],
 "listBibl":
  [
 {
 "title":
 "Simon Thums. Einige Tage aus seinem Leben",
 "ref":
 "pmb29965"}
 ,  {
 "title":
 "Börsenblatt für den Deutschen Buchhandel",
 "ref":
 "pmb47979"}
 ],
 "listOrg":
  [
 {
 "orgName":
 "J.G. Cotta’sche Buchhandlung Nachfolger",
 "ref":
 "pmb29215"}
 ],
 "listPlace":
  [
 {
 "placeName":
 "Wien",
 "ref":
 "pmb50"}
 ,  {
 "placeName":
 "Stuttgart",
 "ref":
 "pmb872"}
 ]
}
}, {
 "type":
 "wienerschnitzler",
 "color":
 "#6F5106",
 "caption":
 "Wiener Schnitzler",
 "idno":
 "https://wienerschnitzler.org/tag.html#1897-10-02",
 "head":
 "Wien",
 "desc":
{"listPlace":
  [
 {
 "placeName":
 "XXIII., Liesing",
 "ref":
 ""}
 ,  {
 "placeName":
 "IX., Alsergrund",
 "ref":
 ""}
 ]
}
}, {
 "type":
 "schnitzler-cmif",
 "subtype":
 "#j7685005-64da-4e31-99b6-b4641aa1628c",
 "color":
 "#654321",
 "caption":
 "Gedruckte Briefwechsel",
 "head":
 "Arthur Schnitzler an Rosa Freudenthal, 2. 10. 1897",
 "source":
 "Arthur Schnitzler: Briefe 1875–1912. Hrsg. v. Therese Nickl u. Heinrich Schnitzler. Frankfurt am Main: S. Fischer 1981."
}] 