[{
 "type":
 "schnitzler-tagebuch",
 "color":
 "#037a33",
 "filename":
 "entry__1897-05-06",
 "caption":
 "Tagebuch",
 "idno":
 "https://schnitzler-tagebuch.acdh.oeaw.ac.at/entry__1897-05-06.html",
 "head":
 "Tagebuch, 6. Mai 1897",
 "desc":
{"listPerson":
  [
{
 "persName":
 "Paul Goldmann",
 "ref":
 "person_15529"},
 {
 "persName":
 "Marie Reinhard",
 "ref":
 "person_19150"}],
 "listBibl":
  [
 {
 "title":
 "La joie fait peur",
 "ref":
 "pmb80589"}
 ,  {
 "title":
 "Le misanthrope (Der Misanthrop)",
 "ref":
 "pmb76778"}
 ]
}
}, {
 "type":
 "schnitzler-briefe",
 "color":
 "#A63437",
 "filename":
 "L00674",
 "caption":
 "Briefe mit Autorinnen und Autoren",
 "idno":
 "https://schnitzler-briefe.acdh.oeaw.ac.at/L00674.html",
 "head":
 "Arthur Schnitzler an Hugo von Hofmannsthal, 6. 5. 1897",
 "desc":
{"listPerson":
  [
{
 "persName":
 "Samuel Fischer",
 "ref":
 "pmb11324"},
 {
 "persName":
 "Paul Goldmann",
 "ref":
 "pmb11485"},
 {
 "persName":
 "Georg Hirschfeld",
 "ref":
 "pmb11701"},
 {
 "persName":
 "Hugo von Hofmannsthal",
 "ref":
 "pmb11740"},
 {
 "persName":
 "Clara Katharina Pollaczek",
 "ref":
 "pmb12435"},
 {
 "persName":
 "Marianne Benedict",
 "ref":
 "pmb13970"},
 {
 "persName":
 "Markus Benedict",
 "ref":
 "pmb13973"},
 {
 "persName":
 "Marie Delna",
 "ref":
 "pmb15313"},
 {
 "persName":
 "Louis Loeb",
 "ref":
 "pmb20548"},
 {
 "persName":
 "Marie Reinhard",
 "ref":
 "pmb2378"},
 {
 "persName":
 "Hermine von Schaffgotsch",
 "ref":
 "pmb24033"},
 {
 "persName":
 "William Shakespeare",
 "ref":
 "pmb2412"},
 {
 "persName":
 "Christine Schönberger",
 "ref":
 "pmb24686"},
 {
 "persName":
 "Sophokles",
 "ref":
 "pmb2693"},
 {
 "persName":
 "Regina Loeb",
 "ref":
 "pmb28299"},
 {
 "persName":
 "Rosa Papier",
 "ref":
 "pmb4249"}],
 "listBibl":
  [
 {
 "title":
 "Der Weg ins Freie. Roman",
 "ref":
 "pmb29923"}
 ,  {
 "title":
 "Agnes Jordan. Schauspiel in fünf Akten",
 "ref":
 "pmb30474"}
 ,  {
 "title":
 "Der Tod Georgs",
 "ref":
 "pmb31535"}
 ,  {
 "title":
 "Mimi. Schattenbilder aus einem Mädchenleben",
 "ref":
 "pmb34096"}
 ,  {
 "title":
 "Orpheus und Eurydike",
 "ref":
 "pmb34253"}
 ,  {
 "title":
 "Le Misanthrope ou l’Atrabilaire amoureux",
 "ref":
 "pmb34332"}
 ,  {
 "title":
 "Wer nie sein Brod mit Thränen as",
 "ref":
 "pmb34334"}
 ],
 "listOrg":
  [
 {
 "orgName":
 "Bazar de la Charité",
 "ref":
 "pmb29248"}
 ],
 "listPlace":
  [
 {
 "placeName":
 "Frankreich",
 "ref":
 "pmb166"}
 ,  {
 "placeName":
 "Paris",
 "ref":
 "pmb182"}
 ,  {
 "placeName":
 "Hütteldorf",
 "ref":
 "pmb271"}
 ,  {
 "placeName":
 "Nöstach",
 "ref":
 "pmb34350"}
 ,  {
 "placeName":
 "Königstetten",
 "ref":
 "pmb34354"}
 ,  {
 "placeName":
 "Pottenstein",
 "ref":
 "pmb40112"}
 ,  {
 "placeName":
 "Tulln an der Donau",
 "ref":
 "pmb41239"}
 ,  {
 "placeName":
 "Weidling",
 "ref":
 "pmb44392"}
 ,  {
 "placeName":
 "Alland",
 "ref":
 "pmb44715"}
 ,  {
 "placeName":
 "Rohrerhütte",
 "ref":
 "pmb456"}
 ,  {
 "placeName":
 "Neuhaus",
 "ref":
 "pmb47414"}
 ,  {
 "placeName":
 "Reichenau an der Rax",
 "ref":
 "pmb483"}
 ,  {
 "placeName":
 "Wien",
 "ref":
 "pmb50"}
 ,  {
 "placeName":
 "Rekawinkel",
 "ref":
 "pmb54767"}
 ,  {
 "placeName":
 "Stockerau",
 "ref":
 "pmb54769"}
 ,  {
 "placeName":
 "Comédie française",
 "ref":
 "pmb554"}
 ,  {
 "placeName":
 "Wiener Neustadt",
 "ref":
 "pmb587"}
 ,  {
 "placeName":
 "Donau",
 "ref":
 "pmb59370"}
 ,  {
 "placeName":
 "Heiligenkreuz",
 "ref":
 "pmb939"}
 ,  {
 "placeName":
 "Bad Vöslau",
 "ref":
 "pmb992"}
 ]
}
}, {
 "type":
 "schnitzler-briefe",
 "color":
 "#A63437",
 "filename":
 "L02812",
 "caption":
 "Briefe mit Autorinnen und Autoren",
 "idno":
 "https://schnitzler-briefe.acdh.oeaw.ac.at/L02812.html",
 "head":
 "Paul Goldmann an Arthur Schnitzler, 6. 5. [1897]",
 "desc":
{"listPerson":
  [
{
 "persName":
 "Paul Goldmann",
 "ref":
 "pmb11485"},
 {
 "persName":
 "Marie Reinhard",
 "ref":
 "pmb2378"},
 {
 "persName":
 "Leopold Sonnemann",
 "ref":
 "pmb87771"}],
 "listOrg":
  [
 {
 "orgName":
 "Frankfurter Zeitung",
 "ref":
 "pmb29442"}
 ],
 "listPlace":
  [
 {
 "placeName":
 "Paris",
 "ref":
 "pmb182"}
 ,  {
 "placeName":
 "rue Feydeau",
 "ref":
 "pmb42671"}
 ]
}
}, {
 "type":
 "wienerschnitzler",
 "color":
 "#6F5106",
 "caption":
 "Wiener Schnitzler",
 "idno":
 "https://wienerschnitzler.org/tag.html#1897-05-06",
 "head":
 "Paris",
 "desc":
{"listPlace":
  [
 {
 "placeName":
 "rue de Maubeuge",
 "ref":
 ""}
 ,  {
 "placeName":
 "Odéon",
 "ref":
 ""}
 ]
}
}, {
 "type":
 "schnitzler-kultur",
 "color":
 "#6B4C5A",
 "filename":
 "pmb208937",
 "caption":
 "Kulturveranstaltungen",
 "idno":
 "https://schnitzler-kultur.acdh.oeaw.ac.at/pmb208937.html",
 "head":
 "Aufführung von Le Misanthrope, La joie fait peur, 6.5.1897",
 "desc":
{"listBibl":
  [
 {
 "title":
 "Le Misanthrope ou l’Atrabilaire amoureux",
 "ref":
 ""}
 ,  {
 "title":
 "La joie fait peur",
 "ref":
 ""}
 ],
 "listPerson":
  [
{
 "persName":
 "Arthur Schnitzler",
 "ref":
 ""}],
 "listPlace":
  [
 {
 "placeName":
 "Odéon",
 "ref":
 ""}
 ]
}
}, {
 "type":
 "pollaczek",
 "color":
 "#1e81b0",
 "filename":
 "ckp006",
 "caption":
 "Pollaczek: Schnitzler und ich",
 "idno":
 "https://pollaczek.acdh.oeaw.ac.at/ckp006.html",
 "head":
 "Arthur Schnitzler an Hugo von Hofmannsthal, 5. Mai 1897"
}] 