[{
 "type":
 "schnitzler-tagebuch",
 "color":
 "#037a33",
 "filename":
 "entry__1897-06-15",
 "caption":
 "Tagebuch",
 "idno":
 "https://schnitzler-tagebuch.acdh.oeaw.ac.at/entry__1897-06-15.html",
 "head":
 "Tagebuch, 15. Juni 1897",
 "desc":
{"listPerson":
  [
{
 "persName":
 "Marie Glümer",
 "ref":
 "person_15485"},
 {
 "persName":
 "Julius Schnitzler",
 "ref":
 "person_19827"}],
 "listPlace":
  [
 {
 "placeName":
 "Preßgasse",
 "ref":
 "pmb92461"}
 ]
}
}, {
 "type":
 "schnitzler-briefe",
 "color":
 "#A63437",
 "filename":
 "L00688",
 "caption":
 "Briefe mit Autorinnen und Autoren",
 "idno":
 "https://schnitzler-briefe.acdh.oeaw.ac.at/L00688.html",
 "head":
 "Arthur Schnitzler an Adalbert Seligmann, 15. 6. 1897",
 "desc":
{"listPerson":
  [
{
 "persName":
 "Adalbert Franz Seligmann",
 "ref":
 "pmb12769"},
 {
 "persName":
 "Max Eugen Burckhard",
 "ref":
 "pmb11036"}],
 "listBibl":
  [
 {
 "title":
 "Timon Sums, Bekenntnisse einer schönen Seele. (3798. Fortsetzung und Schluss.)",
 "ref":
 "pmb32598"}
 ,  {
 "title":
 "Hinter dem Leben",
 "ref":
 "pmb32302"}
 ],
 "listPlace":
  [
 {
 "placeName":
 "Wien",
 "ref":
 "pmb50"}
 ]
}
}, {
 "type":
 "schnitzler-briefe",
 "color":
 "#A63437",
 "filename":
 "L02814",
 "caption":
 "Briefe mit Autorinnen und Autoren",
 "idno":
 "https://schnitzler-briefe.acdh.oeaw.ac.at/L02814.html",
 "head":
 "Paul Goldmann an Arthur Schnitzler, 15. 6. [1897]",
 "desc":
{"listPerson":
  [
{
 "persName":
 "Paul Goldmann",
 "ref":
 "pmb11485"},
 {
 "persName":
 "Leopold Sonnemann",
 "ref":
 "pmb87771"},
 {
 "persName":
 "Jeanne Marni",
 "ref":
 "pmb5459"},
 {
 "persName":
 "Emmy Fournier",
 "ref":
 "pmb118513"},
 {
 "persName":
 "Hermann Paul",
 "ref":
 "pmb22391"},
 {
 "persName":
 "Félix Faure",
 "ref":
 "pmb57436"},
 {
 "persName":
 "Nikolaus II. von Russland",
 "ref":
 "pmb2996"},
 {
 "persName":
 "Clementine Goldmann",
 "ref":
 "pmb17163"},
 {
 "persName":
 "Peter Nansen",
 "ref":
 "pmb2357"},
 {
 "persName":
 "Olga Waissnix",
 "ref":
 "pmb2453"},
 {
 "persName":
 "Hermine von Schaffgotsch",
 "ref":
 "pmb24033"},
 {
 "persName":
 "Marie Reinhard",
 "ref":
 "pmb2378"},
 {
 "persName":
 "?? [Totgeborener Sohn von Arthur Schnitzler und Marie Reinhard]",
 "ref":
 "pmb42794"},
 {
 "persName":
 "Cosima Wagner",
 "ref":
 "pmb26555"}],
 "listBibl":
  [
 {
 "title":
 "Tagebuch",
 "ref":
 "pmb33243"}
 ,  {
 "title":
 "?? [Artikel von Peter Nansen, Mai/Juni 1897]",
 "ref":
 "pmb141680"}
 ,  {
 "title":
 "Parsifal",
 "ref":
 "pmb33031"}
 ],
 "listOrg":
  [
 {
 "orgName":
 "Frankfurter Zeitung",
 "ref":
 "pmb29442"}
 ,  {
 "orgName":
 "Bayreuther Festspiele",
 "ref":
 "pmb29811"}
 ],
 "listPlace":
  [
 {
 "placeName":
 "Paris",
 "ref":
 "pmb182"}
 ,  {
 "placeName":
 "Wien",
 "ref":
 "pmb50"}
 ,  {
 "placeName":
 "rue de la Bourse",
 "ref":
 "pmb43397"}
 ,  {
 "placeName":
 "Russland",
 "ref":
 "pmb34438"}
 ,  {
 "placeName":
 "Frankreich",
 "ref":
 "pmb166"}
 ,  {
 "placeName":
 "Bad Ischl",
 "ref":
 "pmb213"}
 ,  {
 "placeName":
 "Sanatorium Loew",
 "ref":
 "pmb89"}
 ,  {
 "placeName":
 "Mariannengasse",
 "ref":
 "pmb311"}
 ,  {
 "placeName":
 "Bayreuth",
 "ref":
 "pmb734"}
 ]
}
}, {
 "type":
 "wienerschnitzler",
 "color":
 "#ECDA98",
 "caption":
 "Wiener Schnitzler",
 "idno":
 "https://wienerschnitzler.org/tag.html#1897-06-15",
 "head":
 "Wien",
 "desc":
{"listPlace":
  [
 {
 "placeName":
 "IV., Wieden",
 "ref":
 ""}
 ,  {
 "placeName":
 "I., Innere Stadt",
 "ref":
 ""}
 ,  {
 "placeName":
 "IX., Alsergrund",
 "ref":
 ""}
 ]
}
}, {
 "type":
 "schnitzler-bahr",
 "color":
 "#639FF9",
 "filename":
 "L041585",
 "caption":
 "Schnitzler/Bahr",
 "idno":
 "https://schnitzler-bahr.acdh.oeaw.ac.at/L041585.html",
 "head":
 "Schnitzler an Marie Reinhard, 15. 6. 1897",
 "desc":
{"listPerson":
  [
{
 "persName":
 "Marie Reinhard",
 "ref":
 "pmb2378"},
 {
 "persName":
 "Leopoldine Kirchrath",
 "ref":
 "pmb19337"},
 {
 "persName":
 "Eugen von Aichelburg",
 "ref":
 "pmb13267"},
 {
 "persName":
 "Adalbert Franz Seligmann",
 "ref":
 "pmb12769"},
 {
 "persName":
 "Peter Altenberg",
 "ref":
 "pmb2147"},
 {
 "persName":
 "Max Eugen Burckhard",
 "ref":
 "pmb11036"},
 {
 "persName":
 "Leopold von Andrian-Werburg",
 "ref":
 "pmb10765"},
 {
 "persName":
 "Hermann Bahr",
 "ref":
 "pmb10815"},
 {
 "persName":
 "Hugo von Hofmannsthal",
 "ref":
 "pmb11740"},
 {
 "persName":
 "Felix Salten",
 "ref":
 "pmb2167"},
 {
 "persName":
 "Therese Reinhard",
 "ref":
 "pmb23215"}],
 "listBibl":
  [
 {
 "title":
 "Skizzen aus dem Süden",
 "ref":
 "pmb32304"}
 ,  {
 "title":
 "Hinter dem Leben",
 "ref":
 "pmb32302"}
 ],
 "listPlace":
  [
 {
 "placeName":
 "Konservatorium der Gesellschaft der Musikfreunde",
 "ref":
 "pmb2"}
 ,  {
 "placeName":
 "Kaiser-Franz-Josef-Spital",
 "ref":
 "pmb679"}
 ,  {
 "placeName":
 "Rigi",
 "ref":
 "pmb674"}
 ,  {
 "placeName":
 "Pavillon Henri IV",
 "ref":
 "pmb675"}
 ]
}
}, {
 "type":
 "schnitzler-cmif",
 "subtype":
 "#hbas_0a380dfe-61d4-4b9e-8641-01eba8e50777",
 "color":
 "#654321",
 "caption":
 "Gedruckte Briefwechsel",
 "head":
 "Arthur Schnitzler an Marie Reinhard, 15.6.1897",
 "source":
 "Hermann Bahr, Arthur Schnitzler. Briefwechsel, Aufzeichnungen, Dokumente 1891–1931. Herausgegeben von Kurt Ifkovits, Martin Anton Müller. Göttingen: Wallstein Verlag 2018"
}, {
 "type":
 "kalliope-verbund",
 "color":
 "#003574",
 "caption":
 "Kalliope Verbundkatalog",
 "idno":
 "http://kalliope-verbund.info/DE-2498-HS00085744",
 "head":
 "Schnitzler, Arthur an Unbekannt [Briefe]",
 "text":
 "1 Bl.Abschr.Vis.kte"
}] 