[{
 "type":
 "schnitzler-tagebuch",
 "color":
 "#037a33",
 "filename":
 "entry__1897-08-26",
 "caption":
 "Tagebuch",
 "idno":
 "https://schnitzler-tagebuch.acdh.oeaw.ac.at/entry__1897-08-26.html",
 "head":
 "Tagebuch, 26. August 1897",
 "desc":
{"listPerson":
  [
{
 "persName":
 "Johannes Brahms",
 "ref":
 "person_13914"},
 {
 "persName":
 "Hedwig Fischer",
 "ref":
 "person_15005"},
 {
 "persName":
 "Hermann Freudenthal",
 "ref":
 "person_15177"},
 {
 "persName":
 "Rosa Freudenthal",
 "ref":
 "person_15178"},
 {
 "persName":
 "Marietta Olly",
 "ref":
 "person_18549"},
 {
 "persName":
 "Oscar Stoerk",
 "ref":
 "person_20449"}],
 "listPlace":
  [
 {
 "placeName":
 "Wien",
 "ref":
 "pmb50"}
 ,  {
 "placeName":
 "B-n",
 "ref":
 "pmb92171"}
 ]
}
}, {
 "type":
 "schnitzler-briefe",
 "color":
 "#A63437",
 "filename":
 "L00718",
 "caption":
 "Briefe mit Autorinnen und Autoren",
 "idno":
 "https://schnitzler-briefe.acdh.oeaw.ac.at/L00718.html",
 "head":
 "Hugo von Hofmannsthal an Arthur Schnitzler, 26. 8. 1897",
 "desc":
{"listPerson":
  [
{
 "persName":
 "Hugo von Hofmannsthal",
 "ref":
 "pmb11740"},
 {
 "persName":
 "Leopold von Andrian-Werburg",
 "ref":
 "pmb10765"}],
 "listPlace":
  [
 {
 "placeName":
 "Varese",
 "ref":
 "pmb928"}
 ,  {
 "placeName":
 "IX., Alsergrund",
 "ref":
 "pmb59"}
 ,  {
 "placeName":
 "Wien",
 "ref":
 "pmb50"}
 ,  {
 "placeName":
 "Frankgasse 1",
 "ref":
 "pmb168934"}
 ,  {
 "placeName":
 "Österreich",
 "ref":
 "pmb41240"}
 ,  {
 "placeName":
 "Mailand",
 "ref":
 "pmb886"}
 ,  {
 "placeName":
 "Grand Hotel Varese",
 "ref":
 "pmb547"}
 ]
}
}, {
 "type":
 "wienerschnitzler",
 "color":
 "#ECDA98",
 "caption":
 "Wiener Schnitzler",
 "head":
 "Bad Ischl",
 "desc":
{"listPlace":
  [
 {
 "placeName":
 "Hotel und Pension Rudolfshöhe (Leopold Petter)",
 "ref":
 ""}
 ]
}
}, {
 "type":
 "pollaczek",
 "color":
 "#1e81b0",
 "filename":
 "ckp041",
 "caption":
 "Pollaczek: Schnitzler und ich",
 "idno":
 "https://pollaczek.acdh.oeaw.ac.at/ckp041.html",
 "head":
 "Clara Katharina Pollaczek an Arthur Schnitzler, 26. August 1897"
}] 