[{
 "type":
 "schnitzler-tagebuch",
 "color":
 "#037a33",
 "filename":
 "entry__1897-03-09",
 "caption":
 "Tagebuch",
 "idno":
 "https://schnitzler-tagebuch.acdh.oeaw.ac.at/entry__1897-03-09.html",
 "head":
 "Tagebuch, 9. März 1897",
 "desc":
{"listPerson":
  [
{
 "persName":
 "Armant",
 "ref":
 "person_13251"},
 {
 "persName":
 "Georg Hirschfeld",
 "ref":
 "person_16222"},
 {
 "persName":
 "Marie Reinhard",
 "ref":
 "person_19150"}],
 "listBibl":
  [
 {
 "title":
 "Die versunkene Glocke",
 "ref":
 "pmb31735"}
 ],
 "listPlace":
  [
 {
 "placeName":
 "München",
 "ref":
 "pmb45258"}
 ]
}
}, {
 "type":
 "wienerschnitzler",
 "color":
 "#ECDA98",
 "caption":
 "Wiener Schnitzler",
 "head":
 "Wien",
 "desc":
{"listPlace":
  [
 {
 "placeName":
 "I., Innere Stadt",
 "ref":
 ""}
 ,  {
 "placeName":
 "IX., Alsergrund",
 "ref":
 ""}
 ]
}
}, {
 "type":
 "schnitzler-interviews",
 "color":
 "#3D5A80",
 "filename":
 "I179",
 "caption":
 "Interviews, Meinungen, Proteste",
 "idno":
 "https://schnitzler-interviews.acdh.oeaw.ac.at/I179.html",
 "head":
 "–n– [=Peter Nansen]: Arthur Schnitzler. »Elskovsleg«s Forfatter,
                            9. 3. 1897",
 "desc":
{"listPerson":
  [
{
 "persName":
 "Peter Nansen",
 "ref":
 "pmb2357"},
 {
 "persName":
 "Heinrich Heine",
 "ref":
 "pmb11640"},
 {
 "persName":
 "Richard Beer-Hofmann",
 "ref":
 "pmb10863"},
 {
 "persName":
 "Paul Goldmann",
 "ref":
 "pmb11485"},
 {
 "persName":
 "Alfred Dreyfus",
 "ref":
 "pmb4216"},
 {
 "persName":
 "Lucien Millevoye",
 "ref":
 "pmb21481"},
 {
 "persName":
 "Paula Beer-Hofmann",
 "ref":
 "pmb10860"}],
 "listBibl":
  [
 {
 "title":
 "Liebelei. Schauspiel in drei Akten",
 "ref":
 "pmb29917"}
 ,  {
 "title":
 "Jugend in Wien",
 "ref":
 "pmb33838"}
 ,  {
 "title":
 "Politiken",
 "ref":
 "pmb36357"}
 ,  {
 "title":
 "Arthur Schnitzler. »Elskovsleg«s Forfatter",
 "ref":
 "pmb30470"}
 ],
 "listPlace":
  [
 {
 "placeName":
 "Österreich",
 "ref":
 "pmb41240"}
 ,  {
 "placeName":
 "Wien",
 "ref":
 "pmb50"}
 ,  {
 "placeName":
 "Frankreich",
 "ref":
 "pmb166"}
 ,  {
 "placeName":
 "Skandinavien",
 "ref":
 "pmb745"}
 ,  {
 "placeName":
 "Paris",
 "ref":
 "pmb182"}
 ,  {
 "placeName":
 "Kopenhagen",
 "ref":
 "pmb36300"}
 ,  {
 "placeName":
 "Deutschland",
 "ref":
 "pmb151"}
 ,  {
 "placeName":
 "Badehotel",
 "ref":
 "pmb1091"}
 ,  {
 "placeName":
 "Berlin",
 "ref":
 "pmb168"}
 ,  {
 "placeName":
 "Dänemark",
 "ref":
 "pmb43570"}
 ,  {
 "placeName":
 "Skodsborg",
 "ref":
 "pmb958"}
 ,  {
 "placeName":
 "Öresund",
 "ref":
 "pmb63623"}
 ,  {
 "placeName":
 "Østergade",
 "ref":
 "pmb63615"}
 ],
 "listOrg":
  [
 {
 "orgName":
 "Frankfurter Zeitung",
 "ref":
 "pmb29442"}
 ,  {
 "orgName":
 "Folketeatret",
 "ref":
 "pmb63620"}
 ]
}
}, {
 "type":
 "schnitzler-events",
 "color":
 "#9BC53D",
 "filename":
 "entity/208909/",
 "caption":
 "Ereignisse in der PMB",
 "idno":
 "https://pmb.acdh.oeaw.ac.at/entity/208909/",
 "head":
 "Premiere von Die versunkene Glocke, 9.3.1897",
 "desc":
{"listOrg":
  [
 {
 "orgName":
 "Burgtheater",
 "ref":
 ""}
 ],
 "listBibl":
  [
 {
 "title":
 "Die versunkene Glocke. Ein deutsches Märchendrama in fünf Aufzügen",
 "ref":
 ""}
 ],
 "listPerson":
  [
{
 "persName":
 "Arthur Schnitzler",
 "ref":
 ""}],
 "listPlace":
  [
 {
 "placeName":
 "Burgtheater",
 "ref":
 ""}
 ]
}
}] 