[{
 "type":
 "schnitzler-tagebuch",
 "color":
 "#037a33",
 "filename":
 "entry__1897-04-17",
 "caption":
 "Tagebuch",
 "idno":
 "https://schnitzler-tagebuch.acdh.oeaw.ac.at/entry__1897-04-17.html",
 "head":
 "Tagebuch, 17. April 1897",
 "desc":
{"listPerson":
  [
{
 "persName":
 "Georges Noblet",
 "ref":
 "person_18467"},
 {
 "persName":
 "Abel Hermant",
 "ref":
 "person_16111"},
 {
 "persName":
 "Felix Huguenet",
 "ref":
 "person_16412"}],
 "listBibl":
  [
 {
 "title":
 "La Carrière",
 "ref":
 "pmb32173"}
 ],
 "listPlace":
  [
 {
 "placeName":
 "Jardin du Luxembourg",
 "ref":
 "pmb91179"}
 ]
}
}, {
 "type":
 "schnitzler-briefe",
 "color":
 "#A63437",
 "filename":
 "L02808",
 "caption":
 "Briefe mit Autorinnen und Autoren",
 "idno":
 "https://schnitzler-briefe.acdh.oeaw.ac.at/L02808.html",
 "head":
 "Paul Goldmann an Arthur Schnitzler, 17. 4. [1897]",
 "desc":
{"listPerson":
  [
{
 "persName":
 "Paul Goldmann",
 "ref":
 "pmb11485"},
 {
 "persName":
 "Marie Reinhard",
 "ref":
 "pmb2378"},
 {
 "persName":
 "Leopold Sonnemann",
 "ref":
 "pmb87771"}],
 "listOrg":
  [
 {
 "orgName":
 "Frankfurter Zeitung",
 "ref":
 "pmb29442"}
 ],
 "listPlace":
  [
 {
 "placeName":
 "Paris",
 "ref":
 "pmb182"}
 ,  {
 "placeName":
 "rue Feydeau",
 "ref":
 "pmb42671"}
 ]
}
}, {
 "type":
 "wienerschnitzler",
 "color":
 "#6F5106",
 "caption":
 "Wiener Schnitzler",
 "idno":
 "https://wienerschnitzler.org/tag.html#1897-04-17",
 "head":
 "Paris",
 "desc":
{"listPlace":
  [
 {
 "placeName":
 "rue de Maubeuge",
 "ref":
 ""}
 ,  {
 "placeName":
 "Panthéon",
 "ref":
 ""}
 ,  {
 "placeName":
 "Théâtre du Gymnase Marie Bell",
 "ref":
 ""}
 ,  {
 "placeName":
 "Jardin du Luxembourg",
 "ref":
 ""}
 ]
}
}, {
 "type":
 "schnitzler-kultur",
 "color":
 "#6B4C5A",
 "filename":
 "pmb208922",
 "caption":
 "Kulturveranstaltungen",
 "idno":
 "https://schnitzler-kultur.acdh.oeaw.ac.at/pmb208922.html",
 "head":
 "Aufführung von La Carrière, 17.4.1897",
 "desc":
{"listBibl":
  [
 {
 "title":
 "La Carrière",
 "ref":
 ""}
 ],
 "listPerson":
  [
{
 "persName":
 "Arthur Schnitzler",
 "ref":
 ""}],
 "listPlace":
  [
 {
 "placeName":
 "Théâtre du Gymnase Marie Bell",
 "ref":
 ""}
 ]
}
}] 