[{
 "type":
 "schnitzler-tagebuch",
 "color":
 "#037a33",
 "filename":
 "entry__1897-05-15",
 "caption":
 "Tagebuch",
 "idno":
 "https://schnitzler-tagebuch.acdh.oeaw.ac.at/entry__1897-05-15.html",
 "head":
 "Tagebuch, 15. Mai 1897",
 "desc":
{"listPerson":
  [
{
 "persName":
 "Paul Goldmann",
 "ref":
 "person_15529"},
 {
 "persName":
 "Ludwig XV.",
 "ref":
 "person_17725"},
 {
 "persName":
 "Louise Schnitzler",
 "ref":
 "person_19831"},
 {
 "persName":
 "Marie Reinhard",
 "ref":
 "person_19150"}],
 "listPlace":
  [
 {
 "placeName":
 "Maisons-Laffitte",
 "ref":
 "pmb91195"}
 ,  {
 "placeName":
 "Saint-Germain-en-Laye",
 "ref":
 "pmb982"}
 ]
}
}, {
 "type":
 "schnitzler-briefe",
 "color":
 "#A63437",
 "filename":
 "L03695",
 "caption":
 "Briefe mit Autorinnen und Autoren",
 "idno":
 "https://schnitzler-briefe.acdh.oeaw.ac.at/L03695.html",
 "head":
 "Elsa Plessner an Arthur Schnitzler, 15. 5. 1897",
 "desc":
{"listPerson":
  [
{
 "persName":
 "Hermann Bahr",
 "ref":
 "pmb10815"},
 {
 "persName":
 "Elsa Plessner",
 "ref":
 "pmb2128"}],
 "listBibl":
  [
 {
 "title":
 "Der gläserne Käfig. Eine Parabel",
 "ref":
 "pmb30265"}
 ,  {
 "title":
 "Meine Freundin Clotilde",
 "ref":
 "pmb32161"}
 ,  {
 "title":
 "Der gläserne Käfig. Skizzen und Novellen",
 "ref":
 "pmb32230"}
 ],
 "listOrg":
  [
 {
 "orgName":
 "Leopold Weiss",
 "ref":
 "pmb29220"}
 ,  {
 "orgName":
 "Bazar de la Charité",
 "ref":
 "pmb29248"}
 ],
 "listPlace":
  [
 {
 "placeName":
 "Paris",
 "ref":
 "pmb182"}
 ,  {
 "placeName":
 "London",
 "ref":
 "pmb224"}
 ,  {
 "placeName":
 "Sievering",
 "ref":
 "pmb288"}
 ,  {
 "placeName":
 "Fröschelgasse 6",
 "ref":
 "pmb295164"}
 ,  {
 "placeName":
 "Wien",
 "ref":
 "pmb50"}
 ,  {
 "placeName":
 "Leipzig",
 "ref":
 "pmb864"}
 ]
}
}, {
 "type":
 "wienerschnitzler",
 "color":
 "#6F5106",
 "caption":
 "Wiener Schnitzler",
 "idno":
 "https://wienerschnitzler.org/tag.html#1897-05-15",
 "head":
 "Paris",
 "desc":
{"listPlace":
  [
 {
 "placeName":
 "rue de Maubeuge",
 "ref":
 ""}
 ,  {
 "placeName":
 "Musée du Louvre",
 "ref":
 ""}
 ,  {
 "placeName":
 "Jardin d’Acclimatation",
 "ref":
 ""}
 ]
}
}, {
 "type":
 "wienerschnitzler",
 "color":
 "#6F5106",
 "caption":
 "Wiener Schnitzler",
 "idno":
 "https://wienerschnitzler.org/tag.html#1897-05-15",
 "head":
 "Saint-Germain-en-Laye",
 "desc":
{"listPlace":
  [
 {
 "placeName":
 "Pavillon Henri IV",
 "ref":
 ""}
 ]
}
}, {
 "type":
 "schnitzler-kultur",
 "color":
 "#6B4C5A",
 "filename":
 "pmb297186",
 "caption":
 "Kulturveranstaltungen",
 "idno":
 "https://schnitzler-kultur.acdh.oeaw.ac.at/pmb297186.html",
 "head":
 "Besuch des Musée du Louvre, 15.5.1897",
 "desc":
{"listPerson":
  [
{
 "persName":
 "Arthur Schnitzler",
 "ref":
 ""}],
 "listPlace":
  [
 {
 "placeName":
 "Musée du Louvre",
 "ref":
 ""}
 ]
}
}, {
 "type":
 "schnitzler-bahr",
 "color":
 "#639FF9",
 "filename":
 "L041679",
 "caption":
 "Schnitzler/Bahr",
 "idno":
 "https://schnitzler-bahr.acdh.oeaw.ac.at/L041679.html",
 "head":
 "Elsa Plessner an Schnitzler, 15. 5. 1897",
 "desc":
{"listPerson":
  [
{
 "persName":
 "Elsa Plessner",
 "ref":
 "pmb2128"},
 {
 "persName":
 "Hermann Bahr",
 "ref":
 "pmb10815"}],
 "listBibl":
  [
 {
 "title":
 "Meine Freundin Klothilde",
 "ref":
 "pmb32161"}
 ,  {
 "title":
 "Der gläserne Käfig. Eine Parabel",
 "ref":
 "pmb30265"}
 ],
 "listPlace":
  [
 {
 "placeName":
 "Wien",
 "ref":
 "pmb50"}
 ,  {
 "placeName":
 "Fröschelgasse",
 "ref":
 "pmb820"}
 ,  {
 "placeName":
 "Paris",
 "ref":
 "pmb182"}
 ,  {
 "placeName":
 "Sievering",
 "ref":
 "pmb288"}
 ]
}
}, {
 "type":
 "schnitzler-cmif",
 "subtype":
 "#d2b0f559-bde7-4114-82b9-741a8810c463",
 "color":
 "#654321",
 "caption":
 "Gedruckte Briefwechsel",
 "head":
 "Arthur Schnitzler an Olga Waissnix, 15.5.1897",
 "source":
 "Arthur Schnitzler und Waissnix, Olga: Liebe, die starb vor der Zeit. Ein Briefwechsel. Mit einem Vorwort von Hans Weigel. Mit 16 Seiten Kunstdruckbildern. Hg. v. Therese Nickl und Heinrich Schnitzler. Wien, München, Zürich: Verlag Fritz Molden 1970. (PDF: https://schnitzler-briefe.acdh.oeaw.ac.at)"
}, {
 "type":
 "kalliope-verbund",
 "color":
 "#003574",
 "caption":
 "Kalliope Verbundkatalog",
 "idno":
 "http://kalliope-verbund.info/DE-2498-HS00071162",
 "head":
 "Neumann, Bertha an Schnitzler, Arthur [Briefe]",
 "text":
 "1 Bl."
}] 