[{
 "type":
 "schnitzler-orte",
 "color":
 "#045344",
 "caption":
 "Aufenthaltsorte",
 "idno":
 "https://pmb.acdh.oeaw.ac.at/entity/50/",
 "head":
 "Wien"
}, {
 "type":
 "schnitzler-briefe",
 "color":
 "#A63437",
 "caption":
 "Briefe mit Autorinnen und Autoren",
 "idno":
 "https://schnitzler-briefe.acdh.oeaw.ac.at/L00690.html",
 "head":
 "Arthur Schnitzler an Richard Beer-Hofmann, 23. 6. 1897",
 "desc":
{"listPerson":
  [
{
 "persName":
 "Richard Beer-Hofmann",
 "ref":
 "pmb10863"},
 {
 "persName":
 "Marie Reinhard",
 "ref":
 "pmb2378"},
 {
 "persName":
 "Marie Glümer",
 "ref":
 "pmb14953"},
 {
 "persName":
 "Louise Schnitzler",
 "ref":
 "pmb12701"},
 {
 "persName":
 "Leopold Petter",
 "ref":
 "pmb22474"},
 {
 "persName":
 "Gustav Schwarzkopf",
 "ref":
 "pmb12740"}],
 "listPlace":
  [
 {
 "placeName":
 "IX., Alsergrund",
 "ref":
 "pmb59"}
 ,  {
 "placeName":
 "Bad Ischl",
 "ref":
 "pmb213"}
 ,  {
 "placeName":
 "Wien",
 "ref":
 "pmb50"}
 ,  {
 "placeName":
 "Eglmoosgasse",
 "ref":
 "pmb766"}
 ,  {
 "placeName":
 "Oberösterreich",
 "ref":
 "pmb519"}
 ]
}
}, {
 "type":
 "schnitzler-briefe",
 "color":
 "#A63437",
 "caption":
 "Briefe mit Autorinnen und Autoren",
 "idno":
 "https://schnitzler-briefe.acdh.oeaw.ac.at/L00691.html",
 "head":
 "Max Burckhard an Arthur Schnitzler, [23. 6. 1897]",
 "desc":
{"listPerson":
  [
{
 "persName":
 "Max Eugen Burckhard",
 "ref":
 "pmb11036"}],
 "listBibl":
  [
 {
 "title":
 "’s Katherl. Volksstück in fünf Aufzügen",
 "ref":
 "pmb30478"}
 ,  {
 "title":
 "Die Bürgermeisterwahl. Ländliche Comödie in vier Acten",
 "ref":
 "pmb33450"}
 ],
 "listPlace":
  [
 {
 "placeName":
 "Wien",
 "ref":
 "pmb50"}
 ]
}
}, {
 "type":
 "schnitzler-cmif",
 "subtype":
 "#d2b0f559-bde7-4114-82b9-741a8810c463",
 "color":
 "#654321",
 "caption":
 "Gedruckte Briefwechsel",
 "head":
 "Arthur Schnitzler an Olga Waissnix, 23.6.1897",
 "desc":
{"listPerson":
  [
{
 "persName":
 "Waissnix, Olga",
 "ref":
 "https://d-nb.info/gnd/118628526"}],
 "bibl":
 "Arthur Schnitzler und Waissnix, Olga: Liebe, die starb vor der Zeit. Ein Briefwechsel. Mit einem Vorwort von Hans Weigel. Mit 16 Seiten Kunstdruckbildern. Hg. v. Therese Nickl und Heinrich Schnitzler. Wien, München, Zürich: Verlag Fritz Molden 1970. (PDF: https://schnitzler-briefe.acdh.oeaw.ac.at)"
}
}, {
 "type":
 "schnitzler-tagebuch",
 "color":
 "#037a33",
 "caption":
 "Tagebuch",
 "idno":
 "https://schnitzler-tagebuch.acdh.oeaw.ac.at/entry__1897-06-23.html",
 "head":
 "Tagebuch, 23. Juni 1897",
 "desc":
{"listPerson":
  [
{
 "persName":
 "Felix Salten",
 "ref":
 "person_19542"},
 {
 "persName":
 "Louise Schnitzler",
 "ref":
 "person_19831"},
 {
 "persName":
 "Ottilie Salten",
 "ref":
 "person_19543"}],
 "listPlace":
  [
 {
 "placeName":
 "Laxenburg",
 "ref":
 "pmb53786"}
 ,  {
 "placeName":
 "Bad Vöslau",
 "ref":
 "pmb992"}
 ,  {
 "placeName":
 "Mödling",
 "ref":
 "pmb968"}
 ,  {
 "placeName":
 "Wien",
 "ref":
 "pmb50"}
 ]
}
}] 