{
 "date":
 {
 "when-iso":
 "1897-07-22",
 "written":
 "Donnerstag, 22. Juli 1897"
},
"listEvent":
 [{
 "type":
 "schnitzler-orte",
 "idno":
 "https://pmb.acdh.oeaw.ac.at/entity/213/",
 "head":
 "Bad Ischl"
}, {
 "type":
 "schnitzler-orte",
 "idno":
 "https://pmb.acdh.oeaw.ac.at/entity/874/",
 "head":
 "Gmunden"
}, {
 "type":
 "schnitzler-orte",
 "idno":
 "https://pmb.acdh.oeaw.ac.at/entity/414/",
 "head":
 "Hotel und Pension Rudolfshöhe (Leopold Petter)"
}, {
 "type":
 "schnitzler-briefe",
 "idno":
 "https://schnitzler-briefe.acdh.oeaw.ac.at/L00710.html",
 "head":
 "Arthur Schnitzler an Hugo von Hofmannsthal, 22. 7. 1897",
 "desc":
{"listPerson":
  [
{
 "persName":
 "Hugo von Hofmannsthal",
 "ref":
 "pmb11740"},
 {
 "persName":
 "Herschmann",
 "ref":
 "pmb34161"},
 {
 "persName":
 "Leopold von Andrian-Werburg",
 "ref":
 "pmb10765"},
 {
 "persName":
 "Richard Beer-Hofmann",
 "ref":
 "pmb10863"},
 {
 "persName":
 "Carl Reinhard",
 "ref":
 "pmb23209"},
 {
 "persName":
 "Franz Reinhard",
 "ref":
 "pmb23212"},
 {
 "persName":
 "Marie Reinhard",
 "ref":
 "pmb2378"},
 {
 "persName":
 "Ernst von Wolzogen",
 "ref":
 "pmb13169"}],
 "listBibl":
  [
 {
 "title":
 "Freiwild. Schauspiel in 3 Akten",
 "ref":
 "pmb29899"}
 ,  {
 "title":
 "Das Lumpengesindel",
 "ref":
 "pmb33690"}
 ],
 "listPlace":
  [
 {
 "placeName":
 "Bad Ischl",
 "ref":
 "pmb213"}
 ,  {
 "placeName":
 "Wien",
 "ref":
 "pmb50"}
 ,  {
 "placeName":
 "Stadttheater Gmunden",
 "ref":
 "pmb34213"}
 ,  {
 "placeName":
 "Gmunden",
 "ref":
 "pmb874"}
 ,  {
 "placeName":
 "Salzburg",
 "ref":
 "pmb30"}
 ]}

}, {
 "type":
 "schnitzler-cmif",
 "subtype":
 "#hbas_0a380dfe-61d4-4b9e-8641-01eba8e50777",
 "head":
 "Felix Salten an Arthur Schnitzler, 22.7.1897",
 "desc":
{"listPerson":
  [
{
 "persName":
 "Salten, Felix",
 "ref":
 "https://d-nb.info/gnd/118840819"}],
 "bibl":
 "Hermann Bahr, Arthur Schnitzler. Briefwechsel, Aufzeichnungen, Dokumente 1891–1931. Herausgegeben von Kurt Ifkovits, Martin Anton Müller. Göttingen: Wallstein Verlag 2018"}

}, {
 "type":
 "schnitzler-tagebuch",
 "idno":
 "https://schnitzler-tagebuch.acdh.oeaw.ac.at/entry__1897-07-22.html",
 "head":
 "Tagebuch, 22. Juli 1897",
 "desc":
{"listPerson":
  [
{
 "persName":
 "Richard Beer-Hofmann",
 "ref":
 "person_13551"},
 {
 "persName":
 "Leopold Kramer",
 "ref":
 "person_17087"},
 {
 "persName":
 "Else Singer",
 "ref":
 "person_19143"},
 {
 "persName":
 "Alexander Rottmann",
 "ref":
 "person_19438"},
 {
 "persName":
 "Pepi Weiss",
 "ref":
 "person_21202"},
 {
 "persName":
 "Alfred Cavar",
 "ref":
 "person_14162"}],
 "listBibl":
  [
 {
 "title":
 "Freiwild. Schauspiel in 3 Akten",
 "ref":
 "pmb29899"}
 ],
 "listPlace":
  [
 {
 "placeName":
 "Gmunden",
 "ref":
 "pmb874"}
 ]}

}, {
 "type":
 "schnitzler-bahr",
 "idno":
 "https://schnitzler-bahr.acdh.oeaw.ac.at/L041216.html",
 "head":
 "Salten an Schnitzler, 22. 7. 1897",
 "desc":
{"listPerson":
  [
{
 "persName":
 "Felix Salten",
 "ref":
 "pmb2167"}],
 "listBibl":
  [
 {
 "title":
 "Agnes Jordan. Schauspiel in fünf Akten",
 "ref":
 "pmb30474"}
 ],
 "listPlace":
  [
 {
 "placeName":
 "Wien",
 "ref":
 "pmb50"}
 ,  {
 "placeName":
 "Bad Ischl",
 "ref":
 "pmb213"}
 ,  {
 "placeName":
 "VIII., Josefstadt",
 "ref":
 "pmb58"}
 ,  {
 "placeName":
 "Hotel und Pension Rudolfshöhe (Leopold Petter)",
 "ref":
 "pmb414"}
 ,  {
 "placeName":
 "Salzburg",
 "ref":
 "pmb30"}
 ],
 "listOrg":
  [
 {
 "orgName":
 "Wiener Allgemeine Zeitung",
 "ref":
 "pmb29670"}
 ]}

}] 
}