[{
 "type":
 "schnitzler-tagebuch",
 "color":
 "#037a33",
 "filename":
 "entry__1897-04-28",
 "caption":
 "Tagebuch",
 "idno":
 "https://schnitzler-tagebuch.acdh.oeaw.ac.at/entry__1897-04-28.html",
 "head":
 "Tagebuch, 28. April 1897",
 "desc":
{"listPerson":
  [
{
 "persName":
 "Jacques Jules Lowengard",
 "ref":
 "person_17707"},
 {
 "persName":
 "Sandor Rosenberg",
 "ref":
 "person_19377"}],
 "listPlace":
  [
 {
 "placeName":
 "Versailles",
 "ref":
 "pmb36549"}
 ]
}
}, {
 "type":
 "schnitzler-briefe",
 "color":
 "#A63437",
 "filename":
 "L00672",
 "caption":
 "Briefe mit Autorinnen und Autoren",
 "idno":
 "https://schnitzler-briefe.acdh.oeaw.ac.at/L00672.html",
 "head":
 "Arthur Schnitzler an Hugo von Hofmannsthal, 28. 4. 1897",
 "desc":
{"listPerson":
  [
{
 "persName":
 "Hugo von Hofmannsthal",
 "ref":
 "pmb11740"},
 {
 "persName":
 "Samuel Fischer",
 "ref":
 "pmb11324"},
 {
 "persName":
 "Clara Katharina Pollaczek",
 "ref":
 "pmb12435"},
 {
 "persName":
 "Anna Epstein",
 "ref":
 "pmb28285"},
 {
 "persName":
 "Hermine von Schaffgotsch",
 "ref":
 "pmb24033"}],
 "listBibl":
  [
 {
 "title":
 "Der Weg ins Freie. Roman",
 "ref":
 "pmb29923"}
 ],
 "listPlace":
  [
 {
 "placeName":
 "Paris",
 "ref":
 "pmb182"}
 ,  {
 "placeName":
 "Wien",
 "ref":
 "pmb50"}
 ,  {
 "placeName":
 "rue de Maubeuge",
 "ref":
 "pmb592"}
 ,  {
 "placeName":
 "Versailles",
 "ref":
 "pmb36549"}
 ]
}
}, {
 "type":
 "schnitzler-briefe",
 "color":
 "#A63437",
 "filename":
 "L02810",
 "caption":
 "Briefe mit Autorinnen und Autoren",
 "idno":
 "https://schnitzler-briefe.acdh.oeaw.ac.at/L02810.html",
 "head":
 "Paul Goldmann an Arthur Schnitzler, 28. 4. 1897",
 "desc":
{"listPerson":
  [
{
 "persName":
 "Paul Goldmann",
 "ref":
 "pmb11485"},
 {
 "persName":
 "Marie Reinhard",
 "ref":
 "pmb2378"},
 {
 "persName":
 "Dora Villé",
 "ref":
 "pmb118481"},
 {
 "persName":
 "?? [blonder junger Musiker in Paris]",
 "ref":
 "pmb118499"}],
 "listOrg":
  [
 {
 "orgName":
 "Frankfurter Zeitung",
 "ref":
 "pmb29442"}
 ],
 "listPlace":
  [
 {
 "placeName":
 "Frankfurt am Main",
 "ref":
 "pmb146"}
 ,  {
 "placeName":
 "Paris",
 "ref":
 "pmb182"}
 ,  {
 "placeName":
 "Concert Parisien",
 "ref":
 "pmb118474"}
 ,  {
 "placeName":
 "Hôtel de Ville",
 "ref":
 "pmb118489"}
 ,  {
 "placeName":
 "Panthéon",
 "ref":
 "pmb118491"}
 ,  {
 "placeName":
 "Berlin",
 "ref":
 "pmb168"}
 ,  {
 "placeName":
 "Hotel Deutscher Kaiser",
 "ref":
 "pmb118464"}
 ]
}
}, {
 "type":
 "pollaczek",
 "color":
 "#1e81b0",
 "filename":
 "ckp004",
 "caption":
 "Pollazczek: Schnitzler und ich",
 "idno":
 "https://pollaczek.acdh.oeaw.ac.at/ckp004.html",
 "head":
 "Arthur Schnitzler an Hugo von Hofmannsthal, 28. April 1897"
}, {
 "type":
 "pmb",
 "color":
 "#9B5F98",
 "filename":
 "entity/182/",
 "caption":
 "PMB",
 "idno":
 "https://pmb.acdh.oeaw.ac.at/entity/182/",
 "text":
 "Paris"
}, {
 "type":
 "pmb",
 "color":
 "#9B5F98",
 "filename":
 "entity/592/",
 "caption":
 "PMB",
 "idno":
 "https://pmb.acdh.oeaw.ac.at/entity/592/",
 "text":
 "rue de Maubeuge"
}] 