[{
 "type":
 "schnitzler-tagebuch",
 "color":
 "#037a33",
 "filename":
 "entry__1897-06-01",
 "caption":
 "Tagebuch",
 "idno":
 "https://schnitzler-tagebuch.acdh.oeaw.ac.at/entry__1897-06-01.html",
 "head":
 "Tagebuch, 1. Juni 1897",
 "desc":
{"listPerson":
  [
{
 "persName":
 "Ludwig Feuerbach",
 "ref":
 "person_14967"},
 {
 "persName":
 "Leo N. von Tolstoi",
 "ref":
 "person_20772"}],
 "listBibl":
  [
 {
 "title":
 "Krieg und Frieden",
 "ref":
 "pmb34996"}
 ],
 "listPlace":
  [
 {
 "placeName":
 "London",
 "ref":
 "pmb224"}
 ,  {
 "placeName":
 "Flushing",
 "ref":
 "pmb58725"}
 ,  {
 "placeName":
 "Hannover",
 "ref":
 "pmb890"}
 ]
}
}, {
 "type":
 "schnitzler-briefe",
 "color":
 "#A63437",
 "filename":
 "L03267",
 "caption":
 "Briefe mit Autorinnen und Autoren",
 "idno":
 "https://schnitzler-briefe.acdh.oeaw.ac.at/L03267.html",
 "head":
 "Felix Salten an Arthur Schnitzler, 1. [6.] 1897",
 "desc":
{"listPerson":
  [
{
 "persName":
 "Felix Salten",
 "ref":
 "pmb2167"}],
 "listPlace":
  [
 {
 "placeName":
 "London",
 "ref":
 "pmb224"}
 ,  {
 "placeName":
 "Wien",
 "ref":
 "pmb50"}
 ,  {
 "placeName":
 "Café Pucher",
 "ref":
 "pmb819"}
 ]
}
}, {
 "type":
 "wienerschnitzler",
 "color":
 "#6F5106",
 "caption":
 "Wiener Schnitzler",
 "idno":
 "https://wienerschnitzler.org/tag.html#1897-06-01",
 "head":
 "London"
}, {
 "type":
 "wienerschnitzler",
 "color":
 "#6F5106",
 "caption":
 "Wiener Schnitzler",
 "idno":
 "https://wienerschnitzler.org/tag.html#1897-06-01",
 "head":
 "Vlissingen",
 "desc":
{"listPlace":
  [
 {
 "placeName":
 "Bahnhof Vlissingen",
 "ref":
 ""}
 ]
}
}, {
 "type":
 "wienerschnitzler",
 "color":
 "#6F5106",
 "caption":
 "Wiener Schnitzler",
 "idno":
 "https://wienerschnitzler.org/tag.html#1897-06-01",
 "head":
 "Hannover",
 "desc":
{"listPlace":
  [
 {
 "placeName":
 "Hannover Hauptbahnhof",
 "ref":
 ""}
 ]
}
}, {
 "type":
 "schnitzler-mikrofilme-daten",
 "color":
 "#6e7b8b",
 "filename":
 "1428600_0024",
 "caption":
 "Mikroverfilmung des Nachlasses",
 "idno":
 "https://schnitzler-mikrofilme.acdh.oeaw.ac.at/1428600_0024.html",
 "head":
 "Mappe A132",
 "text":
 "Datumsangabe auf Blatt von Der Weg ins Freie. Roman: »Erster Akt im Hause Renn.«"
}] 