[{
 "type":
 "schnitzler-tagebuch",
 "color":
 "#037a33",
 "filename":
 "entry__1897-08-21",
 "caption":
 "Tagebuch",
 "idno":
 "https://schnitzler-tagebuch.acdh.oeaw.ac.at/entry__1897-08-21.html",
 "head":
 "Tagebuch, 21. August 1897",
 "desc":
{"listPerson":
  [
{
 "persName":
 "Hans Altmann",
 "ref":
 "person_13171"},
 {
 "persName":
 "Hermann Freudenthal",
 "ref":
 "person_15177"},
 {
 "persName":
 "Rosa Freudenthal",
 "ref":
 "person_15178"},
 {
 "persName":
 "Paul Goldmann",
 "ref":
 "person_15529"},
 {
 "persName":
 "Oscar Stoerk",
 "ref":
 "person_20449"}],
 "listPlace":
  [
 {
 "placeName":
 "Strobl",
 "ref":
 "pmb91852"}
 ]
}
}, {
 "type":
 "schnitzler-briefe",
 "color":
 "#A63437",
 "filename":
 "L03272",
 "caption":
 "Briefe mit Autorinnen und Autoren",
 "idno":
 "https://schnitzler-briefe.acdh.oeaw.ac.at/L03272.html",
 "head":
 "Felix Salten an Arthur Schnitzler, 21. 8. 1897",
 "desc":
{"listPerson":
  [
{
 "persName":
 "Maria Sandholzer",
 "ref":
 "pmb146053"},
 {
 "persName":
 "Felix Salten",
 "ref":
 "pmb2167"},
 {
 "persName":
 "Leo Van-Jung",
 "ref":
 "pmb26392"}],
 "listPlace":
  [
 {
 "placeName":
 "Linzer Gasse",
 "ref":
 "pmb146054"}
 ,  {
 "placeName":
 "Bad Ischl",
 "ref":
 "pmb213"}
 ,  {
 "placeName":
 "Salzburg",
 "ref":
 "pmb30"}
 ,  {
 "placeName":
 "Hotel und Pension Rudolfshöhe (Leopold Petter)",
 "ref":
 "pmb414"}
 ,  {
 "placeName":
 "Pressbaum",
 "ref":
 "pmb44271"}
 ,  {
 "placeName":
 "Wien",
 "ref":
 "pmb50"}
 ]
}
}, {
 "type":
 "wienerschnitzler",
 "color":
 "#6F5106",
 "caption":
 "Wiener Schnitzler",
 "idno":
 "https://wienerschnitzler.org/tag.html#1897-08-21",
 "head":
 "Bad Ischl",
 "desc":
{"listPlace":
  [
 {
 "placeName":
 "Hotel und Pension Rudolfshöhe (Leopold Petter)",
 "ref":
 ""}
 ]
}
}] 