[{
 "type":
 "schnitzler-tagebuch",
 "color":
 "#037a33",
 "filename":
 "entry__1897-07-17",
 "caption":
 "Tagebuch",
 "idno":
 "https://schnitzler-tagebuch.acdh.oeaw.ac.at/entry__1897-07-17.html",
 "head":
 "Tagebuch, 17. Juli 1897",
 "desc":
{"listPerson":
  [
{
 "persName":
 "Richard Beer-Hofmann",
 "ref":
 "person_13551"},
 {
 "persName":
 "Rosa Freudenthal",
 "ref":
 "person_15178"}],
 "listBibl":
  [
 {
 "title":
 "Der Tod Georgs",
 "ref":
 "pmb31535"}
 ],
 "listPlace":
  [
 {
 "placeName":
 "Salzburg",
 "ref":
 "pmb30"}
 ]
}
}, {
 "type":
 "schnitzler-briefe",
 "color":
 "#A63437",
 "filename":
 "L03269",
 "caption":
 "Briefe mit Autorinnen und Autoren",
 "idno":
 "https://schnitzler-briefe.acdh.oeaw.ac.at/L03269.html",
 "head":
 "Felix Salten an Arthur Schnitzler, 17. 7. 1897",
 "desc":
{"listPerson":
  [
{
 "persName":
 "Felix Salten",
 "ref":
 "pmb2167"},
 {
 "persName":
 "Arthur Schnitzler",
 "ref":
 "pmb2121"},
 {
 "persName":
 "Felix Salten",
 "ref":
 "pmb2167"},
 {
 "persName":
 "Georg Hirschfeld",
 "ref":
 "pmb11701"},
 {
 "persName":
 "Max Eugen Burckhard",
 "ref":
 "pmb11036"},
 {
 "persName":
 "Hermann Bahr",
 "ref":
 "pmb10815"},
 {
 "persName":
 "Desiderius Papp",
 "ref":
 "pmb36371"}],
 "listBibl":
  [
 {
 "title":
 "Der Hinterbliebene. Kurze Novellen",
 "ref":
 "pmb33301"}
 ,  {
 "title":
 "Agnes Jordan. Schauspiel in fünf Akten",
 "ref":
 "pmb30474"}
 ,  {
 "title":
 "Theater und Kunst [Agnes Jordan angenommen]",
 "ref":
 "pmb167776"}
 ,  {
 "title":
 "Neues Wiener Journal",
 "ref":
 "pmb36376"}
 ],
 "listPlace":
  [
 {
 "placeName":
 "I., Innere Stadt",
 "ref":
 "pmb51"}
 ,  {
 "placeName":
 "Bad Ischl",
 "ref":
 "pmb213"}
 ,  {
 "placeName":
 "Wien",
 "ref":
 "pmb50"}
 ,  {
 "placeName":
 "Kaltenbach",
 "ref":
 "pmb43015"}
 ,  {
 "placeName":
 "Hotel und Pension Rudolfshöhe (Leopold Petter)",
 "ref":
 "pmb414"}
 ],
 "listOrg":
  [
 {
 "orgName":
 "Deutsches Theater Berlin",
 "ref":
 "pmb35597"}
 ,  {
 "orgName":
 "Burgtheater",
 "ref":
 "pmb36247"}
 ]
}
}, {
 "type":
 "schnitzler-briefe",
 "color":
 "#A63437",
 "filename":
 "L00704",
 "caption":
 "Briefe mit Autorinnen und Autoren",
 "idno":
 "https://schnitzler-briefe.acdh.oeaw.ac.at/L00704.html",
 "head":
 "Arthur Schnitzler an Richard Beer-Hofmann, [17. oder
                  18. 7. 1897?]",
 "desc":
{"listPerson":
  [
{
 "persName":
 "Arthur Schnitzler",
 "ref":
 "pmb2121"},
 {
 "persName":
 "Richard Beer-Hofmann",
 "ref":
 "pmb10863"},
 {
 "persName":
 "Richard Beer-Hofmann",
 "ref":
 "pmb10863"},
 {
 "persName":
 "Hugo von Hofmannsthal",
 "ref":
 "pmb11740"}],
 "listPlace":
  [
 {
 "placeName":
 "Bad Ischl",
 "ref":
 "pmb213"}
 ,  {
 "placeName":
 "Eglmoosgasse",
 "ref":
 "pmb766"}
 ,  {
 "placeName":
 "Wien",
 "ref":
 "pmb50"}
 ,  {
 "placeName":
 "Zell am See",
 "ref":
 "pmb40336"}
 ]
}
}, {
 "type":
 "wienerschnitzler",
 "color":
 "#6F5106",
 "caption":
 "Wiener Schnitzler",
 "idno":
 "https://wienerschnitzler.org/tag.html#1897-07-17",
 "head":
 "Bad Ischl",
 "desc":
{"listPlace":
  [
 {
 "placeName":
 "Hotel und Pension Rudolfshöhe (Leopold Petter)",
 "ref":
 ""}
 ]
}
}] 