[{
 "type":
 "schnitzler-tagebuch",
 "color":
 "#037a33",
 "filename":
 "entry__1897-04-18",
 "caption":
 "Tagebuch",
 "idno":
 "https://schnitzler-tagebuch.acdh.oeaw.ac.at/entry__1897-04-18.html",
 "head":
 "Tagebuch, 18. April 1897",
 "desc":
{"listPerson":
  [
{
 "persName":
 "Sandor Rosenberg",
 "ref":
 "person_19377"},
 {
 "persName":
 "Louise Schnitzler",
 "ref":
 "person_19831"},
 {
 "persName":
 "Marie Reinhard",
 "ref":
 "person_19150"}],
 "listBibl":
  [
 {
 "title":
 "La Mascotte",
 "ref":
 "pmb80100"}
 ],
 "listPlace":
  [
 {
 "placeName":
 "Wien",
 "ref":
 "pmb50"}
 ]
}
}, {
 "type":
 "schnitzler-briefe",
 "color":
 "#A63437",
 "filename":
 "L03694",
 "caption":
 "Briefe mit Autorinnen und Autoren",
 "idno":
 "https://schnitzler-briefe.acdh.oeaw.ac.at/L03694.html",
 "head":
 "Elsa Plessner an Arthur Schnitzler, [Mitte April 1897]",
 "desc":
{"listPerson":
  [
{
 "persName":
 "Elsa Plessner",
 "ref":
 "pmb2128"},
 {
 "persName":
 "Arthur Schnitzler",
 "ref":
 "pmb2121"},
 {
 "persName":
 "Elsa Plessner",
 "ref":
 "pmb2128"},
 {
 "persName":
 "Hermann Bahr",
 "ref":
 "pmb10815"}],
 "listBibl":
  [
 {
 "title":
 "Warten",
 "ref":
 "pmb32316"}
 ],
 "listPlace":
  [
 {
 "placeName":
 "Wien",
 "ref":
 "pmb50"}
 ,  {
 "placeName":
 "Paris",
 "ref":
 "pmb182"}
 ,  {
 "placeName":
 "Florianigasse 44",
 "ref":
 "pmb295159"}
 ],
 "listOrg":
  [
 {
 "orgName":
 "Die Zeit. Wiener Wochenschrift",
 "ref":
 "pmb29209"}
 ]
}
}, {
 "type":
 "wienerschnitzler",
 "color":
 "#6F5106",
 "caption":
 "Wiener Schnitzler",
 "idno":
 "https://wienerschnitzler.org/tag.html#1897-04-18",
 "head":
 "Paris",
 "desc":
{"listPlace":
  [
 {
 "placeName":
 "rue de Maubeuge",
 "ref":
 ""}
 ,  {
 "placeName":
 "Théâtre de la Gaîté-Lyrique",
 "ref":
 ""}
 ,  {
 "placeName":
 "parc des Buttes-Chaumont",
 "ref":
 ""}
 ]
}
}, {
 "type":
 "URL",
 "subtype":
 "pmb",
 "filename":
 "entity/208923/",
 "idno":
 "https://pmb.acdh.oeaw.ac.at/entity/208923/",
 "head":
 "Aufführung von La Mascotte, 18.4.1897",
 "desc":
{"listBibl":
  [
 {
 "title":
 "La Mascotte",
 "ref":
 ""}
 ],
 "listPerson":
  [
{
 "persName":
 "Arthur Schnitzler",
 "ref":
 ""}],
 "listPlace":
  [
 {
 "placeName":
 "Théâtre de la Gaîté-Lyrique",
 "ref":
 ""}
 ]
}
}] 