[{
 "type":
 "schnitzler-tagebuch",
 "color":
 "#037a33",
 "filename":
 "entry__1897-06-22",
 "caption":
 "Tagebuch",
 "idno":
 "https://schnitzler-tagebuch.acdh.oeaw.ac.at/entry__1897-06-22.html",
 "head":
 "Tagebuch, 22. Juni 1897",
 "desc":
{"listPerson":
  [
{
 "persName":
 "Olga Waissnix",
 "ref":
 "person_21047"}],
 "listPlace":
  [
 {
 "placeName":
 "Nussdorf",
 "ref":
 "pmb91367"}
 ,  {
 "placeName":
 "XIV., Penzing",
 "ref":
 "pmb64"}
 ]
}
}, {
 "type":
 "schnitzler-briefe",
 "color":
 "#A63437",
 "filename":
 "L00689",
 "caption":
 "Briefe mit Autorinnen und Autoren",
 "idno":
 "https://schnitzler-briefe.acdh.oeaw.ac.at/L00689.html",
 "head":
 "Richard Beer-Hofmann an Arthur Schnitzler, 22. 6. 1897",
 "desc":
{"listPerson":
  [
{
 "persName":
 "Richard Beer-Hofmann",
 "ref":
 "pmb10863"},
 {
 "persName":
 "Gustav Schwarzkopf",
 "ref":
 "pmb12740"}],
 "listBibl":
  [
 {
 "title":
 "Pro und Contra. Eine hygienische Studie über das Radfahren",
 "ref":
 "pmb43423"}
 ],
 "listOrg":
  [
 {
 "orgName":
 "G. Findeis",
 "ref":
 "pmb43419"}
 ,  {
 "orgName":
 "Wiener Mode",
 "ref":
 "pmb43421"}
 ],
 "listPlace":
  [
 {
 "placeName":
 "Bad Ischl",
 "ref":
 "pmb213"}
 ,  {
 "placeName":
 "Wollzeile",
 "ref":
 "pmb338"}
 ,  {
 "placeName":
 "Dr.-Ignaz-Seipel-Platz",
 "ref":
 "pmb39594"}
 ,  {
 "placeName":
 "Graben",
 "ref":
 "pmb39599"}
 ,  {
 "placeName":
 "Goldschmiedgasse",
 "ref":
 "pmb39602"}
 ,  {
 "placeName":
 "Wien",
 "ref":
 "pmb50"}
 ]
}
}, {
 "type":
 "wienerschnitzler",
 "color":
 "#6F5106",
 "caption":
 "Wiener Schnitzler",
 "idno":
 "https://wienerschnitzler.org/tag.html#1897-06-22",
 "head":
 "Wien",
 "desc":
{"listPlace":
  [
 {
 "placeName":
 "XIX., Döbling",
 "ref":
 ""}
 ,  {
 "placeName":
 "IX., Alsergrund",
 "ref":
 ""}
 ,  {
 "placeName":
 "XIV., Penzing",
 "ref":
 ""}
 ]
}
}, {
 "type":
 "wienerschnitzler",
 "color":
 "#6F5106",
 "caption":
 "Wiener Schnitzler",
 "idno":
 "https://wienerschnitzler.org/tag.html#1897-06-22",
 "head":
 "Brühl"
}, {
 "type":
 "schnitzler-bahr",
 "color":
 "#639FF9",
 "filename":
 "L041386",
 "caption":
 "Schnitzler/Bahr",
 "idno":
 "https://schnitzler-bahr.acdh.oeaw.ac.at/L041386.html",
 "head":
 "Schnitzler an Marie Reinhard, 22. 6. 1897",
 "desc":
{"listPerson":
  [
{
 "persName":
 "Marie Reinhard",
 "ref":
 "pmb2378"},
 {
 "persName":
 "Paul Goldmann",
 "ref":
 "pmb11485"},
 {
 "persName":
 "Richard Wagner",
 "ref":
 "pmb13024"},
 {
 "persName":
 "Louise Schnitzler",
 "ref":
 "pmb12701"},
 {
 "persName":
 "Gisela Hajek",
 "ref":
 "pmb2461"},
 {
 "persName":
 "Emma Frid",
 "ref":
 "pmb16579"},
 {
 "persName":
 "Irene Mandl",
 "ref":
 "pmb20902"},
 {
 "persName":
 "Marie Herzfeld",
 "ref":
 "pmb11666"},
 {
 "persName":
 "Xaver Terofal",
 "ref":
 "pmb3982"},
 {
 "persName":
 "Hermann Bahr",
 "ref":
 "pmb10815"},
 {
 "persName":
 "Hermann von Schmid",
 "ref":
 "pmb3994"},
 {
 "persName":
 "Hans Neuert",
 "ref":
 "pmb3998"},
 {
 "persName":
 "Gilbert Otto Neumann-Hofer",
 "ref":
 "pmb12348"},
 {
 "persName":
 "Josef Gregorig",
 "ref":
 "pmb4295"},
 {
 "persName":
 "Max Eugen Burckhard",
 "ref":
 "pmb11036"},
 {
 "persName":
 "Georg Hirschfeld",
 "ref":
 "pmb11701"},
 {
 "persName":
 "Josef Klein",
 "ref":
 "pmb19404"},
 {
 "persName":
 "Moritz Koritschoner",
 "ref":
 "pmb19617"}],
 "listBibl":
  [
 {
 "title":
 "Ashantee",
 "ref":
 "pmb31539"}
 ,  {
 "title":
 "Freiwild. Schauspiel in 3 Akten",
 "ref":
 "pmb29899"}
 ,  {
 "title":
 "Liebelei. Schauspiel in drei Akten",
 "ref":
 "pmb29917"}
 ,  {
 "title":
 "Die Schliersee’r (Gastspiel des Schliersee’r Bauerntheaters im Deutschen Volkstheater)",
 "ref":
 "pmb32318"}
 ,  {
 "title":
 "’s Lieserl vom Schliersee",
 "ref":
 "pmb31541"}
 ,  {
 "title":
 "Agnes Jordan. Schauspiel in fünf Akten",
 "ref":
 "pmb30474"}
 ,  {
 "title":
 "Timon Sums, Bekenntnisse einer schönen Seele. (3798. Fortsetzung und Schluss.)",
 "ref":
 "pmb32598"}
 ,  {
 "title":
 "Hinter dem Leben",
 "ref":
 "pmb32302"}
 ,  {
 "title":
 "Simon Thums. Einige Tage aus seinem Leben",
 "ref":
 "pmb29965"}
 ,  {
 "title":
 "Die Toten schweigen",
 "ref":
 "pmb29833"}
 ,  {
 "title":
 "Der Ehrentag",
 "ref":
 "pmb29831"}
 ,  {
 "title":
 "Die Frau des Weisen. Erzählung",
 "ref":
 "pmb30075"}
 ],
 "listPlace":
  [
 {
 "placeName":
 "Wien",
 "ref":
 "pmb50"}
 ,  {
 "placeName":
 "Prag",
 "ref":
 "pmb652"}
 ,  {
 "placeName":
 "Ständetheater",
 "ref":
 "pmb27"}
 ,  {
 "placeName":
 "Bayern",
 "ref":
 "pmb314"}
 ,  {
 "placeName":
 "XIV., Penzing",
 "ref":
 "pmb64"}
 ,  {
 "placeName":
 "Greinerstraße",
 "ref":
 "pmb404"}
 ,  {
 "placeName":
 "Bad Ischl",
 "ref":
 "pmb213"}
 ,  {
 "placeName":
 "Nussdorf",
 "ref":
 "pmb403"}
 ,  {
 "placeName":
 "Die Schliersee’r",
 "ref":
 "pmb750"}
 ,  {
 "placeName":
 "Schliersee",
 "ref":
 "pmb936"}
 ,  {
 "placeName":
 "Volkstheater",
 "ref":
 "pmb20"}
 ,  {
 "placeName":
 "Redaktion der »Zeit«",
 "ref":
 "pmb561"}
 ,  {
 "placeName":
 "Lessing-Theater",
 "ref":
 "pmb18"}
 ,  {
 "placeName":
 "Volksoper",
 "ref":
 "pmb28"}
 ,  {
 "placeName":
 "Carl-Theater",
 "ref":
 "pmb118"}
 ],
 "listOrg":
  [
 {
 "orgName":
 "Die Zeit. Wiener Wochenschrift",
 "ref":
 "pmb29209"}
 ,  {
 "orgName":
 "Neue Freie Presse",
 "ref":
 "pmb29351"}
 ]
}
}, {
 "type":
 "schnitzler-cmif",
 "subtype":
 "#hbas_0a380dfe-61d4-4b9e-8641-01eba8e50777",
 "color":
 "#654321",
 "caption":
 "Gedruckte Briefwechsel",
 "head":
 "Arthur Schnitzler an Marie Reinhard, 22.6.1897",
 "source":
 "Hermann Bahr, Arthur Schnitzler. Briefwechsel, Aufzeichnungen, Dokumente 1891–1931. Herausgegeben von Kurt Ifkovits, Martin Anton Müller. Göttingen: Wallstein Verlag 2018"
}, {
 "type":
 "schnitzler-cmif",
 "subtype":
 "#d2b0f559-bde7-4114-82b9-741a8810c463",
 "color":
 "#654321",
 "caption":
 "Gedruckte Briefwechsel",
 "head":
 "Olga Waissnix an Arthur Schnitzler, 22.6.1897",
 "source":
 "Arthur Schnitzler und Waissnix, Olga: Liebe, die starb vor der Zeit. Ein Briefwechsel. Mit einem Vorwort von Hans Weigel. Mit 16 Seiten Kunstdruckbildern. Hg. v. Therese Nickl und Heinrich Schnitzler. Wien, München, Zürich: Verlag Fritz Molden 1970. (PDF: https://schnitzler-briefe.acdh.oeaw.ac.at)"
}, {
 "type":
 "schnitzler-cmif",
 "subtype":
 "#j7685005-64da-4e31-99b6-b4641aa1628c",
 "color":
 "#654321",
 "caption":
 "Gedruckte Briefwechsel",
 "head":
 "Arthur Schnitzler an Marie Reinhard, 22. 6. 1897",
 "source":
 "Arthur Schnitzler: Briefe 1875–1912. Hrsg. v. Therese Nickl u. Heinrich Schnitzler. Frankfurt am Main: S. Fischer 1981."
}] 