{
 "date":
 {
 "when-iso":
 "1897-12-30",
 "written":
 "Donnerstag, 30. Dezember 1897"
},
"listEvent":
 [{
 "type":
 "schnitzler-orte",
 "idno":
 "https://pmb.acdh.oeaw.ac.at/entity/50/",
 "head":
 "Wien"
}, {
 "type":
 "schnitzler-briefe",
 "idno":
 "https://schnitzler-briefe.acdh.oeaw.ac.at/L00755.html",
 "head":
 "Arthur Schnitzler an Richard Beer-Hofmann, 30. 12. 1897",
 "desc":
{"listPerson":
  [
{
 "persName":
 "Richard Beer-Hofmann",
 "ref":
 "pmb10863"},
 {
 "persName":
 "Hugo von Hofmannsthal",
 "ref":
 "pmb11740"}],
 "listBibl":
  [
 {
 "title":
 "Das Vermächtnis. Schauspiel in drei Akten",
 "ref":
 "pmb30219"}
 ],
 "listPlace":
  [
 {
 "placeName":
 "IX., Alsergrund",
 "ref":
 "pmb59"}
 ,  {
 "placeName":
 "I., Innere Stadt",
 "ref":
 "pmb51"}
 ,  {
 "placeName":
 "Wien",
 "ref":
 "pmb50"}
 ,  {
 "placeName":
 "Wollzeile",
 "ref":
 "pmb338"}
 ,  {
 "placeName":
 "Café Pucher",
 "ref":
 "pmb819"}
 ]}

}, {
 "type":
 "schnitzler-briefe",
 "idno":
 "https://schnitzler-briefe.acdh.oeaw.ac.at/L00756.html",
 "head":
 "Hugo August von Hofmannsthal an Arthur Schnitzler, 30. 12. 1897",
 "desc":
{"listPerson":
  [
{
 "persName":
 "Hugo August von Hofmannsthal",
 "ref":
 "pmb11737"}],
 "listPlace":
  [
 {
 "placeName":
 "Wien",
 "ref":
 "pmb50"}
 ]}

}, {
 "type":
 "schnitzler-briefe",
 "idno":
 "https://schnitzler-briefe.acdh.oeaw.ac.at/L02835.html",
 "head":
 "Paul Goldmann an Arthur Schnitzler, 30. 12. [1897]",
 "desc":
{"listPerson":
  [
{
 "persName":
 "Paul Goldmann",
 "ref":
 "pmb11485"},
 {
 "persName":
 "Leopold Sonnemann",
 "ref":
 "pmb87771"},
 {
 "persName":
 "Marie Reinhard",
 "ref":
 "pmb2378"},
 {
 "persName":
 "Emma Altmann",
 "ref":
 "pmb13342"},
 {
 "persName":
 "?? [politischer Korrespondent der Frankfurter Zeitung in Berlin 1897]",
 "ref":
 "pmb118666"},
 {
 "persName":
 "Alice Ziegler",
 "ref":
 "pmb118324"},
 {
 "persName":
 "Charlotte Bondy",
 "ref":
 "pmb14384"},
 {
 "persName":
 "Vít Šalomoun Bondy",
 "ref":
 "pmb14392"},
 {
 "persName":
 "Louise Schnitzler",
 "ref":
 "pmb12701"}],
 "listOrg":
  [
 {
 "orgName":
 "Frankfurter Zeitung",
 "ref":
 "pmb29442"}
 ,  {
 "orgName":
 "Neue Freie Presse",
 "ref":
 "pmb29351"}
 ],
 "listPlace":
  [
 {
 "placeName":
 "Paris",
 "ref":
 "pmb182"}
 ,  {
 "placeName":
 "Wien",
 "ref":
 "pmb50"}
 ,  {
 "placeName":
 "rue de la Bourse",
 "ref":
 "pmb43397"}
 ,  {
 "placeName":
 "Lobkowitzplatz",
 "ref":
 "pmb41038"}
 ,  {
 "placeName":
 "Berlin",
 "ref":
 "pmb168"}
 ,  {
 "placeName":
 "China",
 "ref":
 "pmb1108"}
 ,  {
 "placeName":
 "Prag",
 "ref":
 "pmb652"}
 ]}

}, {
 "type":
 "schnitzler-tagebuch",
 "idno":
 "https://schnitzler-tagebuch.acdh.oeaw.ac.at/entry__1897-12-30.html",
 "head":
 "Tagebuch, 30. Dezember 1897",
 "desc":
{"listPerson":
  [
{
 "persName":
 "Richard Mandl",
 "ref":
 "person_17827"},
 {
 "persName":
 "Heinrich Steger",
 "ref":
 "person_20342"},
 {
 "persName":
 "Alois Strasser",
 "ref":
 "person_20475"},
 {
 "persName":
 "Marie Reinhard",
 "ref":
 "person_19150"}]}

}] 
}