[{
 "type":
 "pollaczek pollaczek",
 "idno":
 "https://pollaczek.acdh.oeaw.ac.at/ckp034.html https://pollaczek.acdh.oeaw.ac.at/ckp035.html",
 "head":
 "Clara Katharina Pollaczek an Arthur Schnitzler, 19. Juli 1897"
}, {
 "type":
 "schnitzler-orte",
 "idno":
 "https://pmb.acdh.oeaw.ac.at/entity/213/",
 "head":
 "Bad Ischl"
}, {
 "type":
 "schnitzler-orte",
 "idno":
 "https://pmb.acdh.oeaw.ac.at/entity/414/",
 "head":
 "Hotel und Pension Rudolfshöhe (Leopold Petter)"
}, {
 "type":
 "schnitzler-briefe",
 "idno":
 "https://schnitzler-briefe.acdh.oeaw.ac.at/L00706.html",
 "head":
 "Hugo von Hofmannsthal an Arthur Schnitzler, [19. 7. 1897]",
 "desc":
{"listPerson":
  [
{
 "persName":
 "Hugo von Hofmannsthal",
 "ref":
 "pmb11740"},
 {
 "persName":
 "Hugo August von Hofmannsthal",
 "ref":
 "pmb11737"},
 {
 "persName":
 "Wolfgang Amadeus Mozart",
 "ref":
 "pmb12303"},
 {
 "persName":
 "Richard Beer-Hofmann",
 "ref":
 "pmb10863"}],
 "listBibl":
  [
 {
 "title":
 "W. A. Mozart",
 "ref":
 "pmb34255"}
 ],
 "listPlace":
  [
 {
 "placeName":
 "Bad Fusch",
 "ref":
 "pmb573"}
 ,  {
 "placeName":
 "Wien",
 "ref":
 "pmb50"}
 ,  {
 "placeName":
 "Italien",
 "ref":
 "pmb40306"}
 ]}

}, {
 "type":
 "schnitzler-briefe",
 "idno":
 "https://schnitzler-briefe.acdh.oeaw.ac.at/L02819.html",
 "head":
 "Paul Goldmann an Arthur Schnitzler, 19. 7. [1897]",
 "desc":
{"listPerson":
  [
{
 "persName":
 "Paul Goldmann",
 "ref":
 "pmb11485"},
 {
 "persName":
 "Leopold Sonnemann",
 "ref":
 "pmb87771"},
 {
 "persName":
 "Richard Beer-Hofmann",
 "ref":
 "pmb10863"}],
 "listOrg":
  [
 {
 "orgName":
 "Frankfurter Zeitung",
 "ref":
 "pmb29442"}
 ],
 "listPlace":
  [
 {
 "placeName":
 "Paris",
 "ref":
 "pmb182"}
 ,  {
 "placeName":
 "Bad Ischl",
 "ref":
 "pmb213"}
 ,  {
 "placeName":
 "rue de la Bourse",
 "ref":
 "pmb43397"}
 ,  {
 "placeName":
 "München",
 "ref":
 "pmb45258"}
 ]}

}, {
 "type":
 "schnitzler-tagebuch",
 "idno":
 "https://schnitzler-tagebuch.acdh.oeaw.ac.at/entry__1897-07-19.html",
 "head":
 "Tagebuch, 19. Juli 1897",
 "desc":
{"listPerson":
  [
{
 "persName":
 "Therese Horn",
 "ref":
 "person_16366"},
 {
 "persName":
 "Richard Specht",
 "ref":
 "person_20238"}],
 "listPlace":
  [
 {
 "placeName":
 "Unterach am Attersee",
 "ref":
 "pmb91973"}
 ]}

}] 