[{
 "type":
 "schnitzler-tagebuch",
 "color":
 "#037a33",
 "filename":
 "entry__1897-05-25",
 "caption":
 "Tagebuch",
 "idno":
 "https://schnitzler-tagebuch.acdh.oeaw.ac.at/entry__1897-05-25.html",
 "head":
 "Tagebuch, 25. Mai 1897",
 "desc":
{"listPerson":
  [
{
 "persName":
 "Walter Wilson Cobbett",
 "ref":
 "person_14245"},
 {
 "persName":
 "John Constable",
 "ref":
 "person_14272"},
 {
 "persName":
 "Amédée Forestier",
 "ref":
 "person_15077"},
 {
 "persName":
 "Felix Markbreiter",
 "ref":
 "person_17901"},
 {
 "persName":
 "Hermann Oelsner",
 "ref":
 "person_18521"},
 {
 "persName":
 "August Daniel Wilhelmj",
 "ref":
 "person_21344"},
 {
 "persName":
 "Marie Reinhard",
 "ref":
 "person_19150"},
 {
 "persName":
 "William Turner",
 "ref":
 "person_20840"}],
 "listPlace":
  [
 {
 "placeName":
 "Cromwell Place",
 "ref":
 "pmb92194"}
 ,  {
 "placeName":
 "South Kensington",
 "ref":
 "pmb91778"}
 ,  {
 "placeName":
 "Basel",
 "ref":
 "pmb854"}
 ]
}
}, {
 "type":
 "schnitzler-orte",
 "color":
 "#045344",
 "caption":
 "Aufenthaltsorte",
 "head":
 "London",
 "desc":
{"listPlace":
  [
 {
 "placeName":
 "Cromwell Place",
 "ref":
 ""}
 ,  {
 "placeName":
 "Honor Oak",
 "ref":
 ""}
 ,  {
 "placeName":
 "National Gallery",
 "ref":
 ""}
 ,  {
 "placeName":
 "Victoria and Albert Museum",
 "ref":
 ""}
 ,  {
 "placeName":
 "South Kensington",
 "ref":
 ""}
 ]
}
}, {
 "type":
 "kalliope-verbund",
 "color":
 "#003574",
 "caption":
 "Kalliope Verbundkatalog",
 "idno":
 "http://kalliope-verbund.info/DE-2498-HS00050380",
 "head":
 "Schnitzler, Arthur an Reinhard, Marie [Briefe]",
 "text":
 "125 Br., 34 Ktn, 2 Tel. 204 Bl. Mit 1 weit. durchnumerierten Ex. 1 Mappe Abschr.Durchschl.",
 "desc":
{"listPerson":
  [
{
 "persName":
 "Marie (1871-1899) Reinhard",
 "ref":
 "http://d-nb.info/gnd/123368790"}]
}
}] 