{
 "date":
 {
 "when-iso":
 "1898-07-06",
 "written":
 "Mittwoch, 6. Juli 1898"
},
"listEvent":
 [{
 "type":
 "schnitzler-orte",
 "idno":
 "https://pmb.acdh.oeaw.ac.at/entity/50/",
 "head":
 "Wien"
}, {
 "type":
 "schnitzler-briefe",
 "idno":
 "https://schnitzler-briefe.acdh.oeaw.ac.at/L00814.html",
 "head":
 "Arthur Schnitzler an Richard Beer-Hofmann, 6. 7. 1898",
 "desc":
{"listPerson":
  [
{
 "persName":
 "Richard Beer-Hofmann",
 "ref":
 "pmb10863"},
 {
 "persName":
 "Hugo von Hofmannsthal",
 "ref":
 "pmb11740"}],
 "listBibl":
  [
 {
 "title":
 "Der grüne Kakadu – Paracelsus – Die Gefährtin. Drei Einakter",
 "ref":
 "pmb32562"}
 ,  {
 "title":
 "Paracelsus. Versspiel in einem Akt",
 "ref":
 "pmb30403"}
 ,  {
 "title":
 "Die Gefährtin. Schauspiel in einem Akt",
 "ref":
 "pmb29845"}
 ,  {
 "title":
 "Der grüne Kakadu. Groteske in einem Akt",
 "ref":
 "pmb29843"}
 ,  {
 "title":
 "Der Schleier der Beatrice. Schauspiel in fünf Akten",
 "ref":
 "pmb29857"}
 ,  {
 "title":
 "Der Tod Georgs",
 "ref":
 "pmb31535"}
 ],
 "listOrg":
  [
 {
 "orgName":
 "J. Eisenstein &amp; Co.",
 "ref":
 "pmb29461"}
 ],
 "listPlace":
  [
 {
 "placeName":
 "IX., Alsergrund",
 "ref":
 "pmb59"}
 ,  {
 "placeName":
 "Steindorf am Ossiacher See",
 "ref":
 "pmb34860"}
 ,  {
 "placeName":
 "Wien",
 "ref":
 "pmb50"}
 ,  {
 "placeName":
 "Ossiacher See",
 "ref":
 "pmb40374"}
 ,  {
 "placeName":
 "Kärnten",
 "ref":
 "pmb651"}
 ,  {
 "placeName":
 "Salzburg (Land)",
 "ref":
 "pmb697"}
 ,  {
 "placeName":
 "Schweiz",
 "ref":
 "pmb43435"}
 ,  {
 "placeName":
 "Tschortkiw",
 "ref":
 "pmb45274"}
 ]}

}, {
 "type":
 "schnitzler-tagebuch",
 "idno":
 "https://schnitzler-tagebuch.acdh.oeaw.ac.at/entry__1898-07-06.html",
 "head":
 "Tagebuch, 6. Juli 1898",
 "desc":
{"listPerson":
  [
{
 "persName":
 "Marie Reinhard",
 "ref":
 "person_19150"}],
 "listBibl":
  [
 {
 "title":
 "Das Vermächtnis. Schauspiel in drei Akten",
 "ref":
 "pmb30219"}
 ]}

}] 
}