[{
 "type":
 "schnitzler-tagebuch",
 "color":
 "#037a33",
 "filename":
 "entry__1898-08-24",
 "caption":
 "Tagebuch",
 "idno":
 "https://schnitzler-tagebuch.acdh.oeaw.ac.at/entry__1898-08-24.html",
 "head":
 "Tagebuch, 24. August 1898",
 "desc":
{"listPlace":
  [
 {
 "placeName":
 "Luzern",
 "ref":
 "pmb967"}
 ]
}
}, {
 "type":
 "schnitzler-briefe",
 "color":
 "#A63437",
 "filename":
 "L02854",
 "caption":
 "Briefe mit Autorinnen und Autoren",
 "idno":
 "https://schnitzler-briefe.acdh.oeaw.ac.at/L02854.html",
 "head":
 "Paul Goldmann an Arthur Schnitzler, 24. 8. [1898]",
 "desc":
{"listPerson":
  [
{
 "persName":
 "Hermann Bahr",
 "ref":
 "pmb10815"},
 {
 "persName":
 "Richard Beer-Hofmann",
 "ref":
 "pmb10863"},
 {
 "persName":
 "Paul Goldmann",
 "ref":
 "pmb11485"},
 {
 "persName":
 "Hugo von Hofmannsthal",
 "ref":
 "pmb11740"},
 {
 "persName":
 "Clementine Goldmann",
 "ref":
 "pmb17163"},
 {
 "persName":
 "Marie Reinhard",
 "ref":
 "pmb2378"},
 {
 "persName":
 "Leo Van-Jung",
 "ref":
 "pmb26392"}],
 "listBibl":
  [
 {
 "title":
 "Der Schleier der Beatrice. Schauspiel in fünf Akten",
 "ref":
 "pmb29857"}
 ,  {
 "title":
 "Der junge Medardus. Dramatische Historie in einem Vorspiel und fünf Aufzügen",
 "ref":
 "pmb29937"}
 ,  {
 "title":
 "Das Vermächtnis. Schauspiel in drei Akten",
 "ref":
 "pmb30219"}
 ,  {
 "title":
 "Renaissance. Neue Studien zur Kritik der Moderne",
 "ref":
 "pmb30383"}
 ,  {
 "title":
 "Der Tod des Tizian. Ein Bruchstück",
 "ref":
 "pmb31639"}
 ,  {
 "title":
 "Über moderne englische Malerei. Rückblick auf die internationale Ausstellung Wien 1894",
 "ref":
 "pmb65540"}
 ],
 "listOrg":
  [
 {
 "orgName":
 "S. Fischer Verlag",
 "ref":
 "pmb29639"}
 ,  {
 "orgName":
 "Deutsches Theater Berlin",
 "ref":
 "pmb35597"}
 ],
 "listPlace":
  [
 {
 "placeName":
 "China",
 "ref":
 "pmb1108"}
 ,  {
 "placeName":
 "Ringstraße",
 "ref":
 "pmb112"}
 ,  {
 "placeName":
 "Peking",
 "ref":
 "pmb118369"}
 ,  {
 "placeName":
 "Yantai",
 "ref":
 "pmb118678"}
 ,  {
 "placeName":
 "Berlin",
 "ref":
 "pmb168"}
 ,  {
 "placeName":
 "Japan",
 "ref":
 "pmb318"}
 ,  {
 "placeName":
 "Shanghai",
 "ref":
 "pmb37885"}
 ,  {
 "placeName":
 "Europa",
 "ref":
 "pmb468"}
 ,  {
 "placeName":
 "Wien",
 "ref":
 "pmb50"}
 ,  {
 "placeName":
 "Rossertstraße",
 "ref":
 "pmb88595"}
 ]
}
}, {
 "type":
 "schnitzler-briefe",
 "color":
 "#A63437",
 "filename":
 "L02856",
 "caption":
 "Briefe mit Autorinnen und Autoren",
 "idno":
 "https://schnitzler-briefe.acdh.oeaw.ac.at/L02856.html",
 "head":
 "Paul Goldmann an Arthur Schnitzler, 24. 8. 1898",
 "desc":
{"listPerson":
  [
{
 "persName":
 "Richard Beer-Hofmann",
 "ref":
 "pmb10863"},
 {
 "persName":
 "Paul Goldmann",
 "ref":
 "pmb11485"},
 {
 "persName":
 "Leo Van-Jung",
 "ref":
 "pmb26392"}],
 "listOrg":
  [
 {
 "orgName":
 "Weinlaube",
 "ref":
 "pmb141921"}
 ],
 "listPlace":
  [
 {
 "placeName":
 "Yantai",
 "ref":
 "pmb118678"}
 ,  {
 "placeName":
 "Baby Tower Hill",
 "ref":
 "pmb141923"}
 ,  {
 "placeName":
 "Beach Hotel",
 "ref":
 "pmb141925"}
 ,  {
 "placeName":
 "Frankgasse 1",
 "ref":
 "pmb168934"}
 ,  {
 "placeName":
 "Österreich",
 "ref":
 "pmb41240"}
 ,  {
 "placeName":
 "Hong Kong",
 "ref":
 "pmb44086"}
 ,  {
 "placeName":
 "Wien",
 "ref":
 "pmb50"}
 ,  {
 "placeName":
 "IX., Alsergrund",
 "ref":
 "pmb59"}
 ,  {
 "placeName":
 "Klosterneuburg",
 "ref":
 "pmb865"}
 ]
}
}, {
 "type":
 "wienerschnitzler",
 "color":
 "#ECDA98",
 "caption":
 "Wiener Schnitzler",
 "idno":
 "https://wienerschnitzler.org/tag.html#1898-08-24",
 "head":
 "Luzern",
 "desc":
{"listPlace":
  [
 {
 "placeName":
 "Hotel St. Gotthard Luzern",
 "ref":
 ""}
 ]
}
}, {
 "type":
 "schnitzler-chronik-manuell",
 "color":
 "#AAAAFA",
 "filename":
 "L02861",
 "caption":
 "Ergänzungen",
 "idno":
 "https://schnitzler-briefe.acdh.oeaw.ac.at/L02861.html",
 "head":
 "Schnitzler schreibt nicht erhaltenen Brief an Paul Goldmann, zwischen 21. und 27. 8. 1898"
}, {
 "type":
 "schnitzler-cmif",
 "subtype":
 "#ya489e21-54d5-40de-a56d-f4548e894428",
 "color":
 "#654321",
 "caption":
 "Gedruckte Briefwechsel",
 "head":
 "Otto Brahm an Arthur Schnitzler, 24.8.1898",
 "source":
 "Der Briefwechsel Arthur Schnitzler – Otto Brahm. Vollständige Ausgabe. Hg., eingel. und erl. von Oskar Seidlin. Tübingen: Niemeyer, 1975."
}] 