[{
 "type":
 "schnitzler-tagebuch",
 "color":
 "#037a33",
 "filename":
 "entry__1898-06-18",
 "caption":
 "Tagebuch",
 "idno":
 "https://schnitzler-tagebuch.acdh.oeaw.ac.at/entry__1898-06-18.html",
 "head":
 "Tagebuch, 18. Juni 1898",
 "desc":
{"listPerson":
  [
{
 "persName":
 "Lotte Witt",
 "ref":
 "person_21403"},
 {
 "persName":
 "Marie Reinhard",
 "ref":
 "person_19150"}],
 "listBibl":
  [
 {
 "title":
 "Die Hagestolzen. Ein Lustspiel in fünf Aufzügen",
 "ref":
 "pmb78854"}
 ],
 "listPlace":
  [
 {
 "placeName":
 "Prater",
 "ref":
 "pmb91530"}
 ]
}
}, {
 "type":
 "schnitzler-briefe",
 "color":
 "#A63437",
 "filename":
 "L00807",
 "caption":
 "Briefe mit Autorinnen und Autoren",
 "idno":
 "https://schnitzler-briefe.acdh.oeaw.ac.at/L00807.html",
 "head":
 "Richard Beer-Hofmann an Arthur Schnitzler, 18. 6. 1898",
 "desc":
{"listPerson":
  [
{
 "persName":
 "Richard Beer-Hofmann",
 "ref":
 "pmb10863"},
 {
 "persName":
 "Hugo von Hofmannsthal",
 "ref":
 "pmb11740"},
 {
 "persName":
 "Alois Hofmann",
 "ref":
 "pmb34949"},
 {
 "persName":
 "Mirjam Beer-Hofmann",
 "ref":
 "pmb2668"},
 {
 "persName":
 "?? [Schauspieler]",
 "ref":
 "pmb41760"},
 {
 "persName":
 "Ernst Mach",
 "ref":
 "pmb12147"},
 {
 "persName":
 "Paula Beer-Hofmann",
 "ref":
 "pmb10860"}],
 "listBibl":
  [
 {
 "title":
 "Schlaflied für Mirjam",
 "ref":
 "pmb39783"}
 ,  {
 "title":
 "Populär-Wissenschaftliche Vorlesungen",
 "ref":
 "pmb42919"}
 ],
 "listPlace":
  [
 {
 "placeName":
 "Steindorf am Ossiacher See",
 "ref":
 "pmb34860"}
 ,  {
 "placeName":
 "Wien",
 "ref":
 "pmb50"}
 ,  {
 "placeName":
 "Tegernsee",
 "ref":
 "pmb39752"}
 ,  {
 "placeName":
 "Salzburg",
 "ref":
 "pmb30"}
 ,  {
 "placeName":
 "Valle d’Ampezzo",
 "ref":
 "pmb34207"}
 ]
}
}, {
 "type":
 "URL",
 "subtype":
 "wienerschnitzler",
 "head":
 "Wien",
 "desc":
{"listPlace":
  [
 {
 "placeName":
 "I., Innere Stadt",
 "ref":
 ""}
 ,  {
 "placeName":
 "IX., Alsergrund",
 "ref":
 ""}
 ]
}
}, {
 "type":
 "URL",
 "subtype":
 "wienerschnitzler",
 "head":
 "Langenzersdorf"
}, {
 "type":
 "schnitzler-events",
 "color":
 "#9BC53D",
 "filename":
 "entity/209023/",
 "caption":
 "Ereignisse in der PMB",
 "idno":
 "https://pmb.acdh.oeaw.ac.at/entity/209023/",
 "head":
 "Aufführung von Die Hagestolzen, Jugendliebe. Lustspiel in einem Aufzuge, 18.6.1898",
 "desc":
{"listOrg":
  [
 {
 "orgName":
 "Burgtheater",
 "ref":
 ""}
 ],
 "listBibl":
  [
 {
 "title":
 "Die Hagestolzen. Ein Lustspiel in fünf Aufzügen",
 "ref":
 ""}
 ,  {
 "title":
 "Jugendliebe. Lustspiel in einem Aufzuge",
 "ref":
 ""}
 ],
 "listPerson":
  [
{
 "persName":
 "Arthur Schnitzler",
 "ref":
 ""}],
 "listPlace":
  [
 {
 "placeName":
 "Burgtheater",
 "ref":
 ""}
 ]
}
}] 