[{
 "type":
 "schnitzler-orte",
 "idno":
 "https://pmb.acdh.oeaw.ac.at/entity/50/",
 "head":
 "Wien"
}, {
 "type":
 "schnitzler-briefe",
 "idno":
 "https://schnitzler-briefe.acdh.oeaw.ac.at/L00787.html",
 "head":
 "Arthur Schnitzler an Georg Brandes, 27. 3. 1898",
 "desc":
{"listPerson":
  [
{
 "persName":
 "Georg Brandes",
 "ref":
 "pmb10992"},
 {
 "persName":
 "Gabriele D’Annunzio",
 "ref":
 "pmb2142"},
 {
 "persName":
 "Raffaello Sanzio da Urbino",
 "ref":
 "pmb3527"},
 {
 "persName":
 "Rembrandt van Rijn",
 "ref":
 "pmb5428"},
 {
 "persName":
 "Paul Goldmann",
 "ref":
 "pmb11485"},
 {
 "persName":
 "Louise Schnitzler",
 "ref":
 "pmb12701"},
 {
 "persName":
 "Richard Beer-Hofmann",
 "ref":
 "pmb10863"}],
 "listBibl":
  [
 {
 "title":
 "Hauptströmungen der Literatur des neunzehnten Jahrhunderts",
 "ref":
 "pmb31977"}
 ,  {
 "title":
 "Nationalgefühl",
 "ref":
 "pmb33289"}
 ,  {
 "title":
 "Freiwild. Schauspiel in 3 Akten",
 "ref":
 "pmb29899"}
 ,  {
 "title":
 "Das Vermächtnis. Schauspiel in drei Akten",
 "ref":
 "pmb30219"}
 ,  {
 "title":
 "Der grüne Kakadu – Paracelsus – Die Gefährtin. Drei Einakter",
 "ref":
 "pmb32562"}
 ,  {
 "title":
 "Lust",
 "ref":
 "pmb33283"}
 ,  {
 "title":
 "Sixtinische Madonna",
 "ref":
 "pmb33281"}
 ,  {
 "title":
 "Triumph des Todes",
 "ref":
 "pmb33285"}
 ,  {
 "title":
 "Unschuldige",
 "ref":
 "pmb33287"}
 ],
 "listOrg":
  [
 {
 "orgName":
 "Hermann Barsdorf",
 "ref":
 "pmb29693"}
 ,  {
 "orgName":
 "Frankfurter Zeitung",
 "ref":
 "pmb29442"}
 ],
 "listPlace":
  [
 {
 "placeName":
 "Wien",
 "ref":
 "pmb50"}
 ,  {
 "placeName":
 "Sizilien",
 "ref":
 "pmb451"}
 ,  {
 "placeName":
 "Rom",
 "ref":
 "pmb445"}
 ,  {
 "placeName":
 "Kopenhagen",
 "ref":
 "pmb36300"}
 ,  {
 "placeName":
 "Carl-Theater",
 "ref":
 "pmb118"}
 ,  {
 "placeName":
 "Burgtheater",
 "ref":
 "pmb14"}
 ,  {
 "placeName":
 "Dresden",
 "ref":
 "pmb866"}
 ,  {
 "placeName":
 "Italien",
 "ref":
 "pmb40306"}
 ,  {
 "placeName":
 "China",
 "ref":
 "pmb1108"}
 ,  {
 "placeName":
 "Japan",
 "ref":
 "pmb318"}
 ,  {
 "placeName":
 "Genua",
 "ref":
 "pmb994"}
 ,  {
 "placeName":
 "Brenner",
 "ref":
 "pmb608"}
 ,  {
 "placeName":
 "Venedig",
 "ref":
 "pmb462"}
 ]}

}, {
 "type":
 "schnitzler-tagebuch",
 "idno":
 "https://schnitzler-tagebuch.acdh.oeaw.ac.at/entry__1898-03-27.html",
 "head":
 "Tagebuch, 27. März 1898",
 "desc":
{"listPerson":
  [
{
 "persName":
 "Richard Beer-Hofmann",
 "ref":
 "person_13551"},
 {
 "persName":
 "Marie Reinhard",
 "ref":
 "person_19150"},
 {
 "persName":
 "Hugo von Hofmannsthal",
 "ref":
 "person_16293"}]}

}] 