[{
 "type":
 "schnitzler-tagebuch",
 "color":
 "#037a33",
 "filename":
 "entry__1898-08-27",
 "caption":
 "Tagebuch",
 "idno":
 "https://schnitzler-tagebuch.acdh.oeaw.ac.at/entry__1898-08-27.html",
 "head":
 "Tagebuch, 27. August 1898",
 "desc":
{"listPerson":
  [
{
 "persName":
 "Edmund von Herzfeld",
 "ref":
 "person_16155"},
 {
 "persName":
 "Marie Reinhard",
 "ref":
 "person_19150"}],
 "listPlace":
  [
 {
 "placeName":
 "Alpnachstad",
 "ref":
 "pmb36232"}
 ]
}
}, {
 "type":
 "schnitzler-briefe",
 "color":
 "#A63437",
 "filename":
 "L00840",
 "caption":
 "Briefe mit Autorinnen und Autoren",
 "idno":
 "https://schnitzler-briefe.acdh.oeaw.ac.at/L00840.html",
 "head":
 "Arthur Schnitzler an Hugo von Hofmannsthal, 27. 8. 1898",
 "desc":
{"listPerson":
  [
{
 "persName":
 "Hugo von Hofmannsthal",
 "ref":
 "pmb11740"},
 {
 "persName":
 "Richard Beer-Hofmann",
 "ref":
 "pmb10863"}],
 "listBibl":
  [
 {
 "title":
 "Excentric",
 "ref":
 "pmb29893"}
 ],
 "listPlace":
  [
 {
 "placeName":
 "Alpnachstad",
 "ref":
 "pmb36232"}
 ,  {
 "placeName":
 "Lugano",
 "ref":
 "pmb885"}
 ,  {
 "placeName":
 "Hôtel du Parc &amp; Bristol",
 "ref":
 "pmb43055"}
 ,  {
 "placeName":
 "Pilatus",
 "ref":
 "pmb44600"}
 ,  {
 "placeName":
 "Luzern",
 "ref":
 "pmb967"}
 ,  {
 "placeName":
 "Mailand",
 "ref":
 "pmb886"}
 ,  {
 "placeName":
 "Pavia",
 "ref":
 "pmb41018"}
 ,  {
 "placeName":
 "Piacenza",
 "ref":
 "pmb44263"}
 ,  {
 "placeName":
 "Parma",
 "ref":
 "pmb44210"}
 ,  {
 "placeName":
 "Modena",
 "ref":
 "pmb44148"}
 ,  {
 "placeName":
 "Bologna",
 "ref":
 "pmb896"}
 ,  {
 "placeName":
 "Ferrara",
 "ref":
 "pmb44212"}
 ,  {
 "placeName":
 "Padua",
 "ref":
 "pmb44156"}
 ,  {
 "placeName":
 "Vicenza",
 "ref":
 "pmb44151"}
 ,  {
 "placeName":
 "Verona",
 "ref":
 "pmb44153"}
 ,  {
 "placeName":
 "Wien",
 "ref":
 "pmb50"}
 ]
}
}, {
 "type":
 "schnitzler-orte",
 "color":
 "#045344",
 "filename":
 "entity/967/",
 "caption":
 "Aufenthaltsorte",
 "idno":
 "https://pmb.acdh.oeaw.ac.at/entity/967/",
 "head":
 "Luzern"
}, {
 "type":
 "schnitzler-orte",
 "color":
 "#045344",
 "filename":
 "entity/36232/",
 "caption":
 "Aufenthaltsorte",
 "idno":
 "https://pmb.acdh.oeaw.ac.at/entity/36232/",
 "head":
 "Alpnachstad"
}, {
 "type":
 "schnitzler-orte",
 "color":
 "#045344",
 "filename":
 "entity/44600/",
 "caption":
 "Aufenthaltsorte",
 "idno":
 "https://pmb.acdh.oeaw.ac.at/entity/44600/",
 "head":
 "Pilatus"
}, {
 "type":
 "schnitzler-chronik-manuell",
 "head":
 "Schnitzler schreibt nicht erhaltenen Brief an Paul Goldmann, zwischen 21. und 27. 8. 1898",
 "text":
 "Quelle: https://schnitzler-briefe.acdh.oeaw.ac.at/L02861.html"
}] 