[{
 "type":
 "schnitzler-tagebuch",
 "color":
 "#037a33",
 "filename":
 "entry__1898-08-14",
 "caption":
 "Tagebuch",
 "idno":
 "https://schnitzler-tagebuch.acdh.oeaw.ac.at/entry__1898-08-14.html",
 "head":
 "Tagebuch, 14. August 1898",
 "desc":
{"listPlace":
  [
 {
 "placeName":
 "Neuchâtel",
 "ref":
 "pmb34057"}
 ,  {
 "placeName":
 "Yverdon-les-Bains",
 "ref":
 "pmb92117"}
 ,  {
 "placeName":
 "Lausanne",
 "ref":
 "pmb50004"}
 ,  {
 "placeName":
 "Genfer See",
 "ref":
 "pmb512"}
 ,  {
 "placeName":
 "Villeneuve",
 "ref":
 "pmb92015"}
 ,  {
 "placeName":
 "Veytaux, château de Chillon",
 "ref":
 "pmb90472"}
 ,  {
 "placeName":
 "Territet",
 "ref":
 "pmb52051"}
 ,  {
 "placeName":
 "Glion",
 "ref":
 "pmb40483"}
 ]
}
}, {
 "type":
 "wienerschnitzler",
 "color":
 "#ECDA98",
 "caption":
 "Wiener Schnitzler",
 "head":
 "Yverdon-les-Bains"
}, {
 "type":
 "wienerschnitzler",
 "color":
 "#ECDA98",
 "caption":
 "Wiener Schnitzler",
 "head":
 "Lausanne"
}, {
 "type":
 "wienerschnitzler",
 "color":
 "#ECDA98",
 "caption":
 "Wiener Schnitzler",
 "head":
 "Schloss Chillon"
}, {
 "type":
 "wienerschnitzler",
 "color":
 "#ECDA98",
 "caption":
 "Wiener Schnitzler",
 "head":
 "Territet"
}, {
 "type":
 "wienerschnitzler",
 "color":
 "#ECDA98",
 "caption":
 "Wiener Schnitzler",
 "head":
 "Glion"
}, {
 "type":
 "wienerschnitzler",
 "color":
 "#ECDA98",
 "caption":
 "Wiener Schnitzler",
 "head":
 "Neuchâtel"
}, {
 "type":
 "wienerschnitzler",
 "color":
 "#ECDA98",
 "caption":
 "Wiener Schnitzler",
 "head":
 "Genfer See"
}, {
 "type":
 "wienerschnitzler",
 "color":
 "#ECDA98",
 "caption":
 "Wiener Schnitzler",
 "head":
 "Villeneuve"
}] 