[{
 "type":
 "schnitzler-tagebuch",
 "color":
 "#037a33",
 "filename":
 "entry__1898-03-16",
 "caption":
 "Tagebuch",
 "idno":
 "https://schnitzler-tagebuch.acdh.oeaw.ac.at/entry__1898-03-16.html",
 "head":
 "Tagebuch, 16. März 1898",
 "desc":
{"listPerson":
  [
{
 "persName":
 "Julius Schnitzler",
 "ref":
 "person_19827"},
 {
 "persName":
 "Marie Reinhard",
 "ref":
 "person_19150"}],
 "listPlace":
  [
 {
 "placeName":
 "Prater",
 "ref":
 "pmb91530"}
 ]
}
}, {
 "type":
 "schnitzler-briefe",
 "color":
 "#A63437",
 "filename":
 "L00784",
 "caption":
 "Briefe mit Autorinnen und Autoren",
 "idno":
 "https://schnitzler-briefe.acdh.oeaw.ac.at/L00784.html",
 "head":
 "Georg Brandes an Arthur Schnitzler, 16. 3. 1898",
 "desc":
{"listPerson":
  [
{
 "persName":
 "Richard Beer-Hofmann",
 "ref":
 "pmb10863"},
 {
 "persName":
 "Georg Brandes",
 "ref":
 "pmb10992"},
 {
 "persName":
 "Heinrich Heine",
 "ref":
 "pmb11640"},
 {
 "persName":
 "August von Platen",
 "ref":
 "pmb12424"},
 {
 "persName":
 "Louise Schnitzler",
 "ref":
 "pmb12701"},
 {
 "persName":
 "Gabriele D’Annunzio",
 "ref":
 "pmb2142"},
 {
 "persName":
 "Emilie Brandes",
 "ref":
 "pmb29102"},
 {
 "persName":
 "Edith Philipp",
 "ref":
 "pmb4395"}],
 "listBibl":
  [
 {
 "title":
 "Freiwild. Schauspiel in 3 Akten",
 "ref":
 "pmb29899"}
 ,  {
 "title":
 "Lust",
 "ref":
 "pmb33283"}
 ],
 "listPlace":
  [
 {
 "placeName":
 "Hotel Timeo",
 "ref":
 "pmb1112"}
 ,  {
 "placeName":
 "Universität La Sapienza",
 "ref":
 "pmb1113"}
 ,  {
 "placeName":
 "Ätna",
 "ref":
 "pmb169719"}
 ,  {
 "placeName":
 "Florenz",
 "ref":
 "pmb263"}
 ,  {
 "placeName":
 "Wollzeile",
 "ref":
 "pmb338"}
 ,  {
 "placeName":
 "Italien",
 "ref":
 "pmb40306"}
 ,  {
 "placeName":
 "Rom",
 "ref":
 "pmb445"}
 ,  {
 "placeName":
 "Wien",
 "ref":
 "pmb50"}
 ,  {
 "placeName":
 "Neapel",
 "ref":
 "pmb595"}
 ,  {
 "placeName":
 "Taormina",
 "ref":
 "pmb906"}
 ]
}
}, {
 "type":
 "schnitzler-briefe",
 "color":
 "#A63437",
 "filename":
 "L02843",
 "caption":
 "Briefe mit Autorinnen und Autoren",
 "idno":
 "https://schnitzler-briefe.acdh.oeaw.ac.at/L02843.html",
 "head":
 "Paul Goldmann an Arthur Schnitzler, 16. 3. [1898]",
 "desc":
{"listPerson":
  [
{
 "persName":
 "Richard Beer-Hofmann",
 "ref":
 "pmb10863"},
 {
 "persName":
 "Paul Goldmann",
 "ref":
 "pmb11485"},
 {
 "persName":
 "Emil Ney",
 "ref":
 "pmb118784"},
 {
 "persName":
 "Marie Reinhard",
 "ref":
 "pmb2378"},
 {
 "persName":
 "Leopold Sonnemann",
 "ref":
 "pmb87771"}],
 "listOrg":
  [
 {
 "orgName":
 "Frankfurter Zeitung",
 "ref":
 "pmb29442"}
 ],
 "listPlace":
  [
 {
 "placeName":
 "Frankfurt am Main",
 "ref":
 "pmb146"}
 ,  {
 "placeName":
 "Paris",
 "ref":
 "pmb182"}
 ,  {
 "placeName":
 "rue de la Bourse",
 "ref":
 "pmb43397"}
 ,  {
 "placeName":
 "Wien",
 "ref":
 "pmb50"}
 ]
}
}, {
 "type":
 "wienerschnitzler",
 "color":
 "#6F5106",
 "caption":
 "Wiener Schnitzler",
 "idno":
 "https://wienerschnitzler.org/tag.html#1898-03-16",
 "head":
 "Wien",
 "desc":
{"listPlace":
  [
 {
 "placeName":
 "XII., Meidling",
 "ref":
 ""}
 ,  {
 "placeName":
 "II., Leopoldstadt",
 "ref":
 ""}
 ,  {
 "placeName":
 "IX., Alsergrund",
 "ref":
 ""}
 ]
}
}, {
 "type":
 "schnitzler-kultur",
 "color":
 "#6B4C5A",
 "filename":
 "pmb200704",
 "caption":
 "Kulturveranstaltungen",
 "idno":
 "https://schnitzler-kultur.acdh.oeaw.ac.at/pmb200704.html",
 "head":
 "Vortrag von Julius Schnitzler über Verletzungen, Wunden und Wundkrankheiten, 16.3.1898",
 "desc":
{"listPerson":
  [
{
 "persName":
 "Julius Schnitzler",
 "ref":
 ""},
 {
 "persName":
 "Arthur Schnitzler",
 "ref":
 ""}],
 "listPlace":
  [
 {
 "placeName":
 "Anatomisches Institut",
 "ref":
 ""}
 ]
}
}] 