[{
 "type":
 "schnitzler-tagebuch",
 "color":
 "#037a33",
 "filename":
 "entry__1898-05-16",
 "caption":
 "Tagebuch",
 "idno":
 "https://schnitzler-tagebuch.acdh.oeaw.ac.at/entry__1898-05-16.html",
 "head":
 "Tagebuch, 16. Mai 1898",
 "desc":
{"listPerson":
  [
{
 "persName":
 "Marie Reinhard",
 "ref":
 "person_19150"}],
 "listBibl":
  [
 {
 "title":
 "Mädchentraum. Spiel in 3 Acten",
 "ref":
 "pmb42891"}
 ]
}
}, {
 "type":
 "schnitzler-briefe",
 "color":
 "#A63437",
 "filename":
 "L00795",
 "caption":
 "Briefe mit Autorinnen und Autoren",
 "idno":
 "https://schnitzler-briefe.acdh.oeaw.ac.at/L00795.html",
 "head":
 "Arthur Schnitzler an Richard Beer-Hofmann, 16. 5. 1898",
 "desc":
{"listPerson":
  [
{
 "persName":
 "Arthur Schnitzler",
 "ref":
 "pmb2121"},
 {
 "persName":
 "Richard Beer-Hofmann",
 "ref":
 "pmb10863"},
 {
 "persName":
 "Richard Beer-Hofmann",
 "ref":
 "pmb10863"}],
 "listBibl":
  [
 {
 "title":
 "Mädchentraum. Spiel in 3 Acten",
 "ref":
 "pmb42891"}
 ],
 "listPlace":
  [
 {
 "placeName":
 "Burgtheater",
 "ref":
 "pmb14"}
 ,  {
 "placeName":
 "Wollzeile",
 "ref":
 "pmb338"}
 ,  {
 "placeName":
 "Wien",
 "ref":
 "pmb50"}
 ,  {
 "placeName":
 "I., Innere Stadt",
 "ref":
 "pmb51"}
 ,  {
 "placeName":
 "IX., Alsergrund",
 "ref":
 "pmb59"}
 ]
}
}, {
 "type":
 "schnitzler-briefe",
 "color":
 "#A63437",
 "filename":
 "L02845",
 "caption":
 "Briefe mit Autorinnen und Autoren",
 "idno":
 "https://schnitzler-briefe.acdh.oeaw.ac.at/L02845.html",
 "head":
 "Paul Goldmann an Arthur Schnitzler, 16. 5. 1898",
 "desc":
{"listPerson":
  [
{
 "persName":
 "Paul Goldmann",
 "ref":
 "pmb11485"},
 {
 "persName":
 "Arthur Schnitzler",
 "ref":
 "pmb2121"},
 {
 "persName":
 "Paul Goldmann",
 "ref":
 "pmb11485"},
 {
 "persName":
 "?? [Chinesischer Fotograf]",
 "ref":
 "pmb141891"},
 {
 "persName":
 "Marie Reinhard",
 "ref":
 "pmb2378"},
 {
 "persName":
 "Richard Beer-Hofmann",
 "ref":
 "pmb10863"},
 {
 "persName":
 "Leo Van-Jung",
 "ref":
 "pmb26392"},
 {
 "persName":
 "Alice Ziegler",
 "ref":
 "pmb118324"},
 {
 "persName":
 "Louis Philipp Friedmann",
 "ref":
 "pmb16658"},
 {
 "persName":
 "Rose Friedmann",
 "ref":
 "pmb16670"},
 {
 "persName":
 "Arthur Rosthorn",
 "ref":
 "pmb102825"},
 {
 "persName":
 "Hugo von Hofmannsthal",
 "ref":
 "pmb11740"},
 {
 "persName":
 "Peter Michael Braunwarth",
 "ref":
 "pmb119261"},
 {
 "persName":
 "Reinhard Urbach",
 "ref":
 "pmb65504"},
 {
 "persName":
 "Werner Welzig",
 "ref":
 "pmb143327"},
 {
 "persName":
 "Richard Miklin",
 "ref":
 "pmb143331"},
 {
 "persName":
 "Konstanze Fliedl",
 "ref":
 "pmb119271"},
 {
 "persName":
 "Walter Ruprechter",
 "ref":
 "pmb143334"},
 {
 "persName":
 "Susanne Pertlik",
 "ref":
 "pmb143337"}],
 "listBibl":
  [
 {
 "title":
 "Paul Goldmann",
 "ref":
 "pmb141893"}
 ,  {
 "title":
 "Tagebuch",
 "ref":
 "pmb33243"}
 ],
 "listPlace":
  [
 {
 "placeName":
 "Hong Kong",
 "ref":
 "pmb44086"}
 ,  {
 "placeName":
 "Wien",
 "ref":
 "pmb50"}
 ,  {
 "placeName":
 "Hongkong Hotel",
 "ref":
 "pmb118802"}
 ,  {
 "placeName":
 "Shanghai",
 "ref":
 "pmb37885"}
 ,  {
 "placeName":
 "Guangzhou",
 "ref":
 "pmb118797"}
 ,  {
 "placeName":
 "Deutschland",
 "ref":
 "pmb151"}
 ,  {
 "placeName":
 "Europa",
 "ref":
 "pmb468"}
 ,  {
 "placeName":
 "China",
 "ref":
 "pmb1108"}
 ,  {
 "placeName":
 "Deutsches Postamt in Shanghai",
 "ref":
 "pmb141888"}
 ,  {
 "placeName":
 "Prag",
 "ref":
 "pmb652"}
 ,  {
 "placeName":
 "Peking",
 "ref":
 "pmb118369"}
 ,  {
 "placeName":
 "Graz",
 "ref":
 "pmb860"}
 ,  {
 "placeName":
 "Bad Gastein",
 "ref":
 "pmb521"}
 ,  {
 "placeName":
 "Salzburg",
 "ref":
 "pmb30"}
 ,  {
 "placeName":
 "München",
 "ref":
 "pmb45258"}
 ,  {
 "placeName":
 "Tegernsee",
 "ref":
 "pmb39752"}
 ,  {
 "placeName":
 "Schweiz",
 "ref":
 "pmb43435"}
 ,  {
 "placeName":
 "Italien",
 "ref":
 "pmb40306"}
 ],
 "listOrg":
  [
 {
 "orgName":
 "Pun lun",
 "ref":
 "pmb144773"}
 ]
}
}, {
 "type":
 "wienerschnitzler",
 "color":
 "#6F5106",
 "caption":
 "Wiener Schnitzler",
 "idno":
 "https://wienerschnitzler.org/tag.html#1898-05-16",
 "head":
 "Wien",
 "desc":
{"listPlace":
  [
 {
 "placeName":
 "II., Leopoldstadt",
 "ref":
 ""}
 ,  {
 "placeName":
 "I., Innere Stadt",
 "ref":
 ""}
 ,  {
 "placeName":
 "IX., Alsergrund",
 "ref":
 ""}
 ]
}
}, {
 "type":
 "URL",
 "subtype":
 "schnitzler-kultur",
 "filename":
 "pmb42893",
 "idno":
 "https://schnitzler-kultur.acdh.oeaw.ac.at/pmb42893.html",
 "head":
 "Uraufführung von Mädchentraum, 16.5.1898",
 "desc":
{"listOrg":
  [
 {
 "orgName":
 "Burgtheater",
 "ref":
 ""}
 ],
 "listBibl":
  [
 {
 "title":
 "Mädchentraum. Spiel in 3 Acten",
 "ref":
 ""}
 ],
 "listPerson":
  [
{
 "persName":
 "Arthur Schnitzler",
 "ref":
 ""},
 {
 "persName":
 "Otto Tressler",
 "ref":
 ""},
 {
 "persName":
 "Lou Brion",
 "ref":
 ""},
 {
 "persName":
 "Lotte Medelsky",
 "ref":
 ""}],
 "listPlace":
  [
 {
 "placeName":
 "Burgtheater",
 "ref":
 ""}
 ]
}
}] 