{
 "date":
 {
 "when-iso":
 "1898-08-26",
 "written":
 "Freitag, 26. August 1898"
},
"listEvent":
 [{
 "type":
 "schnitzler-orte",
 "idno":
 "https://pmb.acdh.oeaw.ac.at/entity/967/",
 "head":
 "Luzern"
}, {
 "type":
 "schnitzler-orte",
 "idno":
 "https://pmb.acdh.oeaw.ac.at/entity/41059/",
 "head":
 "Zug"
}, {
 "type":
 "schnitzler-briefe",
 "idno":
 "https://schnitzler-briefe.acdh.oeaw.ac.at/L00839.html",
 "head":
 "Hermann Bahr, Therese Strisower an Arthur Schnitzler, [26.?] 8. 1898",
 "desc":
{"listPerson":
  [
{
 "persName":
 "Hermann Bahr",
 "ref":
 "pmb10815"},
 {
 "persName":
 "Therese Horn",
 "ref":
 "pmb18530"}],
 "listPlace":
  [
 {
 "placeName":
 "Carbonin",
 "ref":
 "pmb44317"}
 ,  {
 "placeName":
 "IX., Alsergrund",
 "ref":
 "pmb59"}
 ,  {
 "placeName":
 "Wien",
 "ref":
 "pmb50"}
 ,  {
 "placeName":
 "Frankgasse",
 "ref":
 "pmb397"}
 ,  {
 "placeName":
 "Höhlenstein",
 "ref":
 "pmb758"}
 ,  {
 "placeName":
 "Monte Cristallo",
 "ref":
 "pmb43157"}
 ,  {
 "placeName":
 "Unterach am Attersee",
 "ref":
 "pmb877"}
 ]}

}, {
 "type":
 "",
 "head":
 "Schnitzler schreibt nicht erhaltenen Brief an Paul
                     Goldmann, zwischen 21. und 27. 8. 1898",
 "desc":
{}

}, {
 "type":
 "schnitzler-tagebuch",
 "idno":
 "https://schnitzler-tagebuch.acdh.oeaw.ac.at/entry__1898-08-26.html",
 "head":
 "Tagebuch, 26. August 1898",
 "desc":
{"listBibl":
  [
 {
 "title":
 "Excentric",
 "ref":
 "pmb29893"}
 ],
 "listPlace":
  [
 {
 "placeName":
 "Zug",
 "ref":
 "pmb41059"}
 ]}

}] 
}