[{
 "type":
 "schnitzler-tagebuch",
 "color":
 "#037a33",
 "filename":
 "entry__1898-08-22",
 "caption":
 "Tagebuch",
 "idno":
 "https://schnitzler-tagebuch.acdh.oeaw.ac.at/entry__1898-08-22.html",
 "head":
 "Tagebuch, 22. August 1898",
 "desc":
{"listPerson":
  [
{
 "persName":
 "Felix? Kauders",
 "ref":
 "person_16767"}],
 "listPlace":
  [
 {
 "placeName":
 "Luzern",
 "ref":
 "pmb967"}
 ,  {
 "placeName":
 "Kriens",
 "ref":
 "pmb91071"}
 ,  {
 "placeName":
 "Kastanienbaum",
 "ref":
 "pmb91010"}
 ,  {
 "placeName":
 "Winkel",
 "ref":
 "pmb92087"}
 ]
}
}, {
 "type":
 "schnitzler-briefe",
 "color":
 "#A63437",
 "filename":
 "L00836",
 "caption":
 "Briefe mit Autorinnen und Autoren",
 "idno":
 "https://schnitzler-briefe.acdh.oeaw.ac.at/L00836.html",
 "head":
 "Arthur Schnitzler an Richard Beer-Hofmann, 22. 8. 1898",
 "desc":
{"listPerson":
  [
{
 "persName":
 "Arthur Schnitzler",
 "ref":
 "pmb2121"},
 {
 "persName":
 "Richard Beer-Hofmann",
 "ref":
 "pmb10863"},
 {
 "persName":
 "Richard Beer-Hofmann",
 "ref":
 "pmb10863"},
 {
 "persName":
 "Hugo von Hofmannsthal",
 "ref":
 "pmb11740"}],
 "listPlace":
  [
 {
 "placeName":
 "Luzern",
 "ref":
 "pmb967"}
 ,  {
 "placeName":
 "Steindorf am Ossiacher See",
 "ref":
 "pmb34860"}
 ,  {
 "placeName":
 "Kärnten",
 "ref":
 "pmb651"}
 ,  {
 "placeName":
 "Genf",
 "ref":
 "pmb562"}
 ,  {
 "placeName":
 "Lugano",
 "ref":
 "pmb885"}
 ,  {
 "placeName":
 "Berner Oberland",
 "ref":
 "pmb40405"}
 ,  {
 "placeName":
 "Wien",
 "ref":
 "pmb50"}
 ]
}
}, {
 "type":
 "schnitzler-briefe",
 "color":
 "#A63437",
 "filename":
 "L00837",
 "caption":
 "Briefe mit Autorinnen und Autoren",
 "idno":
 "https://schnitzler-briefe.acdh.oeaw.ac.at/L00837.html",
 "head":
 "Arthur Schnitzler an Hugo von Hofmannsthal, 22. 8. 1898",
 "desc":
{"listPerson":
  [
{
 "persName":
 "Arthur Schnitzler",
 "ref":
 "pmb2121"},
 {
 "persName":
 "Hugo von Hofmannsthal",
 "ref":
 "pmb11740"},
 {
 "persName":
 "Hugo von Hofmannsthal",
 "ref":
 "pmb11740"}],
 "listPlace":
  [
 {
 "placeName":
 "Luzern",
 "ref":
 "pmb967"}
 ,  {
 "placeName":
 "Lugano",
 "ref":
 "pmb885"}
 ,  {
 "placeName":
 "Hôtel du Parc",
 "ref":
 "pmb513"}
 ]
}
}, {
 "type":
 "wienerschnitzler",
 "color":
 "#6F5106",
 "caption":
 "Wiener Schnitzler",
 "idno":
 "https://wienerschnitzler.org/tag.html#1898-08-22",
 "head":
 "Luzern",
 "desc":
{"listPlace":
  [
 {
 "placeName":
 "Hotel St. Gotthard Luzern",
 "ref":
 ""}
 ,  {
 "placeName":
 "Gletschergarten Luzern",
 "ref":
 ""}
 ,  {
 "placeName":
 "Löwendenkmal Luzern",
 "ref":
 ""}
 ,  {
 "placeName":
 "Grand Hôtel Stadthof",
 "ref":
 ""}
 ]
}
}, {
 "type":
 "wienerschnitzler",
 "color":
 "#6F5106",
 "caption":
 "Wiener Schnitzler",
 "idno":
 "https://wienerschnitzler.org/tag.html#1898-08-22",
 "head":
 "Kriens"
}, {
 "type":
 "wienerschnitzler",
 "color":
 "#6F5106",
 "caption":
 "Wiener Schnitzler",
 "idno":
 "https://wienerschnitzler.org/tag.html#1898-08-22",
 "head":
 "Kastanienbaum"
}, {
 "type":
 "wienerschnitzler",
 "color":
 "#6F5106",
 "caption":
 "Wiener Schnitzler",
 "idno":
 "https://wienerschnitzler.org/tag.html#1898-08-22",
 "head":
 "Winkel"
}, {
 "type":
 "URL",
 "subtype":
 "schnitzler-kultur",
 "filename":
 "pmb297459",
 "idno":
 "https://schnitzler-kultur.acdh.oeaw.ac.at/pmb297459.html",
 "head":
 "Besuch des Gletschergartens Luzern, 22.8.1898",
 "desc":
{"listPerson":
  [
{
 "persName":
 "Arthur Schnitzler",
 "ref":
 ""}],
 "listPlace":
  [
 {
 "placeName":
 "Gletschergarten Luzern",
 "ref":
 ""}
 ]
}
}, {
 "type":
 "schnitzler-chronik-manuell",
 "color":
 "#AAAAFA",
 "filename":
 "L02861",
 "caption":
 "Ergänzungen",
 "idno":
 "https://schnitzler-briefe.acdh.oeaw.ac.at/L02861.html",
 "head":
 "Schnitzler schreibt nicht erhaltenen Brief an Paul Goldmann, zwischen 21. und 27. 8. 1898"
}] 