[{
 "type":
 "schnitzler-tagebuch",
 "color":
 "#037a33",
 "filename":
 "entry__1899-09-12",
 "caption":
 "Tagebuch",
 "idno":
 "https://schnitzler-tagebuch.acdh.oeaw.ac.at/entry__1899-09-12.html",
 "head":
 "Tagebuch, 12. September 1899",
 "desc":
{"listPerson":
  [
{
 "persName":
 "Johanna Bergmeister",
 "ref":
 "person_13641"}],
 "listBibl":
  [
 {
 "title":
 "Cyrano von Bergerac",
 "ref":
 "pmb77230"}
 ],
 "listPlace":
  [
 {
 "placeName":
 "München",
 "ref":
 "pmb45258"}
 ]
}
}, {
 "type":
 "schnitzler-briefe",
 "color":
 "#A63437",
 "filename":
 "L00973",
 "caption":
 "Briefe mit Autorinnen und Autoren",
 "idno":
 "https://schnitzler-briefe.acdh.oeaw.ac.at/L00973.html",
 "head":
 "Richard Beer-Hofmann an Arthur Schnitzler, 12. 9. 1899",
 "desc":
{"listPerson":
  [
{
 "persName":
 "Richard Beer-Hofmann",
 "ref":
 "pmb10863"},
 {
 "persName":
 "Hugo von Hofmannsthal",
 "ref":
 "pmb11740"},
 {
 "persName":
 "Paula Beer-Hofmann",
 "ref":
 "pmb10860"}],
 "listBibl":
  [
 {
 "title":
 "Der Tod Georgs. Fragment",
 "ref":
 "pmb43046"}
 ,  {
 "title":
 "Der Tod Georgs",
 "ref":
 "pmb31535"}
 ],
 "listOrg":
  [
 {
 "orgName":
 "Die Zeit. Wiener Wochenschrift",
 "ref":
 "pmb29209"}
 ],
 "listPlace":
  [
 {
 "placeName":
 "Vahrn",
 "ref":
 "pmb946"}
 ,  {
 "placeName":
 "München",
 "ref":
 "pmb45258"}
 ,  {
 "placeName":
 "Brixen",
 "ref":
 "pmb43040"}
 ,  {
 "placeName":
 "Franzensfeste",
 "ref":
 "pmb40264"}
 ,  {
 "placeName":
 "Hotel und Pension Rudolfshöhe (Leopold Petter)",
 "ref":
 "pmb414"}
 ,  {
 "placeName":
 "Wien",
 "ref":
 "pmb50"}
 ]
}
}, {
 "type":
 "schnitzler-briefe",
 "color":
 "#A63437",
 "filename":
 "L02886",
 "caption":
 "Briefe mit Autorinnen und Autoren",
 "idno":
 "https://schnitzler-briefe.acdh.oeaw.ac.at/L02886.html",
 "head":
 "Paul Goldmann an Arthur Schnitzler, 12. 9. [1899]",
 "desc":
{"listPerson":
  [
{
 "persName":
 "Paul Goldmann",
 "ref":
 "pmb11485"}],
 "listPlace":
  [
 {
 "placeName":
 "Paris",
 "ref":
 "pmb182"}
 ,  {
 "placeName":
 "München",
 "ref":
 "pmb45258"}
 ,  {
 "placeName":
 "Nürnberg",
 "ref":
 "pmb44172"}
 ,  {
 "placeName":
 "Florenz",
 "ref":
 "pmb263"}
 ,  {
 "placeName":
 "Frankfurt am Main",
 "ref":
 "pmb146"}
 ]
}
}, {
 "type":
 "wienerschnitzler",
 "color":
 "#ECDA98",
 "caption":
 "Wiener Schnitzler",
 "head":
 "Bad Ischl",
 "desc":
{"listPlace":
  [
 {
 "placeName":
 "Hotel und Pension Rudolfshöhe (Leopold Petter)",
 "ref":
 ""}
 ]
}
}, {
 "type":
 "wienerschnitzler",
 "color":
 "#ECDA98",
 "caption":
 "Wiener Schnitzler",
 "head":
 "München",
 "desc":
{"listPlace":
  [
 {
 "placeName":
 "Hotel Rheinischer Hof München",
 "ref":
 ""}
 ,  {
 "placeName":
 "Staatstheater am Gärtnerplatz",
 "ref":
 ""}
 ]
}
}, {
 "type":
 "schnitzler-events",
 "color":
 "#9BC53D",
 "filename":
 "entity/209096/",
 "caption":
 "Ereignisse in der PMB",
 "idno":
 "https://pmb.acdh.oeaw.ac.at/entity/209096/",
 "head":
 "Aufführung von Cyrano von Bergerac, 12.9.1899",
 "desc":
{"listOrg":
  [
 {
 "orgName":
 "Staatstheater am Gärtnerplatz",
 "ref":
 ""}
 ],
 "listBibl":
  [
 {
 "title":
 "Cyrano von Bergerac. Romantische Komödie in fünf Aufzügen",
 "ref":
 ""}
 ],
 "listPerson":
  [
{
 "persName":
 "Arthur Schnitzler",
 "ref":
 ""}],
 "listPlace":
  [
 {
 "placeName":
 "Staatstheater am Gärtnerplatz",
 "ref":
 ""}
 ]
}
}] 