[{
 "type":
 "schnitzler-briefe",
 "color":
 "#A63437",
 "filename":
 "L00959",
 "caption":
 "Briefe mit Autorinnen und Autoren",
 "idno":
 "https://schnitzler-briefe.acdh.oeaw.ac.at/L00959.html",
 "head":
 "Arthur Schnitzler an Richard Beer-Hofmann, 17. 8. 1899",
 "desc":
{"listPerson":
  [
{
 "persName":
 "Hermann Bahr",
 "ref":
 "pmb10815"},
 {
 "persName":
 "Richard Beer-Hofmann",
 "ref":
 "pmb10863"},
 {
 "persName":
 "Alfred Gold",
 "ref":
 "pmb11469"},
 {
 "persName":
 "Heinrich Kanner",
 "ref":
 "pmb11867"},
 {
 "persName":
 "Isidor Singer",
 "ref":
 "pmb12790"},
 {
 "persName":
 "Jakob Wassermann",
 "ref":
 "pmb13055"}],
 "listBibl":
  [
 {
 "title":
 "Der Tod Georgs. Fragment",
 "ref":
 "pmb43046"}
 ],
 "listOrg":
  [
 {
 "orgName":
 "Die Zeit. Wiener Wochenschrift",
 "ref":
 "pmb29209"}
 ],
 "listPlace":
  [
 {
 "placeName":
 "Bad Ischl",
 "ref":
 "pmb213"}
 ,  {
 "placeName":
 "Günthergasse",
 "ref":
 "pmb296"}
 ,  {
 "placeName":
 "Seeboden",
 "ref":
 "pmb34824"}
 ,  {
 "placeName":
 "Villa Platzer",
 "ref":
 "pmb40788"}
 ,  {
 "placeName":
 "Wien",
 "ref":
 "pmb50"}
 ,  {
 "placeName":
 "Kärnten",
 "ref":
 "pmb651"}
 ]
}
}, {
 "type":
 "schnitzler-briefe",
 "color":
 "#A63437",
 "filename":
 "L03297",
 "caption":
 "Briefe mit Autorinnen und Autoren",
 "idno":
 "https://schnitzler-briefe.acdh.oeaw.ac.at/L03297.html",
 "head":
 "Felix Salten an Arthur Schnitzler, [17. 8. 1899]",
 "desc":
{"listPerson":
  [
{
 "persName":
 "Richard Beer-Hofmann",
 "ref":
 "pmb10863"},
 {
 "persName":
 "Houston Stewart Chamberlain",
 "ref":
 "pmb11086"},
 {
 "persName":
 "Theodor Herzl",
 "ref":
 "pmb11673"},
 {
 "persName":
 "Franz Servaes",
 "ref":
 "pmb12772"},
 {
 "persName":
 "Jakob Wassermann",
 "ref":
 "pmb13055"},
 {
 "persName":
 "Felix Salten",
 "ref":
 "pmb2167"},
 {
 "persName":
 "Ottilie Salten",
 "ref":
 "pmb23918"},
 {
 "persName":
 "Karl von Thaler",
 "ref":
 "pmb25968"}],
 "listBibl":
  [
 {
 "title":
 "Die Welt (Wien)",
 "ref":
 "pmb122335"}
 ,  {
 "title":
 "Decadence-Romane",
 "ref":
 "pmb145709"}
 ,  {
 "title":
 "Die Grundlagen des Neunzehnten Jahrhunderts. 2 Bde.",
 "ref":
 "pmb146061"}
 ,  {
 "title":
 "»Das fremde Volk«",
 "ref":
 "pmb167903"}
 ,  {
 "title":
 "»Das fremde Volk«. I.",
 "ref":
 "pmb167907"}
 ,  {
 "title":
 "»Das fremde Volk«. II.",
 "ref":
 "pmb167911"}
 ,  {
 "title":
 "»Das fremde Volk«. III.",
 "ref":
 "pmb167916"}
 ,  {
 "title":
 "Tagebuch",
 "ref":
 "pmb33243"}
 ,  {
 "title":
 "Neue Freie Presse",
 "ref":
 "pmb36374"}
 ],
 "listOrg":
  [
 {
 "orgName":
 "Neue Freie Presse",
 "ref":
 "pmb29351"}
 ,  {
 "orgName":
 "Bruckmann Verlag",
 "ref":
 "pmb57780"}
 ],
 "listPlace":
  [
 {
 "placeName":
 "Bad Ischl",
 "ref":
 "pmb213"}
 ,  {
 "placeName":
 "Seeboden",
 "ref":
 "pmb34824"}
 ,  {
 "placeName":
 "München",
 "ref":
 "pmb45258"}
 ,  {
 "placeName":
 "Wien",
 "ref":
 "pmb50"}
 ,  {
 "placeName":
 "Dubrovnik",
 "ref":
 "pmb682"}
 ]
}
}, {
 "type":
 "wienerschnitzler",
 "color":
 "#6F5106",
 "caption":
 "Wiener Schnitzler",
 "idno":
 "https://wienerschnitzler.org/tag.html#1899-08-17",
 "head":
 "Bad Ischl",
 "desc":
{"listPlace":
  [
 {
 "placeName":
 "Hotel und Pension Rudolfshöhe (Leopold Petter)",
 "ref":
 ""}
 ]
}
}, {
 "type":
 "schnitzler-cmif",
 "subtype":
 "#ya489e21-54d5-40de-a56d-f4548e894428",
 "color":
 "#654321",
 "caption":
 "Gedruckte Briefwechsel",
 "head":
 "Arthur Schnitzler an Otto Brahm, 17.8.1899?",
 "source":
 "Der Briefwechsel Arthur Schnitzler – Otto Brahm. Vollständige Ausgabe. Hg., eingel. und erl. von Oskar Seidlin. Tübingen: Niemeyer, 1975."
}] 