{
 "date":
 {
 "when-iso":
 "1899-07-06",
 "written":
 "Donnerstag, 6. Juli 1899"
},
"listEvent":
 [{
 "type":
 "schnitzler-orte",
 "idno":
 "https://pmb.acdh.oeaw.ac.at/entity/50/",
 "head":
 "Wien"
}, {
 "type":
 "schnitzler-briefe",
 "idno":
 "https://schnitzler-briefe.acdh.oeaw.ac.at/L00933.html",
 "head":
 "Arthur Schnitzler an Richard Beer-Hofmann, 6. 7. 1899",
 "desc":
{"listPerson":
  [
{
 "persName":
 "Richard Beer-Hofmann",
 "ref":
 "pmb10863"},
 {
 "persName":
 "Oskar Mayer",
 "ref":
 "pmb21236"},
 {
 "persName":
 "Louise Schnitzler",
 "ref":
 "pmb12701"}],
 "listBibl":
  [
 {
 "title":
 "Parsifal",
 "ref":
 "pmb33031"}
 ],
 "listPlace":
  [
 {
 "placeName":
 "I., Innere Stadt",
 "ref":
 "pmb51"}
 ,  {
 "placeName":
 "Seeboden",
 "ref":
 "pmb34824"}
 ,  {
 "placeName":
 "Wien",
 "ref":
 "pmb50"}
 ,  {
 "placeName":
 "Kärnten",
 "ref":
 "pmb651"}
 ,  {
 "placeName":
 "Villa Platzer",
 "ref":
 "pmb40788"}
 ,  {
 "placeName":
 "Velden",
 "ref":
 "pmb909"}
 ,  {
 "placeName":
 "Bayreuth",
 "ref":
 "pmb734"}
 ]}

}, {
 "type":
 "schnitzler-briefe",
 "idno":
 "https://schnitzler-briefe.acdh.oeaw.ac.at/L00934.html",
 "head":
 "Arthur Schnitzler an Hugo von Hofmannsthal, 6. 7. 1899",
 "desc":
{"listPerson":
  [
{
 "persName":
 "Hugo von Hofmannsthal",
 "ref":
 "pmb11740"},
 {
 "persName":
 "Hermann Bahr",
 "ref":
 "pmb10815"},
 {
 "persName":
 "Isidor Singer",
 "ref":
 "pmb12790"},
 {
 "persName":
 "Heinrich Kanner",
 "ref":
 "pmb11867"},
 {
 "persName":
 "Max Eugen Burckhard",
 "ref":
 "pmb11036"},
 {
 "persName":
 "Gerhart Hauptmann",
 "ref":
 "pmb11617"},
 {
 "persName":
 "Otto Brahm",
 "ref":
 "pmb10986"},
 {
 "persName":
 "Richard Beer-Hofmann",
 "ref":
 "pmb10863"},
 {
 "persName":
 "Hermine von Schaffgotsch",
 "ref":
 "pmb24033"}],
 "listOrg":
  [
 {
 "orgName":
 "Die Zeit. Wiener Wochenschrift",
 "ref":
 "pmb29209"}
 ],
 "listPlace":
  [
 {
 "placeName":
 "Wien",
 "ref":
 "pmb50"}
 ,  {
 "placeName":
 "Marienbad",
 "ref":
 "pmb772"}
 ,  {
 "placeName":
 "Kärnten",
 "ref":
 "pmb651"}
 ,  {
 "placeName":
 "Velden",
 "ref":
 "pmb909"}
 ,  {
 "placeName":
 "Thüringen",
 "ref":
 "pmb432"}
 ]}

}, {
 "type":
 "schnitzler-briefe",
 "idno":
 "https://schnitzler-briefe.acdh.oeaw.ac.at/L00935.html",
 "head":
 "Hugo von Hofmannsthal an Arthur Schnitzler, 6. 7. 1899",
 "desc":
{"listPerson":
  [
{
 "persName":
 "Hugo von Hofmannsthal",
 "ref":
 "pmb11740"}],
 "listPlace":
  [
 {
 "placeName":
 "Marienbad",
 "ref":
 "pmb772"}
 ,  {
 "placeName":
 "IX., Alsergrund",
 "ref":
 "pmb59"}
 ,  {
 "placeName":
 "Wien",
 "ref":
 "pmb50"}
 ,  {
 "placeName":
 "Frankgasse",
 "ref":
 "pmb397"}
 ,  {
 "placeName":
 "Hotel Klinger",
 "ref":
 "pmb35066"}
 ,  {
 "placeName":
 "Kroatien",
 "ref":
 "pmb34494"}
 ]}

}, {
 "type":
 "schnitzler-cmif",
 "subtype":
 "#j7685005-64da-4e31-99b6-b4641aa1628c",
 "head":
 "Arthur Schnitzler an Olga Schnitzler, 6. 7. 1899",
 "desc":
{"listPerson":
  [
{
 "persName":
 "Schnitzler, Olga",
 "ref":
 "https://d-nb.info/gnd/116848723"}],
 "bibl":
 "Arthur Schnitzler: Briefe 1875–1912. Hrsg. v. Therese Nickl u. Heinrich Schnitzler. Frankfurt am Main: S. Fischer 1981."}

}, {
 "type":
 "schnitzler-tagebuch",
 "idno":
 "https://schnitzler-tagebuch.acdh.oeaw.ac.at/entry__1899-07-06.html",
 "head":
 "Tagebuch, 6. Juli 1899",
 "desc":
{"listPerson":
  [
{
 "persName":
 "Marie Elsinger",
 "ref":
 "person_14734"}],
 "listBibl":
  [
 {
 "title":
 "Die Nächste",
 "ref":
 "pmb33794"}
 ]}

}, {
 "type":
 "schnitzler-bahr",
 "idno":
 "https://schnitzler-bahr.acdh.oeaw.ac.at/L041438.html",
 "head":
 "Schnitzler an Hofmannsthal, 6. 7. 1899",
 "desc":
{"listPerson":
  [
{
 "persName":
 "Hugo von Hofmannsthal",
 "ref":
 "pmb11740"},
 {
 "persName":
 "Hermann Bahr",
 "ref":
 "pmb10815"},
 {
 "persName":
 "Isidor Singer",
 "ref":
 "pmb12790"},
 {
 "persName":
 "Heinrich Kanner",
 "ref":
 "pmb11867"},
 {
 "persName":
 "Max Eugen Burckhard",
 "ref":
 "pmb11036"},
 {
 "persName":
 "Gerhart Hauptmann",
 "ref":
 "pmb11617"},
 {
 "persName":
 "Otto Brahm",
 "ref":
 "pmb10986"},
 {
 "persName":
 "Richard Beer-Hofmann",
 "ref":
 "pmb10863"},
 {
 "persName":
 "Hermine von Schaffgotsch",
 "ref":
 "pmb24033"}],
 "listPlace":
  [
 {
 "placeName":
 "Wien",
 "ref":
 "pmb50"}
 ,  {
 "placeName":
 "Kärnten",
 "ref":
 "pmb651"}
 ,  {
 "placeName":
 "Velden",
 "ref":
 "pmb909"}
 ,  {
 "placeName":
 "Thüringen",
 "ref":
 "pmb432"}
 ],
 "listOrg":
  [
 {
 "orgName":
 "Die Zeit. Wiener Wochenschrift",
 "ref":
 "pmb29209"}
 ]}

}] 
}