[{
 "type":
 "schnitzler-tagebuch",
 "color":
 "#037a33",
 "filename":
 "entry__1899-09-04",
 "caption":
 "Tagebuch",
 "idno":
 "https://schnitzler-tagebuch.acdh.oeaw.ac.at/entry__1899-09-04.html",
 "head":
 "Tagebuch, 4. September 1899"
}, {
 "type":
 "schnitzler-briefe",
 "color":
 "#A63437",
 "filename":
 "L02967",
 "caption":
 "Briefe mit Autorinnen und Autoren",
 "idno":
 "https://schnitzler-briefe.acdh.oeaw.ac.at/L02967.html",
 "head":
 "Arthur Schnitzler an Felix Salten, 4. 9. 1899",
 "desc":
{"listPerson":
  [
{
 "persName":
 "Ferdinand Bronner",
 "ref":
 "pmb11021"},
 {
 "persName":
 "Johann Wolfgang von Goethe",
 "ref":
 "pmb11461"},
 {
 "persName":
 "Hugo von Hofmannsthal",
 "ref":
 "pmb11740"},
 {
 "persName":
 "Guy de Maupassant",
 "ref":
 "pmb12201"},
 {
 "persName":
 "Siegfried Trebitsch",
 "ref":
 "pmb12968"},
 {
 "persName":
 "Ida Falk",
 "ref":
 "pmb16083"},
 {
 "persName":
 "Ludwig Grann",
 "ref":
 "pmb17326"},
 {
 "persName":
 "Felix Salten",
 "ref":
 "pmb2167"},
 {
 "persName":
 "Friedrich von Oppeln-Bronikowski",
 "ref":
 "pmb9149"}],
 "listBibl":
  [
 {
 "title":
 "Das Manhard-Zimmer",
 "ref":
 "pmb143241"}
 ,  {
 "title":
 "Wiener Allgemeine Montags-Zeitung",
 "ref":
 "pmb143251"}
 ,  {
 "title":
 "Eine Goethe-Enquête",
 "ref":
 "pmb143256"}
 ,  {
 "title":
 "Aus dem Nachlasse von Maupassant. Eine Leidenschaft",
 "ref":
 "pmb143260"}
 ,  {
 "title":
 "Fernen",
 "ref":
 "pmb145729"}
 ,  {
 "title":
 "Sedan",
 "ref":
 "pmb145735"}
 ,  {
 "title":
 "Lebenszeit",
 "ref":
 "pmb145738"}
 ,  {
 "title":
 "Vater Milon und andere Erzählungen. Neue Novellen aus dem litterarischen Nachlaß",
 "ref":
 "pmb148493"}
 ,  {
 "title":
 "Wiener Allgemeine Rundschau",
 "ref":
 "pmb167898"}
 ,  {
 "title":
 "Der Hinterbliebene",
 "ref":
 "pmb29839"}
 ,  {
 "title":
 "Der Schleier der Beatrice. Schauspiel in fünf Akten",
 "ref":
 "pmb29857"}
 ,  {
 "title":
 "Schöne Seelen. Komödie in einem Akt",
 "ref":
 "pmb31659"}
 ,  {
 "title":
 "Familie Wawroch. Ein österreichisches Drama in vier Akten",
 "ref":
 "pmb31863"}
 ,  {
 "title":
 "Das Bergwerk zu Falun",
 "ref":
 "pmb32432"}
 ,  {
 "title":
 "Der Hinterbliebene. Kurze Novellen",
 "ref":
 "pmb33301"}
 ,  {
 "title":
 "Begräbnis",
 "ref":
 "pmb34361"}
 ,  {
 "title":
 "Heldentod",
 "ref":
 "pmb76518"}
 ,  {
 "title":
 "Flucht",
 "ref":
 "pmb93681"}
 ],
 "listOrg":
  [
 {
 "orgName":
 "Emil Goldschmidt Verlag",
 "ref":
 "pmb148518"}
 ],
 "listPlace":
  [
 {
 "placeName":
 "Frankfurt am Main",
 "ref":
 "pmb146"}
 ,  {
 "placeName":
 "Berlin",
 "ref":
 "pmb168"}
 ,  {
 "placeName":
 "Bad Ischl",
 "ref":
 "pmb213"}
 ,  {
 "placeName":
 "Hotel und Pension Rudolfshöhe (Leopold Petter)",
 "ref":
 "pmb414"}
 ,  {
 "placeName":
 "Nürnberg",
 "ref":
 "pmb44172"}
 ,  {
 "placeName":
 "München",
 "ref":
 "pmb45258"}
 ,  {
 "placeName":
 "Wien",
 "ref":
 "pmb50"}
 ,  {
 "placeName":
 "Wiesbaden",
 "ref":
 "pmb883"}
 ]
}
}, {
 "type":
 "wienerschnitzler",
 "color":
 "#6F5106",
 "caption":
 "Wiener Schnitzler",
 "idno":
 "https://wienerschnitzler.org/tag.html#1899-09-04",
 "head":
 "Bad Ischl",
 "desc":
{"listPlace":
  [
 {
 "placeName":
 "Hotel und Pension Rudolfshöhe (Leopold Petter)",
 "ref":
 ""}
 ,  {
 "placeName":
 "Weinhandlung Director Wallner",
 "ref":
 ""}
 ]
}
}] 