[{
 "type":
 "schnitzler-tagebuch",
 "color":
 "#037a33",
 "filename":
 "entry__1899-07-11",
 "caption":
 "Tagebuch",
 "idno":
 "https://schnitzler-tagebuch.acdh.oeaw.ac.at/entry__1899-07-11.html",
 "head":
 "Tagebuch, 11. Juli 1899",
 "desc":
{"listPerson":
  [
{
 "persName":
 "Marie Elsinger",
 "ref":
 "person_14734"},
 {
 "persName":
 "Richard Kirch",
 "ref":
 "person_16848"},
 {
 "persName":
 "Olga Schnitzler",
 "ref":
 "person_19832"}],
 "listBibl":
  [
 {
 "title":
 "Paracelsus. Versspiel in einem Akt",
 "ref":
 "pmb30403"}
 ,  {
 "title":
 "Das Friedensfest",
 "ref":
 "pmb30019"}
 ]
}
}, {
 "type":
 "schnitzler-briefe",
 "color":
 "#A63437",
 "filename":
 "L00938",
 "caption":
 "Briefe mit Autorinnen und Autoren",
 "idno":
 "https://schnitzler-briefe.acdh.oeaw.ac.at/L00938.html",
 "head":
 "Richard Beer-Hofmann an Arthur Schnitzler, 11. 7. 1899",
 "desc":
{"listPerson":
  [
{
 "persName":
 "Richard Beer-Hofmann",
 "ref":
 "pmb10863"},
 {
 "persName":
 "Arthur Schnitzler",
 "ref":
 "pmb2121"},
 {
 "persName":
 "Richard Beer-Hofmann",
 "ref":
 "pmb10863"}],
 "listPlace":
  [
 {
 "placeName":
 "Seeboden",
 "ref":
 "pmb34824"}
 ,  {
 "placeName":
 "Wien",
 "ref":
 "pmb50"}
 ,  {
 "placeName":
 "Velden am Wörthersee",
 "ref":
 "pmb909"}
 ]
}
}, {
 "type":
 "schnitzler-briefe",
 "color":
 "#A63437",
 "filename":
 "L00937",
 "caption":
 "Briefe mit Autorinnen und Autoren",
 "idno":
 "https://schnitzler-briefe.acdh.oeaw.ac.at/L00937.html",
 "head":
 "Arthur Schnitzler an Richard Beer-Hofmann, 11. 7. 1899",
 "desc":
{"listPerson":
  [
{
 "persName":
 "Arthur Schnitzler",
 "ref":
 "pmb2121"},
 {
 "persName":
 "Richard Beer-Hofmann",
 "ref":
 "pmb10863"},
 {
 "persName":
 "Richard Beer-Hofmann",
 "ref":
 "pmb10863"}],
 "listPlace":
  [
 {
 "placeName":
 "I., Innere Stadt",
 "ref":
 "pmb51"}
 ,  {
 "placeName":
 "Seeboden",
 "ref":
 "pmb34824"}
 ,  {
 "placeName":
 "Wien",
 "ref":
 "pmb50"}
 ,  {
 "placeName":
 "Villa Platzer",
 "ref":
 "pmb40788"}
 ,  {
 "placeName":
 "Kärnten",
 "ref":
 "pmb651"}
 ,  {
 "placeName":
 "Velden am Wörthersee",
 "ref":
 "pmb909"}
 ]
}
}, {
 "type":
 "wienerschnitzler",
 "color":
 "#6F5106",
 "caption":
 "Wiener Schnitzler",
 "idno":
 "https://wienerschnitzler.org/tag.html#1899-07-11",
 "head":
 "Wien",
 "desc":
{"listPlace":
  [
 {
 "placeName":
 "VI., Mariahilf",
 "ref":
 ""}
 ,  {
 "placeName":
 "I., Innere Stadt",
 "ref":
 ""}
 ,  {
 "placeName":
 "IX., Alsergrund",
 "ref":
 ""}
 ]
}
}, {
 "type":
 "URL",
 "subtype":
 "schnitzler-kultur",
 "filename":
 "pmb297279",
 "idno":
 "https://schnitzler-kultur.acdh.oeaw.ac.at/pmb297279.html",
 "head":
 "Besuch des Kunsthistorischen Museums, 11.7.1899",
 "desc":
{"listPerson":
  [
{
 "persName":
 "Arthur Schnitzler",
 "ref":
 ""}],
 "listPlace":
  [
 {
 "placeName":
 "Kunsthistorisches Museum",
 "ref":
 ""}
 ]
}
}, {
 "type":
 "URL",
 "subtype":
 "schnitzler-kultur",
 "filename":
 "pmb209090",
 "idno":
 "https://schnitzler-kultur.acdh.oeaw.ac.at/pmb209090.html",
 "head":
 "Aufführung von Das Friedensfest, 11.7.1899",
 "desc":
{"listOrg":
  [
 {
 "orgName":
 "Deutsches Theater Berlin",
 "ref":
 ""}
 ],
 "listBibl":
  [
 {
 "title":
 "Das Friedensfest. Eine Familienkatastrophe",
 "ref":
 ""}
 ],
 "listPerson":
  [
{
 "persName":
 "Arthur Schnitzler",
 "ref":
 ""}],
 "listPlace":
  [
 {
 "placeName":
 "Raimund-Theater",
 "ref":
 ""}
 ]
}
}] 