[{
 "type":
 "schnitzler-tagebuch",
 "color":
 "#037a33",
 "filename":
 "entry__1899-03-10",
 "caption":
 "Tagebuch",
 "idno":
 "https://schnitzler-tagebuch.acdh.oeaw.ac.at/entry__1899-03-10.html",
 "head":
 "Tagebuch, 10. März 1899",
 "desc":
{"listPerson":
  [
{
 "persName":
 "Paul Schiff",
 "ref":
 "person_19683"},
 {
 "persName":
 "Ludwig Speidel",
 "ref":
 "person_20243"},
 {
 "persName":
 "Paul Naschauer",
 "ref":
 "person_18360"},
 {
 "persName":
 "Marie Reinhard",
 "ref":
 "person_19150"}]
}
}, {
 "type":
 "schnitzler-briefe",
 "color":
 "#A63437",
 "filename":
 "L00905",
 "caption":
 "Briefe mit Autorinnen und Autoren",
 "idno":
 "https://schnitzler-briefe.acdh.oeaw.ac.at/L00905.html",
 "head":
 "Georg Brandes an Arthur Schnitzler, 10. 3. 1899",
 "desc":
{"listPerson":
  [
{
 "persName":
 "Georg Brandes",
 "ref":
 "pmb10992"},
 {
 "persName":
 "Arthur Schnitzler",
 "ref":
 "pmb2121"},
 {
 "persName":
 "Georg Brandes",
 "ref":
 "pmb10992"},
 {
 "persName":
 "Paul Goldmann",
 "ref":
 "pmb11485"},
 {
 "persName":
 "Peter Nansen",
 "ref":
 "pmb2357"},
 {
 "persName":
 "Karl Larsen",
 "ref":
 "pmb5431"},
 {
 "persName":
 "Theodor Barth",
 "ref":
 "pmb5452"},
 {
 "persName":
 "Annie Vivanti",
 "ref":
 "pmb5456"}],
 "listBibl":
  [
 {
 "title":
 "Der grüne Kakadu. Groteske in einem Akt",
 "ref":
 "pmb29843"}
 ,  {
 "title":
 "Das Vermächtnis. Schauspiel in drei Akten",
 "ref":
 "pmb30219"}
 ,  {
 "title":
 "Ungdomsvers [Jugendgedichte]",
 "ref":
 "pmb33293"}
 ,  {
 "title":
 "Samlede Skrifter [Gesammelte Werke]",
 "ref":
 "pmb33295"}
 ,  {
 "title":
 "[Gedichte]",
 "ref":
 "pmb33329"}
 ,  {
 "title":
 "Annie Vivanti",
 "ref":
 "pmb33331"}
 ,  {
 "title":
 "Das Dänentum in Südjütland",
 "ref":
 "pmb33333"}
 ,  {
 "title":
 "Die Zukunft",
 "ref":
 "pmb40042"}
 ,  {
 "title":
 "Tilskueren",
 "ref":
 "pmb41541"}
 ],
 "listPlace":
  [
 {
 "placeName":
 "Südschleswig",
 "ref":
 "pmb1114"}
 ,  {
 "placeName":
 "Deutschland",
 "ref":
 "pmb151"}
 ,  {
 "placeName":
 "Kopenhagen",
 "ref":
 "pmb36300"}
 ,  {
 "placeName":
 "Italien",
 "ref":
 "pmb40306"}
 ,  {
 "placeName":
 "Dänemark",
 "ref":
 "pmb43570"}
 ,  {
 "placeName":
 "Europa",
 "ref":
 "pmb468"}
 ,  {
 "placeName":
 "Wien",
 "ref":
 "pmb50"}
 ],
 "listOrg":
  [
 {
 "orgName":
 "Neue Freie Presse",
 "ref":
 "pmb29351"}
 ,  {
 "orgName":
 "Frankfurter Zeitung",
 "ref":
 "pmb29442"}
 ,  {
 "orgName":
 "Die Nation",
 "ref":
 "pmb29807"}
 ]
}
}, {
 "type":
 "wienerschnitzler",
 "color":
 "#6F5106",
 "caption":
 "Wiener Schnitzler",
 "idno":
 "https://wienerschnitzler.org/tag.html#1899-03-10",
 "head":
 "Wien",
 "desc":
{"listPlace":
  [
 {
 "placeName":
 "III., Landstraße",
 "ref":
 ""}
 ,  {
 "placeName":
 "I., Innere Stadt",
 "ref":
 ""}
 ,  {
 "placeName":
 "IX., Alsergrund",
 "ref":
 ""}
 ]
}
}, {
 "type":
 "URL",
 "subtype":
 "schnitzler-kultur",
 "filename":
 "pmb209069",
 "idno":
 "https://schnitzler-kultur.acdh.oeaw.ac.at/pmb209069.html",
 "head":
 "Konzert Kaim, 10.3.1899",
 "desc":
{"listOrg":
  [
 {
 "orgName":
 "Kaim-Orchester",
 "ref":
 ""}
 ],
 "listPerson":
  [
{
 "persName":
 "Franz Kaim",
 "ref":
 ""},
 {
 "persName":
 "Arthur Schnitzler",
 "ref":
 ""}],
 "listPlace":
  [
 {
 "placeName":
 "Musikverein",
 "ref":
 ""}
 ]
}
}, {
 "type":
 "schnitzler-cmif",
 "subtype":
 "#j7685005-64da-4e31-99b6-b4641aa1628c",
 "color":
 "#654321",
 "caption":
 "Gedruckte Briefwechsel",
 "head":
 "Arthur Schnitzler an Ludwig Fulda, 10. 3. 1899",
 "source":
 "Arthur Schnitzler: Briefe 1875–1912. Hrsg. v. Therese Nickl u. Heinrich Schnitzler. Frankfurt am Main: S. Fischer 1981."
}] 