[{
 "type":
 "schnitzler-tagebuch",
 "color":
 "#037a33",
 "filename":
 "entry__1899-12-04",
 "caption":
 "Tagebuch",
 "idno":
 "https://schnitzler-tagebuch.acdh.oeaw.ac.at/entry__1899-12-04.html",
 "head":
 "Tagebuch, 4. Dezember 1899",
 "desc":
{"listPerson":
  [
{
 "persName":
 "Otto Brahm",
 "ref":
 "person_13913"},
 {
 "persName":
 "Else Speidel-Haeberle",
 "ref":
 "person_15833"},
 {
 "persName":
 "Georg Hirschfeld",
 "ref":
 "person_16222"},
 {
 "persName":
 "Wilhelmine Mitterwurzer",
 "ref":
 "person_18191"},
 {
 "persName":
 "Felix Salten",
 "ref":
 "person_19542"},
 {
 "persName":
 "Felix Speidel",
 "ref":
 "person_20242"},
 {
 "persName":
 "Lotte Witt",
 "ref":
 "person_21403"},
 {
 "persName":
 "Adutt",
 "ref":
 "person_13114"},
 {
 "persName":
 "Ottilie Salten",
 "ref":
 "person_19543"},
 {
 "persName":
 "Haye",
 "ref":
 "person_16002"}],
 "listPlace":
  [
 {
 "placeName":
 "XIII., Hietzing",
 "ref":
 "pmb63"}
 ]
}
}, {
 "type":
 "schnitzler-briefe",
 "color":
 "#A63437",
 "filename":
 "L01003",
 "caption":
 "Briefe mit Autorinnen und Autoren",
 "idno":
 "https://schnitzler-briefe.acdh.oeaw.ac.at/L01003.html",
 "head":
 "Arthur Schnitzler an Richard Beer-Hofmann, 4. 12. 1899",
 "desc":
{"listPerson":
  [
{
 "persName":
 "Richard Beer-Hofmann",
 "ref":
 "pmb10863"}],
 "listBibl":
  [
 {
 "title":
 "Siegfried",
 "ref":
 "pmb43226"}
 ],
 "listOrg":
  [
 {
 "orgName":
 "Wiener Schachclub",
 "ref":
 "pmb43143"}
 ],
 "listPlace":
  [
 {
 "placeName":
 "I., Innere Stadt",
 "ref":
 "pmb51"}
 ,  {
 "placeName":
 "Wien",
 "ref":
 "pmb50"}
 ,  {
 "placeName":
 "Wollzeile",
 "ref":
 "pmb338"}
 ]
}
}, {
 "type":
 "schnitzler-briefe",
 "color":
 "#A63437",
 "filename":
 "L02896",
 "caption":
 "Briefe mit Autorinnen und Autoren",
 "idno":
 "https://schnitzler-briefe.acdh.oeaw.ac.at/L02896.html",
 "head":
 "Paul Goldmann an Arthur Schnitzler, 4. 12. [1899]",
 "desc":
{"listPerson":
  [
{
 "persName":
 "Paul Goldmann",
 "ref":
 "pmb11485"},
 {
 "persName":
 "Theodore Rottenberg",
 "ref":
 "pmb23674"},
 {
 "persName":
 "Berthold Frischauer",
 "ref":
 "pmb16710"}],
 "listOrg":
  [
 {
 "orgName":
 "Frankfurter Zeitung",
 "ref":
 "pmb29442"}
 ,  {
 "orgName":
 "Neue Freie Presse",
 "ref":
 "pmb29351"}
 ],
 "listPlace":
  [
 {
 "placeName":
 "Frankfurt am Main",
 "ref":
 "pmb146"}
 ,  {
 "placeName":
 "Wien",
 "ref":
 "pmb50"}
 ,  {
 "placeName":
 "Paris",
 "ref":
 "pmb182"}
 ,  {
 "placeName":
 "Berlin",
 "ref":
 "pmb168"}
 ,  {
 "placeName":
 "Gärtnerweg",
 "ref":
 "pmb140913"}
 ]
}
}, {
 "type":
 "wienerschnitzler",
 "color":
 "#ECDA98",
 "caption":
 "Wiener Schnitzler",
 "idno":
 "https://wienerschnitzler.org/tag.html#1899-12-04",
 "head":
 "Wien",
 "desc":
{"listPlace":
  [
 {
 "placeName":
 "IX., Alsergrund",
 "ref":
 ""}
 ,  {
 "placeName":
 "XIII., Hietzing",
 "ref":
 ""}
 ]
}
}, {
 "type":
 "kalliope-verbund",
 "color":
 "#003574",
 "caption":
 "Kalliope Verbundkatalog",
 "idno":
 "http://kalliope-verbund.info/DE-2498-HS00043339",
 "head":
 "Singer, Fritz an Schnitzler, Arthur [Briefe]",
 "text":
 "1 Bl.Vis.kte"
}] 