[{
 "type":
 "schnitzler-tagebuch",
 "color":
 "#037a33",
 "filename":
 "entry__1899-01-22",
 "caption":
 "Tagebuch",
 "idno":
 "https://schnitzler-tagebuch.acdh.oeaw.ac.at/entry__1899-01-22.html",
 "head":
 "Tagebuch, 22. Januar 1899",
 "desc":
{"listPerson":
  [
{
 "persName":
 "Gerhart Hauptmann",
 "ref":
 "person_15980"},
 {
 "persName":
 "Paul Schlenther",
 "ref":
 "person_19724"},
 {
 "persName":
 "Richard Wagner",
 "ref":
 "person_21034"}],
 "listPlace":
  [
 {
 "placeName":
 "Semmering",
 "ref":
 "pmb91735"}
 ]
}
}, {
 "type":
 "schnitzler-briefe",
 "color":
 "#A63437",
 "filename":
 "L00882",
 "caption":
 "Briefe mit Autorinnen und Autoren",
 "idno":
 "https://schnitzler-briefe.acdh.oeaw.ac.at/L00882.html",
 "head":
 "Georg Brandes an Arthur Schnitzler, 22. 1. 1899",
 "desc":
{"listPerson":
  [
{
 "persName":
 "Georg Brandes",
 "ref":
 "pmb10992"},
 {
 "persName":
 "Arthur Schnitzler",
 "ref":
 "pmb2121"},
 {
 "persName":
 "Georg Brandes",
 "ref":
 "pmb10992"}],
 "listBibl":
  [
 {
 "title":
 "Die Toten schweigen",
 "ref":
 "pmb29833"}
 ,  {
 "title":
 "Die Frau des Weisen. Novelletten",
 "ref":
 "pmb32460"}
 ,  {
 "title":
 "Ungdomsvers [Jugendgedichte]",
 "ref":
 "pmb33293"}
 ,  {
 "title":
 "Harald Haarfager in Finmarken",
 "ref":
 "pmb33323"}
 ,  {
 "title":
 "Reconvalescent-Besuch",
 "ref":
 "pmb33325"}
 ,  {
 "title":
 "Köllers Erfolge",
 "ref":
 "pmb33335"}
 ,  {
 "title":
 "Cosmopolis",
 "ref":
 "pmb41521"}
 ],
 "listPlace":
  [
 {
 "placeName":
 "Frankgasse 1",
 "ref":
 "pmb168934"}
 ,  {
 "placeName":
 "Preußen",
 "ref":
 "pmb206"}
 ,  {
 "placeName":
 "Kopenhagen",
 "ref":
 "pmb36300"}
 ,  {
 "placeName":
 "Dänemark",
 "ref":
 "pmb43570"}
 ,  {
 "placeName":
 "Wien",
 "ref":
 "pmb50"}
 ,  {
 "placeName":
 "IX., Alsergrund",
 "ref":
 "pmb59"}
 ],
 "listOrg":
  [
 {
 "orgName":
 "Neue Freie Presse",
 "ref":
 "pmb29351"}
 ]
}
}, {
 "type":
 "wienerschnitzler",
 "color":
 "#6F5106",
 "caption":
 "Wiener Schnitzler",
 "idno":
 "https://wienerschnitzler.org/tag.html#1899-01-22",
 "head":
 "Wien",
 "desc":
{"listPlace":
  [
 {
 "placeName":
 "IX., Alsergrund",
 "ref":
 ""}
 ,  {
 "placeName":
 "XIII., Hietzing",
 "ref":
 ""}
 ]
}
}] 