[{
 "type":
 "schnitzler-tagebuch",
 "color":
 "#037a33",
 "filename":
 "entry__1899-04-30",
 "caption":
 "Tagebuch",
 "idno":
 "https://schnitzler-tagebuch.acdh.oeaw.ac.at/entry__1899-04-30.html",
 "head":
 "Tagebuch, 30. April 1899",
 "desc":
{"listPerson":
  [
{
 "persName":
 "Hans Altmann",
 "ref":
 "person_13171"},
 {
 "persName":
 "Otto Brahm",
 "ref":
 "person_13913"},
 {
 "persName":
 "Marie Elsinger",
 "ref":
 "person_14734"},
 {
 "persName":
 "Hermann Freudenthal",
 "ref":
 "person_15177"},
 {
 "persName":
 "Stefan Vacano",
 "ref":
 "person_20898"}],
 "listBibl":
  [
 {
 "title":
 "Die Gefährtin. Schauspiel in einem Akt",
 "ref":
 "pmb29845"}
 ,  {
 "title":
 "Der grüne Kakadu. Groteske in einem Akt",
 "ref":
 "pmb29843"}
 ,  {
 "title":
 "Paracelsus. Versspiel in einem Akt",
 "ref":
 "pmb30403"}
 ],
 "listPlace":
  [
 {
 "placeName":
 "Zehlendorf",
 "ref":
 "pmb92121"}
 ]
}
}, {
 "type":
 "schnitzler-briefe",
 "color":
 "#A63437",
 "filename":
 "L03543",
 "caption":
 "Briefe mit Autorinnen und Autoren",
 "idno":
 "https://schnitzler-briefe.acdh.oeaw.ac.at/L03543.html",
 "head":
 "Ludwig Ganghofer an Arthur Schnitzler, 30. 4. [1899]",
 "desc":
{"listPerson":
  [
{
 "persName":
 "Richard Beer-Hofmann",
 "ref":
 "pmb10863"},
 {
 "persName":
 "[T?]immel",
 "ref":
 "pmb148058"},
 {
 "persName":
 "Ludwig Ganghofer",
 "ref":
 "pmb11402"},
 {
 "persName":
 "Gabriele D’Annunzio",
 "ref":
 "pmb2142"},
 {
 "persName":
 "Wilhelm von Scholz",
 "ref":
 "pmb9756"}],
 "listBibl":
  [
 {
 "title":
 "Der grüne Kakadu. Groteske in einem Akt",
 "ref":
 "pmb29843"}
 ,  {
 "title":
 "Traum eines Frühlingsmorgens",
 "ref":
 "pmb50633"}
 ,  {
 "title":
 "Mein Fürst",
 "ref":
 "pmb50636"}
 ],
 "listOrg":
  [
 {
 "orgName":
 "Residenztheater München",
 "ref":
 "pmb48177"}
 ],
 "listPlace":
  [
 {
 "placeName":
 "Berlin",
 "ref":
 "pmb168"}
 ,  {
 "placeName":
 "Haupttelegrafenamt",
 "ref":
 "pmb148055"}
 ,  {
 "placeName":
 "Hotel Savoy",
 "ref":
 "pmb545"}
 ,  {
 "placeName":
 "Friedrichstraße",
 "ref":
 "pmb482"}
 ,  {
 "placeName":
 "München",
 "ref":
 "pmb45258"}
 ,  {
 "placeName":
 "Residenztheater München",
 "ref":
 "pmb635"}
 ]
}
}, {
 "type":
 "schnitzler-briefe",
 "color":
 "#A63437",
 "filename":
 "L03289",
 "caption":
 "Briefe mit Autorinnen und Autoren",
 "idno":
 "https://schnitzler-briefe.acdh.oeaw.ac.at/L03289.html",
 "head":
 "Felix Salten an Arthur Schnitzler, 30. 4. 1899",
 "desc":
{"listPerson":
  [
{
 "persName":
 "Felix Salten",
 "ref":
 "pmb2167"},
 {
 "persName":
 "Georg Hirschfeld",
 "ref":
 "pmb11701"},
 {
 "persName":
 "Jakob Wassermann",
 "ref":
 "pmb13055"},
 {
 "persName":
 "Peter Altenberg",
 "ref":
 "pmb2147"},
 {
 "persName":
 "Alfred Gold",
 "ref":
 "pmb11469"},
 {
 "persName":
 "Elly Petersen",
 "ref":
 "pmb9233"},
 {
 "persName":
 "Ottilie Salten",
 "ref":
 "pmb23918"}],
 "listPlace":
  [
 {
 "placeName":
 "XIII., Hietzing",
 "ref":
 "pmb63"}
 ,  {
 "placeName":
 "Berlin",
 "ref":
 "pmb168"}
 ,  {
 "placeName":
 "Wien",
 "ref":
 "pmb50"}
 ,  {
 "placeName":
 "Hotel Savoy",
 "ref":
 "pmb545"}
 ]
}
}, {
 "type":
 "wienerschnitzler",
 "color":
 "#ECDA98",
 "caption":
 "Wiener Schnitzler",
 "head":
 "Berlin",
 "desc":
{"listPlace":
  [
 {
 "placeName":
 "Hotel Savoy [Berlin]",
 "ref":
 ""}
 ,  {
 "placeName":
 "Zehlendorf",
 "ref":
 ""}
 ,  {
 "placeName":
 "Deutsches Theater Berlin",
 "ref":
 ""}
 ]
}
}, {
 "type":
 "schnitzler-events",
 "color":
 "#9BC53D",
 "filename":
 "entity/207269/",
 "caption":
 "Ereignisse in der PMB",
 "idno":
 "https://pmb.acdh.oeaw.ac.at/entity/207269/",
 "head":
 "Aufführung von Der grüne Kakadu. Drei Einakter, 30.4.1899",
 "desc":
{"listOrg":
  [
 {
 "orgName":
 "Deutsches Theater Berlin",
 "ref":
 ""}
 ],
 "listBibl":
  [
 {
 "title":
 "Der grüne Kakadu – Paracelsus – Die Gefährtin. Drei Einakter",
 "ref":
 ""}
 ],
 "listPerson":
  [
{
 "persName":
 "Arthur Schnitzler",
 "ref":
 ""}],
 "listPlace":
  [
 {
 "placeName":
 "Deutsches Theater Berlin",
 "ref":
 ""}
 ]
}
}, {
 "type":
 "kalliope-verbund",
 "color":
 "#003574",
 "caption":
 "Kalliope Verbundkatalog",
 "idno":
 "http://kalliope-verbund.info/DE-2498-HS00042378",
 "head":
 "Roth, Alexander an Schnitzler, Arthur [Briefe]",
 "text":
 "1 Bl."
}] 