[{
 "type":
 "schnitzler-tagebuch",
 "color":
 "#037a33",
 "filename":
 "entry__1899-07-16",
 "caption":
 "Tagebuch",
 "idno":
 "https://schnitzler-tagebuch.acdh.oeaw.ac.at/entry__1899-07-16.html",
 "head":
 "Tagebuch, 16. Juli 1899",
 "desc":
{"listPerson":
  [
{
 "persName":
 "Marie Elsinger",
 "ref":
 "person_14734"},
 {
 "persName":
 "Gustav Schwarzkopf",
 "ref":
 "person_19986"},
 {
 "persName":
 "Boris Van-Jung",
 "ref":
 "person_13879"}]
}
}, {
 "type":
 "schnitzler-briefe",
 "color":
 "#A63437",
 "filename":
 "L00945",
 "caption":
 "Briefe mit Autorinnen und Autoren",
 "idno":
 "https://schnitzler-briefe.acdh.oeaw.ac.at/L00945.html",
 "head":
 "Arthur Schnitzler an Richard Beer-Hofmann, 16. 7. 1899",
 "source":
 "Arthur Schnitzler – Briefwechsel mit Autorinnen und Autoren. Digitale Edition herausgegeben von Martin Anton Müller, Gerd-Hermann Susen und Laura Untner, 2018–[2024]"
}, {
 "type":
 "schnitzler-briefe",
 "color":
 "#A63437",
 "filename":
 "L02880",
 "caption":
 "Briefe mit Autorinnen und Autoren",
 "idno":
 "https://schnitzler-briefe.acdh.oeaw.ac.at/L02880.html",
 "head":
 "Paul Goldmann an Arthur Schnitzler, 16. 7. 1899",
 "source":
 "Arthur Schnitzler – Briefwechsel mit Autorinnen und Autoren. Digitale Edition herausgegeben von Martin Anton Müller, Gerd-Hermann Susen und Laura Untner, 2018–[2024]"
}, {
 "type":
 "schnitzler-briefe",
 "color":
 "#A63437",
 "filename":
 "L00945",
 "caption":
 "Briefe mit Autorinnen und Autoren",
 "idno":
 "https://schnitzler-briefe.acdh.oeaw.ac.at/L00945.html",
 "head":
 "Arthur Schnitzler an Richard Beer-Hofmann, 16. 7. 1899",
 "desc":
{"listPerson":
  [
{
 "persName":
 "Richard Beer-Hofmann",
 "ref":
 "pmb10863"},
 {
 "persName":
 "Jakob Wassermann",
 "ref":
 "pmb13055"}],
 "listPlace":
  [
 {
 "placeName":
 "Wien",
 "ref":
 "pmb50"}
 ,  {
 "placeName":
 "Seeboden",
 "ref":
 "pmb34824"}
 ,  {
 "placeName":
 "Villa Platzer",
 "ref":
 "pmb40788"}
 ,  {
 "placeName":
 "Kärnten",
 "ref":
 "pmb651"}
 ,  {
 "placeName":
 "Velden am Wörthersee",
 "ref":
 "pmb909"}
 ,  {
 "placeName":
 "Pension Pundschu",
 "ref":
 "pmb36282"}
 ,  {
 "placeName":
 "Bayreuth",
 "ref":
 "pmb734"}
 ,  {
 "placeName":
 "Tirol",
 "ref":
 "pmb423"}
 ]
}
}, {
 "type":
 "schnitzler-briefe",
 "color":
 "#A63437",
 "filename":
 "L02880",
 "caption":
 "Briefe mit Autorinnen und Autoren",
 "idno":
 "https://schnitzler-briefe.acdh.oeaw.ac.at/L02880.html",
 "head":
 "Paul Goldmann an Arthur Schnitzler, 16. 7. 1899",
 "desc":
{"listPerson":
  [
{
 "persName":
 "Paul Goldmann",
 "ref":
 "pmb11485"},
 {
 "persName":
 "Fedor Mamroth",
 "ref":
 "pmb4986"},
 {
 "persName":
 "Richard Beer-Hofmann",
 "ref":
 "pmb10863"},
 {
 "persName":
 "Hermann Hettner",
 "ref":
 "pmb135122"}],
 "listBibl":
  [
 {
 "title":
 "Ein Sommer in China. Reisebilder",
 "ref":
 "pmb33346"}
 ,  {
 "title":
 "Geschichte der französischen Literatur im achtzehnten Jahrhundert",
 "ref":
 "pmb135130"}
 ],
 "listOrg":
  [
 {
 "orgName":
 "Frankfurter Zeitung",
 "ref":
 "pmb29442"}
 ,  {
 "orgName":
 "Friedrich Vieweg und Sohn",
 "ref":
 "pmb135135"}
 ],
 "listPlace":
  [
 {
 "placeName":
 "Frankfurt am Main",
 "ref":
 "pmb146"}
 ,  {
 "placeName":
 "Wien",
 "ref":
 "pmb50"}
 ,  {
 "placeName":
 "Velden am Wörthersee",
 "ref":
 "pmb909"}
 ,  {
 "placeName":
 "Bayreuth",
 "ref":
 "pmb734"}
 ,  {
 "placeName":
 "Rennes",
 "ref":
 "pmb55293"}
 ,  {
 "placeName":
 "Italien",
 "ref":
 "pmb40306"}
 ,  {
 "placeName":
 "Florenz",
 "ref":
 "pmb263"}
 ,  {
 "placeName":
 "Rom",
 "ref":
 "pmb445"}
 ,  {
 "placeName":
 "Slawonien",
 "ref":
 "pmb40529"}
 ,  {
 "placeName":
 "Braunschweig",
 "ref":
 "pmb35572"}
 ]
}
}, {
 "type":
 "schnitzler-orte",
 "color":
 "#045344",
 "filename":
 "entity/50/",
 "caption":
 "Aufenthaltsorte",
 "idno":
 "https://pmb.acdh.oeaw.ac.at/entity/50/",
 "head":
 "Wien"
}, {
 "type":
 "schnitzler-cmif",
 "subtype":
 "#asbw_0a380dfe-61d4-4b9e-8641-01eba8e50760",
 "color":
 "#654321",
 "caption":
 "Gedruckte Briefwechsel",
 "head":
 "Erhalt von Richard Beer-Hofmann an Arthur Schnitzler, 11. 7. 1899",
 "source":
 "Arthur Schnitzler – Briefwechsel mit Autorinnen und Autoren. Digitale Edition herausgegeben von Martin Anton Müller, Gerd-Hermann Susen und Laura Untner, 2018–[2024]"
}, {
 "type":
 "schnitzler-cmif",
 "subtype":
 "#asbw_0a380dfe-61d4-4b9e-8641-01eba8e50760",
 "color":
 "#654321",
 "caption":
 "Gedruckte Briefwechsel",
 "head":
 "Erhalt von Richard Beer-Hofmann an Arthur Schnitzler, 14. 7. 1899",
 "source":
 "Arthur Schnitzler – Briefwechsel mit Autorinnen und Autoren. Digitale Edition herausgegeben von Martin Anton Müller, Gerd-Hermann Susen und Laura Untner, 2018–[2024]"
}, {
 "type":
 "schnitzler-cmif",
 "subtype":
 "#asbw_0a380dfe-61d4-4b9e-8641-01eba8e50760",
 "color":
 "#654321",
 "caption":
 "Gedruckte Briefwechsel",
 "head":
 "Erhalt von Hugo von Hofmannsthal an Arthur Schnitzler, 15. 7. [1899]",
 "source":
 "Arthur Schnitzler – Briefwechsel mit Autorinnen und Autoren. Digitale Edition herausgegeben von Martin Anton Müller, Gerd-Hermann Susen und Laura Untner, 2018–[2024]"
}] 