[{
 "type":
 "schnitzler-tagebuch",
 "color":
 "#037a33",
 "filename":
 "entry__1899-07-18",
 "caption":
 "Tagebuch",
 "idno":
 "https://schnitzler-tagebuch.acdh.oeaw.ac.at/entry__1899-07-18.html",
 "head":
 "Tagebuch, 18. Juli 1899",
 "desc":
{"listPerson":
  [
{
 "persName":
 "Rudolf Burger",
 "ref":
 "person_14076"},
 {
 "persName":
 "Gisela Hajek",
 "ref":
 "person_15854"},
 {
 "persName":
 "Louise Schnitzler",
 "ref":
 "person_19831"},
 {
 "persName":
 "Caroline Burger",
 "ref":
 "person_14073"},
 {
 "persName":
 "Anna Holitscher",
 "ref":
 "person_16321"}],
 "listBibl":
  [
 {
 "title":
 "Der Schleier der Beatrice. Schauspiel in fünf Akten",
 "ref":
 "pmb29857"}
 ],
 "listPlace":
  [
 {
 "placeName":
 "Velden am Wörthersee",
 "ref":
 "pmb909"}
 ,  {
 "placeName":
 "Klagenfurt",
 "ref":
 "pmb91030"}
 ,  {
 "placeName":
 "Pörtschach",
 "ref":
 "pmb44278"}
 ]
}
}, {
 "type":
 "schnitzler-briefe",
 "color":
 "#A63437",
 "filename":
 "L00946",
 "caption":
 "Briefe mit Autorinnen und Autoren",
 "idno":
 "https://schnitzler-briefe.acdh.oeaw.ac.at/L00946.html",
 "head":
 "Richard Beer-Hofmann an Arthur Schnitzler, 18. 7. 1899",
 "desc":
{"listPerson":
  [
{
 "persName":
 "Richard Beer-Hofmann",
 "ref":
 "pmb10863"},
 {
 "persName":
 "Arthur Schnitzler",
 "ref":
 "pmb2121"},
 {
 "persName":
 "Richard Beer-Hofmann",
 "ref":
 "pmb10863"},
 {
 "persName":
 "Jakob Wassermann",
 "ref":
 "pmb13055"}],
 "listBibl":
  [
 {
 "title":
 "Der Tod Georgs",
 "ref":
 "pmb31535"}
 ],
 "listPlace":
  [
 {
 "placeName":
 "Seeboden",
 "ref":
 "pmb34824"}
 ,  {
 "placeName":
 "Pension Pundschu",
 "ref":
 "pmb36282"}
 ,  {
 "placeName":
 "Hohe Tauern",
 "ref":
 "pmb40943"}
 ,  {
 "placeName":
 "Velden am Wörthersee",
 "ref":
 "pmb909"}
 ]
}
}, {
 "type":
 "schnitzler-briefe",
 "color":
 "#A63437",
 "filename":
 "L00947",
 "caption":
 "Briefe mit Autorinnen und Autoren",
 "idno":
 "https://schnitzler-briefe.acdh.oeaw.ac.at/L00947.html",
 "head":
 "Arthur Schnitzler an Hugo von Hofmannsthal, 18. 7. 1899",
 "desc":
{"listPerson":
  [
{
 "persName":
 "Arthur Schnitzler",
 "ref":
 "pmb2121"},
 {
 "persName":
 "Hugo von Hofmannsthal",
 "ref":
 "pmb11740"},
 {
 "persName":
 "Richard Beer-Hofmann",
 "ref":
 "pmb10863"},
 {
 "persName":
 "Hugo von Hofmannsthal",
 "ref":
 "pmb11740"},
 {
 "persName":
 "Louise Schnitzler",
 "ref":
 "pmb12701"},
 {
 "persName":
 "Caroline Burger",
 "ref":
 "pmb14707"},
 {
 "persName":
 "Rudolf Burger",
 "ref":
 "pmb14711"},
 {
 "persName":
 "Felix Salten",
 "ref":
 "pmb2167"},
 {
 "persName":
 "Marie Reinhard",
 "ref":
 "pmb2378"},
 {
 "persName":
 "Gisela Hajek",
 "ref":
 "pmb2461"}],
 "listBibl":
  [
 {
 "title":
 "Der Schleier der Beatrice. Schauspiel in fünf Akten",
 "ref":
 "pmb29857"}
 ,  {
 "title":
 "Das Bergwerk zu Falun",
 "ref":
 "pmb32432"}
 ],
 "listPlace":
  [
 {
 "placeName":
 "Pension Pundschu",
 "ref":
 "pmb36282"}
 ,  {
 "placeName":
 "Salzkammergut",
 "ref":
 "pmb429"}
 ,  {
 "placeName":
 "Marienbad",
 "ref":
 "pmb772"}
 ,  {
 "placeName":
 "Velden am Wörthersee",
 "ref":
 "pmb909"}
 ]
}
}, {
 "type":
 "wienerschnitzler",
 "color":
 "#6F5106",
 "caption":
 "Wiener Schnitzler",
 "idno":
 "https://wienerschnitzler.org/tag.html#1899-07-18",
 "head":
 "Velden am Wörthersee",
 "desc":
{"listPlace":
  [
 {
 "placeName":
 "Pension Pundschu",
 "ref":
 ""}
 ]
}
}, {
 "type":
 "wienerschnitzler",
 "color":
 "#6F5106",
 "caption":
 "Wiener Schnitzler",
 "idno":
 "https://wienerschnitzler.org/tag.html#1899-07-18",
 "head":
 "Pörtschach am Wörthersee"
}, {
 "type":
 "wienerschnitzler",
 "color":
 "#6F5106",
 "caption":
 "Wiener Schnitzler",
 "idno":
 "https://wienerschnitzler.org/tag.html#1899-07-18",
 "head":
 "Maria Wörth",
 "desc":
{"listPlace":
  [
 {
 "placeName":
 "Pension und Restaurant Hugelmann",
 "ref":
 ""}
 ]
}
}] 