[{
 "type":
 "schnitzler-tagebuch",
 "color":
 "#037a33",
 "filename":
 "entry__1899-12-24",
 "caption":
 "Tagebuch",
 "idno":
 "https://schnitzler-tagebuch.acdh.oeaw.ac.at/entry__1899-12-24.html",
 "head":
 "Tagebuch, 24. Dezember 1899",
 "desc":
{"listPerson":
  [
{
 "persName":
 "Emma Altmann",
 "ref":
 "person_13169"},
 {
 "persName":
 "Leopoldine Müller",
 "ref":
 "person_18303"},
 {
 "persName":
 "Hans Schnitzler",
 "ref":
 "person_19821"},
 {
 "persName":
 "Julius Schnitzler",
 "ref":
 "person_19827"},
 {
 "persName":
 "Karl Schnitzler",
 "ref":
 "person_19828"}],
 "listBibl":
  [
 {
 "title":
 "Um eine Stunde",
 "ref":
 "pmb33872"}
 ]
}
}, {
 "type":
 "schnitzler-briefe",
 "color":
 "#A63437",
 "filename":
 "L01007",
 "caption":
 "Briefe mit Autorinnen und Autoren",
 "idno":
 "https://schnitzler-briefe.acdh.oeaw.ac.at/L01007.html",
 "head":
 "Arthur Schnitzler an Richard Beer-Hofmann, 24. 12. 1899",
 "desc":
{"listPerson":
  [
{
 "persName":
 "Arthur Schnitzler",
 "ref":
 "pmb2121"},
 {
 "persName":
 "Richard Beer-Hofmann",
 "ref":
 "pmb10863"},
 {
 "persName":
 "Richard Beer-Hofmann",
 "ref":
 "pmb10863"},
 {
 "persName":
 "August Strindberg",
 "ref":
 "pmb12877"},
 {
 "persName":
 "Ludwig Wolff",
 "ref":
 "pmb13159"},
 {
 "persName":
 "Erich Holm",
 "ref":
 "pmb47716"}],
 "listBibl":
  [
 {
 "title":
 "Der grüne Kakadu – Paracelsus – Die Gefährtin. Drei Einakter",
 "ref":
 "pmb32562"}
 ,  {
 "title":
 "Die Gefährtin. Schauspiel in einem Akt",
 "ref":
 "pmb29845"}
 ,  {
 "title":
 "Gläubiger. Schauspiel in einem Act",
 "ref":
 "pmb42614"}
 ,  {
 "title":
 "Die Mondscheinsonate. Komödie in einem Akt",
 "ref":
 "pmb43165"}
 ],
 "listPlace":
  [
 {
 "placeName":
 "IX., Alsergrund",
 "ref":
 "pmb59"}
 ,  {
 "placeName":
 "Wien",
 "ref":
 "pmb50"}
 ,  {
 "placeName":
 "Wollzeile",
 "ref":
 "pmb338"}
 ,  {
 "placeName":
 "Theater in der Josefstadt",
 "ref":
 "pmb40"}
 ],
 "listOrg":
  [
 {
 "orgName":
 "Theater in der Josefstadt",
 "ref":
 "pmb39689"}
 ]
}
}, {
 "type":
 "schnitzler-briefe",
 "color":
 "#A63437",
 "filename":
 "L03303",
 "caption":
 "Briefe mit Autorinnen und Autoren",
 "idno":
 "https://schnitzler-briefe.acdh.oeaw.ac.at/L03303.html",
 "head":
 "Felix Salten, Ottilie Metzl an Arthur Schnitzler, 2[4]. 12. 1899",
 "desc":
{"listPerson":
  [
{
 "persName":
 "Felix Salten",
 "ref":
 "pmb2167"},
 {
 "persName":
 "Ottilie Metzl",
 "ref":
 "pmb23918"},
 {
 "persName":
 "Arthur Schnitzler",
 "ref":
 "pmb2121"},
 {
 "persName":
 "Felix Salten",
 "ref":
 "pmb2167"},
 {
 "persName":
 "Ottilie Salten",
 "ref":
 "pmb23918"}],
 "listPlace":
  [
 {
 "placeName":
 "Salzburg",
 "ref":
 "pmb30"}
 ,  {
 "placeName":
 "IX., Alsergrund",
 "ref":
 "pmb59"}
 ,  {
 "placeName":
 "Wien",
 "ref":
 "pmb50"}
 ,  {
 "placeName":
 "Frankgasse 1",
 "ref":
 "pmb168934"}
 ,  {
 "placeName":
 "Staatsbrücke",
 "ref":
 "pmb145772"}
 ]
}
}, {
 "type":
 "wienerschnitzler",
 "color":
 "#6F5106",
 "caption":
 "Wiener Schnitzler",
 "idno":
 "https://wienerschnitzler.org/tag.html#1899-12-24",
 "head":
 "Wien",
 "desc":
{"listPlace":
  [
 {
 "placeName":
 "I., Innere Stadt",
 "ref":
 ""}
 ,  {
 "placeName":
 "IX., Alsergrund",
 "ref":
 ""}
 ]
}
}] 