[{
 "type":
 "schnitzler-tagebuch",
 "color":
 "#037a33",
 "filename":
 "entry__1899-05-13",
 "caption":
 "Tagebuch",
 "idno":
 "https://schnitzler-tagebuch.acdh.oeaw.ac.at/entry__1899-05-13.html",
 "head":
 "Tagebuch, 13. Mai 1899",
 "desc":
{"listPerson":
  [
{
 "persName":
 "Gustav Schwarzkopf",
 "ref":
 "person_19986"}],
 "listPlace":
  [
 {
 "placeName":
 "Pötzleinsdorf",
 "ref":
 "pmb169"}
 ,  {
 "placeName":
 "Währing",
 "ref":
 "pmb90546"}
 ]
}
}, {
 "type":
 "schnitzler-briefe",
 "color":
 "#A63437",
 "filename":
 "L03292",
 "caption":
 "Briefe mit Autorinnen und Autoren",
 "idno":
 "https://schnitzler-briefe.acdh.oeaw.ac.at/L03292.html",
 "head":
 "Felix Salten an Arthur Schnitzler, 13. 5. 1899",
 "desc":
{"listPerson":
  [
{
 "persName":
 "Emanuel Raul",
 "ref":
 "pmb161807"},
 {
 "persName":
 "Felix Salten",
 "ref":
 "pmb2167"}],
 "listOrg":
  [
 {
 "orgName":
 "Stadttheater Teplitz",
 "ref":
 "pmb146124"}
 ],
 "listPlace":
  [
 {
 "placeName":
 "Frankgasse 1",
 "ref":
 "pmb168934"}
 ,  {
 "placeName":
 "Wien",
 "ref":
 "pmb50"}
 ,  {
 "placeName":
 "IX., Alsergrund",
 "ref":
 "pmb59"}
 ,  {
 "placeName":
 "Teplice",
 "ref":
 "pmb955"}
 ]
}
}, {
 "type":
 "wienerschnitzler",
 "color":
 "#ECDA98",
 "caption":
 "Wiener Schnitzler",
 "idno":
 "https://wienerschnitzler.org/tag.html#1899-05-13",
 "head":
 "Wien",
 "desc":
{"listPlace":
  [
 {
 "placeName":
 "XVII., Hernals",
 "ref":
 ""}
 ,  {
 "placeName":
 "XVIII., Währing",
 "ref":
 ""}
 ,  {
 "placeName":
 "IX., Alsergrund",
 "ref":
 ""}
 ]
}
}, {
 "type":
 "schnitzler-cmif",
 "subtype":
 "#sb5b8e07-e0c8-47e6-8add-494150f56e37",
 "color":
 "#654321",
 "caption":
 "Gedruckte Briefwechsel",
 "head":
 "Franziska Lawner an Arthur Schnitzler, 13.5.1899",
 "source":
 "Arthur Schnitzler: Frau Bertha Garlan. Historisch-kritische Ausgabe. Herausgegeben von Gerhard Hubmann und Isabella Schwentner und Mitarbeit von Anna Lindner und Martin Anton Müller. Berlin, Boston: De Gruyter 2015 (Arthur Schnitzler: Werke in historisch-kritischen Ausgaben. Herausgegeben von Konstanze Fliedl), S. 281–298."
}] 