[{
 "type":
 "schnitzler-tagebuch",
 "color":
 "#037a33",
 "filename":
 "entry__1899-10-03",
 "caption":
 "Tagebuch",
 "idno":
 "https://schnitzler-tagebuch.acdh.oeaw.ac.at/entry__1899-10-03.html",
 "head":
 "Tagebuch, 3. Oktober 1899",
 "desc":
{"listPlace":
  [
 {
 "placeName":
 "Berlin",
 "ref":
 "pmb168"}
 ]
}
}, {
 "type":
 "schnitzler-briefe",
 "color":
 "#A63437",
 "filename":
 "L00987",
 "caption":
 "Briefe mit Autorinnen und Autoren",
 "idno":
 "https://schnitzler-briefe.acdh.oeaw.ac.at/L00987.html",
 "head":
 "Arthur Schnitzler an Richard Beer-Hofmann, 3. 10. 1899",
 "desc":
{"listPerson":
  [
{
 "persName":
 "Arthur Schnitzler",
 "ref":
 "pmb2121"},
 {
 "persName":
 "Richard Beer-Hofmann",
 "ref":
 "pmb10863"},
 {
 "persName":
 "Richard Beer-Hofmann",
 "ref":
 "pmb10863"},
 {
 "persName":
 "?? [Schreibkraft der Menükarte 3.10.1899]",
 "ref":
 "pmb43191"}],
 "listBibl":
  [
 {
 "title":
 "Der Schleier der Beatrice. Schauspiel in fünf Akten",
 "ref":
 "pmb29857"}
 ,  {
 "title":
 "Der Graf von Charolais. Ein Trauerspiel",
 "ref":
 "pmb30233"}
 ],
 "listPlace":
  [
 {
 "placeName":
 "Berlin",
 "ref":
 "pmb168"}
 ,  {
 "placeName":
 "Sankt Michael",
 "ref":
 "pmb40832"}
 ,  {
 "placeName":
 "Hôtel du Parc &amp; Bristol",
 "ref":
 "pmb43055"}
 ,  {
 "placeName":
 "Hotel Savoy [Berlin]",
 "ref":
 "pmb545"}
 ,  {
 "placeName":
 "Wiesbaden",
 "ref":
 "pmb883"}
 ]
}
}, {
 "type":
 "schnitzler-briefe",
 "color":
 "#A63437",
 "filename":
 "L00988",
 "caption":
 "Briefe mit Autorinnen und Autoren",
 "idno":
 "https://schnitzler-briefe.acdh.oeaw.ac.at/L00988.html",
 "head":
 "Richard Beer-Hofmann an Arthur Schnitzler, 3. 10. 1899",
 "desc":
{"listPerson":
  [
{
 "persName":
 "Richard Beer-Hofmann",
 "ref":
 "pmb10863"},
 {
 "persName":
 "Arthur Schnitzler",
 "ref":
 "pmb2121"},
 {
 "persName":
 "Richard Beer-Hofmann",
 "ref":
 "pmb10863"},
 {
 "persName":
 "Otto Brahm",
 "ref":
 "pmb10986"}],
 "listBibl":
  [
 {
 "title":
 "Der Graf von Charolais. Ein Trauerspiel",
 "ref":
 "pmb30233"}
 ],
 "listPlace":
  [
 {
 "placeName":
 "Bozen",
 "ref":
 "pmb40260"}
 ,  {
 "placeName":
 "Sankt Michael",
 "ref":
 "pmb40832"}
 ,  {
 "placeName":
 "Mendelpass",
 "ref":
 "pmb41083"}
 ,  {
 "placeName":
 "Caldaro sulla strada del vino",
 "ref":
 "pmb42210"}
 ,  {
 "placeName":
 "Eppaner Hof",
 "ref":
 "pmb43052"}
 ,  {
 "placeName":
 "Vahrn",
 "ref":
 "pmb946"}
 ],
 "listOrg":
  [
 {
 "orgName":
 "Überetscher Bahn",
 "ref":
 "pmb43044"}
 ]
}
}, {
 "type":
 "schnitzler-briefe",
 "color":
 "#A63437",
 "filename":
 "L03300",
 "caption":
 "Briefe mit Autorinnen und Autoren",
 "idno":
 "https://schnitzler-briefe.acdh.oeaw.ac.at/L03300.html",
 "head":
 "Felix Salten an Arthur Schnitzler, 3. 10. 189[9?]",
 "desc":
{"listPerson":
  [
{
 "persName":
 "Felix Salten",
 "ref":
 "pmb2167"},
 {
 "persName":
 "Arthur Schnitzler",
 "ref":
 "pmb2121"},
 {
 "persName":
 "Felix Salten",
 "ref":
 "pmb2167"},
 {
 "persName":
 "Georg Hirschfeld",
 "ref":
 "pmb11701"}],
 "listPlace":
  [
 {
 "placeName":
 "Wien",
 "ref":
 "pmb50"}
 ,  {
 "placeName":
 "Wiesbaden",
 "ref":
 "pmb883"}
 ,  {
 "placeName":
 "Berlin",
 "ref":
 "pmb168"}
 ]
}
}, {
 "type":
 "wienerschnitzler",
 "color":
 "#6F5106",
 "caption":
 "Wiener Schnitzler",
 "idno":
 "https://wienerschnitzler.org/tag.html#1899-10-03",
 "head":
 "Wiesbaden",
 "desc":
{"listPlace":
  [
 {
 "placeName":
 "Hôtel du Parc &amp; Bristol",
 "ref":
 ""}
 ]
}
}, {
 "type":
 "wienerschnitzler",
 "color":
 "#6F5106",
 "caption":
 "Wiener Schnitzler",
 "idno":
 "https://wienerschnitzler.org/tag.html#1899-10-03",
 "head":
 "Berlin",
 "desc":
{"listPlace":
  [
 {
 "placeName":
 "Hotel Savoy [Berlin]",
 "ref":
 ""}
 ]
}
}] 