[{
 "type":
 "schnitzler-tagebuch",
 "color":
 "#037a33",
 "filename":
 "entry__1900-07-30",
 "caption":
 "Tagebuch",
 "idno":
 "https://schnitzler-tagebuch.acdh.oeaw.ac.at/entry__1900-07-30.html",
 "head":
 "Tagebuch, 30. Juli 1900",
 "desc":
{"listPerson":
  [
{
 "persName":
 "Leopoldine Müller",
 "ref":
 "person_18303"},
 {
 "persName":
 "Heinrich Teweles",
 "ref":
 "person_20682"},
 {
 "persName":
 "Alice Ziegler",
 "ref":
 "person_21547"}],
 "listPlace":
  [
 {
 "placeName":
 "Bad Aussee",
 "ref":
 "pmb415"}
 ]
}
}, {
 "type":
 "schnitzler-briefe",
 "color":
 "#A63437",
 "filename":
 "L03176",
 "caption":
 "Briefe mit Autorinnen und Autoren",
 "idno":
 "https://schnitzler-briefe.acdh.oeaw.ac.at/L03176.html",
 "head":
 "Arthur Schnitzler an Paul Goldmann, 30. 7. 1900",
 "desc":
{"listPerson":
  [
{
 "persName":
 "Richard Beer-Hofmann",
 "ref":
 "pmb10863"},
 {
 "persName":
 "Paul Goldmann",
 "ref":
 "pmb11485"},
 {
 "persName":
 "Alfred Kerr",
 "ref":
 "pmb11910"}],
 "listPlace":
  [
 {
 "placeName":
 "Iseosee",
 "ref":
 "pmb142872"}
 ,  {
 "placeName":
 "Sulzfluh",
 "ref":
 "pmb144646"}
 ,  {
 "placeName":
 "Berlin",
 "ref":
 "pmb168"}
 ,  {
 "placeName":
 "Österreichischer Hof",
 "ref":
 "pmb230"}
 ,  {
 "placeName":
 "Salzburg",
 "ref":
 "pmb30"}
 ,  {
 "placeName":
 "Pontresina",
 "ref":
 "pmb34946"}
 ,  {
 "placeName":
 "Schruns",
 "ref":
 "pmb38711"}
 ,  {
 "placeName":
 "Italien",
 "ref":
 "pmb40306"}
 ,  {
 "placeName":
 "Zell am See",
 "ref":
 "pmb40336"}
 ,  {
 "placeName":
 "Küblis",
 "ref":
 "pmb40646"}
 ,  {
 "placeName":
 "Hotel und Pension Rudolfshöhe (Leopold Petter)",
 "ref":
 "pmb414"}
 ,  {
 "placeName":
 "Bad Aussee",
 "ref":
 "pmb415"}
 ,  {
 "placeName":
 "Schweiz",
 "ref":
 "pmb43435"}
 ,  {
 "placeName":
 "Bormio",
 "ref":
 "pmb49343"}
 ,  {
 "placeName":
 "Innsbruck",
 "ref":
 "pmb867"}
 ,  {
 "placeName":
 "Berghaus Moserboden",
 "ref":
 "pmb90148"}
 ,  {
 "placeName":
 "Bludenz",
 "ref":
 "pmb90366"}
 ,  {
 "placeName":
 "Solda",
 "ref":
 "pmb91855"}
 ,  {
 "placeName":
 "Trafoi",
 "ref":
 "pmb91918"}
 ]
}
}, {
 "type":
 "wienerschnitzler",
 "color":
 "#6F5106",
 "caption":
 "Wiener Schnitzler",
 "idno":
 "https://wienerschnitzler.org/tag.html#1900-07-30",
 "head":
 "Bad Aussee",
 "desc":
{"listPlace":
  [
 {
 "placeName":
 "Gasthaus Post",
 "ref":
 ""}
 ]
}
}, {
 "type":
 "wienerschnitzler",
 "color":
 "#6F5106",
 "caption":
 "Wiener Schnitzler",
 "idno":
 "https://wienerschnitzler.org/tag.html#1900-07-30",
 "head":
 "Pichl-Kainisch"
}] 