[{
 "type":
 "schnitzler-briefe",
 "color":
 "#A63437",
 "filename":
 "L01059",
 "caption":
 "Briefe mit Autorinnen und Autoren",
 "idno":
 "https://schnitzler-briefe.acdh.oeaw.ac.at/L01059.html",
 "head":
 "Arthur Schnitzler an Richard Beer-Hofmann, 26. 7. 1900",
 "desc":
{"listPerson":
  [
{
 "persName":
 "Richard Beer-Hofmann",
 "ref":
 "pmb10863"}],
 "listPlace":
  [
 {
 "placeName":
 "Altaussee",
 "ref":
 "pmb34401"}
 ,  {
 "placeName":
 "Bad Aussee",
 "ref":
 "pmb415"}
 ,  {
 "placeName":
 "Gasthaus Wilder Mann",
 "ref":
 "pmb49307"}
 ,  {
 "placeName":
 "Wien",
 "ref":
 "pmb50"}
 ]
}
}, {
 "type":
 "schnitzler-briefe",
 "color":
 "#A63437",
 "filename":
 "L02925",
 "caption":
 "Briefe mit Autorinnen und Autoren",
 "idno":
 "https://schnitzler-briefe.acdh.oeaw.ac.at/L02925.html",
 "head":
 "Paul Goldmann an Arthur Schnitzler, 26. 7. [1900]",
 "desc":
{"listPerson":
  [
{
 "persName":
 "Richard Beer-Hofmann",
 "ref":
 "pmb10863"},
 {
 "persName":
 "Paul Goldmann",
 "ref":
 "pmb11485"},
 {
 "persName":
 "Alfred Kerr",
 "ref":
 "pmb11910"},
 {
 "persName":
 "Leo Van-Jung",
 "ref":
 "pmb26392"},
 {
 "persName":
 "Fedor Mamroth",
 "ref":
 "pmb4986"}],
 "listPlace":
  [
 {
 "placeName":
 "Alpen",
 "ref":
 "pmb117"}
 ,  {
 "placeName":
 "Berlin",
 "ref":
 "pmb168"}
 ,  {
 "placeName":
 "Bozen",
 "ref":
 "pmb40260"}
 ,  {
 "placeName":
 "Dessauer Straße",
 "ref":
 "pmb40583"}
 ,  {
 "placeName":
 "Bad Aussee",
 "ref":
 "pmb415"}
 ,  {
 "placeName":
 "Schweiz",
 "ref":
 "pmb43435"}
 ,  {
 "placeName":
 "Wien",
 "ref":
 "pmb50"}
 ,  {
 "placeName":
 "Innsbruck",
 "ref":
 "pmb867"}
 ]
}
}, {
 "type":
 "wienerschnitzler",
 "color":
 "#ECDA98",
 "caption":
 "Wiener Schnitzler",
 "idno":
 "https://wienerschnitzler.org/tag.html#1900-07-26",
 "head":
 "Wien",
 "desc":
{"listPlace":
  [
 {
 "placeName":
 "IX., Alsergrund",
 "ref":
 ""}
 ]
}
}] 