[{
 "type":
 "schnitzler-tagebuch",
 "color":
 "#037a33",
 "filename":
 "entry__1900-06-10",
 "caption":
 "Tagebuch",
 "idno":
 "https://schnitzler-tagebuch.acdh.oeaw.ac.at/entry__1900-06-10.html",
 "head":
 "Tagebuch, 10. Juni 1900",
 "desc":
{"listPerson":
  [
{
 "persName":
 "Dora Michaelis",
 "ref":
 "person_18137"},
 {
 "persName":
 "Leopoldine MÃ¼ller",
 "ref":
 "person_18303"},
 {
 "persName":
 "Leo Schmidt",
 "ref":
 "person_19765"},
 {
 "persName":
 "Adolf von Sonnenthal",
 "ref":
 "person_20204"},
 {
 "persName":
 "Agnes Ulmann",
 "ref":
 "person_20872"}],
 "listPlace":
  [
 {
 "placeName":
 "Purkersdorf",
 "ref":
 "pmb91552"}
 ,  {
 "placeName":
 "Laab im Walde",
 "ref":
 "pmb91091"}
 ,  {
 "placeName":
 "Kalksburg",
 "ref":
 "pmb90979"}
 ,  {
 "placeName":
 "Wien",
 "ref":
 "pmb50"}
 ,  {
 "placeName":
 "Augarten",
 "ref":
 "pmb124"}
 ]
}
}, {
 "type":
 "URL",
 "subtype":
 "wienerschnitzler",
 "head":
 "Wien",
 "desc":
{"listPlace":
  [
 {
 "placeName":
 "II., Leopoldstadt",
 "ref":
 ""}
 ,  {
 "placeName":
 "XXIII., Liesing",
 "ref":
 ""}
 ,  {
 "placeName":
 "IX., Alsergrund",
 "ref":
 ""}
 ]
}
}, {
 "type":
 "URL",
 "subtype":
 "wienerschnitzler",
 "head":
 "Laab im Walde"
}, {
 "type":
 "URL",
 "subtype":
 "wienerschnitzler",
 "head":
 "Purkersdorf"
}] 