[{
 "type":
 "schnitzler-tagebuch",
 "color":
 "#037a33",
 "filename":
 "entry__1900-09-16",
 "caption":
 "Tagebuch",
 "idno":
 "https://schnitzler-tagebuch.acdh.oeaw.ac.at/entry__1900-09-16.html",
 "head":
 "Tagebuch, 16. September 1900",
 "desc":
{"listPlace":
  [
 {
 "placeName":
 "Prater",
 "ref":
 "pmb91530"}
 ]
}
}, {
 "type":
 "schnitzler-briefe",
 "color":
 "#A63437",
 "filename":
 "L02930",
 "caption":
 "Briefe mit Autorinnen und Autoren",
 "idno":
 "https://schnitzler-briefe.acdh.oeaw.ac.at/L02930.html",
 "head":
 "Paul Goldmann an Arthur Schnitzler, 16. 9. [1900]",
 "desc":
{"listPerson":
  [
{
 "persName":
 "Paul Goldmann",
 "ref":
 "pmb11485"},
 {
 "persName":
 "Paul Schlenther",
 "ref":
 "pmb12671"}],
 "listBibl":
  [
 {
 "title":
 "Der Schleier der Beatrice. Schauspiel in fünf Akten",
 "ref":
 "pmb29857"}
 ],
 "listOrg":
  [
 {
 "orgName":
 "Burgtheater",
 "ref":
 "pmb36247"}
 ],
 "listPlace":
  [
 {
 "placeName":
 "Dessauer Straße",
 "ref":
 "pmb40583"}
 ,  {
 "placeName":
 "Wien",
 "ref":
 "pmb50"}
 ]
}
}, {
 "type":
 "wienerschnitzler",
 "color":
 "#6F5106",
 "caption":
 "Wiener Schnitzler",
 "idno":
 "https://wienerschnitzler.org/tag.html#1900-09-16",
 "head":
 "Wien",
 "desc":
{"listPlace":
  [
 {
 "placeName":
 "II., Leopoldstadt",
 "ref":
 ""}
 ,  {
 "placeName":
 "IX., Alsergrund",
 "ref":
 ""}
 ]
}
}, {
 "type":
 "schnitzler-interviews",
 "color":
 "#3D5A80",
 "filename":
 "P105",
 "caption":
 "Interviews, Meinungen, Proteste",
 "idno":
 "https://schnitzler-interviews.acdh.oeaw.ac.at/P105.html",
 "head":
 "Die Erklärung des Verfassers, 16. 9. 1900",
 "desc":
{"listPerson":
  [
{
 "persName":
 "Paul Schlenther",
 "ref":
 "pmb12671"},
 {
 "persName":
 "Hermann Bahr",
 "ref":
 "pmb10815"},
 {
 "persName":
 "Julius Bauer",
 "ref":
 "pmb2150"},
 {
 "persName":
 "Jakob Julius David",
 "ref":
 "pmb2416"},
 {
 "persName":
 "Robert Hirschfeld",
 "ref":
 "pmb11707"},
 {
 "persName":
 "Felix Salten",
 "ref":
 "pmb2167"},
 {
 "persName":
 "Ludwig Speidel",
 "ref":
 "pmb12816"}],
 "listBibl":
  [
 {
 "title":
 "Die Erklärung des Verfassers",
 "ref":
 "pmb58372"}
 ,  {
 "title":
 "Der Schleier der Beatrice. Schauspiel in fünf Akten",
 "ref":
 "pmb29857"}
 ,  {
 "title":
 "Erklärung [Schleier der Beatrice]",
 "ref":
 "pmb31345"}
 ,  {
 "title":
 "Eine Erklärung des Burgtheaterdirektors",
 "ref":
 "pmb58375"}
 ,  {
 "title":
 "Arbeiter-Zeitung",
 "ref":
 "pmb41202"}
 ],
 "listPlace":
  [
 {
 "placeName":
 "Wien",
 "ref":
 "pmb50"}
 ,  {
 "placeName":
 "Berlin",
 "ref":
 "pmb168"}
 ,  {
 "placeName":
 "München",
 "ref":
 "pmb45258"}
 ],
 "listOrg":
  [
 {
 "orgName":
 "Burgtheater",
 "ref":
 "pmb36247"}
 ]
}
}] 