[{
 "type":
 "schnitzler-tagebuch",
 "color":
 "#037a33",
 "filename":
 "entry__1900-02-17",
 "caption":
 "Tagebuch",
 "idno":
 "https://schnitzler-tagebuch.acdh.oeaw.ac.at/entry__1900-02-17.html",
 "head":
 "Tagebuch, 17. Februar 1900",
 "desc":
{"listPerson":
  [
{
 "persName":
 "Alfred von Berger",
 "ref":
 "person_13624"}],
 "listBibl":
  [
 {
 "title":
 "Der Schleier der Beatrice. Schauspiel in fünf Akten",
 "ref":
 "pmb29857"}
 ],
 "listPlace":
  [
 {
 "placeName":
 "Hamburg",
 "ref":
 "pmb506"}
 ]
}
}, {
 "type":
 "schnitzler-briefe",
 "color":
 "#A63437",
 "filename":
 "L01014",
 "caption":
 "Briefe mit Autorinnen und Autoren",
 "idno":
 "https://schnitzler-briefe.acdh.oeaw.ac.at/L01014.html",
 "head":
 "Arthur Schnitzler an Richard Beer-Hofmann, 17. 2. 1900",
 "desc":
{"listPerson":
  [
{
 "persName":
 "Paula Beer-Hofmann",
 "ref":
 "pmb10860"},
 {
 "persName":
 "Richard Beer-Hofmann",
 "ref":
 "pmb10863"},
 {
 "persName":
 "Paul Goldmann",
 "ref":
 "pmb11485"},
 {
 "persName":
 "Theodor Herzl",
 "ref":
 "pmb11673"},
 {
 "persName":
 "Georg Hirschfeld",
 "ref":
 "pmb11701"},
 {
 "persName":
 "Hugo von Hofmannsthal",
 "ref":
 "pmb11740"},
 {
 "persName":
 "Josef Kainz",
 "ref":
 "pmb11851"},
 {
 "persName":
 "Georg Reimers",
 "ref":
 "pmb12498"},
 {
 "persName":
 "Paul Schlenther",
 "ref":
 "pmb12671"},
 {
 "persName":
 "Jakob Wassermann",
 "ref":
 "pmb13055"},
 {
 "persName":
 "Ludwig Wolff",
 "ref":
 "pmb13159"},
 {
 "persName":
 "Therese Czopp",
 "ref":
 "pmb15194"},
 {
 "persName":
 "Helene Eisner",
 "ref":
 "pmb15805"},
 {
 "persName":
 "Ella Naschauer",
 "ref":
 "pmb21801"},
 {
 "persName":
 "Paul Naschauer",
 "ref":
 "pmb21804"},
 {
 "persName":
 "Friedrich Hebbel",
 "ref":
 "pmb2404"},
 {
 "persName":
 "Ida d’Albert",
 "ref":
 "pmb2537"},
 {
 "persName":
 "Leo Van-Jung",
 "ref":
 "pmb26392"},
 {
 "persName":
 "Julie Herzl",
 "ref":
 "pmb2812"},
 {
 "persName":
 "Max Messer",
 "ref":
 "pmb2885"},
 {
 "persName":
 "Fedor Mamroth",
 "ref":
 "pmb4986"},
 {
 "persName":
 "Emil Kuh",
 "ref":
 "pmb8366"},
 {
 "persName":
 "Elly Petersen",
 "ref":
 "pmb9233"}],
 "listBibl":
  [
 {
 "title":
 "Der Schleier der Beatrice. Schauspiel in fünf Akten",
 "ref":
 "pmb29857"}
 ,  {
 "title":
 "Frau Bertha Garlan. Roman",
 "ref":
 "pmb30486"}
 ,  {
 "title":
 "Der Tod Georgs",
 "ref":
 "pmb31535"}
 ,  {
 "title":
 "Wiener Bummelgeschichten",
 "ref":
 "pmb39734"}
 ,  {
 "title":
 "Im toten Wasser. Ein Wiener Roman",
 "ref":
 "pmb39737"}
 ,  {
 "title":
 "Biographie Friedrich Hebbels",
 "ref":
 "pmb39748"}
 ],
 "listOrg":
  [
 {
 "orgName":
 "Wiener Schachclub",
 "ref":
 "pmb43143"}
 ],
 "listPlace":
  [
 {
 "placeName":
 "Berlin",
 "ref":
 "pmb168"}
 ,  {
 "placeName":
 "Italien",
 "ref":
 "pmb40306"}
 ,  {
 "placeName":
 "Hotel Saxonia",
 "ref":
 "pmb40853"}
 ,  {
 "placeName":
 "Stresemannstraße",
 "ref":
 "pmb40854"}
 ,  {
 "placeName":
 "Pegli",
 "ref":
 "pmb41022"}
 ,  {
 "placeName":
 "Sanremo",
 "ref":
 "pmb45279"}
 ,  {
 "placeName":
 "Grand Hotel Mediterranée",
 "ref":
 "pmb46344"}
 ,  {
 "placeName":
 "Wien",
 "ref":
 "pmb50"}
 ,  {
 "placeName":
 "I., Innere Stadt",
 "ref":
 "pmb51"}
 ,  {
 "placeName":
 "XIII., Hietzing",
 "ref":
 "pmb63"}
 ]
}
}, {
 "type":
 "wienerschnitzler",
 "color":
 "#ECDA98",
 "caption":
 "Wiener Schnitzler",
 "idno":
 "https://wienerschnitzler.org/tag.html#1900-02-17",
 "head":
 "Wien",
 "desc":
{"listPlace":
  [
 {
 "placeName":
 "IX., Alsergrund",
 "ref":
 ""}
 ]
}
}] 