[{
 "type":
 "schnitzler-orte",
 "idno":
 "https://pmb.acdh.oeaw.ac.at/entity/50/",
 "head":
 "Wien"
}, {
 "type":
 "schnitzler-orte",
 "idno":
 "https://pmb.acdh.oeaw.ac.at/entity/790/",
 "head":
 "Tuchlauben"
}, {
 "type":
 "schnitzler-briefe",
 "idno":
 "https://schnitzler-briefe.acdh.oeaw.ac.at/L02903.html",
 "head":
 "Paul Goldmann an Arthur Schnitzler, 23. 1. [1900]",
 "desc":
{"listPerson":
  [
{
 "persName":
 "Paul Goldmann",
 "ref":
 "pmb11485"},
 {
 "persName":
 "D. W. Schröder",
 "ref":
 "pmb141473"},
 {
 "persName":
 "Marie Glümer",
 "ref":
 "pmb14953"},
 {
 "persName":
 "Eva Marie Goldmann",
 "ref":
 "pmb17164"},
 {
 "persName":
 "Richard Beer-Hofmann",
 "ref":
 "pmb10863"}],
 "listPlace":
  [
 {
 "placeName":
 "Berlin",
 "ref":
 "pmb168"}
 ,  {
 "placeName":
 "Wien",
 "ref":
 "pmb50"}
 ,  {
 "placeName":
 "Hotel Saxonia",
 "ref":
 "pmb40853"}
 ,  {
 "placeName":
 "Potsdamer Platz",
 "ref":
 "pmb141471"}
 ,  {
 "placeName":
 "Tiergarten",
 "ref":
 "pmb36914"}
 ,  {
 "placeName":
 "Stresemannstraße",
 "ref":
 "pmb40854"}
 ,  {
 "placeName":
 "Florenz",
 "ref":
 "pmb263"}
 ,  {
 "placeName":
 "Passauerstraße",
 "ref":
 "pmb59800"}
 ]}

}, {
 "type":
 "schnitzler-tagebuch",
 "idno":
 "https://schnitzler-tagebuch.acdh.oeaw.ac.at/entry__1900-01-23.html",
 "head":
 "Tagebuch, 23. Januar 1900",
 "desc":
{"listPerson":
  [
{
 "persName":
 "Leopoldine Müller",
 "ref":
 "person_18303"},
 {
 "persName":
 "Julius Schnitzler",
 "ref":
 "person_19827"},
 {
 "persName":
 "Anna Donath",
 "ref":
 "person_14481"}]}

}] 