[{
 "type":
 "schnitzler-tagebuch",
 "color":
 "#037a33",
 "filename":
 "entry__1900-11-02",
 "caption":
 "Tagebuch",
 "idno":
 "https://schnitzler-tagebuch.acdh.oeaw.ac.at/entry__1900-11-02.html",
 "head":
 "Tagebuch, 2. November 1900",
 "desc":
{"listPerson":
  [
{
 "persName":
 "Leopoldine Müller",
 "ref":
 "person_18303"},
 {
 "persName":
 "Hugo von Hofmannsthal",
 "ref":
 "person_16293"}],
 "listBibl":
  [
 {
 "title":
 "Wienerinnen",
 "ref":
 "pmb29885"}
 ],
 "listPlace":
  [
 {
 "placeName":
 "H.gasse",
 "ref":
 "pmb92266"}
 ,  {
 "placeName":
 "Währingerstraße",
 "ref":
 "pmb312"}
 ,  {
 "placeName":
 "Deutsches Volkstheater",
 "ref":
 "pmb92202"}
 ]
}
}, {
 "type":
 "wienerschnitzler",
 "color":
 "#ECDA98",
 "caption":
 "Wiener Schnitzler",
 "idno":
 "https://wienerschnitzler.org/tag.html#1900-11-02",
 "head":
 "Wien",
 "desc":
{"listPlace":
  [
 {
 "placeName":
 "VII., Neubau",
 "ref":
 ""}
 ,  {
 "placeName":
 "IX., Alsergrund",
 "ref":
 ""}
 ]
}
}, {
 "type":
 "schnitzler-kultur",
 "color":
 "#6B4C5A",
 "filename":
 "pmb209165",
 "caption":
 "Kulturveranstaltungen",
 "idno":
 "https://schnitzler-kultur.acdh.oeaw.ac.at/pmb209165.html",
 "head":
 "Aufführung von Wienerinnen. Lustspiel in drei
                        Akten, 2.11.1900",
 "desc":
{"listOrg":
  [
 {
 "orgName":
 "Volkstheater",
 "ref":
 ""}
 ],
 "listBibl":
  [
 {
 "title":
 "Wienerinnen. Lustspiel in drei Akten",
 "ref":
 ""}
 ],
 "listPerson":
  [
{
 "persName":
 "Arthur Schnitzler",
 "ref":
 ""}],
 "listPlace":
  [
 {
 "placeName":
 "Volkstheater",
 "ref":
 ""}
 ]
}
}, {
 "type":
 "schnitzler-bahr",
 "color":
 "#639FF9",
 "filename":
 "D041523",
 "caption":
 "Schnitzler/Bahr",
 "idno":
 "https://schnitzler-bahr.acdh.oeaw.ac.at/D041523.html",
 "head":
 "Tagebuch von Schnitzler, 2. 11. 1900",
 "desc":
{"listPerson":
  [
{
 "persName":
 "Hugo von Hofmannsthal",
 "ref":
 "pmb11740"},
 {
 "persName":
 "Leopoldine Müller",
 "ref":
 "pmb21727"},
 {
 "persName":
 "Karl no name provided",
 "ref":
 "pmb28893"}],
 "listBibl":
  [
 {
 "title":
 "Wienerinnen",
 "ref":
 "pmb29885"}
 ],
 "listPlace":
  [
 {
 "placeName":
 "Hebragasse",
 "ref":
 "pmb831"}
 ,  {
 "placeName":
 "Währingerstraße",
 "ref":
 "pmb312"}
 ,  {
 "placeName":
 "Volkstheater",
 "ref":
 "pmb20"}
 ]
}
}] 