[{
 "type":
 "schnitzler-tagebuch",
 "color":
 "#037a33",
 "filename":
 "entry__1900-02-26",
 "caption":
 "Tagebuch",
 "idno":
 "https://schnitzler-tagebuch.acdh.oeaw.ac.at/entry__1900-02-26.html",
 "head":
 "Tagebuch, 26. Februar 1900",
 "desc":
{"listPerson":
  [
{
 "persName":
 "Max Jentsch",
 "ref":
 "person_16540"},
 {
 "persName":
 "Leopoldine Müller",
 "ref":
 "person_18303"}],
 "listPlace":
  [
 {
 "placeName":
 "Augarten",
 "ref":
 "pmb124"}
 ]
}
}, {
 "type":
 "schnitzler-briefe",
 "color":
 "#A63437",
 "filename":
 "L03725",
 "caption":
 "Briefe mit Autorinnen und Autoren",
 "idno":
 "https://schnitzler-briefe.acdh.oeaw.ac.at/L03725.html",
 "head":
 "Elsa Plessner an Arthur Schnitzler, 26. 2. 1900",
 "desc":
{"listPerson":
  [
{
 "persName":
 "Richard Bloch",
 "ref":
 "pmb14304"},
 {
 "persName":
 "Elsa Plessner",
 "ref":
 "pmb2128"}],
 "listBibl":
  [
 {
 "title":
 "Das erste Kapitel. Schauspiel in drei Akten",
 "ref":
 "pmb295177"}
 ,  {
 "title":
 "Die Ehrlosen. Schauspiel in drei Acten",
 "ref":
 "pmb295204"}
 ],
 "listOrg":
  [
 {
 "orgName":
 "Volkstheater",
 "ref":
 "pmb36430"}
 ],
 "listPlace":
  [
 {
 "placeName":
 "Berlin",
 "ref":
 "pmb168"}
 ,  {
 "placeName":
 "Volkstheater",
 "ref":
 "pmb20"}
 ,  {
 "placeName":
 "Kärntner Straße 10",
 "ref":
 "pmb295173"}
 ,  {
 "placeName":
 "Wien",
 "ref":
 "pmb50"}
 ]
}
}, {
 "type":
 "wienerschnitzler",
 "color":
 "#6F5106",
 "caption":
 "Wiener Schnitzler",
 "idno":
 "https://wienerschnitzler.org/tag.html#1900-02-26",
 "head":
 "Wien",
 "desc":
{"listPlace":
  [
 {
 "placeName":
 "I., Innere Stadt",
 "ref":
 ""}
 ,  {
 "placeName":
 "IX., Alsergrund",
 "ref":
 ""}
 ]
}
}, {
 "type":
 "schnitzler-kultur",
 "color":
 "#6B4C5A",
 "filename":
 "pmb209142",
 "caption":
 "Kulturveranstaltungen",
 "idno":
 "https://schnitzler-kultur.acdh.oeaw.ac.at/pmb209142.html",
 "head":
 "Konzert Jentsch, 26.2.1900",
 "desc":
{"listPerson":
  [
{
 "persName":
 "Max Jentsch",
 "ref":
 ""},
 {
 "persName":
 "Arthur Schnitzler",
 "ref":
 ""}],
 "listPlace":
  [
 {
 "placeName":
 "Bösendorfer-Saal",
 "ref":
 ""}
 ]
}
}] 