[{
 "type":
 "schnitzler-tagebuch",
 "color":
 "#037a33",
 "filename":
 "entry__1900-02-20",
 "caption":
 "Tagebuch",
 "idno":
 "https://schnitzler-tagebuch.acdh.oeaw.ac.at/entry__1900-02-20.html",
 "head":
 "Tagebuch, 20. Februar 1900",
 "desc":
{"listPerson":
  [
{
 "persName":
 "Nadina Slaviansky",
 "ref":
 "person_20163"}]
}
}, {
 "type":
 "schnitzler-briefe",
 "color":
 "#A63437",
 "filename":
 "L02905",
 "caption":
 "Briefe mit Autorinnen und Autoren",
 "idno":
 "https://schnitzler-briefe.acdh.oeaw.ac.at/L02905.html",
 "head":
 "Paul Goldmann an Arthur Schnitzler, 20. 2. 1900",
 "desc":
{"listPerson":
  [
{
 "persName":
 "Otto Brahm",
 "ref":
 "pmb10986"},
 {
 "persName":
 "Paul Goldmann",
 "ref":
 "pmb11485"},
 {
 "persName":
 "Franz Grillparzer",
 "ref":
 "pmb11518"},
 {
 "persName":
 "Eduard Hanslick",
 "ref":
 "pmb11578"},
 {
 "persName":
 "Josef Kainz",
 "ref":
 "pmb11851"},
 {
 "persName":
 "Paul Lindau",
 "ref":
 "pmb12078"},
 {
 "persName":
 "Julius Schnitzler",
 "ref":
 "pmb12698"},
 {
 "persName":
 "Irene Triesch",
 "ref":
 "pmb12977"},
 {
 "persName":
 "D. W. Schröder",
 "ref":
 "pmb141473"},
 {
 "persName":
 "Auguste Glümer",
 "ref":
 "pmb14948"},
 {
 "persName":
 "Marie Glümer",
 "ref":
 "pmb14953"},
 {
 "persName":
 "Anna Donath",
 "ref":
 "pmb15430"},
 {
 "persName":
 "Hermann Freudenthal",
 "ref":
 "pmb16557"},
 {
 "persName":
 "Rosa Freudenthal",
 "ref":
 "pmb16560"},
 {
 "persName":
 "Helene Schnitzler",
 "ref":
 "pmb24423"},
 {
 "persName":
 "Adele Schreiber",
 "ref":
 "pmb88525"}],
 "listBibl":
  [
 {
 "title":
 "[Vortrag über Arthur Schnitzler]",
 "ref":
 "pmb141499"}
 ,  {
 "title":
 "Der Schleier der Beatrice. Schauspiel in fünf Akten",
 "ref":
 "pmb29857"}
 ],
 "listOrg":
  [
 {
 "orgName":
 "Lessing-Gesellschaft für Kunst und Wissenschaft",
 "ref":
 "pmb141511"}
 ,  {
 "orgName":
 "Neue Freie Presse",
 "ref":
 "pmb29351"}
 ,  {
 "orgName":
 "Berliner Theater",
 "ref":
 "pmb29380"}
 ,  {
 "orgName":
 "Frankfurter Zeitung",
 "ref":
 "pmb29442"}
 ,  {
 "orgName":
 "Deutsches Theater Berlin",
 "ref":
 "pmb35597"}
 ,  {
 "orgName":
 "Schauspielhaus Berlin",
 "ref":
 "pmb55522"}
 ],
 "listPlace":
  [
 {
 "placeName":
 "Burgtheater",
 "ref":
 "pmb14"}
 ,  {
 "placeName":
 "Potsdamer Platz",
 "ref":
 "pmb141471"}
 ,  {
 "placeName":
 "Frankfurt am Main",
 "ref":
 "pmb146"}
 ,  {
 "placeName":
 "Berlin",
 "ref":
 "pmb168"}
 ,  {
 "placeName":
 "Tiergarten",
 "ref":
 "pmb36914"}
 ,  {
 "placeName":
 "Hotel Saxonia",
 "ref":
 "pmb40853"}
 ,  {
 "placeName":
 "Stresemannstraße",
 "ref":
 "pmb40854"}
 ,  {
 "placeName":
 "Wien",
 "ref":
 "pmb50"}
 ,  {
 "placeName":
 "Breslau",
 "ref":
 "pmb677"}
 ]
}
}, {
 "type":
 "wienerschnitzler",
 "color":
 "#ECDA98",
 "caption":
 "Wiener Schnitzler",
 "idno":
 "https://wienerschnitzler.org/tag.html#1900-02-20",
 "head":
 "Wien",
 "desc":
{"listPlace":
  [
 {
 "placeName":
 "I., Innere Stadt",
 "ref":
 ""}
 ,  {
 "placeName":
 "IX., Alsergrund",
 "ref":
 ""}
 ]
}
}, {
 "type":
 "schnitzler-kultur",
 "color":
 "#6B4C5A",
 "filename":
 "pmb209140",
 "caption":
 "Kulturveranstaltungen",
 "idno":
 "https://schnitzler-kultur.acdh.oeaw.ac.at/pmb209140.html",
 "head":
 "Erstes Konzert der russischen National-Vokal-Kapelle
                        von Nadina Slaviansky, 20.2.1900",
 "desc":
{"listPerson":
  [
{
 "persName":
 "Nadina Slaviansky",
 "ref":
 ""},
 {
 "persName":
 "Arthur Schnitzler",
 "ref":
 ""}],
 "listPlace":
  [
 {
 "placeName":
 "Musikverein",
 "ref":
 ""}
 ]
}
}] 