[{
 "type":
 "schnitzler-tagebuch",
 "color":
 "#037a33",
 "filename":
 "entry__1901-08-01",
 "caption":
 "Tagebuch",
 "idno":
 "https://schnitzler-tagebuch.acdh.oeaw.ac.at/entry__1901-08-01.html",
 "head":
 "Tagebuch, 1. August 1901",
 "desc":
{"listPlace":
  [
 {
 "placeName":
 "Vahrn",
 "ref":
 "pmb946"}
 ]
}
}, {
 "type":
 "schnitzler-briefe",
 "color":
 "#A63437",
 "filename":
 "L01156",
 "caption":
 "Briefe mit Autorinnen und Autoren",
 "idno":
 "https://schnitzler-briefe.acdh.oeaw.ac.at/L01156.html",
 "head":
 "Arthur Schnitzler an Richard Beer-Hofmann, 1. 8. 1901",
 "desc":
{"listPerson":
  [
{
 "persName":
 "Richard Beer-Hofmann",
 "ref":
 "pmb10863"},
 {
 "persName":
 "Paul Goldmann",
 "ref":
 "pmb11485"}],
 "listPlace":
  [
 {
 "placeName":
 "Vahrn",
 "ref":
 "pmb946"}
 ,  {
 "placeName":
 "Pörtschach",
 "ref":
 "pmb44278"}
 ,  {
 "placeName":
 "Villa Arnstein",
 "ref":
 "pmb1110"}
 ,  {
 "placeName":
 "Klobenstein",
 "ref":
 "pmb50822"}
 ]
}
}, {
 "type":
 "schnitzler-briefe",
 "color":
 "#A63437",
 "filename":
 "L03076",
 "caption":
 "Briefe mit Autorinnen und Autoren",
 "idno":
 "https://schnitzler-briefe.acdh.oeaw.ac.at/L03076.html",
 "head":
 "Paul Goldmann an Arthur Schnitzler, 1. 8. [1901]",
 "desc":
{"listPerson":
  [
{
 "persName":
 "Paul Goldmann",
 "ref":
 "pmb11485"},
 {
 "persName":
 "Olga Schnitzler",
 "ref":
 "pmb2173"},
 {
 "persName":
 "Elisabeth Steinrück",
 "ref":
 "pmb2315"}],
 "listPlace":
  [
 {
 "placeName":
 "Pörtschach",
 "ref":
 "pmb44278"}
 ,  {
 "placeName":
 "Vahrn",
 "ref":
 "pmb946"}
 ,  {
 "placeName":
 "Dolomiten",
 "ref":
 "pmb58636"}
 ,  {
 "placeName":
 "Valle d’Ampezzo",
 "ref":
 "pmb34207"}
 ,  {
 "placeName":
 "Wien",
 "ref":
 "pmb50"}
 ,  {
 "placeName":
 "Lago di Garda",
 "ref":
 "pmb39975"}
 ]
}
}, {
 "type":
 "pmb",
 "color":
 "#9B5F98",
 "filename":
 "entity/946/",
 "caption":
 "PMB",
 "idno":
 "https://pmb.acdh.oeaw.ac.at/entity/946/",
 "text":
 "Vahrn"
}] 