[{
 "type":
 "schnitzler-tagebuch",
 "color":
 "#037a33",
 "filename":
 "entry__1901-11-09",
 "caption":
 "Tagebuch",
 "idno":
 "https://schnitzler-tagebuch.acdh.oeaw.ac.at/entry__1901-11-09.html",
 "head":
 "Tagebuch, 9. November 1901",
 "desc":
{"listPerson":
  [
{
 "persName":
 "Otto Brahm",
 "ref":
 "person_13913"},
 {
 "persName":
 "Melanie Kurt",
 "ref":
 "person_17214"},
 {
 "persName":
 "Olga Schnitzler",
 "ref":
 "person_19832"}]
}
}, {
 "type":
 "schnitzler-briefe",
 "color":
 "#A63437",
 "filename":
 "L01187",
 "caption":
 "Briefe mit Autorinnen und Autoren",
 "idno":
 "https://schnitzler-briefe.acdh.oeaw.ac.at/L01187.html",
 "head":
 "Hugo von Hofmannsthal an Arthur Schnitzler, 9. 11. 1901",
 "desc":
{"listPerson":
  [
{
 "persName":
 "Hugo von Hofmannsthal",
 "ref":
 "pmb11740"},
 {
 "persName":
 "Otto Brahm",
 "ref":
 "pmb10986"}],
 "listPlace":
  [
 {
 "placeName":
 "III., Landstraße",
 "ref":
 "pmb53"}
 ,  {
 "placeName":
 "Wien",
 "ref":
 "pmb50"}
 ,  {
 "placeName":
 "Frankgasse",
 "ref":
 "pmb397"}
 ]
}
}, {
 "type":
 "schnitzler-briefe",
 "color":
 "#A63437",
 "filename":
 "L03090",
 "caption":
 "Briefe mit Autorinnen und Autoren",
 "idno":
 "https://schnitzler-briefe.acdh.oeaw.ac.at/L03090.html",
 "head":
 "Paul Goldmann an Arthur Schnitzler, 9. 11. [1901]",
 "desc":
{"listPerson":
  [
{
 "persName":
 "Paul Goldmann",
 "ref":
 "pmb11485"},
 {
 "persName":
 "Irene Triesch",
 "ref":
 "pmb12977"},
 {
 "persName":
 "Fritz Mauthner",
 "ref":
 "pmb3386"},
 {
 "persName":
 "Olga Schnitzler",
 "ref":
 "pmb2173"},
 {
 "persName":
 "Elisabeth Steinrück",
 "ref":
 "pmb2315"},
 {
 "persName":
 "Gerhart Hauptmann",
 "ref":
 "pmb11617"},
 {
 "persName":
 "Leo Ebermann",
 "ref":
 "pmb2157"},
 {
 "persName":
 "Sébastien Roch Nicolas Chamfort",
 "ref":
 "pmb39417"},
 {
 "persName":
 "Eduard Grisebach",
 "ref":
 "pmb113623"},
 {
 "persName":
 "Arthur Schopenhauer",
 "ref":
 "pmb5787"}],
 "listBibl":
  [
 {
 "title":
 "Lebendige Stunden. Vier Einakter",
 "ref":
 "pmb29863"}
 ,  {
 "title":
 "Hebbels »Maria Magdalena«. (Deutsches Theater.)",
 "ref":
 "pmb144557"}
 ,  {
 "title":
 "Berliner Tageblatt",
 "ref":
 "pmb41531"}
 ,  {
 "title":
 "Einsame Menschen. Drama",
 "ref":
 "pmb29879"}
 ,  {
 "title":
 "Berliner Brief. [»Schluck und Jau« von Gerhart Hauptmann am Deutschen Theater]",
 "ref":
 "pmb145492"}
 ,  {
 "title":
 "»Michael Kramer.«",
 "ref":
 "pmb142613"}
 ,  {
 "title":
 "Neue Freie Presse",
 "ref":
 "pmb36374"}
 ,  {
 "title":
 "Berliner Theater. »Einsame Menschen« im Deutschen Theater",
 "ref":
 "pmb29861"}
 ,  {
 "title":
 "Œuvres choisies de N. Chamfort, publiées avec préface, notes et tables",
 "ref":
 "pmb144258"}
 ,  {
 "title":
 "Schopenhauer’s Gespräche und Selbstgespräche: Nach der Handschrift eis heauton",
 "ref":
 "pmb144550"}
 ],
 "listOrg":
  [
 {
 "orgName":
 "Ernst Hofmann &amp; Co.",
 "ref":
 "pmb144553"}
 ],
 "listPlace":
  [
 {
 "placeName":
 "Berlin",
 "ref":
 "pmb168"}
 ,  {
 "placeName":
 "Payerbach",
 "ref":
 "pmb948"}
 ,  {
 "placeName":
 "Dessauer Straße",
 "ref":
 "pmb40583"}
 ,  {
 "placeName":
 "Hamburg",
 "ref":
 "pmb506"}
 ,  {
 "placeName":
 "München",
 "ref":
 "pmb45258"}
 ,  {
 "placeName":
 "Wien",
 "ref":
 "pmb50"}
 ]
}
}, {
 "type":
 "URL",
 "subtype":
 "wienerschnitzler",
 "head":
 "Wien",
 "desc":
{"listPlace":
  [
 {
 "placeName":
 "I., Innere Stadt",
 "ref":
 ""}
 ,  {
 "placeName":
 "IX., Alsergrund",
 "ref":
 ""}
 ]
}
}, {
 "type":
 "schnitzler-events",
 "color":
 "#9BC53D",
 "filename":
 "entity/209211/",
 "caption":
 "Ereignisse in der PMB",
 "idno":
 "https://pmb.acdh.oeaw.ac.at/entity/209211/",
 "head":
 "Konzert im Bösendorfer-Saal, 9.11.1901",
 "desc":
{"listPerson":
  [
{
 "persName":
 "Melanie Kurt",
 "ref":
 ""},
 {
 "persName":
 "Irma von Halácsy",
 "ref":
 ""},
 {
 "persName":
 "Arthur Schnitzler",
 "ref":
 ""}],
 "listPlace":
  [
 {
 "placeName":
 "Bösendorfer-Saal",
 "ref":
 ""}
 ]
}
}] 