[{
 "type":
 "schnitzler-tagebuch",
 "color":
 "#037a33",
 "filename":
 "entry__1901-04-26",
 "caption":
 "Tagebuch",
 "idno":
 "https://schnitzler-tagebuch.acdh.oeaw.ac.at/entry__1901-04-26.html",
 "head":
 "Tagebuch, 26. April 1901",
 "desc":
{"listPerson":
  [
{
 "persName":
 "Marianne Benedict",
 "ref":
 "person_13581"},
 {
 "persName":
 "Luise Zehngraf",
 "ref":
 "person_21521"},
 {
 "persName":
 "Hermine von Schaffgotsch",
 "ref":
 "person_19611"},
 {
 "persName":
 "Olga Schnitzler",
 "ref":
 "person_19832"}],
 "listBibl":
  [
 {
 "title":
 "Jugend",
 "ref":
 "pmb77411"}
 ]
}
}, {
 "type":
 "schnitzler-briefe",
 "color":
 "#A63437",
 "filename":
 "L03064",
 "caption":
 "Briefe mit Autorinnen und Autoren",
 "idno":
 "https://schnitzler-briefe.acdh.oeaw.ac.at/L03064.html",
 "head":
 "Paul Goldmann an Arthur Schnitzler, 26. 4. [1901]",
 "desc":
{"listPerson":
  [
{
 "persName":
 "Hermann Bahr",
 "ref":
 "pmb10815"},
 {
 "persName":
 "Georg Brandes",
 "ref":
 "pmb10992"},
 {
 "persName":
 "Paul Goldmann",
 "ref":
 "pmb11485"},
 {
 "persName":
 "Olga Schnitzler",
 "ref":
 "pmb2173"},
 {
 "persName":
 "Alexander N. Ostrovskij",
 "ref":
 "pmb22238"},
 {
 "persName":
 "Elisabeth Steinrück",
 "ref":
 "pmb2315"}],
 "listBibl":
  [
 {
 "title":
 "Gewitter. Drama in fünf Akten",
 "ref":
 "pmb144332"}
 ,  {
 "title":
 "Skikkelser og Tanker. Arthur Schnitzler",
 "ref":
 "pmb144492"}
 ,  {
 "title":
 "Der Schleier der Beatrice. Schauspiel in fünf Akten",
 "ref":
 "pmb29857"}
 ,  {
 "title":
 "Frau Bertha Garlan. Roman",
 "ref":
 "pmb30486"}
 ,  {
 "title":
 "Politiken",
 "ref":
 "pmb36357"}
 ],
 "listOrg":
  [
 {
 "orgName":
 "S. Fischer Verlag",
 "ref":
 "pmb29639"}
 ],
 "listPlace":
  [
 {
 "placeName":
 "Grünentorgasse",
 "ref":
 "pmb144140"}
 ,  {
 "placeName":
 "Berlin",
 "ref":
 "pmb168"}
 ,  {
 "placeName":
 "Bozen",
 "ref":
 "pmb40260"}
 ,  {
 "placeName":
 "Italien",
 "ref":
 "pmb40306"}
 ,  {
 "placeName":
 "Dessauer Straße",
 "ref":
 "pmb40583"}
 ,  {
 "placeName":
 "Welsberg-Taisten",
 "ref":
 "pmb428"}
 ,  {
 "placeName":
 "Wörthersee",
 "ref":
 "pmb430"}
 ,  {
 "placeName":
 "Rom",
 "ref":
 "pmb445"}
 ,  {
 "placeName":
 "Wien",
 "ref":
 "pmb50"}
 ,  {
 "placeName":
 "Südtirol",
 "ref":
 "pmb969"}
 ]
}
}, {
 "type":
 "wienerschnitzler",
 "color":
 "#ECDA98",
 "caption":
 "Wiener Schnitzler",
 "idno":
 "https://wienerschnitzler.org/tag.html#1901-04-26",
 "head":
 "Wien",
 "desc":
{"listPlace":
  [
 {
 "placeName":
 "I., Innere Stadt",
 "ref":
 ""}
 ,  {
 "placeName":
 "IX., Alsergrund",
 "ref":
 ""}
 ]
}
}] 