[{
 "type":
 "schnitzler-tagebuch",
 "color":
 "#037a33",
 "filename":
 "entry__1901-02-20",
 "caption":
 "Tagebuch",
 "idno":
 "https://schnitzler-tagebuch.acdh.oeaw.ac.at/entry__1901-02-20.html",
 "head":
 "Tagebuch, 20. Februar 1901",
 "desc":
{"listPerson":
  [
{
 "persName":
 "Luise Zehngraf",
 "ref":
 "person_21521"},
 {
 "persName":
 "Hermine Klara Hanel",
 "ref":
 "person_15900"}]
}
}, {
 "type":
 "schnitzler-briefe",
 "color":
 "#A63437",
 "filename":
 "L01098",
 "caption":
 "Briefe mit Autorinnen und Autoren",
 "idno":
 "https://schnitzler-briefe.acdh.oeaw.ac.at/L01098.html",
 "head":
 "Hermann Bahr an Arthur Schnitzler, 20. 2. 1901",
 "desc":
{"listPerson":
  [
{
 "persName":
 "Hermann Bahr",
 "ref":
 "pmb10815"},
 {
 "persName":
 "Arthur Schnitzler",
 "ref":
 "pmb2121"},
 {
 "persName":
 "Hermann Bahr",
 "ref":
 "pmb10815"},
 {
 "persName":
 "Karl Kraus",
 "ref":
 "pmb11988"},
 {
 "persName":
 "Emerich von Bukovics",
 "ref":
 "pmb2161"}],
 "listPlace":
  [
 {
 "placeName":
 "Wien",
 "ref":
 "pmb50"}
 ,  {
 "placeName":
 "Steyrerhof",
 "ref":
 "pmb683"}
 ,  {
 "placeName":
 "Ober Sankt Veit",
 "ref":
 "pmb165"}
 ],
 "listOrg":
  [
 {
 "orgName":
 "Neues Wiener Tagblatt",
 "ref":
 "pmb29414"}
 ]
}
}, {
 "type":
 "wienerschnitzler",
 "color":
 "#6F5106",
 "caption":
 "Wiener Schnitzler",
 "idno":
 "https://wienerschnitzler.org/tag.html#1901-02-20",
 "head":
 "Wien",
 "desc":
{"listPlace":
  [
 {
 "placeName":
 "I., Innere Stadt",
 "ref":
 ""}
 ,  {
 "placeName":
 "IX., Alsergrund",
 "ref":
 ""}
 ]
}
}, {
 "type":
 "URL",
 "subtype":
 "schnitzler-kultur",
 "filename":
 "pmb231305",
 "idno":
 "https://schnitzler-kultur.acdh.oeaw.ac.at/pmb231305.html",
 "head":
 "Symphonisches Konzert, 20.2.1901",
 "desc":
{"listOrg":
  [
 {
 "orgName":
 "Wiener Konzertverein",
 "ref":
 ""}
 ],
 "listPerson":
  [
{
 "persName":
 "Arthur Schnitzler",
 "ref":
 ""},
 {
 "persName":
 "Ferdinand Löwe",
 "ref":
 ""}],
 "listPlace":
  [
 {
 "placeName":
 "Musikverein",
 "ref":
 ""}
 ]
}
}, {
 "type":
 "schnitzler-bahr",
 "color":
 "#639FF9",
 "filename":
 "L041235",
 "caption":
 "Schnitzler/Bahr",
 "idno":
 "https://schnitzler-bahr.acdh.oeaw.ac.at/L041235.html",
 "head":
 "Bahr an Schnitzler, 20. 2. 1901",
 "desc":
{"listPerson":
  [
{
 "persName":
 "Hermann Bahr",
 "ref":
 "pmb10815"},
 {
 "persName":
 "Karl Kraus",
 "ref":
 "pmb11988"},
 {
 "persName":
 "Emerich von Bukovics",
 "ref":
 "pmb2161"}],
 "listPlace":
  [
 {
 "placeName":
 "Wien",
 "ref":
 "pmb50"}
 ,  {
 "placeName":
 "Steyrerhof",
 "ref":
 "pmb683"}
 ,  {
 "placeName":
 "Rotenturmstraße",
 "ref":
 "pmb709"}
 ,  {
 "placeName":
 "Ober Sankt Veit",
 "ref":
 "pmb165"}
 ],
 "listOrg":
  [
 {
 "orgName":
 "Neues Wiener Tagblatt",
 "ref":
 "pmb29414"}
 ]
}
}] 