[{
 "type":
 "schnitzler-tagebuch",
 "color":
 "#037a33",
 "filename":
 "entry__1901-04-03",
 "caption":
 "Tagebuch",
 "idno":
 "https://schnitzler-tagebuch.acdh.oeaw.ac.at/entry__1901-04-03.html",
 "head":
 "Tagebuch, 3. April 1901",
 "desc":
{"listPerson":
  [
{
 "persName":
 "Alexander Jaray",
 "ref":
 "person_16513"},
 {
 "persName":
 "Raffaello Sanzio da Urbino",
 "ref":
 "person_19031"},
 {
 "persName":
 "Jakob Wassermann",
 "ref":
 "person_21107"}],
 "listPlace":
  [
 {
 "placeName":
 "Rom",
 "ref":
 "pmb445"}
 ]
}
}, {
 "type":
 "schnitzler-briefe",
 "color":
 "#A63437",
 "filename":
 "L01105",
 "caption":
 "Briefe mit Autorinnen und Autoren",
 "idno":
 "https://schnitzler-briefe.acdh.oeaw.ac.at/L01105.html",
 "head":
 "Arthur Schnitzler an Richard Beer-Hofmann, 3. 4. 1901",
 "desc":
{"listPerson":
  [
{
 "persName":
 "Arthur Schnitzler",
 "ref":
 "pmb2121"},
 {
 "persName":
 "Richard Beer-Hofmann",
 "ref":
 "pmb10863"},
 {
 "persName":
 "Richard Beer-Hofmann",
 "ref":
 "pmb10863"}],
 "listPlace":
  [
 {
 "placeName":
 "Roma Termini",
 "ref":
 "pmb148287"}
 ,  {
 "placeName":
 "Florenz",
 "ref":
 "pmb263"}
 ,  {
 "placeName":
 "Wollzeile",
 "ref":
 "pmb338"}
 ,  {
 "placeName":
 "Österreich",
 "ref":
 "pmb41240"}
 ,  {
 "placeName":
 "Rom",
 "ref":
 "pmb445"}
 ,  {
 "placeName":
 "Wien",
 "ref":
 "pmb50"}
 ,  {
 "placeName":
 "Cestius-Pyramide",
 "ref":
 "pmb50768"}
 ]
}
}, {
 "type":
 "schnitzler-briefe",
 "color":
 "#A63437",
 "filename":
 "L03525",
 "caption":
 "Briefe mit Autorinnen und Autoren",
 "idno":
 "https://schnitzler-briefe.acdh.oeaw.ac.at/L03525.html",
 "head":
 "Paul Goldmann an Olga Gussmann, 3. 4. [1901]",
 "desc":
{"listPerson":
  [
{
 "persName":
 "Paul Goldmann",
 "ref":
 "pmb11485"},
 {
 "persName":
 "Olga Gussmann",
 "ref":
 "pmb2173"},
 {
 "persName":
 "Paul Goldmann",
 "ref":
 "pmb11485"},
 {
 "persName":
 "Olga Schnitzler",
 "ref":
 "pmb2173"},
 {
 "persName":
 "Bjørnstjerne Bjørnson",
 "ref":
 "pmb2400"},
 {
 "persName":
 "Elisabeth Steinrück",
 "ref":
 "pmb2315"},
 {
 "persName":
 "Ernst von Wolzogen",
 "ref":
 "pmb13169"},
 {
 "persName":
 "Marie Glümer",
 "ref":
 "pmb14953"}],
 "listBibl":
  [
 {
 "title":
 "Berliner Theater. [Über unsere Kraft, zweiter Teil von Bjørnstjerne Bjørnson]",
 "ref":
 "pmb182224"}
 ,  {
 "title":
 "Neue Freie Presse",
 "ref":
 "pmb36374"}
 ,  {
 "title":
 "Über unsere Kraft. Zweiter Teil",
 "ref":
 "pmb29883"}
 ],
 "listPlace":
  [
 {
 "placeName":
 "Berlin",
 "ref":
 "pmb168"}
 ,  {
 "placeName":
 "Wien",
 "ref":
 "pmb50"}
 ,  {
 "placeName":
 "Dessauer Straße",
 "ref":
 "pmb40583"}
 ,  {
 "placeName":
 "?? [Sanatorium, Aufenthaltsort von Marie Glümer 1901]",
 "ref":
 "pmb144036"}
 ],
 "listOrg":
  [
 {
 "orgName":
 "Überbrettl",
 "ref":
 "pmb144041"}
 ]
}
}, {
 "type":
 "wienerschnitzler",
 "color":
 "#6F5106",
 "caption":
 "Wiener Schnitzler",
 "idno":
 "https://wienerschnitzler.org/tag.html#1901-04-03",
 "head":
 "Rom",
 "desc":
{"listPlace":
  [
 {
 "placeName":
 "Musei Capitolini",
 "ref":
 ""}
 ,  {
 "placeName":
 "Palazzo dei Conservatori",
 "ref":
 ""}
 ,  {
 "placeName":
 "Villa Farnesina",
 "ref":
 ""}
 ,  {
 "placeName":
 "Sant’Onofrio",
 "ref":
 ""}
 ,  {
 "placeName":
 "Villa Borghese Pinciana",
 "ref":
 ""}
 ,  {
 "placeName":
 "Porta pinciana 41",
 "ref":
 ""}
 ,  {
 "placeName":
 "Kolosseum [Rom]",
 "ref":
 ""}
 ]
}
}, {
 "type":
 "schnitzler-kultur",
 "color":
 "#6B4C5A",
 "filename":
 "pmb297498",
 "caption":
 "Kulturveranstaltungen",
 "idno":
 "https://schnitzler-kultur.acdh.oeaw.ac.at/pmb297498.html",
 "head":
 "Besuch der Villa Borghese Pinciana, 3.4.1901",
 "desc":
{"listPerson":
  [
{
 "persName":
 "Arthur Schnitzler",
 "ref":
 ""}],
 "listPlace":
  [
 {
 "placeName":
 "Villa Borghese Pinciana",
 "ref":
 ""}
 ]
}
}, {
 "type":
 "schnitzler-kultur",
 "color":
 "#6B4C5A",
 "filename":
 "pmb297495",
 "caption":
 "Kulturveranstaltungen",
 "idno":
 "https://schnitzler-kultur.acdh.oeaw.ac.at/pmb297495.html",
 "head":
 "Besuch des Palazzo dei Conservatori, 3.4.1901",
 "desc":
{"listPerson":
  [
{
 "persName":
 "Arthur Schnitzler",
 "ref":
 ""}],
 "listPlace":
  [
 {
 "placeName":
 "Palazzo dei Conservatori",
 "ref":
 ""}
 ]
}
}] 