[{
 "type":
 "schnitzler-tagebuch",
 "color":
 "#037a33",
 "filename":
 "entry__1901-08-10",
 "caption":
 "Tagebuch",
 "idno":
 "https://schnitzler-tagebuch.acdh.oeaw.ac.at/entry__1901-08-10.html",
 "head":
 "Tagebuch, 10. August 1901",
 "desc":
{"listBibl":
  [
 {
 "title":
 "Fink und Fliederbusch. Komödie in drei Akten",
 "ref":
 "pmb30881"}
 ,  {
 "title":
 "Der Weg ins Freie. Roman",
 "ref":
 "pmb29923"}
 ]
}
}, {
 "type":
 "schnitzler-briefe",
 "color":
 "#A63437",
 "filename":
 "L01158",
 "caption":
 "Briefe mit Autorinnen und Autoren",
 "idno":
 "https://schnitzler-briefe.acdh.oeaw.ac.at/L01158.html",
 "head":
 "Arthur Schnitzler an Richard Beer-Hofmann, 10. 8. 1901",
 "desc":
{"listPerson":
  [
{
 "persName":
 "Arthur Schnitzler",
 "ref":
 "pmb2121"},
 {
 "persName":
 "Richard Beer-Hofmann",
 "ref":
 "pmb10863"},
 {
 "persName":
 "Paula Beer-Hofmann",
 "ref":
 "pmb10860"},
 {
 "persName":
 "Richard Beer-Hofmann",
 "ref":
 "pmb10863"},
 {
 "persName":
 "Gabriel Beer-Hofmann",
 "ref":
 "pmb13923"},
 {
 "persName":
 "Mirjam Beer-Hofmann",
 "ref":
 "pmb2668"}],
 "listPlace":
  [
 {
 "placeName":
 "Villa Arnstein",
 "ref":
 "pmb1110"}
 ,  {
 "placeName":
 "Bozen",
 "ref":
 "pmb40260"}
 ,  {
 "placeName":
 "Welsberg-Taisten",
 "ref":
 "pmb428"}
 ,  {
 "placeName":
 "Wörthersee",
 "ref":
 "pmb430"}
 ,  {
 "placeName":
 "Pörtschach am Wörthersee",
 "ref":
 "pmb44278"}
 ,  {
 "placeName":
 "Wien",
 "ref":
 "pmb50"}
 ,  {
 "placeName":
 "Wildbad Waldbrunn",
 "ref":
 "pmb723"}
 ,  {
 "placeName":
 "Pustertal",
 "ref":
 "pmb724"}
 ,  {
 "placeName":
 "Vahrn",
 "ref":
 "pmb946"}
 ,  {
 "placeName":
 "Trient",
 "ref":
 "pmb954"}
 ]
}
}, {
 "type":
 "schnitzler-briefe",
 "color":
 "#A63437",
 "filename":
 "L01159",
 "caption":
 "Briefe mit Autorinnen und Autoren",
 "idno":
 "https://schnitzler-briefe.acdh.oeaw.ac.at/L01159.html",
 "head":
 "Arthur Schnitzler an Hugo von Hofmannsthal, 10. 8. 1901",
 "desc":
{"listPerson":
  [
{
 "persName":
 "Arthur Schnitzler",
 "ref":
 "pmb2121"},
 {
 "persName":
 "Hugo von Hofmannsthal",
 "ref":
 "pmb11740"},
 {
 "persName":
 "Leopold von Andrian-Werburg",
 "ref":
 "pmb10765"},
 {
 "persName":
 "Hermann Bahr",
 "ref":
 "pmb10815"},
 {
 "persName":
 "Paul Goldmann",
 "ref":
 "pmb11485"},
 {
 "persName":
 "Hugo von Hofmannsthal",
 "ref":
 "pmb11740"},
 {
 "persName":
 "Robert Michel",
 "ref":
 "pmb12254"},
 {
 "persName":
 "Olga Schnitzler",
 "ref":
 "pmb2173"},
 {
 "persName":
 "Gertrude von Hofmannsthal",
 "ref":
 "pmb2292"}],
 "listBibl":
  [
 {
 "title":
 "Die Frau mit dem Dolche",
 "ref":
 "pmb29865"}
 ,  {
 "title":
 "Literatur",
 "ref":
 "pmb29869"}
 ,  {
 "title":
 "Lebendige Stunden",
 "ref":
 "pmb29957"}
 ,  {
 "title":
 "Der einsame Weg. Schauspiel in fünf Akten",
 "ref":
 "pmb29985"}
 ],
 "listPlace":
  [
 {
 "placeName":
 "Bozen",
 "ref":
 "pmb40260"}
 ,  {
 "placeName":
 "Welsberg-Taisten",
 "ref":
 "pmb428"}
 ,  {
 "placeName":
 "Wien",
 "ref":
 "pmb50"}
 ,  {
 "placeName":
 "Genfer See",
 "ref":
 "pmb512"}
 ,  {
 "placeName":
 "Schloss Weiherburg",
 "ref":
 "pmb657"}
 ,  {
 "placeName":
 "Wildbad Waldbrunn",
 "ref":
 "pmb723"}
 ,  {
 "placeName":
 "Innsbruck",
 "ref":
 "pmb867"}
 ,  {
 "placeName":
 "Vahrn",
 "ref":
 "pmb946"}
 ,  {
 "placeName":
 "Trient",
 "ref":
 "pmb954"}
 ]
}
}, {
 "type":
 "schnitzler-briefe",
 "color":
 "#A63437",
 "filename":
 "L02969",
 "caption":
 "Briefe mit Autorinnen und Autoren",
 "idno":
 "https://schnitzler-briefe.acdh.oeaw.ac.at/L02969.html",
 "head":
 "Arthur Schnitzler an Felix Salten, 10. 8. 1901",
 "desc":
{"listPerson":
  [
{
 "persName":
 "Arthur Schnitzler",
 "ref":
 "pmb2121"},
 {
 "persName":
 "Felix Salten",
 "ref":
 "pmb2167"},
 {
 "persName":
 "Felix Salten",
 "ref":
 "pmb2167"},
 {
 "persName":
 "Paul Goldmann",
 "ref":
 "pmb11485"},
 {
 "persName":
 "Anton Bettelheim",
 "ref":
 "pmb10912"},
 {
 "persName":
 "Eduard Devrient",
 "ref":
 "pmb5150"}],
 "listBibl":
  [
 {
 "title":
 "Die Gedenktafel der Prinzessin Anna",
 "ref":
 "pmb76511"}
 ,  {
 "title":
 "Die Insel. Monatsschrift mit Buchschmuck und Illustrationen",
 "ref":
 "pmb40598"}
 ,  {
 "title":
 "Allgemeine Zeitung",
 "ref":
 "pmb39562"}
 ,  {
 "title":
 "Zum Säkulartag Eduard Devrients",
 "ref":
 "pmb143223"}
 ,  {
 "title":
 "Der einsame Weg. Schauspiel in fünf Akten",
 "ref":
 "pmb29985"}
 ,  {
 "title":
 "Lebendige Stunden",
 "ref":
 "pmb29957"}
 ,  {
 "title":
 "Die Frau mit dem Dolche",
 "ref":
 "pmb29865"}
 ,  {
 "title":
 "Literatur",
 "ref":
 "pmb29869"}
 ],
 "listPlace":
  [
 {
 "placeName":
 "Vahrn",
 "ref":
 "pmb946"}
 ,  {
 "placeName":
 "Wien",
 "ref":
 "pmb50"}
 ,  {
 "placeName":
 "Bozen",
 "ref":
 "pmb40260"}
 ,  {
 "placeName":
 "Trient",
 "ref":
 "pmb954"}
 ,  {
 "placeName":
 "Lago di Garda",
 "ref":
 "pmb39975"}
 ,  {
 "placeName":
 "Pustertal",
 "ref":
 "pmb724"}
 ,  {
 "placeName":
 "Welsberg-Taisten",
 "ref":
 "pmb428"}
 ,  {
 "placeName":
 "Wildbad Waldbrunn",
 "ref":
 "pmb723"}
 ,  {
 "placeName":
 "Pörtschach am Wörthersee",
 "ref":
 "pmb44278"}
 ,  {
 "placeName":
 "Verona",
 "ref":
 "pmb44153"}
 ,  {
 "placeName":
 "Venedig",
 "ref":
 "pmb462"}
 ,  {
 "placeName":
 "Berlin",
 "ref":
 "pmb168"}
 ],
 "listOrg":
  [
 {
 "orgName":
 "Jung-Wiener Theater zum Lieben Augustin",
 "ref":
 "pmb143199"}
 ,  {
 "orgName":
 "Überbrettl",
 "ref":
 "pmb144041"}
 ]
}
}, {
 "type":
 "wienerschnitzler",
 "color":
 "#6F5106",
 "caption":
 "Wiener Schnitzler",
 "idno":
 "https://wienerschnitzler.org/tag.html#1901-08-10",
 "head":
 "Vahrn"
}, {
 "type":
 "schnitzler-bahr",
 "color":
 "#639FF9",
 "filename":
 "L041441",
 "caption":
 "Schnitzler/Bahr",
 "idno":
 "https://schnitzler-bahr.acdh.oeaw.ac.at/L041441.html",
 "head":
 "Schnitzler an Hofmannsthal, 10. 8. 1901",
 "desc":
{"listPerson":
  [
{
 "persName":
 "Hugo von Hofmannsthal",
 "ref":
 "pmb11740"},
 {
 "persName":
 "Paul Goldmann",
 "ref":
 "pmb11485"},
 {
 "persName":
 "Gertrude von Hofmannsthal",
 "ref":
 "pmb2292"},
 {
 "persName":
 "Olga Schnitzler",
 "ref":
 "pmb2173"},
 {
 "persName":
 "Leopold von Andrian-Werburg",
 "ref":
 "pmb10765"},
 {
 "persName":
 "Robert Michel",
 "ref":
 "pmb12254"},
 {
 "persName":
 "Hermann Bahr",
 "ref":
 "pmb10815"}],
 "listBibl":
  [
 {
 "title":
 "Lebendige Stunden",
 "ref":
 "pmb29957"}
 ,  {
 "title":
 "Die Frau mit dem Dolche",
 "ref":
 "pmb29865"}
 ,  {
 "title":
 "Literatur",
 "ref":
 "pmb29869"}
 ,  {
 "title":
 "Der einsame Weg. Schauspiel in fünf Akten",
 "ref":
 "pmb29985"}
 ],
 "listPlace":
  [
 {
 "placeName":
 "Vahrn",
 "ref":
 "pmb946"}
 ,  {
 "placeName":
 "Bozen",
 "ref":
 "pmb40260"}
 ,  {
 "placeName":
 "Trient",
 "ref":
 "pmb954"}
 ,  {
 "placeName":
 "Welsberg-Taisten",
 "ref":
 "pmb428"}
 ,  {
 "placeName":
 "Wildbad Waldbrunn",
 "ref":
 "pmb723"}
 ,  {
 "placeName":
 "Wien",
 "ref":
 "pmb50"}
 ,  {
 "placeName":
 "Innsbruck",
 "ref":
 "pmb867"}
 ,  {
 "placeName":
 "Schloss Weiherburg",
 "ref":
 "pmb657"}
 ]
}
}] 