[{
 "type":
 "schnitzler-tagebuch",
 "color":
 "#037a33",
 "filename":
 "entry__1901-07-11",
 "caption":
 "Tagebuch",
 "idno":
 "https://schnitzler-tagebuch.acdh.oeaw.ac.at/entry__1901-07-11.html",
 "head":
 "Tagebuch, 11. Juli 1901",
 "desc":
{"listPlace":
  [
 {
 "placeName":
 "Saint Anton",
 "ref":
 "pmb91800"}
 ]
}
}, {
 "type":
 "schnitzler-briefe",
 "color":
 "#A63437",
 "filename":
 "L01145",
 "caption":
 "Briefe mit Autorinnen und Autoren",
 "idno":
 "https://schnitzler-briefe.acdh.oeaw.ac.at/L01145.html",
 "head":
 "Arthur Schnitzler an Richard Beer-Hofmann, 11. 7. 1901",
 "desc":
{"listPerson":
  [
{
 "persName":
 "Richard Beer-Hofmann",
 "ref":
 "pmb10863"}],
 "listPlace":
  [
 {
 "placeName":
 "Bahnhof St. Anton am Arlberg",
 "ref":
 "pmb50813"}
 ,  {
 "placeName":
 "St. Anton am Arlberg",
 "ref":
 "pmb212"}
 ,  {
 "placeName":
 "Pörtschach",
 "ref":
 "pmb44278"}
 ,  {
 "placeName":
 "Villa Arnstein",
 "ref":
 "pmb1110"}
 ,  {
 "placeName":
 "Vahrn",
 "ref":
 "pmb946"}
 ,  {
 "placeName":
 "Hotel Kreid",
 "ref":
 "pmb50815"}
 ]
}
}, {
 "type":
 "schnitzler-briefe",
 "color":
 "#A63437",
 "filename":
 "L03315",
 "caption":
 "Briefe mit Autorinnen und Autoren",
 "idno":
 "https://schnitzler-briefe.acdh.oeaw.ac.at/L03315.html",
 "head":
 "Felix Salten an Arthur Schnitzler, 11. 7. 1901",
 "desc":
{"listPerson":
  [
{
 "persName":
 "Felix Salten",
 "ref":
 "pmb2167"},
 {
 "persName":
 "Julius Szeps",
 "ref":
 "pmb25793"},
 {
 "persName":
 "Georges Fragerolle",
 "ref":
 "pmb145796"},
 {
 "persName":
 "Henri Rivière",
 "ref":
 "pmb115853"},
 {
 "persName":
 "Hugo Felix",
 "ref":
 "pmb3167"}],
 "listBibl":
  [
 {
 "title":
 "»Lieutenant Gustl.« (Ein ehrenrätliches Urtheil.)",
 "ref":
 "pmb145803"}
 ,  {
 "title":
 "Wiener Allgemeine Zeitung",
 "ref":
 "pmb39950"}
 ,  {
 "title":
 "Frau Bertha Garlan. Roman",
 "ref":
 "pmb30486"}
 ],
 "listOrg":
  [
 {
 "orgName":
 "Wiener Allgemeine Zeitung",
 "ref":
 "pmb29670"}
 ,  {
 "orgName":
 "Le Chat Noir",
 "ref":
 "pmb117961"}
 ,  {
 "orgName":
 "Jung-Wiener Theater zum Lieben Augustin",
 "ref":
 "pmb143199"}
 ],
 "listPlace":
  [
 {
 "placeName":
 "Salzburg",
 "ref":
 "pmb30"}
 ,  {
 "placeName":
 "Innsbruck",
 "ref":
 "pmb867"}
 ,  {
 "placeName":
 "Hotel Bristol Salzburg",
 "ref":
 "pmb40384"}
 ,  {
 "placeName":
 "Österreich",
 "ref":
 "pmb41240"}
 ,  {
 "placeName":
 "St. Anton am Arlberg",
 "ref":
 "pmb212"}
 ,  {
 "placeName":
 "Darmstadt",
 "ref":
 "pmb834"}
 ,  {
 "placeName":
 "Bad Ischl",
 "ref":
 "pmb213"}
 ,  {
 "placeName":
 "Wien",
 "ref":
 "pmb50"}
 ,  {
 "placeName":
 "Arlberg",
 "ref":
 "pmb40310"}
 ,  {
 "placeName":
 "Zürich",
 "ref":
 "pmb484"}
 ]
}
}, {
 "type":
 "schnitzler-orte",
 "color":
 "#045344",
 "filename":
 "entity/212/",
 "caption":
 "Aufenthaltsorte",
 "idno":
 "https://pmb.acdh.oeaw.ac.at/entity/212/",
 "text":
 "St. Anton am Arlberg"
}, {
 "type":
 "schnitzler-orte",
 "color":
 "#045344",
 "filename":
 "entity/11128/",
 "caption":
 "Aufenthaltsorte",
 "idno":
 "https://pmb.acdh.oeaw.ac.at/entity/11128/",
 "text":
 "Feldkirch"
}] 