[{
 "type":
 "schnitzler-tagebuch",
 "color":
 "#037a33",
 "filename":
 "entry__1901-07-12",
 "caption":
 "Tagebuch",
 "idno":
 "https://schnitzler-tagebuch.acdh.oeaw.ac.at/entry__1901-07-12.html",
 "head":
 "Tagebuch, 12. Juli 1901",
 "desc":
{"listPlace":
  [
 {
 "placeName":
 "Saint Anton",
 "ref":
 "pmb91800"}
 ,  {
 "placeName":
 "Haiming",
 "ref":
 "pmb90819"}
 ,  {
 "placeName":
 "Innsbruck",
 "ref":
 "pmb867"}
 ]
}
}, {
 "type":
 "schnitzler-briefe",
 "color":
 "#A63437",
 "filename":
 "L01146",
 "caption":
 "Briefe mit Autorinnen und Autoren",
 "idno":
 "https://schnitzler-briefe.acdh.oeaw.ac.at/L01146.html",
 "head":
 "Arthur Schnitzler an Richard Beer-Hofmann, 1[2?]. 7. 1901",
 "desc":
{"listPerson":
  [
{
 "persName":
 "Richard Beer-Hofmann",
 "ref":
 "pmb10863"}],
 "listPlace":
  [
 {
 "placeName":
 "Niederösterreich",
 "ref":
 "pmb1003"}
 ,  {
 "placeName":
 "Villa Arnstein",
 "ref":
 "pmb1110"}
 ,  {
 "placeName":
 "Pörtschach am Wörthersee",
 "ref":
 "pmb44278"}
 ,  {
 "placeName":
 "Innsbruck",
 "ref":
 "pmb867"}
 ,  {
 "placeName":
 "Vahrn",
 "ref":
 "pmb946"}
 ]
}
}, {
 "type":
 "wienerschnitzler",
 "color":
 "#6F5106",
 "caption":
 "Wiener Schnitzler",
 "idno":
 "https://wienerschnitzler.org/tag.html#1901-07-12",
 "head":
 "St. Anton am Arlberg"
}, {
 "type":
 "wienerschnitzler",
 "color":
 "#6F5106",
 "caption":
 "Wiener Schnitzler",
 "idno":
 "https://wienerschnitzler.org/tag.html#1901-07-12",
 "head":
 "Innsbruck"
}, {
 "type":
 "wienerschnitzler",
 "color":
 "#6F5106",
 "caption":
 "Wiener Schnitzler",
 "idno":
 "https://wienerschnitzler.org/tag.html#1901-07-12",
 "head":
 "Haiming"
}] 