[{
 "type":
 "schnitzler-tagebuch",
 "color":
 "#037a33",
 "filename":
 "entry__1901-10-29",
 "caption":
 "Tagebuch",
 "idno":
 "https://schnitzler-tagebuch.acdh.oeaw.ac.at/entry__1901-10-29.html",
 "head":
 "Tagebuch, 29. Oktober 1901",
 "desc":
{"listPerson":
  [
{
 "persName":
 "Alfred von Berger",
 "ref":
 "person_13624"},
 {
 "persName":
 "Carl Karlweis",
 "ref":
 "person_16730"},
 {
 "persName":
 "Alexander Engel",
 "ref":
 "person_14748"},
 {
 "persName":
 "Hermann Bahr",
 "ref":
 "person_13374"}],
 "listPlace":
  [
 {
 "placeName":
 "Brühl",
 "ref":
 "pmb44413"}
 ]
}
}, {
 "type":
 "schnitzler-briefe",
 "color":
 "#A63437",
 "filename":
 "L01186",
 "caption":
 "Briefe mit Autorinnen und Autoren",
 "idno":
 "https://schnitzler-briefe.acdh.oeaw.ac.at/L01186.html",
 "head":
 "Hermann Bahr an Arthur Schnitzler, 29. 10. 1901",
 "desc":
{"listPerson":
  [
{
 "persName":
 "Hermann Bahr",
 "ref":
 "pmb10815"},
 {
 "persName":
 "Alfred von Berger",
 "ref":
 "pmb10883"},
 {
 "persName":
 "Albert Gutmann",
 "ref":
 "pmb2185"}],
 "listBibl":
  [
 {
 "title":
 "Lieutenant Gustl. Novelle",
 "ref":
 "pmb29853"}
 ],
 "listPlace":
  [
 {
 "placeName":
 "XIII., Hietzing",
 "ref":
 "pmb63"}
 ,  {
 "placeName":
 "IX., Alsergrund",
 "ref":
 "pmb59"}
 ,  {
 "placeName":
 "Wien",
 "ref":
 "pmb50"}
 ,  {
 "placeName":
 "Frankgasse 1",
 "ref":
 "pmb168934"}
 ]
}
}, {
 "type":
 "wienerschnitzler",
 "color":
 "#ECDA98",
 "caption":
 "Wiener Schnitzler",
 "idno":
 "https://wienerschnitzler.org/tag.html#1901-10-29",
 "head":
 "Wien",
 "desc":
{"listPlace":
  [
 {
 "placeName":
 "IX., Alsergrund",
 "ref":
 ""}
 ]
}
}, {
 "type":
 "wienerschnitzler",
 "color":
 "#ECDA98",
 "caption":
 "Wiener Schnitzler",
 "idno":
 "https://wienerschnitzler.org/tag.html#1901-10-29",
 "head":
 "Brühl"
}, {
 "type":
 "schnitzler-bahr",
 "color":
 "#639FF9",
 "filename":
 "L041243",
 "caption":
 "Schnitzler/Bahr",
 "idno":
 "https://schnitzler-bahr.acdh.oeaw.ac.at/L041243.html",
 "head":
 "Bahr an Schnitzler, 29. 10. 1901",
 "desc":
{"listPerson":
  [
{
 "persName":
 "Hermann Bahr",
 "ref":
 "pmb10815"},
 {
 "persName":
 "Alfred von Berger",
 "ref":
 "pmb10883"},
 {
 "persName":
 "Albert Gutmann",
 "ref":
 "pmb2185"}],
 "listBibl":
  [
 {
 "title":
 "Lieutenant Gustl. Novelle",
 "ref":
 "pmb29853"}
 ],
 "listPlace":
  [
 {
 "placeName":
 "Wien",
 "ref":
 "pmb50"}
 ,  {
 "placeName":
 "XIII., Hietzing",
 "ref":
 "pmb63"}
 ,  {
 "placeName":
 "IX., Alsergrund",
 "ref":
 "pmb59"}
 ,  {
 "placeName":
 "Frankgasse",
 "ref":
 "pmb397"}
 ]
}
}, {
 "type":
 "schnitzler-bahr",
 "color":
 "#639FF9",
 "filename":
 "D041194",
 "caption":
 "Schnitzler/Bahr",
 "idno":
 "https://schnitzler-bahr.acdh.oeaw.ac.at/D041194.html",
 "head":
 "Tagebuch von Schnitzler, 29. 10. 1901",
 "desc":
{"listPerson":
  [
{
 "persName":
 "Carl Karlweis",
 "ref":
 "pmb13082"},
 {
 "persName":
 "Hermann Bahr",
 "ref":
 "pmb10815"},
 {
 "persName":
 "Alfred von Berger",
 "ref":
 "pmb10883"},
 {
 "persName":
 "Alexander Engel",
 "ref":
 "pmb11253"}],
 "listPlace":
  [
 {
 "placeName":
 "Vorderbrühl",
 "ref":
 "pmb957"}
 ,  {
 "placeName":
 "Hinterbrühl",
 "ref":
 "pmb75"}
 ]
}
}, {
 "type":
 "schnitzler-events",
 "color":
 "#9BC53D",
 "filename":
 "entity/209207/",
 "caption":
 "Ereignisse in der PMB",
 "idno":
 "https://pmb.acdh.oeaw.ac.at/entity/209207/",
 "head":
 "Dienstag-Zyklus, erstes Symphoniekonzert, 29.10.1901",
 "desc":
{"listPerson":
  [
{
 "persName":
 "Arthur Schnitzler",
 "ref":
 ""}],
 "listPlace":
  [
 {
 "placeName":
 "Musikverein",
 "ref":
 ""}
 ]
}
}] 