[{
 "type":
 "schnitzler-orte",
 "color":
 "#045344",
 "caption":
 "Aufenthaltsorte",
 "idno":
 "https://pmb.acdh.oeaw.ac.at/entity/91800/",
 "head":
 "St. Anton am Arlberg"
}{
 "type":
 "schnitzler-briefe",
 "color":
 "#A63437",
 "caption":
 "Briefe mit Autorinnen und Autoren",
 "idno":
 "https://schnitzler-briefe.acdh.oeaw.ac.at/L01140.html",
 "head":
 "Arthur Schnitzler an Richard Beer-Hofmann, 4. 7. 1901",
 "desc":
{"listPerson":
  [
{
 "persName":
 "Richard Beer-Hofmann",
 "ref":
 "pmb10863"},
 {
 "persName":
 "Olga Schnitzler",
 "ref":
 "pmb2173"},
 {
 "persName":
 "Elisabeth Steinrück",
 "ref":
 "pmb2315"},
 {
 "persName":
 "Louise Schnitzler",
 "ref":
 "pmb12701"},
 {
 "persName":
 "Paul Goldmann",
 "ref":
 "pmb11485"},
 {
 "persName":
 "Paula Beer-Hofmann",
 "ref":
 "pmb10860"},
 {
 "persName":
 "Naëmah Beer-Hofmann",
 "ref":
 "pmb2534"},
 {
 "persName":
 "Mirjam Beer-Hofmann",
 "ref":
 "pmb2668"},
 {
 "persName":
 "Felix Salten",
 "ref":
 "pmb2167"},
 {
 "persName":
 "Hugo von Hofmannsthal",
 "ref":
 "pmb11740"},
 {
 "persName":
 "Gertrude von Hofmannsthal",
 "ref":
 "pmb2292"}],
 "listBibl":
  [
 {
 "title":
 "Der einsame Weg. Schauspiel in fünf Akten",
 "ref":
 "pmb29985"}
 ,  {
 "title":
 "Professor Bernhardi. Komödie in fünf Akten",
 "ref":
 "pmb30203"}
 ,  {
 "title":
 "Lebendige Stunden",
 "ref":
 "pmb29957"}
 ,  {
 "title":
 "Die Frau mit dem Dolche",
 "ref":
 "pmb29865"}
 ],
 "listOrg":
  [
 {
 "orgName":
 "Jung-Wiener Theater zum Lieben Augustin",
 "ref":
 "pmb143199"}
 ],
 "listPlace":
  [
 {
 "placeName":
 "St. Anton am Arlberg",
 "ref":
 "pmb212"}
 ,  {
 "placeName":
 "Pörtschach",
 "ref":
 "pmb44278"}
 ,  {
 "placeName":
 "Wörthersee",
 "ref":
 "pmb430"}
 ,  {
 "placeName":
 "Villa Arnstein",
 "ref":
 "pmb1110"}
 ,  {
 "placeName":
 "Salzburg",
 "ref":
 "pmb30"}
 ,  {
 "placeName":
 "Österreichischer Hof",
 "ref":
 "pmb230"}
 ,  {
 "placeName":
 "Innsbruck",
 "ref":
 "pmb867"}
 ,  {
 "placeName":
 "Schönberg im Stubaital",
 "ref":
 "pmb759"}
 ,  {
 "placeName":
 "Landeck",
 "ref":
 "pmb44110"}
 ,  {
 "placeName":
 "Wien",
 "ref":
 "pmb50"}
 ,  {
 "placeName":
 "Schweiz",
 "ref":
 "pmb43435"}
 ,  {
 "placeName":
 "Flims",
 "ref":
 "pmb40407"}
 ,  {
 "placeName":
 "Reichenau",
 "ref":
 "pmb41251"}
 ,  {
 "placeName":
 "Chur",
 "ref":
 "pmb2448"}
 ,  {
 "placeName":
 "Tamins",
 "ref":
 "pmb41250"}
 ,  {
 "placeName":
 "Pension Pundschu",
 "ref":
 "pmb36282"}
 ,  {
 "placeName":
 "Tiroler Hof",
 "ref":
 "pmb41088"}
 ,  {
 "placeName":
 "Hellbrunn",
 "ref":
 "pmb31"}
 ,  {
 "placeName":
 "Monatsschlössl",
 "ref":
 "pmb41090"}
 ]
}
}{
 "type":
 "schnitzler-briefe",
 "color":
 "#A63437",
 "caption":
 "Briefe mit Autorinnen und Autoren",
 "idno":
 "https://schnitzler-briefe.acdh.oeaw.ac.at/L01141.html",
 "head":
 "Arthur Schnitzler an Edith Brandes, 4. 7. 1901",
 "desc":
{"listPerson":
  [
{
 "persName":
 "Georg Brandes",
 "ref":
 "pmb10992"},
 {
 "persName":
 "Edith Philipp",
 "ref":
 "pmb4395"}],
 "listPlace":
  [
 {
 "placeName":
 "St. Anton am Arlberg",
 "ref":
 "pmb212"}
 ,  {
 "placeName":
 "Kopenhagen",
 "ref":
 "pmb36300"}
 ,  {
 "placeName":
 "Wien",
 "ref":
 "pmb50"}
 ]
}
}{
 "type":
 "schnitzler-briefe",
 "color":
 "#A63437",
 "caption":
 "Briefe mit Autorinnen und Autoren",
 "idno":
 "https://schnitzler-briefe.acdh.oeaw.ac.at/L01142.html",
 "head":
 "Arthur Schnitzler an Hugo von Hofmannsthal, [4.? 7. 1901]",
 "desc":
{"listPerson":
  [
{
 "persName":
 "Hugo von Hofmannsthal",
 "ref":
 "pmb11740"},
 {
 "persName":
 "Richard Beer-Hofmann",
 "ref":
 "pmb10863"},
 {
 "persName":
 "Olga Schnitzler",
 "ref":
 "pmb2173"},
 {
 "persName":
 "Elisabeth Steinrück",
 "ref":
 "pmb2315"},
 {
 "persName":
 "Gertrude von Hofmannsthal",
 "ref":
 "pmb2292"}],
 "listBibl":
  [
 {
 "title":
 "Lieutenant Gustl. Novelle",
 "ref":
 "pmb29853"}
 ],
 "listOrg":
  [
 {
 "orgName":
 "Burgtheater",
 "ref":
 "pmb36247"}
 ],
 "listPlace":
  [
 {
 "placeName":
 "St. Anton am Arlberg",
 "ref":
 "pmb212"}
 ,  {
 "placeName":
 "Wien",
 "ref":
 "pmb50"}
 ,  {
 "placeName":
 "Innsbruck",
 "ref":
 "pmb867"}
 ,  {
 "placeName":
 "Salzburg",
 "ref":
 "pmb30"}
 ]
}
}{
 "type":
 "schnitzler-cmif",
 "subtype":
 "#j7685005-64da-4e31-99b6-b4641aa1628c",
 "color":
 "#654321",
 "caption":
 "Gedruckte Briefwechsel",
 "head":
 "Arthur Schnitzler an Rainer Maria Rilke, 4. 7. 1901",
 "desc":
{"listPerson":
  [
{
 "persName":
 "Rilke, Rainer Maria",
 "ref":
 "https://d-nb.info/gnd/118601024"}],
 "bibl":
 "Arthur Schnitzler: Briefe 1875–1912. Hrsg. v. Therese Nickl u. Heinrich Schnitzler. Frankfurt am Main: S. Fischer 1981."
}
}{
 "type":
 "schnitzler-bahr",
 "color":
 "#F9BD63",
 "caption":
 "Schnitzler/Bahr",
 "idno":
 "https://schnitzler-bahr.acdh.oeaw.ac.at/D041415.html",
 "head":
 "Kalendereintrag von Bahr, 4. 7. 1901",
 "desc":
{"listPerson":
  [
{
 "persName":
 "Hermann Bahr",
 "ref":
 "pmb10815"},
 {
 "persName":
 "Franz Josef Brakl",
 "ref":
 "pmb3361"},
 {
 "persName":
 "Georg Stollberg",
 "ref":
 "pmb3365"},
 {
 "persName":
 "Joseph Maria Olbrich",
 "ref":
 "pmb3368"},
 {
 "persName":
 "Ermete Novelli",
 "ref":
 "pmb2189"},
 {
 "persName":
 "Hugo von Hofmannsthal",
 "ref":
 "pmb11740"},
 {
 "persName":
 "Felix Salten",
 "ref":
 "pmb2167"},
 {
 "persName":
 "Heinrich Kanner",
 "ref":
 "pmb11867"},
 {
 "persName":
 "Georg Bondi",
 "ref":
 "pmb3372"}],
 "listBibl":
  [
 {
 "title":
 "Der Franzl. Fünf Bilder aus dem Leben eines guten Mannes",
 "ref":
 "pmb29851"}
 ,  {
 "title":
 "Das schöne Mädchen. Pantomime",
 "ref":
 "pmb30488"}
 ,  {
 "title":
 "Der liebe Augustin. Pantomime",
 "ref":
 "pmb31365"}
 ,  {
 "title":
 "Der Minister",
 "ref":
 "pmb31367"}
 ,  {
 "title":
 "Kulturgeschichte der Neuzeit",
 "ref":
 "pmb31005"}
 ,  {
 "title":
 "Das neunzehnte Jahrhundert in Deutschlands Entwicklung",
 "ref":
 "pmb31007"}
 ]
}
}] 