[{
 "type":
 "schnitzler-tagebuch",
 "color":
 "#037a33",
 "filename":
 "entry__1901-03-29",
 "caption":
 "Tagebuch",
 "idno":
 "https://schnitzler-tagebuch.acdh.oeaw.ac.at/entry__1901-03-29.html",
 "head":
 "Tagebuch, 29. März 1901",
 "desc":
{"listPerson":
  [
{
 "persName":
 "Marie Reinhard",
 "ref":
 "person_19150"}],
 "listPlace":
  [
 {
 "placeName":
 "Genua",
 "ref":
 "pmb994"}
 ,  {
 "placeName":
 "Righi",
 "ref":
 "pmb91596"}
 ,  {
 "placeName":
 "Mailand",
 "ref":
 "pmb886"}
 ]
}
}, {
 "type":
 "wienerschnitzler",
 "color":
 "#ECDA98",
 "caption":
 "Wiener Schnitzler",
 "head":
 "Genua",
 "desc":
{"listPlace":
  [
 {
 "placeName":
 "Righi [Genua]",
 "ref":
 ""}
 ,  {
 "placeName":
 "Palazzo Bianco",
 "ref":
 ""}
 ,  {
 "placeName":
 "Palazzo Rosso",
 "ref":
 ""}
 ,  {
 "placeName":
 "Hafen [Genua]",
 "ref":
 ""}
 ,  {
 "placeName":
 "Cimitero monumentale di Staglieno",
 "ref":
 ""}
 ]
}
}, {
 "type":
 "schnitzler-cmif",
 "subtype":
 "#j7685005-64da-4e31-99b6-b4641aa1628c",
 "color":
 "#654321",
 "caption":
 "Gedruckte Briefwechsel",
 "head":
 "Arthur Schnitzler an Olga Schnitzler, 29. 3. 1901",
 "source":
 "Arthur Schnitzler: Briefe 1875–1912. Hrsg. v. Therese Nickl u. Heinrich Schnitzler. Frankfurt am Main: S. Fischer 1981."
}] 