[{
 "type":
 "schnitzler-tagebuch",
 "color":
 "#037a33",
 "filename":
 "entry__1901-06-12",
 "caption":
 "Tagebuch",
 "idno":
 "https://schnitzler-tagebuch.acdh.oeaw.ac.at/entry__1901-06-12.html",
 "head":
 "Tagebuch, 12. Juni 1901",
 "desc":
{"listBibl":
  [
 {
 "title":
 "Lebendige Stunden",
 "ref":
 "pmb29957"}
 ],
 "listPlace":
  [
 {
 "placeName":
 "Salzburg",
 "ref":
 "pmb30"}
 ]
}
}, {
 "type":
 "schnitzler-briefe",
 "color":
 "#A63437",
 "filename":
 "L03313",
 "caption":
 "Briefe mit Autorinnen und Autoren",
 "idno":
 "https://schnitzler-briefe.acdh.oeaw.ac.at/L03313.html",
 "head":
 "Felix Salten an Arthur Schnitzler, 12. 6. 1901",
 "desc":
{"listPerson":
  [
{
 "persName":
 "Felix Salten",
 "ref":
 "pmb2167"},
 {
 "persName":
 "Arthur Schnitzler",
 "ref":
 "pmb2121"},
 {
 "persName":
 "Felix Salten",
 "ref":
 "pmb2167"},
 {
 "persName":
 "Hermann Bahr",
 "ref":
 "pmb10815"},
 {
 "persName":
 "Marie Bardi",
 "ref":
 "pmb3791"},
 {
 "persName":
 "Arnold Barkay",
 "ref":
 "pmb28682"},
 {
 "persName":
 "Sven Scholander",
 "ref":
 "pmb12707"},
 {
 "persName":
 "Ludwig Mandl",
 "ref":
 "pmb39818"},
 {
 "persName":
 "Ottilie Salten",
 "ref":
 "pmb23918"},
 {
 "persName":
 "Hugo Felix",
 "ref":
 "pmb3167"},
 {
 "persName":
 "Emerich von Bukovics",
 "ref":
 "pmb2161"},
 {
 "persName":
 "Otto Brahm",
 "ref":
 "pmb10986"},
 {
 "persName":
 "Hugo von Hofmannsthal",
 "ref":
 "pmb11740"},
 {
 "persName":
 "Gertrude von Hofmannsthal",
 "ref":
 "pmb2292"},
 {
 "persName":
 "Olga Schnitzler",
 "ref":
 "pmb2173"},
 {
 "persName":
 "Louise Schnitzler",
 "ref":
 "pmb12701"}],
 "listBibl":
  [
 {
 "title":
 "Der einsame Weg. Schauspiel in fünf Akten",
 "ref":
 "pmb29985"}
 ,  {
 "title":
 "Zum großen Wurstel. Burleske in einem Akt",
 "ref":
 "pmb29951"}
 ,  {
 "title":
 "Der Gemeine. Schauspiel in drei Aufzügen",
 "ref":
 "pmb32426"}
 ],
 "listPlace":
  [
 {
 "placeName":
 "Wien",
 "ref":
 "pmb50"}
 ,  {
 "placeName":
 "Salzburg",
 "ref":
 "pmb30"}
 ,  {
 "placeName":
 "Theater an der Wien",
 "ref":
 "pmb37"}
 ,  {
 "placeName":
 "Karlsbad",
 "ref":
 "pmb842"}
 ,  {
 "placeName":
 "Prag",
 "ref":
 "pmb652"}
 ,  {
 "placeName":
 "Schweden",
 "ref":
 "pmb44335"}
 ,  {
 "placeName":
 "München",
 "ref":
 "pmb45258"}
 ,  {
 "placeName":
 "Zürich",
 "ref":
 "pmb484"}
 ,  {
 "placeName":
 "Paris",
 "ref":
 "pmb182"}
 ,  {
 "placeName":
 "Köln",
 "ref":
 "pmb145"}
 ,  {
 "placeName":
 "Frankfurt am Main",
 "ref":
 "pmb146"}
 ,  {
 "placeName":
 "Wiesbaden",
 "ref":
 "pmb883"}
 ,  {
 "placeName":
 "Stuttgart",
 "ref":
 "pmb872"}
 ,  {
 "placeName":
 "Salzkammergut",
 "ref":
 "pmb429"}
 ,  {
 "placeName":
 "Wörthersee",
 "ref":
 "pmb430"}
 ,  {
 "placeName":
 "Bad Aussee",
 "ref":
 "pmb415"}
 ],
 "listOrg":
  [
 {
 "orgName":
 "Jung-Wiener Theater zum Lieben Augustin",
 "ref":
 "pmb143199"}
 ,  {
 "orgName":
 "Volkstheater",
 "ref":
 "pmb36430"}
 ]
}
}, {
 "type":
 "wienerschnitzler",
 "color":
 "#6F5106",
 "caption":
 "Wiener Schnitzler",
 "idno":
 "https://wienerschnitzler.org/tag.html#1901-06-12",
 "head":
 "Salzburg",
 "desc":
{"listPlace":
  [
 {
 "placeName":
 "Festung Hohensalzburg",
 "ref":
 ""}
 ]
}
}, {
 "type":
 "schnitzler-bahr",
 "color":
 "#639FF9",
 "filename":
 "L041359",
 "caption":
 "Schnitzler/Bahr",
 "idno":
 "https://schnitzler-bahr.acdh.oeaw.ac.at/L041359.html",
 "head":
 "Salten an Schnitzler, 12. 6. 1901",
 "desc":
{"listPerson":
  [
{
 "persName":
 "Felix Salten",
 "ref":
 "pmb2167"},
 {
 "persName":
 "Marie Bardi",
 "ref":
 "pmb3791"},
 {
 "persName":
 "Arnold Barkay",
 "ref":
 "pmb28682"},
 {
 "persName":
 "Sven Scholander",
 "ref":
 "pmb12707"},
 {
 "persName":
 "Irene Mandl",
 "ref":
 "pmb20902"},
 {
 "persName":
 "Ottilie Salten",
 "ref":
 "pmb23918"},
 {
 "persName":
 "Hugo Felix",
 "ref":
 "pmb3167"},
 {
 "persName":
 "Emerich von Bukovics",
 "ref":
 "pmb2161"},
 {
 "persName":
 "Otto Brahm",
 "ref":
 "pmb10986"},
 {
 "persName":
 "Hermann Bahr",
 "ref":
 "pmb10815"},
 {
 "persName":
 "Hugo von Hofmannsthal",
 "ref":
 "pmb11740"},
 {
 "persName":
 "Louise Schnitzler",
 "ref":
 "pmb12701"}],
 "listBibl":
  [
 {
 "title":
 "Die Frau mit dem Dolche",
 "ref":
 "pmb29865"}
 ,  {
 "title":
 "Marionetten. Drei Einakter",
 "ref":
 "pmb29859"}
 ,  {
 "title":
 "Der Gemeine. Schauspiel in drei Aufzügen",
 "ref":
 "pmb32426"}
 ],
 "listPlace":
  [
 {
 "placeName":
 "Wien",
 "ref":
 "pmb50"}
 ,  {
 "placeName":
 "Jung-Wiener Theater zum Lieben Augustin",
 "ref":
 "pmb1"}
 ,  {
 "placeName":
 "Theater an der Wien",
 "ref":
 "pmb37"}
 ,  {
 "placeName":
 "Karlsbad",
 "ref":
 "pmb842"}
 ,  {
 "placeName":
 "Prag",
 "ref":
 "pmb652"}
 ,  {
 "placeName":
 "München",
 "ref":
 "pmb45258"}
 ,  {
 "placeName":
 "Zürich",
 "ref":
 "pmb484"}
 ,  {
 "placeName":
 "Paris",
 "ref":
 "pmb182"}
 ,  {
 "placeName":
 "Köln",
 "ref":
 "pmb145"}
 ,  {
 "placeName":
 "Frankfurt am Main",
 "ref":
 "pmb146"}
 ,  {
 "placeName":
 "Wiesbaden",
 "ref":
 "pmb883"}
 ,  {
 "placeName":
 "Stuttgart",
 "ref":
 "pmb872"}
 ,  {
 "placeName":
 "Salzkammergut",
 "ref":
 "pmb429"}
 ,  {
 "placeName":
 "Bad Aussee",
 "ref":
 "pmb415"}
 ]
}
}, {
 "type":
 "kalliope-verbund",
 "color":
 "#003574",
 "caption":
 "Kalliope Verbundkatalog",
 "idno":
 "http://kalliope-verbund.info/DE-2498-HS00081819",
 "head":
 "Schnitzler, Arthur: Lebendige Stunden [Dramatisches] (Drucktitel)",
 "text":
 "1 Mappe"
}] 