[{
 "type":
 "schnitzler-tagebuch",
 "color":
 "#037a33",
 "filename":
 "entry__1902-05-02",
 "caption":
 "Tagebuch",
 "idno":
 "https://schnitzler-tagebuch.acdh.oeaw.ac.at/entry__1902-05-02.html",
 "head":
 "Tagebuch, 2. Mai 1902",
 "desc":
{"listPerson":
  [
{
 "persName":
 "Johann Schnitzler",
 "ref":
 "person_19824"}]
}
}, {
 "type":
 "schnitzler-briefe",
 "color":
 "#A63437",
 "filename":
 "L01217",
 "caption":
 "Briefe mit Autorinnen und Autoren",
 "idno":
 "https://schnitzler-briefe.acdh.oeaw.ac.at/L01217.html",
 "head":
 "Arthur Schnitzler an Richard Beer-Hofmann, 2. [5.?] 1902",
 "desc":
{"listPerson":
  [
{
 "persName":
 "Richard Beer-Hofmann",
 "ref":
 "pmb10863"},
 {
 "persName":
 "Otto Brahm",
 "ref":
 "pmb10986"},
 {
 "persName":
 "Hugo von Hofmannsthal",
 "ref":
 "pmb11740"}],
 "listPlace":
  [
 {
 "placeName":
 "Wien",
 "ref":
 "pmb50"}
 ,  {
 "placeName":
 "Rodaun",
 "ref":
 "pmb173"}
 ,  {
 "placeName":
 "Liesingerstraße",
 "ref":
 "pmb40101"}
 ,  {
 "placeName":
 "Carl-Theater",
 "ref":
 "pmb118"}
 ]
}
}, {
 "type":
 "schnitzler-briefe",
 "color":
 "#A63437",
 "filename":
 "L03206",
 "caption":
 "Briefe mit Autorinnen und Autoren",
 "idno":
 "https://schnitzler-briefe.acdh.oeaw.ac.at/L03206.html",
 "head":
 "Paul Goldmann an Arthur Schnitzler, 2. 5. [1902]",
 "desc":
{"listPerson":
  [
{
 "persName":
 "Paul Goldmann",
 "ref":
 "pmb11485"},
 {
 "persName":
 "Ernest von Gréger-Jurco",
 "ref":
 "pmb17461"},
 {
 "persName":
 "Karl Strecker",
 "ref":
 "pmb4794"},
 {
 "persName":
 "Karl Schönherr",
 "ref":
 "pmb12749"},
 {
 "persName":
 "Gerhart Hauptmann",
 "ref":
 "pmb11617"},
 {
 "persName":
 "Olga Schnitzler",
 "ref":
 "pmb2173"}],
 "listBibl":
  [
 {
 "title":
 "Tägliche Rundschau",
 "ref":
 "pmb41550"}
 ,  {
 "title":
 "Ein litterarisch-dramatisches Hochstapler-Stücklein",
 "ref":
 "pmb88182"}
 ,  {
 "title":
 "Das angebliche Telegramm Arthur Schnitzlers",
 "ref":
 "pmb58031"}
 ,  {
 "title":
 "Der Sonnwendtag. Drama in fünf Akten",
 "ref":
 "pmb61285"}
 ,  {
 "title":
 "Die Weber",
 "ref":
 "pmb76925"}
 ],
 "listOrg":
  [
 {
 "orgName":
 "Tägliche Rundschau",
 "ref":
 "pmb29691"}
 ],
 "listPlace":
  [
 {
 "placeName":
 "Berlin",
 "ref":
 "pmb168"}
 ,  {
 "placeName":
 "Wien",
 "ref":
 "pmb50"}
 ,  {
 "placeName":
 "Dessauer Straße",
 "ref":
 "pmb40583"}
 ,  {
 "placeName":
 "Deutschland",
 "ref":
 "pmb151"}
 ,  {
 "placeName":
 "Hinterbrühl",
 "ref":
 "pmb75"}
 ]
}
}, {
 "type":
 "pmb",
 "color":
 "#9B5F98",
 "filename":
 "entity/50/",
 "caption":
 "PMB",
 "idno":
 "https://pmb.acdh.oeaw.ac.at/entity/50/",
 "text":
 "Wien"
}, {
 "type":
 "schnitzler-cmif",
 "subtype":
 "#ya489e21-54d5-40de-a56d-f4548e894428",
 "color":
 "#654321",
 "caption":
 "Gedruckte Briefwechsel",
 "head":
 "Otto Brahm an Arthur Schnitzler, 2.5.1902",
 "source":
 "Der Briefwechsel Arthur Schnitzler – Otto Brahm. Vollständige Ausgabe. Hg., eingel. und erl. von Oskar Seidlin. Tübingen: Niemeyer, 1975."
}] 