[{
 "type":
 "schnitzler-briefe",
 "color":
 "#A63437",
 "filename":
 "L03192",
 "caption":
 "Briefe mit Autorinnen und Autoren",
 "idno":
 "https://schnitzler-briefe.acdh.oeaw.ac.at/L03192.html",
 "head":
 "Paul Goldmann an Arthur Schnitzler, 14. 1. [1902]",
 "desc":
{"listPerson":
  [
{
 "persName":
 "Paul Goldmann",
 "ref":
 "pmb11485"},
 {
 "persName":
 "Arthur Schnitzler",
 "ref":
 "pmb2121"},
 {
 "persName":
 "Paul Goldmann",
 "ref":
 "pmb11485"},
 {
 "persName":
 "Olga Schnitzler",
 "ref":
 "pmb2173"},
 {
 "persName":
 "Marie Reinhard",
 "ref":
 "pmb2378"},
 {
 "persName":
 "Elisabeth Steinrück",
 "ref":
 "pmb2315"},
 {
 "persName":
 "Christine Schönberger",
 "ref":
 "pmb24686"},
 {
 "persName":
 "Heinrich Schnitzler",
 "ref":
 "pmb12692"},
 {
 "persName":
 "Otto Brahm",
 "ref":
 "pmb10986"}],
 "listBibl":
  [
 {
 "title":
 "Lebendige Stunden. Vier Einakter",
 "ref":
 "pmb29863"}
 ,  {
 "title":
 "Kleine Chronik. [Das Wiener Gastspiel des Berliner Deutschen Theaters.]",
 "ref":
 "pmb145159"}
 ,  {
 "title":
 "Neue Freie Presse",
 "ref":
 "pmb36374"}
 ,  {
 "title":
 "Berliner Theater. (»Lebendige Stunden« von Arthur Schnitzler.)",
 "ref":
 "pmb144122"}
 ],
 "listPlace":
  [
 {
 "placeName":
 "Berlin",
 "ref":
 "pmb168"}
 ,  {
 "placeName":
 "Wien",
 "ref":
 "pmb50"}
 ,  {
 "placeName":
 "Dessauer Straße",
 "ref":
 "pmb40583"}
 ,  {
 "placeName":
 "Mödling",
 "ref":
 "pmb968"}
 ,  {
 "placeName":
 "Hotel Kursalon Mödling",
 "ref":
 "pmb145170"}
 ,  {
 "placeName":
 "Zum goldenen Stern",
 "ref":
 "pmb625"}
 ,  {
 "placeName":
 "Hauptstraße 56",
 "ref":
 "pmb145165"}
 ,  {
 "placeName":
 "Hinterbrühl",
 "ref":
 "pmb75"}
 ,  {
 "placeName":
 "Carl-Theater",
 "ref":
 "pmb118"}
 ],
 "listOrg":
  [
 {
 "orgName":
 "Deutsches Theater Berlin",
 "ref":
 "pmb35597"}
 ]
}
}, {
 "type":
 "wienerschnitzler",
 "color":
 "#6F5106",
 "caption":
 "Wiener Schnitzler",
 "idno":
 "https://wienerschnitzler.org/tag.html#1902-01-14",
 "head":
 "Wien",
 "desc":
{"listPlace":
  [
 {
 "placeName":
 "IX., Alsergrund",
 "ref":
 ""}
 ]
}
}, {
 "type":
 "schnitzler-cmif",
 "subtype":
 "#zd58d226-ca44-4dfa-b10c-81551ef4de77",
 "color":
 "#654321",
 "caption":
 "Gedruckte Briefwechsel",
 "head":
 "Rainer Maria Rilke an Arthur Schnitzler, 14.1.1902",
 "source":
 "Heinrich Schnitzler (Hg.): Rainer Maria Rilke und Arthur Schnitzler. Ihr Briefwechsel mit Anmerkungen. In: Wort und Wahrheit, 13. Jahrgang 1958, S. 283-298."
}, {
 "type":
 "kalliope-verbund",
 "color":
 "#003574",
 "caption":
 "Kalliope Verbundkatalog",
 "idno":
 "http://kalliope-verbund.info/DE-2498-HS00063048",
 "head":
 "Rilke, Rainer Maria an Schnitzler, Arthur [Briefe]",
 "text":
 "2 Bl.Kopie. Mit Negativkopie",
 "desc":
{"listPerson":
  [
{
 "persName":
 "Rainer Maria (1875-1926) Rilke",
 "ref":
 "http://d-nb.info/gnd/118601024"}]
}
}, {
 "type":
 "kalliope-verbund",
 "color":
 "#003574",
 "caption":
 "Kalliope Verbundkatalog",
 "idno":
 "http://kalliope-verbund.info/DE-2498-HS00076858",
 "head":
 "Rilke, Rainer Maria an Schnitzler, Arthur [Briefe]",
 "text":
 "2 Bl.",
 "desc":
{"listPerson":
  [
{
 "persName":
 "Rainer Maria (1875-1926) Rilke",
 "ref":
 "http://d-nb.info/gnd/118601024"}]
}
}] 