[{
 "type":
 "schnitzler-tagebuch",
 "color":
 "#037a33",
 "filename":
 "entry__1902-04-28",
 "caption":
 "Tagebuch",
 "idno":
 "https://schnitzler-tagebuch.acdh.oeaw.ac.at/entry__1902-04-28.html",
 "head":
 "Tagebuch, 28. April 1902",
 "desc":
{"listPerson":
  [
{
 "persName":
 "Alice Barbi",
 "ref":
 "person_13410"},
 {
 "persName":
 "Bernhard Rothenstein",
 "ref":
 "person_19423"},
 {
 "persName":
 "Leo Van-Jung",
 "ref":
 "person_20925"},
 {
 "persName":
 "Ella Naschauer",
 "ref":
 "person_18358"},
 {
 "persName":
 "Hugo von Hofmannsthal",
 "ref":
 "person_16293"},
 {
 "persName":
 "Franziska Mütter",
 "ref":
 "person_18320"}],
 "listPlace":
  [
 {
 "placeName":
 "Rodaun",
 "ref":
 "pmb173"}
 ,  {
 "placeName":
 "Laab im Walde",
 "ref":
 "pmb91091"}
 ,  {
 "placeName":
 "Purkersdorf",
 "ref":
 "pmb91552"}
 ,  {
 "placeName":
 "Wien",
 "ref":
 "pmb50"}
 ]
}
}, {
 "type":
 "wienerschnitzler",
 "color":
 "#ECDA98",
 "caption":
 "Wiener Schnitzler",
 "idno":
 "https://wienerschnitzler.org/tag.html#1902-04-28",
 "head":
 "Wien",
 "desc":
{"listPlace":
  [
 {
 "placeName":
 "I., Innere Stadt",
 "ref":
 ""}
 ,  {
 "placeName":
 "XXIII., Liesing",
 "ref":
 ""}
 ,  {
 "placeName":
 "IX., Alsergrund",
 "ref":
 ""}
 ]
}
}, {
 "type":
 "wienerschnitzler",
 "color":
 "#ECDA98",
 "caption":
 "Wiener Schnitzler",
 "idno":
 "https://wienerschnitzler.org/tag.html#1902-04-28",
 "head":
 "Laab im Walde"
}, {
 "type":
 "wienerschnitzler",
 "color":
 "#ECDA98",
 "caption":
 "Wiener Schnitzler",
 "idno":
 "https://wienerschnitzler.org/tag.html#1902-04-28",
 "head":
 "Purkersdorf"
}, {
 "type":
 "schnitzler-kultur",
 "color":
 "#6B4C5A",
 "filename":
 "pmb209254",
 "caption":
 "Kulturveranstaltungen",
 "idno":
 "https://schnitzler-kultur.acdh.oeaw.ac.at/pmb209254.html",
 "head":
 "3. Gesangskonzert von Alice Barbi,
                        28.4.1902",
 "desc":
{"listPerson":
  [
{
 "persName":
 "Alice Barbi",
 "ref":
 ""},
 {
 "persName":
 "Arthur Schnitzler",
 "ref":
 ""}],
 "listPlace":
  [
 {
 "placeName":
 "Bösendorfer-Saal",
 "ref":
 ""}
 ]
}
}] 