{
 "date":
 {
 "when-iso":
 "1902-10-15",
 "written":
 "Mittwoch, 15. Oktober 1902"
},
"listEvent":
 [{
 "type":
 "schnitzler-orte",
 "idno":
 "https://pmb.acdh.oeaw.ac.at/entity/168/",
 "head":
 "Berlin"
}, {
 "type":
 "schnitzler-briefe",
 "idno":
 "https://schnitzler-briefe.acdh.oeaw.ac.at/L01241.html",
 "head":
 "Arthur Schnitzler an Hermann Bahr, 15. 10. 1902",
 "desc":
{"listPerson":
  [
{
 "persName":
 "Hermann Bahr",
 "ref":
 "pmb10815"}],
 "listBibl":
  [
 {
 "title":
 "Wienerinnen",
 "ref":
 "pmb29885"}
 ],
 "listPlace":
  [
 {
 "placeName":
 "Berlin",
 "ref":
 "pmb168"}
 ,  {
 "placeName":
 "Hotel de Rome",
 "ref":
 "pmb215"}
 ,  {
 "placeName":
 "Unter den Linden",
 "ref":
 "pmb216"}
 ,  {
 "placeName":
 "Berliner Theater",
 "ref":
 "pmb738"}
 ]}

}, {
 "type":
 "schnitzler-briefe",
 "idno":
 "https://schnitzler-briefe.acdh.oeaw.ac.at/L01242.html",
 "head":
 "Hermann Bahr an Arthur Schnitzler, 15. 10. 1902",
 "desc":
{"listPerson":
  [
{
 "persName":
 "Hermann Bahr",
 "ref":
 "pmb10815"},
 {
 "persName":
 "Adolph Mühling",
 "ref":
 "pmb28303"},
 {
 "persName":
 "Alfred Halm",
 "ref":
 "pmb2385"},
 {
 "persName":
 "Karl Strecker",
 "ref":
 "pmb4794"},
 {
 "persName":
 "Hermann Sudermann",
 "ref":
 "pmb12899"}],
 "listBibl":
  [
 {
 "title":
 "Wienerinnen",
 "ref":
 "pmb29885"}
 ,  {
 "title":
 "Berliner Theater. Hermann Bahr: »Wienerinnen«. (Eine nicht einwandfreie Kritik)",
 "ref":
 "pmb31689"}
 ,  {
 "title":
 "Tägliche Rundschau",
 "ref":
 "pmb41550"}
 ],
 "listPlace":
  [
 {
 "placeName":
 "Berlin",
 "ref":
 "pmb168"}
 ,  {
 "placeName":
 "Hotel de Rome",
 "ref":
 "pmb215"}
 ,  {
 "placeName":
 "Unter den Linden",
 "ref":
 "pmb216"}
 ]}

}, {
 "type":
 "schnitzler-tagebuch",
 "idno":
 "https://schnitzler-tagebuch.acdh.oeaw.ac.at/entry__1902-10-15.html",
 "head":
 "Tagebuch, 15. Oktober 1902",
 "desc":
{"listPerson":
  [
{
 "persName":
 "Oskar Bie",
 "ref":
 "person_13715"},
 {
 "persName":
 "Auguste Chlum",
 "ref":
 "person_14199"},
 {
 "persName":
 "Rosa Freudenthal",
 "ref":
 "person_15178"},
 {
 "persName":
 "Paul Goldmann",
 "ref":
 "person_15529"},
 {
 "persName":
 "Moritz Heimann",
 "ref":
 "person_16041"},
 {
 "persName":
 "Georg Hirschfeld",
 "ref":
 "person_16222"},
 {
 "persName":
 "Rudolf Lettinger",
 "ref":
 "person_17476"},
 {
 "persName":
 "Raphael Löwenfeld",
 "ref":
 "person_17649"},
 {
 "persName":
 "Paul Marx",
 "ref":
 "person_17958"},
 {
 "persName":
 "Felix Salten",
 "ref":
 "person_19542"},
 {
 "persName":
 "Elisabeth Steinrück",
 "ref":
 "person_20386"},
 {
 "persName":
 "Samuel Fischer",
 "ref":
 "person_15009"}],
 "listPlace":
  [
 {
 "placeName":
 "Schillertheater",
 "ref":
 "pmb334"}
 ]}

}, {
 "type":
 "schnitzler-bahr",
 "idno":
 "https://schnitzler-bahr.acdh.oeaw.ac.at/L041251.html",
 "head":
 "Bahr an Schnitzler, 15. 10. 1902",
 "desc":
{"listPerson":
  [
{
 "persName":
 "Hermann Bahr",
 "ref":
 "pmb10815"},
 {
 "persName":
 "Adolph Mühling",
 "ref":
 "pmb28303"},
 {
 "persName":
 "Alfred Halm",
 "ref":
 "pmb2385"},
 {
 "persName":
 "Hermann Sudermann",
 "ref":
 "pmb12899"}],
 "listBibl":
  [
 {
 "title":
 "Wienerinnen",
 "ref":
 "pmb29885"}
 ],
 "listPlace":
  [
 {
 "placeName":
 "Berlin",
 "ref":
 "pmb168"}
 ,  {
 "placeName":
 "Hotel de Rome",
 "ref":
 "pmb215"}
 ,  {
 "placeName":
 "Unter den Linden",
 "ref":
 "pmb216"}
 ]}

}, {
 "type":
 "schnitzler-bahr",
 "idno":
 "https://schnitzler-bahr.acdh.oeaw.ac.at/L041053.html",
 "head":
 "Schnitzler an Bahr, 15. 10. 1902",
 "desc":
{"listPerson":
  [
{
 "persName":
 "Hermann Bahr",
 "ref":
 "pmb10815"}],
 "listPlace":
  [
 {
 "placeName":
 "Berlin",
 "ref":
 "pmb168"}
 ,  {
 "placeName":
 "Hotel de Rome",
 "ref":
 "pmb215"}
 ,  {
 "placeName":
 "Unter den Linden",
 "ref":
 "pmb216"}
 ]}

}] 
}