[{
 "type":
 "schnitzler-briefe",
 "color":
 "#A63437",
 "filename":
 "L03197",
 "caption":
 "Briefe mit Autorinnen und Autoren",
 "idno":
 "https://schnitzler-briefe.acdh.oeaw.ac.at/L03197.html",
 "head":
 "Paul Goldmann an Arthur Schnitzler, 10. 2. [1902]",
 "desc":
{"listPerson":
  [
{
 "persName":
 "Paul Goldmann",
 "ref":
 "pmb11485"},
 {
 "persName":
 "Irene Triesch",
 "ref":
 "pmb12977"},
 {
 "persName":
 "Émile Zola",
 "ref":
 "pmb13194"},
 {
 "persName":
 "Louise von Belgien",
 "ref":
 "pmb145263"},
 {
 "persName":
 "Ignacy Daszyński",
 "ref":
 "pmb145270"},
 {
 "persName":
 "Peter Dorner",
 "ref":
 "pmb15445"},
 {
 "persName":
 "Géza von Mattachich",
 "ref":
 "pmb21176"},
 {
 "persName":
 "Olga Schnitzler",
 "ref":
 "pmb2173"},
 {
 "persName":
 "Elisabeth Steinrück",
 "ref":
 "pmb2315"},
 {
 "persName":
 "Fedor Mamroth",
 "ref":
 "pmb4986"},
 {
 "persName":
 "Leopold II. von Belgien",
 "ref":
 "pmb89266"}],
 "listBibl":
  [
 {
 "title":
 "Sehnsucht",
 "ref":
 "pmb145267"}
 ,  {
 "title":
 "Politische Glossen. Der Ernst der Volksvertreter",
 "ref":
 "pmb145340"}
 ,  {
 "title":
 "Lebendige Stunden. Vier Einakter",
 "ref":
 "pmb29863"}
 ,  {
 "title":
 "Die Frau mit dem Dolche",
 "ref":
 "pmb29865"}
 ,  {
 "title":
 "Literatur",
 "ref":
 "pmb29869"}
 ,  {
 "title":
 "Extrapost. Unparteiische Montags-Zeitung",
 "ref":
 "pmb50081"}
 ],
 "listOrg":
  [
 {
 "orgName":
 "Reichsrat",
 "ref":
 "pmb118423"}
 ,  {
 "orgName":
 "Die Zeit. Wiener Wochenschrift",
 "ref":
 "pmb29209"}
 ,  {
 "orgName":
 "Neue Freie Presse",
 "ref":
 "pmb29351"}
 ],
 "listPlace":
  [
 {
 "placeName":
 "Deutschland",
 "ref":
 "pmb151"}
 ,  {
 "placeName":
 "Berlin",
 "ref":
 "pmb168"}
 ,  {
 "placeName":
 "Deutsches Theater Berlin",
 "ref":
 "pmb3"}
 ,  {
 "placeName":
 "Kroatien",
 "ref":
 "pmb34494"}
 ,  {
 "placeName":
 "Dessauer Straße",
 "ref":
 "pmb40583"}
 ,  {
 "placeName":
 "Österreich",
 "ref":
 "pmb41240"}
 ,  {
 "placeName":
 "Wien",
 "ref":
 "pmb50"}
 ,  {
 "placeName":
 "Hoftheater Stuttgart",
 "ref":
 "pmb783"}
 ,  {
 "placeName":
 "Stuttgart",
 "ref":
 "pmb872"}
 ,  {
 "placeName":
 "Mödling",
 "ref":
 "pmb968"}
 ]
}
}, {
 "type":
 "wienerschnitzler",
 "color":
 "#ECDA98",
 "caption":
 "Wiener Schnitzler",
 "idno":
 "https://wienerschnitzler.org/tag.html#1902-02-10",
 "head":
 "Wien",
 "desc":
{"listPlace":
  [
 {
 "placeName":
 "IX., Alsergrund",
 "ref":
 ""}
 ]
}
}, {
 "type":
 "kalliope-verbund",
 "color":
 "#003574",
 "caption":
 "Kalliope Verbundkatalog",
 "idno":
 "http://kalliope-verbund.info/DE-2498-HS00032774",
 "head":
 "Campanelli, M. an Schnitzler, Arthur [Briefe]",
 "text":
 "1 Bl."
}] 