[{
 "type":
 "schnitzler-tagebuch",
 "color":
 "#037a33",
 "filename":
 "entry__1902-01-01",
 "caption":
 "Tagebuch",
 "idno":
 "https://schnitzler-tagebuch.acdh.oeaw.ac.at/entry__1902-01-01.html",
 "head":
 "Tagebuch, 1. Januar 1902",
 "desc":
{"listPerson":
  [
{
 "persName":
 "Otto Brahm",
 "ref":
 "person_13913"},
 {
 "persName":
 "Max Dreyer",
 "ref":
 "person_14513"},
 {
 "persName":
 "Emil Heilbut",
 "ref":
 "person_16036"},
 {
 "persName":
 "Karl Kraus",
 "ref":
 "person_17108"},
 {
 "persName":
 "Max Martersteig",
 "ref":
 "person_17938"},
 {
 "persName":
 "Max Reinhardt",
 "ref":
 "person_19154"},
 {
 "persName":
 "Maximilian Harden",
 "ref":
 "person_15919"},
 {
 "persName":
 "Ernst von Wolzogen",
 "ref":
 "person_21465"}],
 "listBibl":
  [
 {
 "title":
 "Der Schleier der Beatrice. Schauspiel in fünf Akten",
 "ref":
 "pmb29857"}
 ],
 "listPlace":
  [
 {
 "placeName":
 "Berlin",
 "ref":
 "pmb168"}
 ,  {
 "placeName":
 "Wien",
 "ref":
 "pmb50"}
 ]
}
}, {
 "type":
 "schnitzler-briefe",
 "color":
 "#A63437",
 "filename":
 "L02550",
 "caption":
 "Briefe mit Autorinnen und Autoren",
 "idno":
 "https://schnitzler-briefe.acdh.oeaw.ac.at/L02550.html",
 "head":
 "Arthur Schnitzler an Richard Dehmel, [1. 1. 1902?]",
 "desc":
{"listPerson":
  [
{
 "persName":
 "Arthur Schnitzler",
 "ref":
 "pmb2121"},
 {
 "persName":
 "Richard Dehmel",
 "ref":
 "pmb11148"},
 {
 "persName":
 "Richard Dehmel",
 "ref":
 "pmb11148"}],
 "listBibl":
  [
 {
 "title":
 "Der Schleier der Beatrice. Schauspiel in fünf Akten",
 "ref":
 "pmb29857"}
 ],
 "listPlace":
  [
 {
 "placeName":
 "Berlin",
 "ref":
 "pmb168"}
 ,  {
 "placeName":
 "Blankenese",
 "ref":
 "pmb1226"}
 ],
 "listOrg":
  [
 {
 "orgName":
 "S. Fischer Verlag",
 "ref":
 "pmb29639"}
 ]
}
}, {
 "type":
 "schnitzler-briefe",
 "color":
 "#A63437",
 "filename":
 "L01194",
 "caption":
 "Briefe mit Autorinnen und Autoren",
 "idno":
 "https://schnitzler-briefe.acdh.oeaw.ac.at/L01194.html",
 "head":
 "Richard Dehmel an Arthur Schnitzler, 1. 1. 1902",
 "desc":
{"listPerson":
  [
{
 "persName":
 "Richard Dehmel",
 "ref":
 "pmb11148"},
 {
 "persName":
 "Arthur Schnitzler",
 "ref":
 "pmb2121"},
 {
 "persName":
 "Richard Dehmel",
 "ref":
 "pmb11148"}],
 "listBibl":
  [
 {
 "title":
 "Der Schleier der Beatrice. Schauspiel in fünf Akten",
 "ref":
 "pmb29857"}
 ,  {
 "title":
 "Der Buntscheck. Ein Sammelbuch herzhafter Kunst für Ohr und Auge deutscher Kinder",
 "ref":
 "pmb44831"}
 ],
 "listPlace":
  [
 {
 "placeName":
 "Blankenese",
 "ref":
 "pmb1226"}
 ,  {
 "placeName":
 "Köln",
 "ref":
 "pmb145"}
 ,  {
 "placeName":
 "Wien",
 "ref":
 "pmb50"}
 ],
 "listOrg":
  [
 {
 "orgName":
 "Schafstein &amp; Co.",
 "ref":
 "pmb44840"}
 ]
}
}, {
 "type":
 "schnitzler-briefe",
 "color":
 "#A63437",
 "filename":
 "L03189",
 "caption":
 "Briefe mit Autorinnen und Autoren",
 "idno":
 "https://schnitzler-briefe.acdh.oeaw.ac.at/L03189.html",
 "head":
 "Paul Goldmann an Arthur Schnitzler, 1. 1. [1902]",
 "desc":
{"listPerson":
  [
{
 "persName":
 "Paul Goldmann",
 "ref":
 "pmb11485"},
 {
 "persName":
 "Arthur Schnitzler",
 "ref":
 "pmb2121"},
 {
 "persName":
 "Paul Goldmann",
 "ref":
 "pmb11485"},
 {
 "persName":
 "Hermann Mamroth",
 "ref":
 "pmb93541"}],
 "listBibl":
  [
 {
 "title":
 "Lebendige Stunden. Vier Einakter",
 "ref":
 "pmb29863"}
 ,  {
 "title":
 "Tagebuch",
 "ref":
 "pmb33243"}
 ],
 "listPlace":
  [
 {
 "placeName":
 "Frankfurt am Main",
 "ref":
 "pmb146"}
 ,  {
 "placeName":
 "Berlin",
 "ref":
 "pmb168"}
 ,  {
 "placeName":
 "Bernburger Straße",
 "ref":
 "pmb145131"}
 ,  {
 "placeName":
 "Dessauer Straße",
 "ref":
 "pmb40583"}
 ,  {
 "placeName":
 "Hotel Savoy [Berlin]",
 "ref":
 "pmb545"}
 ],
 "listOrg":
  [
 {
 "orgName":
 "Deutsches Theater Berlin",
 "ref":
 "pmb35597"}
 ]
}
}, {
 "type":
 "wienerschnitzler",
 "color":
 "#6F5106",
 "caption":
 "Wiener Schnitzler",
 "idno":
 "https://wienerschnitzler.org/tag.html#1902-01-01",
 "head":
 "Berlin",
 "desc":
{"listPlace":
  [
 {
 "placeName":
 "Hotel Bristol Berlin",
 "ref":
 ""}
 ,  {
 "placeName":
 "Buntes Theater",
 "ref":
 ""}
 ,  {
 "placeName":
 "Wernerstraße 16",
 "ref":
 ""}
 ,  {
 "placeName":
 "Luisenplatz 2",
 "ref":
 ""}
 ,  {
 "placeName":
 "Kaisergalerie",
 "ref":
 ""}
 ]
}
}, {
 "type":
 "URL",
 "subtype":
 "schnitzler-kultur",
 "filename":
 "pmb209229",
 "idno":
 "https://schnitzler-kultur.acdh.oeaw.ac.at/pmb209229.html",
 "head":
 "Überbrettl, 1.1.1902",
 "desc":
{"listOrg":
  [
 {
 "orgName":
 "Überbrettl",
 "ref":
 ""}
 ],
 "listPerson":
  [
{
 "persName":
 "Ernst von Wolzogen",
 "ref":
 ""},
 {
 "persName":
 "Arthur Schnitzler",
 "ref":
 ""}],
 "listPlace":
  [
 {
 "placeName":
 "Buntes Theater",
 "ref":
 ""}
 ]
}
}, {
 "type":
 "schnitzler-cmif",
 "subtype":
 "#j7685005-64da-4e31-99b6-b4641aa1628c",
 "color":
 "#654321",
 "caption":
 "Gedruckte Briefwechsel",
 "head":
 "Arthur Schnitzler an Olga Schnitzler, 1. 1. 1902",
 "source":
 "Arthur Schnitzler: Briefe 1875–1912. Hrsg. v. Therese Nickl u. Heinrich Schnitzler. Frankfurt am Main: S. Fischer 1981."
}, {
 "type":
 "kalliope-verbund",
 "color":
 "#003574",
 "caption":
 "Kalliope Verbundkatalog",
 "idno":
 "http://kalliope-verbund.info/DE-2498-HS00062575",
 "head":
 "Dehmel, Richard an Schnitzler, Arthur [Briefe]",
 "text":
 "3 Bl.Kopie. Mit Negativkopie",
 "desc":
{"listPerson":
  [
{
 "persName":
 "Richard (1863-1920) Dehmel",
 "ref":
 "http://d-nb.info/gnd/118679236"},
 {
 "persName":
 "Richard (1863-1920) Dehmel",
 "ref":
 "http://d-nb.info/gnd/118679236"}]
}
}, {
 "type":
 "kalliope-verbund",
 "color":
 "#003574",
 "caption":
 "Kalliope Verbundkatalog",
 "idno":
 "http://kalliope-verbund.info/DE-611-HS-3911063",
 "head":
 "Brief an Arthur Schnitzler",
 "text":
 "1 eigenh. Br. m. U.; 2 Bl.",
 "desc":
{"listPerson":
  [
{
 "persName":
 "Richard (1863-1920) Dehmel",
 "ref":
 "http://d-nb.info/gnd/118679236"},
 {
 "persName":
 "Arthur (1862-1931) Schnitzler",
 "ref":
 "http://d-nb.info/gnd/126794855"}]
}
}] 