[{
 "type":
 "schnitzler-tagebuch",
 "color":
 "#037a33",
 "filename":
 "entry__1902-05-07",
 "caption":
 "Tagebuch",
 "idno":
 "https://schnitzler-tagebuch.acdh.oeaw.ac.at/entry__1902-05-07.html",
 "head":
 "Tagebuch, 7. Mai 1902",
 "desc":
{"listBibl":
  [
 {
 "title":
 "Lebendige Stunden. Vier Einakter",
 "ref":
 "pmb29863"}
 ]
}
}, {
 "type":
 "schnitzler-orte",
 "color":
 "#045344",
 "filename":
 "entity/50/",
 "caption":
 "Aufenthaltsorte",
 "idno":
 "https://pmb.acdh.oeaw.ac.at/entity/50/",
 "head":
 "Wien"
}, {
 "type":
 "schnitzler-orte",
 "color":
 "#045344",
 "filename":
 "entity/20/",
 "caption":
 "Aufenthaltsorte",
 "idno":
 "https://pmb.acdh.oeaw.ac.at/entity/20/",
 "head":
 "Volkstheater"
}, {
 "type":
 "schnitzler-bahr",
 "color":
 "#639FF9",
 "filename":
 "T030020",
 "caption":
 "Schnitzler/Bahr",
 "idno":
 "https://schnitzler-bahr.acdh.oeaw.ac.at/T030020.html",
 "head":
 "Bahr: Lebendige Stunden, 7. 5. 1902",
 "desc":
{"listPerson":
  [
{
 "persName":
 "Hermann Bahr",
 "ref":
 "pmb10815"},
 {
 "persName":
 "Albrecht Dürer",
 "ref":
 "pmb11209"},
 {
 "persName":
 "Hans d. J. Holbein",
 "ref":
 "pmb4080"},
 {
 "persName":
 "Johann Wolfgang von Goethe",
 "ref":
 "pmb11461"},
 {
 "persName":
 "Albert Bassermann",
 "ref":
 "pmb10844"},
 {
 "persName":
 "Irene Triesch",
 "ref":
 "pmb12977"},
 {
 "persName":
 "Max Reinhardt",
 "ref":
 "pmb12504"},
 {
 "persName":
 "Rudolf Rittner",
 "ref":
 "pmb12530"},
 {
 "persName":
 "Friedrich Kayssler",
 "ref":
 "pmb11895"},
 {
 "persName":
 "Oskar Hofmeister",
 "ref":
 "pmb18412"}],
 "listBibl":
  [
 {
 "title":
 "Lebendige Stunden. Vier Einakter",
 "ref":
 "pmb29863"}
 ,  {
 "title":
 "Lebendige Stunden",
 "ref":
 "pmb29957"}
 ,  {
 "title":
 "Die Frau mit dem Dolche",
 "ref":
 "pmb29865"}
 ,  {
 "title":
 "Die letzten Masken",
 "ref":
 "pmb29877"}
 ,  {
 "title":
 "Literatur",
 "ref":
 "pmb29869"}
 ,  {
 "title":
 "Spruch, Widerspruch",
 "ref":
 "pmb32636"}
 ,  {
 "title":
 "Selige Sehnsucht",
 "ref":
 "pmb32638"}
 ,  {
 "title":
 "Lebendige Stunden (Vier Einacter von Arthur Schnitzler: »Lebendige Stunden«, »Die Frau mit dem Dolche«, »Die letzten Masken« und »Literatur«. Zum ersten Male aufgeführt im Carl-Theater am 6. Mai 1902. Erste Vorstellung des Berliner Deutschen Theaters)",
 "ref":
 "pmb39481"}
 ,  {
 "title":
 "Neues Wiener Tagblatt",
 "ref":
 "pmb41321"}
 ,  {
 "title":
 "Rezensionen. Wiener Theater 1901 bis 1903",
 "ref":
 "pmb29891"}
 ],
 "listPlace":
  [
 {
 "placeName":
 "Carl-Theater",
 "ref":
 "pmb118"}
 ,  {
 "placeName":
 "Deutsches Theater Berlin",
 "ref":
 "pmb3"}
 ,  {
 "placeName":
 "Berlin",
 "ref":
 "pmb168"}
 ,  {
 "placeName":
 "Wien",
 "ref":
 "pmb50"}
 ,  {
 "placeName":
 "Salzburg",
 "ref":
 "pmb30"}
 ,  {
 "placeName":
 "Schlosspark Hellbrunn",
 "ref":
 "pmb32"}
 ,  {
 "placeName":
 "Hellbrunn",
 "ref":
 "pmb31"}
 ,  {
 "placeName":
 "München",
 "ref":
 "pmb45258"}
 ,  {
 "placeName":
 "Alte Pinakothek",
 "ref":
 "pmb511"}
 ,  {
 "placeName":
 "Italien",
 "ref":
 "pmb40306"}
 ,  {
 "placeName":
 "Florenz",
 "ref":
 "pmb263"}
 ,  {
 "placeName":
 "Altes Allgemeines Krankenhaus",
 "ref":
 "pmb546"}
 ,  {
 "placeName":
 "Etablissement Ronacher",
 "ref":
 "pmb19"}
 ,  {
 "placeName":
 "Griechenland",
 "ref":
 "pmb44293"}
 ,  {
 "placeName":
 "Europa",
 "ref":
 "pmb468"}
 ,  {
 "placeName":
 "Raimund-Theater",
 "ref":
 "pmb77"}
 ]
}
}, {
 "type":
 "pmb",
 "color":
 "#9B5F98",
 "filename":
 "entity/50860/",
 "caption":
 "PMB",
 "idno":
 "https://pmb.acdh.oeaw.ac.at/entity/50860/",
 "head":
 "Generalprobe von Peer Gynt, 7.5.1902",
 "desc":
{"listOrg":
  [
 {
 "orgName":
 "Akademischer Verein für Kunst und Literatur",
 "ref":
 ""}
 ],
 "listBibl":
  [
 {
 "title":
 "Peer Gynt",
 "ref":
 ""}
 ],
 "listPerson":
  [
{
 "persName":
 "Arthur Schnitzler",
 "ref":
 ""},
 {
 "persName":
 "Emil Orlik",
 "ref":
 ""}],
 "listPlace":
  [
 {
 "placeName":
 "Volkstheater",
 "ref":
 ""}
 ]
}
}, {
 "type":
 "kalliope-verbund",
 "color":
 "#003574",
 "caption":
 "Kalliope Verbundkatalog",
 "idno":
 "http://kalliope-verbund.info/DE-2498-HS00043123",
 "head":
 "Schicht, Josef an Schnitzler, Arthur [Briefe]",
 "text":
 "1 Bl."
}] 