[{
 "type":
 "schnitzler-tagebuch",
 "color":
 "#037a33",
 "filename":
 "entry__1902-07-01",
 "caption":
 "Tagebuch",
 "idno":
 "https://schnitzler-tagebuch.acdh.oeaw.ac.at/entry__1902-07-01.html",
 "head":
 "Tagebuch, 1. Juli 1902",
 "desc":
{"listPerson":
  [
{
 "persName":
 "Gustav Frid",
 "ref":
 "person_15194"}],
 "listPlace":
  [
 {
 "placeName":
 "Salzburg",
 "ref":
 "pmb30"}
 ,  {
 "placeName":
 "Bad Reichenhall",
 "ref":
 "pmb1181"}
 ,  {
 "placeName":
 "Lofer",
 "ref":
 "pmb33929"}
 ,  {
 "placeName":
 "St. Johann im Pongau",
 "ref":
 "pmb996"}
 ,  {
 "placeName":
 "Innsbruck",
 "ref":
 "pmb867"}
 ]
}
}, {
 "type":
 "schnitzler-briefe",
 "color":
 "#A63437",
 "filename":
 "L02977",
 "caption":
 "Briefe mit Autorinnen und Autoren",
 "idno":
 "https://schnitzler-briefe.acdh.oeaw.ac.at/L02977.html",
 "head":
 "Arthur Schnitzler, Hugo von Hofmannsthal an Felix Salten, [1.] 7. 1902",
 "desc":
{"listPerson":
  [
{
 "persName":
 "Hugo von Hofmannsthal",
 "ref":
 "pmb11740"},
 {
 "persName":
 "Felix Salten",
 "ref":
 "pmb2167"}],
 "listPlace":
  [
 {
 "placeName":
 "Kaltenleutgeben",
 "ref":
 "pmb44102"}
 ,  {
 "placeName":
 "Lofer",
 "ref":
 "pmb33929"}
 ,  {
 "placeName":
 "Niederösterreich",
 "ref":
 "pmb1003"}
 ,  {
 "placeName":
 "Wien",
 "ref":
 "pmb50"}
 ,  {
 "placeName":
 "Kaltwasserheilanstalt Winternitz",
 "ref":
 "pmb93742"}
 ,  {
 "placeName":
 "Gasthof zur Post",
 "ref":
 "pmb142878"}
 ]
}
}, {
 "type":
 "wienerschnitzler",
 "color":
 "#ECDA98",
 "caption":
 "Wiener Schnitzler",
 "idno":
 "https://wienerschnitzler.org/tag.html#1902-07-01",
 "head":
 "Salzburg",
 "desc":
{"listPlace":
  [
 {
 "placeName":
 "Österreichischer Hof",
 "ref":
 ""}
 ]
}
}, {
 "type":
 "wienerschnitzler",
 "color":
 "#ECDA98",
 "caption":
 "Wiener Schnitzler",
 "idno":
 "https://wienerschnitzler.org/tag.html#1902-07-01",
 "head":
 "Innsbruck"
}, {
 "type":
 "wienerschnitzler",
 "color":
 "#ECDA98",
 "caption":
 "Wiener Schnitzler",
 "idno":
 "https://wienerschnitzler.org/tag.html#1902-07-01",
 "head":
 "Bad Reichenhall"
}, {
 "type":
 "wienerschnitzler",
 "color":
 "#ECDA98",
 "caption":
 "Wiener Schnitzler",
 "idno":
 "https://wienerschnitzler.org/tag.html#1902-07-01",
 "head":
 "Lofer"
}, {
 "type":
 "wienerschnitzler",
 "color":
 "#ECDA98",
 "caption":
 "Wiener Schnitzler",
 "idno":
 "https://wienerschnitzler.org/tag.html#1902-07-01",
 "head":
 "St. Johann im Pongau"
}] 