[{
 "type":
 "schnitzler-tagebuch",
 "color":
 "#037a33",
 "filename":
 "entry__1902-09-07",
 "caption":
 "Tagebuch",
 "idno":
 "https://schnitzler-tagebuch.acdh.oeaw.ac.at/entry__1902-09-07.html",
 "head":
 "Tagebuch, 7. September 1902",
 "desc":
{"listPlace":
  [
 {
 "placeName":
 "Windischgarsten",
 "ref":
 "pmb92085"}
 ,  {
 "placeName":
 "Weißenbach am Attersee",
 "ref":
 "pmb34344"}
 ,  {
 "placeName":
 "Kleinreifling",
 "ref":
 "pmb91038"}
 ,  {
 "placeName":
 "Amstetten",
 "ref":
 "pmb90243"}
 ,  {
 "placeName":
 "Wien",
 "ref":
 "pmb50"}
 ,  {
 "placeName":
 "Brühl",
 "ref":
 "pmb44413"}
 ]
}
}, {
 "type":
 "URL",
 "subtype":
 "wienerschnitzler",
 "head":
 "Windischgarsten"
}, {
 "type":
 "URL",
 "subtype":
 "wienerschnitzler",
 "head":
 "Weissenbach bei Mödling"
}, {
 "type":
 "URL",
 "subtype":
 "wienerschnitzler",
 "head":
 "Hinterbrühl",
 "desc":
{"listPlace":
  [
 {
 "placeName":
 "Hauptstraße 56",
 "ref":
 ""}
 ]
}
}, {
 "type":
 "URL",
 "subtype":
 "wienerschnitzler",
 "head":
 "Kleinreifling"
}, {
 "type":
 "URL",
 "subtype":
 "wienerschnitzler",
 "head":
 "Amstetten"
}, {
 "type":
 "URL",
 "subtype":
 "wienerschnitzler",
 "head":
 "Wien",
 "desc":
{"listPlace":
  [
 {
 "placeName":
 "IX., Alsergrund",
 "ref":
 ""}
 ]
}
}] 