[{
 "type":
 "schnitzler-tagebuch",
 "color":
 "#037a33",
 "filename":
 "entry__1902-02-20",
 "caption":
 "Tagebuch",
 "idno":
 "https://schnitzler-tagebuch.acdh.oeaw.ac.at/entry__1902-02-20.html",
 "head":
 "Tagebuch, 20. Februar 1902",
 "desc":
{"listPlace":
  [
 {
 "placeName":
 "Penzing",
 "ref":
 "pmb90913"}
 ,  {
 "placeName":
 "Währing",
 "ref":
 "pmb90546"}
 ]
}
}, {
 "type":
 "schnitzler-briefe",
 "color":
 "#A63437",
 "filename":
 "L01204",
 "caption":
 "Briefe mit Autorinnen und Autoren",
 "idno":
 "https://schnitzler-briefe.acdh.oeaw.ac.at/L01204.html",
 "head":
 "Arthur Schnitzler an Joseph Victor Widmann, 20. 2. 1902",
 "desc":
{"listPerson":
  [
{
 "persName":
 "Joseph Victor Widmann",
 "ref":
 "pmb3557"}],
 "listPlace":
  [
 {
 "placeName":
 "Wien",
 "ref":
 "pmb50"}
 ,  {
 "placeName":
 "Bern",
 "ref":
 "pmb1223"}
 ]
}
}, {
 "type":
 "URL",
 "subtype":
 "wienerschnitzler",
 "head":
 "Wien",
 "desc":
{"listPlace":
  [
 {
 "placeName":
 "I., Innere Stadt",
 "ref":
 ""}
 ,  {
 "placeName":
 "XVII., Hernals",
 "ref":
 ""}
 ,  {
 "placeName":
 "XIV., Penzing",
 "ref":
 ""}
 ,  {
 "placeName":
 "IX., Alsergrund",
 "ref":
 ""}
 ]
}
}, {
 "type":
 "schnitzler-events",
 "color":
 "#9BC53D",
 "filename":
 "entity/209241/",
 "caption":
 "Ereignisse in der PMB",
 "idno":
 "https://pmb.acdh.oeaw.ac.at/entity/209241/",
 "head":
 "Vortragsübung der Schauspielschule des Konservatoriums der Gesellschaft der Musikfreunde, 20.2.1902",
 "desc":
{"listOrg":
  [
 {
 "orgName":
 "Konservatorium der Gesellschaft der Musikfreunde",
 "ref":
 ""}
 ],
 "listPerson":
  [
{
 "persName":
 "Arthur Schnitzler",
 "ref":
 ""}],
 "listPlace":
  [
 {
 "placeName":
 "Konservatorium der Gesellschaft der Musikfreunde",
 "ref":
 ""}
 ]
}
}, {
 "type":
 "schnitzler-cmif",
 "subtype":
 "#z7240971-fbf6-453b-9f97-eb6aaa8f59ae",
 "color":
 "#654321",
 "caption":
 "Gedruckte Briefwechsel",
 "head":
 "Peter Nansen an Arthur Schnitzler, 20.2.1902",
 "source":
 "Peter Nansen - Arthur Schnitzler: Ein Briefwechsel zweier Geistsverwandter. Hg. Karin Bang. In: Småskrifter fra CØNK, Nr. 9, 2005, S. 1-60."
}] 