[{
 "type":
 "schnitzler-tagebuch",
 "color":
 "#037a33",
 "filename":
 "entry__1902-09-23",
 "caption":
 "Tagebuch",
 "idno":
 "https://schnitzler-tagebuch.acdh.oeaw.ac.at/entry__1902-09-23.html",
 "head":
 "Tagebuch, 23. September 1902",
 "desc":
{"listPerson":
  [
{
 "persName":
 "Olga Schnitzler",
 "ref":
 "person_19832"}],
 "listBibl":
  [
 {
 "title":
 "Der einsame Weg. Schauspiel in fünf Akten",
 "ref":
 "pmb29985"}
 ],
 "listPlace":
  [
 {
 "placeName":
 "Brühl",
 "ref":
 "pmb44413"}
 ]
}
}, {
 "type":
 "wienerschnitzler",
 "color":
 "#6F5106",
 "caption":
 "Wiener Schnitzler",
 "idno":
 "https://wienerschnitzler.org/tag.html#1902-09-23",
 "head":
 "Wien",
 "desc":
{"listPlace":
  [
 {
 "placeName":
 "IX., Alsergrund",
 "ref":
 ""}
 ]
}
}, {
 "type":
 "wienerschnitzler",
 "color":
 "#6F5106",
 "caption":
 "Wiener Schnitzler",
 "idno":
 "https://wienerschnitzler.org/tag.html#1902-09-23",
 "head":
 "Hinterbrühl",
 "desc":
{"listPlace":
  [
 {
 "placeName":
 "Hauptstraße 56",
 "ref":
 ""}
 ]
}
}, {
 "type":
 "schnitzler-bahr",
 "color":
 "#639FF9",
 "filename":
 "L041481",
 "caption":
 "Schnitzler/Bahr",
 "idno":
 "https://schnitzler-bahr.acdh.oeaw.ac.at/L041481.html",
 "head":
 "Paula Dehmel an Bahr, 23. 9. 1902",
 "desc":
{"listPerson":
  [
{
 "persName":
 "Paula Dehmel",
 "ref":
 "pmb2281"},
 {
 "persName":
 "Hermann Bahr",
 "ref":
 "pmb10815"},
 {
 "persName":
 "Hugo von Hofmannsthal",
 "ref":
 "pmb11740"},
 {
 "persName":
 "Gertrude von Hofmannsthal",
 "ref":
 "pmb2292"},
 {
 "persName":
 "Johannes Schlaf",
 "ref":
 "pmb12664"}],
 "listPlace":
  [
 {
 "placeName":
 "Berlin",
 "ref":
 "pmb168"}
 ,  {
 "placeName":
 "Wien",
 "ref":
 "pmb50"}
 ,  {
 "placeName":
 "Wilmersdorf",
 "ref":
 "pmb593"}
 ,  {
 "placeName":
 "Wilhelmsaue",
 "ref":
 "pmb594"}
 ]
}
}, {
 "type":
 "schnitzler-bahr",
 "color":
 "#639FF9",
 "filename":
 "L041482",
 "caption":
 "Schnitzler/Bahr",
 "idno":
 "https://schnitzler-bahr.acdh.oeaw.ac.at/L041482.html",
 "head":
 "Bahr an Hofmannsthal, [nach dem 23. 9. 1902]",
 "desc":
{"listPerson":
  [
{
 "persName":
 "Hermann Bahr",
 "ref":
 "pmb10815"},
 {
 "persName":
 "Hugo von Hofmannsthal",
 "ref":
 "pmb11740"},
 {
 "persName":
 "Paula Dehmel",
 "ref":
 "pmb2281"},
 {
 "persName":
 "Gertrude von Hofmannsthal",
 "ref":
 "pmb2292"}],
 "listPlace":
  [
 {
 "placeName":
 "Wien",
 "ref":
 "pmb50"}
 ]
}
}] 