[{
 "type":
 "schnitzler-tagebuch",
 "color":
 "#037a33",
 "filename":
 "entry__1902-10-06",
 "caption":
 "Tagebuch",
 "idno":
 "https://schnitzler-tagebuch.acdh.oeaw.ac.at/entry__1902-10-06.html",
 "head":
 "Tagebuch, 6. Oktober 1902",
 "desc":
{"listPerson":
  [
{
 "persName":
 "Alice no name provided",
 "ref":
 "person_13149"},
 {
 "persName":
 "Sarmè",
 "ref":
 "person_19578"},
 {
 "persName":
 "Caroline Burger",
 "ref":
 "person_14073"},
 {
 "persName":
 "Olga Schnitzler",
 "ref":
 "person_19832"}]
}
}, {
 "type":
 "schnitzler-briefe",
 "color":
 "#A63437",
 "filename":
 "L03225",
 "caption":
 "Briefe mit Autorinnen und Autoren",
 "idno":
 "https://schnitzler-briefe.acdh.oeaw.ac.at/L03225.html",
 "head":
 "Paul Goldmann an Arthur Schnitzler, 6. 10. [1902]",
 "desc":
{"listPerson":
  [
{
 "persName":
 "Ludwig Fulda",
 "ref":
 "pmb11391"},
 {
 "persName":
 "Paul Goldmann",
 "ref":
 "pmb11485"},
 {
 "persName":
 "Paul Lindau",
 "ref":
 "pmb12078"},
 {
 "persName":
 "Alfred de Musset",
 "ref":
 "pmb12311"},
 {
 "persName":
 "Paul Schlenther",
 "ref":
 "pmb12671"},
 {
 "persName":
 "Olga Schnitzler",
 "ref":
 "pmb2173"},
 {
 "persName":
 "Hugo Felix",
 "ref":
 "pmb3167"}],
 "listBibl":
  [
 {
 "title":
 "Il ne faut jurer de rien",
 "ref":
 "pmb145666"}
 ,  {
 "title":
 "Man soll nichts verschwören. Komödie in 3 Akten",
 "ref":
 "pmb145669"}
 ,  {
 "title":
 "Kaltwasser. Lustspiel in drei Aufzügen",
 "ref":
 "pmb145920"}
 ,  {
 "title":
 "Der Schleier der Beatrice. Schauspiel in fünf Akten",
 "ref":
 "pmb29857"}
 ,  {
 "title":
 "Der einsame Weg. Schauspiel in fünf Akten",
 "ref":
 "pmb29985"}
 ,  {
 "title":
 "Die Zeit",
 "ref":
 "pmb35935"}
 ],
 "listOrg":
  [
 {
 "orgName":
 "Rütten &amp; Loening",
 "ref":
 "pmb29309"}
 ,  {
 "orgName":
 "Neue Freie Presse",
 "ref":
 "pmb29351"}
 ,  {
 "orgName":
 "Berliner Theater",
 "ref":
 "pmb29380"}
 ,  {
 "orgName":
 "Lessing-Theater",
 "ref":
 "pmb35053"}
 ,  {
 "orgName":
 "Burgtheater",
 "ref":
 "pmb36247"}
 ,  {
 "orgName":
 "Volkstheater",
 "ref":
 "pmb36430"}
 ],
 "listPlace":
  [
 {
 "placeName":
 "Frankfurt am Main",
 "ref":
 "pmb146"}
 ,  {
 "placeName":
 "Berlin",
 "ref":
 "pmb168"}
 ,  {
 "placeName":
 "Volkstheater",
 "ref":
 "pmb20"}
 ,  {
 "placeName":
 "Ständetheater",
 "ref":
 "pmb27"}
 ,  {
 "placeName":
 "Dessauer Straße",
 "ref":
 "pmb40583"}
 ,  {
 "placeName":
 "Wien",
 "ref":
 "pmb50"}
 ,  {
 "placeName":
 "Prag",
 "ref":
 "pmb652"}
 ]
}
}, {
 "type":
 "wienerschnitzler",
 "color":
 "#6F5106",
 "caption":
 "Wiener Schnitzler",
 "idno":
 "https://wienerschnitzler.org/tag.html#1902-10-06",
 "head":
 "Wien",
 "desc":
{"listPlace":
  [
 {
 "placeName":
 "XVIII., Währing",
 "ref":
 ""}
 ,  {
 "placeName":
 "IX., Alsergrund",
 "ref":
 ""}
 ]
}
}] 