[{
 "type":
 "schnitzler-tagebuch",
 "color":
 "#037a33",
 "filename":
 "entry__1902-10-26",
 "caption":
 "Tagebuch",
 "idno":
 "https://schnitzler-tagebuch.acdh.oeaw.ac.at/entry__1902-10-26.html",
 "head":
 "Tagebuch, 26. Oktober 1902",
 "desc":
{"listPerson":
  [
{
 "persName":
 "Gustav Schwarzkopf",
 "ref":
 "person_19986"},
 {
 "persName":
 "Max Schwarzkopf",
 "ref":
 "person_19987"},
 {
 "persName":
 "Hugo von Hofmannsthal",
 "ref":
 "person_16293"},
 {
 "persName":
 "Olga Schnitzler",
 "ref":
 "person_19832"}],
 "listPlace":
  [
 {
 "placeName":
 "Rom",
 "ref":
 "pmb445"}
 ]
}
}, {
 "type":
 "schnitzler-briefe",
 "color":
 "#A63437",
 "filename":
 "L03228",
 "caption":
 "Briefe mit Autorinnen und Autoren",
 "idno":
 "https://schnitzler-briefe.acdh.oeaw.ac.at/L03228.html",
 "head":
 "Paul Goldmann an Arthur Schnitzler, 26. 10. [1902]",
 "desc":
{"listPerson":
  [
{
 "persName":
 "Paul Goldmann",
 "ref":
 "pmb11485"},
 {
 "persName":
 "Gerhart Hauptmann",
 "ref":
 "pmb11617"},
 {
 "persName":
 "Agnes Sorma",
 "ref":
 "pmb2299"},
 {
 "persName":
 "Maurice Maeterlinck",
 "ref":
 "pmb12156"},
 {
 "persName":
 "Heinrich Schnitzler",
 "ref":
 "pmb12692"},
 {
 "persName":
 "Olga Schnitzler",
 "ref":
 "pmb2173"}],
 "listBibl":
  [
 {
 "title":
 "Die »neue Richtung«. Polemische Aufsätze über Berliner Theater-Aufführungen",
 "ref":
 "pmb145438"}
 ,  {
 "title":
 "Der Schleier der Beatrice. Schauspiel in fünf Akten",
 "ref":
 "pmb29857"}
 ,  {
 "title":
 "Monna Vanna. Schauspiel in drei Akten",
 "ref":
 "pmb143236"}
 ],
 "listOrg":
  [
 {
 "orgName":
 "Buchhandlung L. Rosner",
 "ref":
 "pmb143542"}
 ,  {
 "orgName":
 "Berliner Theater",
 "ref":
 "pmb29380"}
 ,  {
 "orgName":
 "Deutsches Theater Berlin",
 "ref":
 "pmb35597"}
 ],
 "listPlace":
  [
 {
 "placeName":
 "Berlin",
 "ref":
 "pmb168"}
 ,  {
 "placeName":
 "Wien",
 "ref":
 "pmb50"}
 ,  {
 "placeName":
 "Dessauer Straße",
 "ref":
 "pmb40583"}
 ,  {
 "placeName":
 "Agnetendorf",
 "ref":
 "pmb735"}
 ,  {
 "placeName":
 "Deutsches Theater Berlin",
 "ref":
 "pmb3"}
 ,  {
 "placeName":
 "Haus Wiesenstein",
 "ref":
 "pmb1052"}
 ,  {
 "placeName":
 "Grunewald",
 "ref":
 "pmb129"}
 ]
}
}, {
 "type":
 "pmb",
 "color":
 "#9B5F98",
 "filename":
 "entity/50/",
 "caption":
 "PMB",
 "idno":
 "https://pmb.acdh.oeaw.ac.at/entity/50/",
 "text":
 "Wien"
}] 