[{
 "type":
 "schnitzler-tagebuch",
 "color":
 "#037a33",
 "filename":
 "entry__1902-04-01",
 "caption":
 "Tagebuch",
 "idno":
 "https://schnitzler-tagebuch.acdh.oeaw.ac.at/entry__1902-04-01.html",
 "head":
 "Tagebuch, 1. April 1902",
 "desc":
{"listPerson":
  [
{
 "persName":
 "August Bermann",
 "ref":
 "person_13653"}]
}
}, {
 "type":
 "schnitzler-briefe",
 "color":
 "#A63437",
 "filename":
 "L01215",
 "caption":
 "Briefe mit Autorinnen und Autoren",
 "idno":
 "https://schnitzler-briefe.acdh.oeaw.ac.at/L01215.html",
 "head":
 "Arthur Schnitzler an Richard Beer-Hofmann, 1. 4. 1902",
 "desc":
{"listPerson":
  [
{
 "persName":
 "Richard Beer-Hofmann",
 "ref":
 "pmb10863"},
 {
 "persName":
 "Felix Schlichter",
 "ref":
 "pmb24260"}],
 "listPlace":
  [
 {
 "placeName":
 "I., Innere Stadt",
 "ref":
 "pmb51"}
 ,  {
 "placeName":
 "Rodaun",
 "ref":
 "pmb173"}
 ,  {
 "placeName":
 "Wien",
 "ref":
 "pmb50"}
 ,  {
 "placeName":
 "Liesingerstraße",
 "ref":
 "pmb40101"}
 ]
}
}, {
 "type":
 "schnitzler-briefe",
 "color":
 "#A63437",
 "filename":
 "L01216",
 "caption":
 "Briefe mit Autorinnen und Autoren",
 "idno":
 "https://schnitzler-briefe.acdh.oeaw.ac.at/L01216.html",
 "head":
 "Hermann Bahr an Arthur Schnitzler, 1. 4. 1902",
 "desc":
{"listPerson":
  [
{
 "persName":
 "Hermann Bahr",
 "ref":
 "pmb10815"},
 {
 "persName":
 "Gustav Modry",
 "ref":
 "pmb21514"}],
 "listPlace":
  [
 {
 "placeName":
 "Wien",
 "ref":
 "pmb50"}
 ]
}
}, {
 "type":
 "schnitzler-briefe",
 "color":
 "#A63437",
 "filename":
 "L03203",
 "caption":
 "Briefe mit Autorinnen und Autoren",
 "idno":
 "https://schnitzler-briefe.acdh.oeaw.ac.at/L03203.html",
 "head":
 "Paul Goldmann an Arthur Schnitzler, 1. 4. [1902]",
 "desc":
{"listPerson":
  [
{
 "persName":
 "Paul Goldmann",
 "ref":
 "pmb11485"},
 {
 "persName":
 "Hugo von Hofmannsthal",
 "ref":
 "pmb11740"},
 {
 "persName":
 "Ella Naschauer",
 "ref":
 "pmb21801"},
 {
 "persName":
 "Maximilian Harden",
 "ref":
 "pmb11581"},
 {
 "persName":
 "Carl Seltmann",
 "ref":
 "pmb145407"},
 {
 "persName":
 "Hugo Salus",
 "ref":
 "pmb12611"},
 {
 "persName":
 "Richard Beer-Hofmann",
 "ref":
 "pmb10863"},
 {
 "persName":
 "Heinrich Teweles",
 "ref":
 "pmb12932"},
 {
 "persName":
 "Charlotte Bondy",
 "ref":
 "pmb14384"},
 {
 "persName":
 "Alice Ziegler",
 "ref":
 "pmb118324"},
 {
 "persName":
 "Arnost Ziegler",
 "ref":
 "pmb27472"},
 {
 "persName":
 "Olga Schnitzler",
 "ref":
 "pmb2173"}],
 "listBibl":
  [
 {
 "title":
 "Neue Freie Presse",
 "ref":
 "pmb36374"}
 ,  {
 "title":
 "Die Zeit",
 "ref":
 "pmb35935"}
 ],
 "listPlace":
  [
 {
 "placeName":
 "Prag",
 "ref":
 "pmb652"}
 ,  {
 "placeName":
 "Wien",
 "ref":
 "pmb50"}
 ,  {
 "placeName":
 "Hotel Blauer Stern",
 "ref":
 "pmb93"}
 ,  {
 "placeName":
 "Berlin",
 "ref":
 "pmb168"}
 ,  {
 "placeName":
 "Böhmerwald",
 "ref":
 "pmb145422"}
 ,  {
 "placeName":
 "Brühl",
 "ref":
 "pmb44413"}
 ]
}
}, {
 "type":
 "schnitzler-orte",
 "color":
 "#045344",
 "filename":
 "entity/50/",
 "caption":
 "Aufenthaltsorte",
 "idno":
 "https://pmb.acdh.oeaw.ac.at/entity/50/",
 "head":
 "Wien"
}, {
 "type":
 "schnitzler-bahr",
 "color":
 "#639FF9",
 "filename":
 "L041247",
 "caption":
 "Schnitzler/Bahr",
 "idno":
 "https://schnitzler-bahr.acdh.oeaw.ac.at/L041247.html",
 "head":
 "Bahr an Schnitzler, 1. 4. 1902",
 "desc":
{"listPerson":
  [
{
 "persName":
 "Hermann Bahr",
 "ref":
 "pmb10815"},
 {
 "persName":
 "Gustav Modry",
 "ref":
 "pmb21514"}],
 "listPlace":
  [
 {
 "placeName":
 "Wien",
 "ref":
 "pmb50"}
 ]
}
}, {
 "type":
 "kalliope-verbund",
 "color":
 "#003574",
 "caption":
 "Kalliope Verbundkatalog",
 "idno":
 "http://kalliope-verbund.info/DE-2498-HS00033014",
 "head":
 "Dobert, Paul an Schnitzler, Arthur [Briefe]",
 "text":
 "1 Bl."
}] 