[{
 "type":
 "schnitzler-tagebuch",
 "color":
 "#037a33",
 "filename":
 "entry__1903-10-17",
 "caption":
 "Tagebuch",
 "idno":
 "https://schnitzler-tagebuch.acdh.oeaw.ac.at/entry__1903-10-17.html",
 "head":
 "Tagebuch, 17. Oktober 1903"
}, {
 "type":
 "schnitzler-briefe",
 "color":
 "#A63437",
 "filename":
 "L03350",
 "caption":
 "Briefe mit Autorinnen und Autoren",
 "idno":
 "https://schnitzler-briefe.acdh.oeaw.ac.at/L03350.html",
 "head":
 "Felix Salten an Arthur Schnitzler, [16.? 10. 1903]",
 "desc":
{"listPerson":
  [
{
 "persName":
 "Felix Salten",
 "ref":
 "pmb2167"},
 {
 "persName":
 "Ida Nacht",
 "ref":
 "pmb143671"},
 {
 "persName":
 "Paul Salten",
 "ref":
 "pmb2922"},
 {
 "persName":
 "Hugo von Hofmannsthal",
 "ref":
 "pmb11740"}],
 "listBibl":
  [
 {
 "title":
 "Der Schrei der Liebe. Novelle",
 "ref":
 "pmb76510"}
 ],
 "listPlace":
  [
 {
 "placeName":
 "Wien",
 "ref":
 "pmb50"}
 ,  {
 "placeName":
 "Berlin",
 "ref":
 "pmb168"}
 ]
}
}, {
 "type":
 "schnitzler-briefe",
 "color":
 "#A63437",
 "filename":
 "L01329",
 "caption":
 "Briefe mit Autorinnen und Autoren",
 "idno":
 "https://schnitzler-briefe.acdh.oeaw.ac.at/L01329.html",
 "head":
 "Franz Blei an Arthur Schnitzler, 17. 10. 1903",
 "desc":
{"listPerson":
  [
{
 "persName":
 "Franz Blei",
 "ref":
 "pmb10955"},
 {
 "persName":
 "Fanny Johnson",
 "ref":
 "pmb29141"}],
 "listBibl":
  [
 {
 "title":
 "Reigen. Zehn Dialoge",
 "ref":
 "pmb29855"}
 ,  {
 "title":
 "Der grüne Kakadu. Groteske in einem Akt",
 "ref":
 "pmb29843"}
 ],
 "listOrg":
  [
 {
 "orgName":
 "Die elf Scharfrichter",
 "ref":
 "pmb29779"}
 ],
 "listPlace":
  [
 {
 "placeName":
 "München",
 "ref":
 "pmb45258"}
 ,  {
 "placeName":
 "Wien",
 "ref":
 "pmb50"}
 ,  {
 "placeName":
 "Türkenstraße (München)",
 "ref":
 "pmb50087"}
 ,  {
 "placeName":
 "Arcisstraße",
 "ref":
 "pmb1166"}
 ,  {
 "placeName":
 "Frankgasse 1",
 "ref":
 "pmb168934"}
 ,  {
 "placeName":
 "Edmund-Weiß-Gasse 7",
 "ref":
 "pmb168940"}
 ,  {
 "placeName":
 "England",
 "ref":
 "pmb254"}
 ]
}
}, {
 "type":
 "wienerschnitzler",
 "color":
 "#ECDA98",
 "caption":
 "Wiener Schnitzler",
 "idno":
 "https://wienerschnitzler.org/tag.html#1903-10-17",
 "head":
 "Wien",
 "desc":
{"listPlace":
  [
 {
 "placeName":
 "XVIII., Währing",
 "ref":
 ""}
 ]
}
}, {
 "type":
 "kalliope-verbund",
 "color":
 "#003574",
 "caption":
 "Kalliope Verbundkatalog",
 "idno":
 "http://kalliope-verbund.info/DE-2498-HS00045294",
 "head":
 "Schnitzler, Arthur an Eitel, Gustav Heinrich [Briefe]",
 "text":
 "5 Bl.Durchschl."
}, {
 "type":
 "kalliope-verbund",
 "color":
 "#003574",
 "caption":
 "Kalliope Verbundkatalog",
 "idno":
 "http://kalliope-verbund.info/DE-2498-HS00076795",
 "head":
 "Blei, Franz an Schnitzler, Arthur [Briefe]",
 "text":
 "2 Bl.",
 "desc":
{"listPerson":
  [
{
 "persName":
 "Franz (1871-1942) Blei",
 "ref":
 "http://d-nb.info/gnd/118511653"}]
}
}, {
 "type":
 "kalliope-verbund",
 "color":
 "#003574",
 "caption":
 "Kalliope Verbundkatalog",
 "idno":
 "http://kalliope-verbund.info/DE-2498-HS00048516",
 "head":
 "Schnitzler, Arthur an Reinhard, ... [Briefe]",
 "text":
 "2 Bl.Durchschl."
}] 