[{
 "type":
 "schnitzler-tagebuch",
 "color":
 "#037a33",
 "filename":
 "entry__1903-08-04",
 "caption":
 "Tagebuch",
 "idno":
 "https://schnitzler-tagebuch.acdh.oeaw.ac.at/entry__1903-08-04.html",
 "head":
 "Tagebuch, 4. August 1903",
 "desc":
{"listPerson":
  [
{
 "persName":
 "Josef Kranz",
 "ref":
 "person_17092"},
 {
 "persName":
 "Elisabeth Steinrück",
 "ref":
 "person_20386"},
 {
 "persName":
 "Mirjam Horwitz",
 "ref":
 "person_21546"}],
 "listPlace":
  [
 {
 "placeName":
 "Semmering",
 "ref":
 "pmb91735"}
 ,  {
 "placeName":
 "Maria Schutz",
 "ref":
 "pmb45277"}
 ,  {
 "placeName":
 "Raach am Hochgebirge",
 "ref":
 "pmb91556"}
 ,  {
 "placeName":
 "Rams",
 "ref":
 "pmb91560"}
 ,  {
 "placeName":
 "Kranichberg",
 "ref":
 "pmb91065"}
 ,  {
 "placeName":
 "Gloggnitz",
 "ref":
 "pmb90727"}
 ,  {
 "placeName":
 "XII., Meidling",
 "ref":
 "pmb62"}
 ]
}
}, {
 "type":
 "schnitzler-briefe",
 "color":
 "#A63437",
 "filename":
 "L03380",
 "caption":
 "Briefe mit Autorinnen und Autoren",
 "idno":
 "https://schnitzler-briefe.acdh.oeaw.ac.at/L03380.html",
 "head":
 "Paul Goldmann an Arthur Schnitzler, 4. 8. [1903]",
 "desc":
{"listPerson":
  [
{
 "persName":
 "Paul Goldmann",
 "ref":
 "pmb11485"},
 {
 "persName":
 "Theodore Rottenberg",
 "ref":
 "pmb23674"},
 {
 "persName":
 "Olga Schnitzler",
 "ref":
 "pmb2173"}],
 "listPlace":
  [
 {
 "placeName":
 "Berlin",
 "ref":
 "pmb168"}
 ,  {
 "placeName":
 "Wien",
 "ref":
 "pmb50"}
 ,  {
 "placeName":
 "Frankfurt am Main",
 "ref":
 "pmb146"}
 ,  {
 "placeName":
 "Marienbad",
 "ref":
 "pmb772"}
 ]
}
}, {
 "type":
 "wienerschnitzler",
 "color":
 "#ECDA98",
 "caption":
 "Wiener Schnitzler",
 "idno":
 "https://wienerschnitzler.org/tag.html#1903-08-04",
 "head":
 "Wien",
 "desc":
{"listPlace":
  [
 {
 "placeName":
 "XVIII., Währing",
 "ref":
 ""}
 ,  {
 "placeName":
 "IX., Alsergrund",
 "ref":
 ""}
 ,  {
 "placeName":
 "XII., Meidling",
 "ref":
 ""}
 ]
}
}, {
 "type":
 "wienerschnitzler",
 "color":
 "#ECDA98",
 "caption":
 "Wiener Schnitzler",
 "idno":
 "https://wienerschnitzler.org/tag.html#1903-08-04",
 "head":
 "Semmering"
}, {
 "type":
 "wienerschnitzler",
 "color":
 "#ECDA98",
 "caption":
 "Wiener Schnitzler",
 "idno":
 "https://wienerschnitzler.org/tag.html#1903-08-04",
 "head":
 "Maria Schutz"
}, {
 "type":
 "wienerschnitzler",
 "color":
 "#ECDA98",
 "caption":
 "Wiener Schnitzler",
 "idno":
 "https://wienerschnitzler.org/tag.html#1903-08-04",
 "head":
 "Gloggnitz"
}, {
 "type":
 "wienerschnitzler",
 "color":
 "#ECDA98",
 "caption":
 "Wiener Schnitzler",
 "idno":
 "https://wienerschnitzler.org/tag.html#1903-08-04",
 "head":
 "Kranichberg"
}, {
 "type":
 "wienerschnitzler",
 "color":
 "#ECDA98",
 "caption":
 "Wiener Schnitzler",
 "idno":
 "https://wienerschnitzler.org/tag.html#1903-08-04",
 "head":
 "Raach am Hochgebirge"
}, {
 "type":
 "wienerschnitzler",
 "color":
 "#ECDA98",
 "caption":
 "Wiener Schnitzler",
 "idno":
 "https://wienerschnitzler.org/tag.html#1903-08-04",
 "head":
 "Rams"
}, {
 "type":
 "schnitzler-cmif",
 "subtype":
 "#ya489e21-54d5-40de-a56d-f4548e894428",
 "color":
 "#654321",
 "caption":
 "Gedruckte Briefwechsel",
 "head":
 "Otto Brahm, Ludwig Brahm an Arthur Schnitzler, 4.8.1903",
 "source":
 "Der Briefwechsel Arthur Schnitzler – Otto Brahm. Vollständige Ausgabe. Hg., eingel. und erl. von Oskar Seidlin. Tübingen: Niemeyer, 1975."
}] 