[{
 "type":
 "schnitzler-tagebuch",
 "color":
 "#037a33",
 "filename":
 "entry__1903-12-13",
 "caption":
 "Tagebuch",
 "idno":
 "https://schnitzler-tagebuch.acdh.oeaw.ac.at/entry__1903-12-13.html",
 "head":
 "Tagebuch, 13. Dezember 1903",
 "desc":
{"listPerson":
  [
{
 "persName":
 "Julie Wassermann",
 "ref":
 "person_21109"},
 {
 "persName":
 "Jakob Wassermann",
 "ref":
 "person_21107"}],
 "listBibl":
  [
 {
 "title":
 "Alexander in Babylon",
 "ref":
 "pmb76934"}
 ]
}
}, {
 "type":
 "schnitzler-briefe",
 "color":
 "#A63437",
 "filename":
 "L01350",
 "caption":
 "Briefe mit Autorinnen und Autoren",
 "idno":
 "https://schnitzler-briefe.acdh.oeaw.ac.at/L01350.html",
 "head":
 "Arthur Schnitzler an Hermann Bahr, 13. 12. 1903",
 "desc":
{"listPerson":
  [
{
 "persName":
 "Schott",
 "ref":
 "pmb27690"},
 {
 "persName":
 "Hermann Bahr",
 "ref":
 "pmb10815"}],
 "listBibl":
  [
 {
 "title":
 "Der Meister. Komödie in drei Akten",
 "ref":
 "pmb29983"}
 ],
 "listPlace":
  [
 {
 "placeName":
 "Hotel de Rome",
 "ref":
 "pmb215"}
 ,  {
 "placeName":
 "Berlin",
 "ref":
 "pmb168"}
 ,  {
 "placeName":
 "Wien",
 "ref":
 "pmb50"}
 ,  {
 "placeName":
 "Deutsches Theater Berlin",
 "ref":
 "pmb3"}
 ]
}
}, {
 "type":
 "schnitzler-briefe",
 "color":
 "#A63437",
 "filename":
 "L03389",
 "caption":
 "Briefe mit Autorinnen und Autoren",
 "idno":
 "https://schnitzler-briefe.acdh.oeaw.ac.at/L03389.html",
 "head":
 "Paul Goldmann an Arthur Schnitzler, 13. 12. [1903]",
 "desc":
{"listPerson":
  [
{
 "persName":
 "Paul Goldmann",
 "ref":
 "pmb11485"},
 {
 "persName":
 "Olga Schnitzler",
 "ref":
 "pmb2173"},
 {
 "persName":
 "Heinrich Schnitzler",
 "ref":
 "pmb12692"},
 {
 "persName":
 "Emilie Dorothea Popper",
 "ref":
 "pmb22798"},
 {
 "persName":
 "Louise Schnitzler",
 "ref":
 "pmb12701"},
 {
 "persName":
 "?? [Berliner Musikkorrespondent der National-Zeitung]",
 "ref":
 "pmb147198"},
 {
 "persName":
 "Ludwig Bauer",
 "ref":
 "pmb10848"},
 {
 "persName":
 "Karl Eduard Vehse",
 "ref":
 "pmb27903"},
 {
 "persName":
 "Theodore Rottenberg",
 "ref":
 "pmb23674"},
 {
 "persName":
 "Hermann Bahr",
 "ref":
 "pmb10815"},
 {
 "persName":
 "Richard Beer-Hofmann",
 "ref":
 "pmb10863"}],
 "listBibl":
  [
 {
 "title":
 "Theater- und Kunstnachrichten. [Konzerte.]. [Man schreibt uns aus Berlin]",
 "ref":
 "pmb147196"}
 ,  {
 "title":
 "Neue Freie Presse",
 "ref":
 "pmb36374"}
 ,  {
 "title":
 "Die Gouvernante",
 "ref":
 "pmb33784"}
 ,  {
 "title":
 "[Aus Berlin wird uns gemeldet: »Der einsame Weg«]",
 "ref":
 "pmb147110"}
 ,  {
 "title":
 "Der einsame Weg. Schauspiel in fünf Akten",
 "ref":
 "pmb29985"}
 ,  {
 "title":
 "Briefe, die ihn nicht erreichten",
 "ref":
 "pmb146972"}
 ],
 "listOrg":
  [
 {
 "orgName":
 "National-Zeitung",
 "ref":
 "pmb147105"}
 ,  {
 "orgName":
 "Verein zur Förderung der Künste",
 "ref":
 "pmb147108"}
 ,  {
 "orgName":
 "Reichstag",
 "ref":
 "pmb144185"}
 ],
 "listPlace":
  [
 {
 "placeName":
 "Berlin",
 "ref":
 "pmb168"}
 ,  {
 "placeName":
 "Wien",
 "ref":
 "pmb50"}
 ,  {
 "placeName":
 "Dessauer Straße",
 "ref":
 "pmb40583"}
 ,  {
 "placeName":
 "Semmering",
 "ref":
 "pmb189"}
 ,  {
 "placeName":
 "Frankfurt am Main",
 "ref":
 "pmb146"}
 ,  {
 "placeName":
 "Ägypten",
 "ref":
 "pmb211"}
 ]
}
}, {
 "type":
 "wienerschnitzler",
 "color":
 "#ECDA98",
 "caption":
 "Wiener Schnitzler",
 "idno":
 "https://wienerschnitzler.org/tag.html#1903-12-13",
 "head":
 "Wien",
 "desc":
{"listPlace":
  [
 {
 "placeName":
 "XIII., Hietzing",
 "ref":
 ""}
 ,  {
 "placeName":
 "XVIII., Währing",
 "ref":
 ""}
 ]
}
}, {
 "type":
 "schnitzler-bahr",
 "color":
 "#639FF9",
 "filename":
 "L041067",
 "caption":
 "Schnitzler/Bahr",
 "idno":
 "https://schnitzler-bahr.acdh.oeaw.ac.at/L041067.html",
 "head":
 "Schnitzler an Bahr, 13. 12. 1903",
 "desc":
{"listPerson":
  [
{
 "persName":
 "Hermann Bahr",
 "ref":
 "pmb10815"},
 {
 "persName":
 "Schott",
 "ref":
 "pmb27690"}],
 "listPlace":
  [
 {
 "placeName":
 "Wien",
 "ref":
 "pmb50"}
 ,  {
 "placeName":
 "Berlin",
 "ref":
 "pmb168"}
 ,  {
 "placeName":
 "Hotel de Rome",
 "ref":
 "pmb215"}
 ,  {
 "placeName":
 "Deutsches Theater Berlin",
 "ref":
 "pmb3"}
 ]
}
}, {
 "type":
 "kalliope-verbund",
 "color":
 "#003574",
 "caption":
 "Kalliope Verbundkatalog",
 "idno":
 "http://kalliope-verbund.info/DE-2498-HS00043436",
 "head":
 "Specht, Hedy an Schnitzler, Arthur [Briefe]",
 "text":
 "2 Bl."
}, {
 "type":
 "kalliope-verbund",
 "color":
 "#003574",
 "caption":
 "Kalliope Verbundkatalog",
 "idno":
 "http://kalliope-verbund.info/DE-2498-HS00043587",
 "head":
 "Stettenheim, Julius an Schnitzler, Arthur [Briefe]",
 "text":
 "1 Br., 1 Tel. 3 Bl.Abschr.",
 "desc":
{"listPerson":
  [
{
 "persName":
 "Julius (1831-1916) Stettenheim",
 "ref":
 "http://d-nb.info/gnd/101222548"}]
}
}] 