[{
 "type":
 "schnitzler-tagebuch",
 "color":
 "#037a33",
 "filename":
 "entry__1903-07-29",
 "caption":
 "Tagebuch",
 "idno":
 "https://schnitzler-tagebuch.acdh.oeaw.ac.at/entry__1903-07-29.html",
 "head":
 "Tagebuch, 29. Juli 1903",
 "desc":
{"listPerson":
  [
{
 "persName":
 "Richard Beer-Hofmann",
 "ref":
 "person_13551"},
 {
 "persName":
 "Louis Philipp Friedmann",
 "ref":
 "person_15229"},
 {
 "persName":
 "Paul Goldmann",
 "ref":
 "person_15529"},
 {
 "persName":
 "Helene Louise Jaeger",
 "ref":
 "person_16489"},
 {
 "persName":
 "Paul Marx",
 "ref":
 "person_17958"},
 {
 "persName":
 "Elisabeth Steinrück",
 "ref":
 "person_20386"},
 {
 "persName":
 "Weiss",
 "ref":
 "person_21188"},
 {
 "persName":
 "Mirjam Beer-Hofmann",
 "ref":
 "person_13548"},
 {
 "persName":
 "Paula Beer-Hofmann",
 "ref":
 "person_13550"}],
 "listPlace":
  [
 {
 "placeName":
 "Payerbach",
 "ref":
 "pmb948"}
 ,  {
 "placeName":
 "Eng",
 "ref":
 "pmb90587"}
 ,  {
 "placeName":
 "Breitenstein am Semmering",
 "ref":
 "pmb36503"}
 ,  {
 "placeName":
 "Wien",
 "ref":
 "pmb50"}
 ]
}
}, {
 "type":
 "schnitzler-orte",
 "color":
 "#045344",
 "caption":
 "Aufenthaltsorte",
 "head":
 "Hochschneeberg",
 "desc":
{"listPlace":
  [
 {
 "placeName":
 "Fischerhütte",
 "ref":
 ""}
 ]
}
}, {
 "type":
 "schnitzler-orte",
 "color":
 "#045344",
 "caption":
 "Aufenthaltsorte",
 "head":
 "Wien",
 "desc":
{"listPlace":
  [
 {
 "placeName":
 "IX., Alsergrund",
 "ref":
 ""}
 ]
}
}, {
 "type":
 "schnitzler-orte",
 "color":
 "#045344",
 "caption":
 "Aufenthaltsorte",
 "head":
 "Reichenau an der Rax",
 "desc":
{"listPlace":
  [
 {
 "placeName":
 "Eng",
 "ref":
 ""}
 ]
}
}, {
 "type":
 "schnitzler-orte",
 "color":
 "#045344",
 "caption":
 "Aufenthaltsorte",
 "head":
 "Baumgartnerhaus"
}, {
 "type":
 "schnitzler-orte",
 "color":
 "#045344",
 "caption":
 "Aufenthaltsorte",
 "head":
 "Payerbach",
 "desc":
{"listPlace":
  [
 {
 "placeName":
 "Hotel Leberl",
 "ref":
 ""}
 ]
}
}, {
 "type":
 "schnitzler-orte",
 "color":
 "#045344",
 "caption":
 "Aufenthaltsorte",
 "head":
 "Breitenstein am Semmering",
 "desc":
{"listPlace":
  [
 {
 "placeName":
 "Erholungsheim der Gesellschaft vom Weißen Kreuze",
 "ref":
 ""}
 ]
}
}, {
 "type":
 "schnitzler-traeume",
 "subtype":
 "#ISBN978-3-8353-1029-2",
 "color":
 "#1193CC",
 "caption":
 "Traumtagebuch",
 "head":
 "Traum vom 29. Juli 1903",
 "source":
 "Arthur Schnitzler: Träume. Das Traumtagebuch 1875–1931. Herausgegeben von Peter Michael Braunwarth und Leo A. Lensing. Göttingen: Wallstein 2012 (Bibliothek Janowitz, Bd. 20)"
}] 