[{
 "type":
 "schnitzler-tagebuch",
 "color":
 "#037a33",
 "filename":
 "entry__1903-08-20",
 "caption":
 "Tagebuch",
 "idno":
 "https://schnitzler-tagebuch.acdh.oeaw.ac.at/entry__1903-08-20.html",
 "head":
 "Tagebuch, 20. August 1903",
 "desc":
{"listPerson":
  [
{
 "persName":
 "Paul Goldmann",
 "ref":
 "person_15529"}],
 "listPlace":
  [
 {
 "placeName":
 "Trient",
 "ref":
 "pmb954"}
 ,  {
 "placeName":
 "Caldonazzo",
 "ref":
 "pmb90428"}
 ,  {
 "placeName":
 "Lavarone",
 "ref":
 "pmb461"}
 ]
}
}, {
 "type":
 "schnitzler-briefe",
 "color":
 "#A63437",
 "filename":
 "L01311",
 "caption":
 "Briefe mit Autorinnen und Autoren",
 "idno":
 "https://schnitzler-briefe.acdh.oeaw.ac.at/L01311.html",
 "head":
 "Arthur Schnitzler an Hermann Bahr, 20. 8. 1903",
 "desc":
{"listPerson":
  [
{
 "persName":
 "Arthur Schnitzler",
 "ref":
 "pmb2121"},
 {
 "persName":
 "Hermann Bahr",
 "ref":
 "pmb10815"},
 {
 "persName":
 "Hermann Bahr",
 "ref":
 "pmb10815"}],
 "listPlace":
  [
 {
 "placeName":
 "Lavarone",
 "ref":
 "pmb461"}
 ,  {
 "placeName":
 "Wien",
 "ref":
 "pmb50"}
 ,  {
 "placeName":
 "Ober Sankt Veit",
 "ref":
 "pmb165"}
 ,  {
 "placeName":
 "Veitlissengasse",
 "ref":
 "pmb220"}
 ,  {
 "placeName":
 "Grand Hotel Lavarone",
 "ref":
 "pmb147028"}
 ]
}
}, {
 "type":
 "wienerschnitzler",
 "color":
 "#6F5106",
 "caption":
 "Wiener Schnitzler",
 "idno":
 "https://wienerschnitzler.org/tag.html#1903-08-20",
 "head":
 "Trient",
 "desc":
{"listPlace":
  [
 {
 "placeName":
 "Hotel Carloni",
 "ref":
 ""}
 ]
}
}, {
 "type":
 "wienerschnitzler",
 "color":
 "#6F5106",
 "caption":
 "Wiener Schnitzler",
 "idno":
 "https://wienerschnitzler.org/tag.html#1903-08-20",
 "head":
 "Caldonazzo"
}, {
 "type":
 "wienerschnitzler",
 "color":
 "#6F5106",
 "caption":
 "Wiener Schnitzler",
 "idno":
 "https://wienerschnitzler.org/tag.html#1903-08-20",
 "head":
 "Lavarone",
 "desc":
{"listPlace":
  [
 {
 "placeName":
 "Grand Hotel Lavarone",
 "ref":
 ""}
 ]
}
}, {
 "type":
 "schnitzler-bahr",
 "color":
 "#639FF9",
 "filename":
 "L041061",
 "caption":
 "Schnitzler/Bahr",
 "idno":
 "https://schnitzler-bahr.acdh.oeaw.ac.at/L041061.html",
 "head":
 "Schnitzler an Bahr, 20. 8. 1903",
 "desc":
{"listPerson":
  [
{
 "persName":
 "Hermann Bahr",
 "ref":
 "pmb10815"}],
 "listPlace":
  [
 {
 "placeName":
 "Lavarone",
 "ref":
 "pmb461"}
 ,  {
 "placeName":
 "Wien",
 "ref":
 "pmb50"}
 ,  {
 "placeName":
 "Ober Sankt Veit",
 "ref":
 "pmb165"}
 ,  {
 "placeName":
 "Veitlissengasse",
 "ref":
 "pmb220"}
 ]
}
}, {
 "type":
 "schnitzler-bahr",
 "color":
 "#639FF9",
 "filename":
 "D041434",
 "caption":
 "Schnitzler/Bahr",
 "idno":
 "https://schnitzler-bahr.acdh.oeaw.ac.at/D041434.html",
 "head":
 "Aufzeichnung von Bahr, 20. 8. 1903",
 "desc":
{"listPerson":
  [
{
 "persName":
 "Hermann Bahr",
 "ref":
 "pmb10815"},
 {
 "persName":
 "Franz Strunz",
 "ref":
 "pmb12883"},
 {
 "persName":
 "Theofrastus Bombastus Paracelsus",
 "ref":
 "pmb42949"},
 {
 "persName":
 "Sebastian Franck",
 "ref":
 "pmb3494"},
 {
 "persName":
 "Martin Luther",
 "ref":
 "pmb12136"},
 {
 "persName":
 "Johannes Angelus Silesius",
 "ref":
 "pmb28142"},
 {
 "persName":
 "Gustav Landauer",
 "ref":
 "pmb12031"}],
 "listBibl":
  [
 {
 "title":
 "Die Mutter. In drei Acten",
 "ref":
 "pmb30963"}
 ,  {
 "title":
 "Reigen. Zehn Dialoge",
 "ref":
 "pmb29855"}
 ,  {
 "title":
 "Cherubinischer Wandersmann",
 "ref":
 "pmb31061"}
 ,  {
 "title":
 "Theophrastus Paracelsus",
 "ref":
 "pmb31063"}
 ,  {
 "title":
 "Mystische Schriften",
 "ref":
 "pmb31305"}
 ],
 "listOrg":
  [
 {
 "orgName":
 "Die elf Scharfrichter",
 "ref":
 "pmb29779"}
 ,  {
 "orgName":
 "Bauernfeld-Preis",
 "ref":
 "pmb29675"}
 ]
}
}] 