[{
 "type":
 "schnitzler-tagebuch",
 "color":
 "#037a33",
 "filename":
 "entry__1903-05-30",
 "caption":
 "Tagebuch",
 "idno":
 "https://schnitzler-tagebuch.acdh.oeaw.ac.at/entry__1903-05-30.html",
 "head":
 "Tagebuch, 30. Mai 1903",
 "desc":
{"listPerson":
  [
{
 "persName":
 "Hans Bernhard Schlesinger",
 "ref":
 "person_19731"}],
 "listPlace":
  [
 {
 "placeName":
 "Venedig",
 "ref":
 "pmb462"}
 ,  {
 "placeName":
 "Markusplatz",
 "ref":
 "pmb92388"}
 ,  {
 "placeName":
 "Lido",
 "ref":
 "pmb91143"}
 ]
}
}, {
 "type":
 "wienerschnitzler",
 "color":
 "#6F5106",
 "caption":
 "Wiener Schnitzler",
 "idno":
 "https://wienerschnitzler.org/tag.html#1903-05-30",
 "head":
 "Venedig",
 "desc":
{"listPlace":
  [
 {
 "placeName":
 "Hotel Centrale Vapore",
 "ref":
 ""}
 ,  {
 "placeName":
 "Lido",
 "ref":
 ""}
 ,  {
 "placeName":
 "Piazza San Marco",
 "ref":
 ""}
 ,  {
 "placeName":
 "Gallerie dell’Accademia",
 "ref":
 ""}
 ,  {
 "placeName":
 "San Lazzaro degli Armeni",
 "ref":
 ""}
 ,  {
 "placeName":
 "Ristorante Pilsen",
 "ref":
 ""}
 ]
}
}, {
 "type":
 "schnitzler-kultur",
 "color":
 "#6B4C5A",
 "filename":
 "pmb297198",
 "caption":
 "Kulturveranstaltungen",
 "idno":
 "https://schnitzler-kultur.acdh.oeaw.ac.at/pmb297198.html",
 "head":
 "Besuch der Gallerie dell’Accademia, 30.5.1903",
 "desc":
{"listPerson":
  [
{
 "persName":
 "Arthur Schnitzler",
 "ref":
 ""}],
 "listPlace":
  [
 {
 "placeName":
 "Gallerie dell’Accademia",
 "ref":
 ""}
 ]
}
}] 