[{
 "type":
 "schnitzler-tagebuch",
 "color":
 "#037a33",
 "filename":
 "entry__1903-10-01",
 "caption":
 "Tagebuch",
 "idno":
 "https://schnitzler-tagebuch.acdh.oeaw.ac.at/entry__1903-10-01.html",
 "head":
 "Tagebuch, 1. Oktober 1903"
}, {
 "type":
 "schnitzler-briefe",
 "color":
 "#A63437",
 "filename":
 "L01322",
 "caption":
 "Briefe mit Autorinnen und Autoren",
 "idno":
 "https://schnitzler-briefe.acdh.oeaw.ac.at/L01322.html",
 "head":
 "Hugo von Hofmannsthal an Arthur Schnitzler, [Anfang Oktober 1903]",
 "desc":
{"listPerson":
  [
{
 "persName":
 "Hugo von Hofmannsthal",
 "ref":
 "pmb11740"},
 {
 "persName":
 "Hugo August von Hofmannsthal",
 "ref":
 "pmb11737"}],
 "listBibl":
  [
 {
 "title":
 "Elektra. Tragödie in einem Aufzug",
 "ref":
 "pmb30633"}
 ],
 "listPlace":
  [
 {
 "placeName":
 "Rodaun",
 "ref":
 "pmb173"}
 ,  {
 "placeName":
 "Wien",
 "ref":
 "pmb50"}
 ,  {
 "placeName":
 "Salesianergasse",
 "ref":
 "pmb76"}
 ,  {
 "placeName":
 "Kleines Theater",
 "ref":
 "pmb208"}
 ]
}
}, {
 "type":
 "URL",
 "subtype":
 "wienerschnitzler",
 "head":
 "Wien",
 "desc":
{"listPlace":
  [
 {
 "placeName":
 "XVIII., Währing",
 "ref":
 ""}
 ]
}
}, {
 "type":
 "schnitzler-bahr",
 "color":
 "#639FF9",
 "filename":
 "D041454",
 "caption":
 "Schnitzler/Bahr",
 "idno":
 "https://schnitzler-bahr.acdh.oeaw.ac.at/D041454.html",
 "head":
 "Kalendereintrag von Bahr, [Adressnotizen], Oktober 1903",
 "desc":
{"listPerson":
  [
{
 "persName":
 "Hermann Bahr",
 "ref":
 "pmb10815"},
 {
 "persName":
 "Josef Kranz",
 "ref":
 "pmb3551"},
 {
 "persName":
 "Ferdinand von Fellner-Feldegg",
 "ref":
 "pmb28197"},
 {
 "persName":
 "Albert Langen",
 "ref":
 "pmb3379"},
 {
 "persName":
 "Friedrich Waerndorfer",
 "ref":
 "pmb27882"},
 {
 "persName":
 "Erich Freund",
 "ref":
 "pmb3554"},
 {
 "persName":
 "Felix Dörmann",
 "ref":
 "pmb2425"},
 {
 "persName":
 "Sonja Kaylenska",
 "ref":
 "pmb28204"},
 {
 "persName":
 "Max Reinhardt",
 "ref":
 "pmb12504"},
 {
 "persName":
 "Jenny Rauch",
 "ref":
 "pmb28205"},
 {
 "persName":
 "Sigmund Wessely",
 "ref":
 "pmb28201"}],
 "listPlace":
  [
 {
 "placeName":
 "Magdalenenstraße",
 "ref":
 "pmb340"}
 ,  {
 "placeName":
 "Schellinggasse",
 "ref":
 "pmb341"}
 ,  {
 "placeName":
 "München",
 "ref":
 "pmb45258"}
 ,  {
 "placeName":
 "Kaulbachstraße",
 "ref":
 "pmb350"}
 ,  {
 "placeName":
 "Edmund-Weiß-Gasse",
 "ref":
 "pmb133"}
 ,  {
 "placeName":
 "Weimarer Straße",
 "ref":
 "pmb342"}
 ,  {
 "placeName":
 "Breslau",
 "ref":
 "pmb677"}
 ,  {
 "placeName":
 "Ulica Powstańców Śląskich",
 "ref":
 "pmb351"}
 ,  {
 "placeName":
 "Hotel Riegner",
 "ref":
 "pmb396"}
 ,  {
 "placeName":
 "Berlin",
 "ref":
 "pmb168"}
 ,  {
 "placeName":
 "Meinekestraße",
 "ref":
 "pmb343"}
 ,  {
 "placeName":
 "Singerstraße",
 "ref":
 "pmb353"}
 ,  {
 "placeName":
 "Pension City",
 "ref":
 "pmb354"}
 ,  {
 "placeName":
 "Fontanestraße",
 "ref":
 "pmb344"}
 ,  {
 "placeName":
 "Alexanderufer",
 "ref":
 "pmb352"}
 ,  {
 "placeName":
 "Lerchenfelderstraße",
 "ref":
 "pmb345"}
 ,  {
 "placeName":
 "Börseplatz",
 "ref":
 "pmb447"}
 ]
}
}] 