[{
 "type":
 "schnitzler-tagebuch",
 "color":
 "#037a33",
 "filename":
 "entry__1903-11-01",
 "caption":
 "Tagebuch",
 "idno":
 "https://schnitzler-tagebuch.acdh.oeaw.ac.at/entry__1903-11-01.html",
 "head":
 "Tagebuch, 1. November 1903",
 "desc":
{"listPerson":
  [
{
 "persName":
 "André Antoine",
 "ref":
 "person_13228"},
 {
 "persName":
 "Robert Hirschfeld",
 "ref":
 "person_16228"},
 {
 "persName":
 "Albert Leitich",
 "ref":
 "person_17419"},
 {
 "persName":
 "Eduard Pötzl",
 "ref":
 "person_18841"},
 {
 "persName":
 "Felix Salten",
 "ref":
 "person_19542"},
 {
 "persName":
 "Wilhelm Singer",
 "ref":
 "person_20141"},
 {
 "persName":
 "Siegfried Trebitsch",
 "ref":
 "person_20796"},
 {
 "persName":
 "Adolf Weisse",
 "ref":
 "person_21211"},
 {
 "persName":
 "Hermann Bahr",
 "ref":
 "person_13374"},
 {
 "persName":
 "Josefine Rothenstein",
 "ref":
 "person_19424"}],
 "listBibl":
  [
 {
 "title":
 "Der grüne Kakadu. Groteske in einem Akt",
 "ref":
 "pmb29843"}
 ,  {
 "title":
 "Reigen. Zehn Dialoge",
 "ref":
 "pmb29855"}
 ],
 "listPlace":
  [
 {
 "placeName":
 "Ober-Sankt-Veit",
 "ref":
 "pmb91377"}
 ,  {
 "placeName":
 "Hackenberg",
 "ref":
 "pmb131"}
 ]
}
}, {
 "type":
 "schnitzler-orte",
 "color":
 "#045344",
 "caption":
 "Aufenthaltsorte",
 "head":
 "Wien",
 "desc":
{"listPlace":
  [
 {
 "placeName":
 "XIII., Hietzing",
 "ref":
 ""}
 ,  {
 "placeName":
 "IX., Alsergrund",
 "ref":
 ""}
 ,  {
 "placeName":
 "XIX., Döbling",
 "ref":
 ""}
 ,  {
 "placeName":
 "XVIII., Währing",
 "ref":
 ""}
 ]
}
}, {
 "type":
 "schnitzler-bahr",
 "color":
 "#639FF9",
 "filename":
 "L041485",
 "caption":
 "Schnitzler/Bahr",
 "idno":
 "https://schnitzler-bahr.acdh.oeaw.ac.at/L041485.html",
 "head":
 "Bahr an Hofmannsthal, 1. 11. 1903",
 "desc":
{"listPerson":
  [
{
 "persName":
 "Hermann Bahr",
 "ref":
 "pmb10815"},
 {
 "persName":
 "Hugo von Hofmannsthal",
 "ref":
 "pmb11740"},
 {
 "persName":
 "Gertrude von Hofmannsthal",
 "ref":
 "pmb2292"},
 {
 "persName":
 "Ernest von Koerber",
 "ref":
 "pmb11955"}],
 "listBibl":
  [
 {
 "title":
 "Reigen. Zehn Dialoge",
 "ref":
 "pmb29855"}
 ,  {
 "title":
 "Ein Brief",
 "ref":
 "pmb32165"}
 ],
 "listPlace":
  [
 {
 "placeName":
 "Wien",
 "ref":
 "pmb50"}
 ,  {
 "placeName":
 "Bösendorfer-Saal",
 "ref":
 "pmb4"}
 ],
 "listOrg":
  [
 {
 "orgName":
 "Der Tag",
 "ref":
 "pmb29650"}
 ]
}
}, {
 "type":
 "schnitzler-bahr",
 "color":
 "#639FF9",
 "filename":
 "D041453",
 "caption":
 "Schnitzler/Bahr",
 "idno":
 "https://schnitzler-bahr.acdh.oeaw.ac.at/D041453.html",
 "head":
 "Kalendereintrag von Bahr, [Adressnotizen], November 1903",
 "desc":
{"listPerson":
  [
{
 "persName":
 "Hermann Bahr",
 "ref":
 "pmb10815"},
 {
 "persName":
 "Josef Kranz",
 "ref":
 "pmb3551"},
 {
 "persName":
 "Ferdinand von Fellner-Feldegg",
 "ref":
 "pmb28197"},
 {
 "persName":
 "Friedrich Waerndorfer",
 "ref":
 "pmb27882"},
 {
 "persName":
 "Felix Dörmann",
 "ref":
 "pmb2425"},
 {
 "persName":
 "Max Reinhardt",
 "ref":
 "pmb12504"},
 {
 "persName":
 "Sigmund Wessely",
 "ref":
 "pmb28201"},
 {
 "persName":
 "Gertrud Eysoldt",
 "ref":
 "pmb11284"},
 {
 "persName":
 "Marguerite Lièvre",
 "ref":
 "pmb28202"},
 {
 "persName":
 "Gustav Landauer",
 "ref":
 "pmb12031"},
 {
 "persName":
 "Braun",
 "ref":
 "pmb28203"}],
 "listPlace":
  [
 {
 "placeName":
 "Magdalenenstraße",
 "ref":
 "pmb340"}
 ,  {
 "placeName":
 "Schellinggasse",
 "ref":
 "pmb341"}
 ,  {
 "placeName":
 "Edmund-Weiß-Gasse",
 "ref":
 "pmb133"}
 ,  {
 "placeName":
 "Weimarer Straße",
 "ref":
 "pmb342"}
 ,  {
 "placeName":
 "Meinekestraße",
 "ref":
 "pmb343"}
 ,  {
 "placeName":
 "Fontanestraße",
 "ref":
 "pmb344"}
 ,  {
 "placeName":
 "Lerchenfelderstraße",
 "ref":
 "pmb345"}
 ,  {
 "placeName":
 "Bornimer Straße",
 "ref":
 "pmb346"}
 ,  {
 "placeName":
 "rue du Faubourg-Poissonière",
 "ref":
 "pmb347"}
 ,  {
 "placeName":
 "Hermsdorf",
 "ref":
 "pmb348"}
 ,  {
 "placeName":
 "Stubenring",
 "ref":
 "pmb349"}
 ]
}
}, {
 "type":
 "schnitzler-bahr",
 "color":
 "#639FF9",
 "filename":
 "D041438",
 "caption":
 "Schnitzler/Bahr",
 "idno":
 "https://schnitzler-bahr.acdh.oeaw.ac.at/D041438.html",
 "head":
 "Aufzeichnung von Bahr, 1. 11. 1903",
 "desc":
{"listPerson":
  [
{
 "persName":
 "Hermann Bahr",
 "ref":
 "pmb10815"},
 {
 "persName":
 "Siegfried Trebitsch",
 "ref":
 "pmb12968"},
 {
 "persName":
 "Felix Salten",
 "ref":
 "pmb2167"},
 {
 "persName":
 "Ottilie Salten",
 "ref":
 "pmb23918"}],
 "listBibl":
  [
 {
 "title":
 "Reigen. Zehn Dialoge",
 "ref":
 "pmb29855"}
 ,  {
 "title":
 "Der einsame Weg. Schauspiel in fünf Akten",
 "ref":
 "pmb29985"}
 ]
}
}, {
 "type":
 "schnitzler-bahr",
 "color":
 "#639FF9",
 "filename":
 "D041220",
 "caption":
 "Schnitzler/Bahr",
 "idno":
 "https://schnitzler-bahr.acdh.oeaw.ac.at/D041220.html",
 "head":
 "Tagebuch von Schnitzler, 1. 11. 1903",
 "desc":
{"listPerson":
  [
{
 "persName":
 "Hermann Bahr",
 "ref":
 "pmb10815"},
 {
 "persName":
 "Albert Leitich",
 "ref":
 "pmb2962"},
 {
 "persName":
 "Eduard Pötzl",
 "ref":
 "pmb12460"},
 {
 "persName":
 "Robert Hirschfeld",
 "ref":
 "pmb11707"},
 {
 "persName":
 "Rosa Bahr",
 "ref":
 "pmb13682"},
 {
 "persName":
 "Josefine Rothenstein",
 "ref":
 "pmb23661"},
 {
 "persName":
 "Olga Schnitzler",
 "ref":
 "pmb2173"},
 {
 "persName":
 "André Antoine",
 "ref":
 "pmb2211"},
 {
 "persName":
 "Felix Salten",
 "ref":
 "pmb2167"},
 {
 "persName":
 "Ottilie Salten",
 "ref":
 "pmb23918"},
 {
 "persName":
 "Siegfried Trebitsch",
 "ref":
 "pmb12968"},
 {
 "persName":
 "Wilhelm Singer",
 "ref":
 "pmb2202"},
 {
 "persName":
 "Adolf Weisse",
 "ref":
 "pmb26880"}],
 "listBibl":
  [
 {
 "title":
 "Reigen. Zehn Dialoge",
 "ref":
 "pmb29855"}
 ,  {
 "title":
 "Der grüne Kakadu. Groteske in einem Akt",
 "ref":
 "pmb29843"}
 ,  {
 "title":
 "Theater, Kunst und Literatur. Deutsches Volkstheater [Richard Skowronnek: Der Tugendhof]",
 "ref":
 "pmb30099"}
 ],
 "listPlace":
  [
 {
 "placeName":
 "Ober Sankt Veit",
 "ref":
 "pmb165"}
 ,  {
 "placeName":
 "Bösendorfer-Saal",
 "ref":
 "pmb4"}
 ,  {
 "placeName":
 "Wien",
 "ref":
 "pmb50"}
 ],
 "listOrg":
  [
 {
 "orgName":
 "Concordia",
 "ref":
 "pmb29752"}
 ]
}
}] 