[{
 "type":
 "schnitzler-orte",
 "color":
 "#045344",
 "caption":
 "Aufenthaltsorte",
 "idno":
 "https://pmb.acdh.oeaw.ac.at/entity/50/",
 "head":
 "Wien"
}{
 "type":
 "schnitzler-briefe",
 "color":
 "#A63437",
 "caption":
 "Briefe mit Autorinnen und Autoren",
 "idno":
 "https://schnitzler-briefe.acdh.oeaw.ac.at/L01291.html",
 "head":
 "Hermann Bahr an Arthur Schnitzler, 21. 5. 1903",
 "desc":
{"listPerson":
  [
{
 "persName":
 "Hermann Bahr",
 "ref":
 "pmb10815"}],
 "listOrg":
  [
 {
 "orgName":
 "Pensionsanstalt deutscher Journalisten und Schriftsteller",
 "ref":
 "pmb29757"}
 ],
 "listPlace":
  [
 {
 "placeName":
 "Edlach",
 "ref":
 "pmb470"}
 ,  {
 "placeName":
 "IX., Alsergrund",
 "ref":
 "pmb59"}
 ,  {
 "placeName":
 "Wien",
 "ref":
 "pmb50"}
 ,  {
 "placeName":
 "Frankgasse",
 "ref":
 "pmb397"}
 ,  {
 "placeName":
 "Kuranstalt Dr. Konried",
 "ref":
 "pmb80"}
 ,  {
 "placeName":
 "München",
 "ref":
 "pmb45258"}
 ]
}
}{
 "type":
 "schnitzler-tagebuch",
 "color":
 "#037a33",
 "caption":
 "Tagebuch",
 "idno":
 "https://schnitzler-tagebuch.acdh.oeaw.ac.at/entry__1903-05-21.html",
 "head":
 "Tagebuch, 21. Mai 1903",
 "desc":
{"listPerson":
  [
{
 "persName":
 "Siegfried Trebitsch",
 "ref":
 "person_20796"}],
 "listPlace":
  [
 {
 "placeName":
 "Salmannsdorf",
 "ref":
 "pmb91641"}
 ,  {
 "placeName":
 "Weidlingbach",
 "ref":
 "pmb44394"}
 ,  {
 "placeName":
 "Döbling",
 "ref":
 "pmb64219"}
 ,  {
 "placeName":
 "Gentzgasse",
 "ref":
 "pmb40694"}
 ]
}
}{
 "type":
 "schnitzler-bahr",
 "color":
 "#F9BD63",
 "caption":
 "Schnitzler/Bahr",
 "idno":
 "https://schnitzler-bahr.acdh.oeaw.ac.at/L041259.html",
 "head":
 "Bahr an Schnitzler, 21. 5. 1903",
 "desc":
{"listPerson":
  [
{
 "persName":
 "Hermann Bahr",
 "ref":
 "pmb10815"}],
 "listPlace":
  [
 {
 "placeName":
 "Edlach",
 "ref":
 "pmb470"}
 ,  {
 "placeName":
 "Wien",
 "ref":
 "pmb50"}
 ,  {
 "placeName":
 "IX., Alsergrund",
 "ref":
 "pmb59"}
 ,  {
 "placeName":
 "Frankgasse",
 "ref":
 "pmb397"}
 ,  {
 "placeName":
 "Kuranstalt Dr. Konried",
 "ref":
 "pmb80"}
 ,  {
 "placeName":
 "München",
 "ref":
 "pmb45258"}
 ],
 "listOrg":
  [
 {
 "orgName":
 "Pensionsanstalt deutscher Journalisten und Schriftsteller",
 "ref":
 "pmb29757"}
 ]
}
}] 