[{
 "type":
 "schnitzler-tagebuch",
 "color":
 "#037a33",
 "filename":
 "entry__1903-06-26",
 "caption":
 "Tagebuch",
 "idno":
 "https://schnitzler-tagebuch.acdh.oeaw.ac.at/entry__1903-06-26.html",
 "head":
 "Tagebuch, 26. Juni 1903"
}, {
 "type":
 "schnitzler-briefe",
 "color":
 "#A63437",
 "filename":
 "L01300",
 "caption":
 "Briefe mit Autorinnen und Autoren",
 "idno":
 "https://schnitzler-briefe.acdh.oeaw.ac.at/L01300.html",
 "head":
 "Arthur Schnitzler an Hugo von Hofmannsthal, 26. 6. 1903",
 "desc":
{"listPerson":
  [
{
 "persName":
 "Hugo von Hofmannsthal",
 "ref":
 "pmb11740"},
 {
 "persName":
 "Hermann Bahr",
 "ref":
 "pmb10815"},
 {
 "persName":
 "Hans Bernhard Schlesinger",
 "ref":
 "pmb24239"},
 {
 "persName":
 "Bertha Ober",
 "ref":
 "pmb27700"},
 {
 "persName":
 "Elisa Béha",
 "ref":
 "pmb28511"},
 {
 "persName":
 "Bernardino Luini",
 "ref":
 "pmb20676"},
 {
 "persName":
 "Alexandre père Dumas",
 "ref":
 "pmb11190"},
 {
 "persName":
 "Richard Beer-Hofmann",
 "ref":
 "pmb10863"},
 {
 "persName":
 "Paula Beer-Hofmann",
 "ref":
 "pmb10860"},
 {
 "persName":
 "Mirjam Beer-Hofmann",
 "ref":
 "pmb2668"},
 {
 "persName":
 "Frank Wedekind",
 "ref":
 "pmb13068"},
 {
 "persName":
 "Emanuel Reicher",
 "ref":
 "pmb12491"},
 {
 "persName":
 "Gertrude von Hofmannsthal",
 "ref":
 "pmb2292"}],
 "listBibl":
  [
 {
 "title":
 "Der einsame Weg. Schauspiel in fünf Akten",
 "ref":
 "pmb29985"}
 ,  {
 "title":
 "Professor Bernhardi. Komödie in fünf Akten",
 "ref":
 "pmb30203"}
 ,  {
 "title":
 "Der Weg ins Freie. Roman",
 "ref":
 "pmb29923"}
 ,  {
 "title":
 "Die drei Musketiere",
 "ref":
 "pmb31517"}
 ,  {
 "title":
 "Elektra. Tragödie in einem Aufzug",
 "ref":
 "pmb30633"}
 ,  {
 "title":
 "Das gerettete Venedig. Trauerspiel in fünf Aufzügen",
 "ref":
 "pmb31091"}
 ,  {
 "title":
 "Erdgeist. Tragödie in vier Aufzügen",
 "ref":
 "pmb31323"}
 ,  {
 "title":
 "Faust. Eine Tragödie",
 "ref":
 "pmb30247"}
 ],
 "listPlace":
  [
 {
 "placeName":
 "Wien",
 "ref":
 "pmb50"}
 ,  {
 "placeName":
 "Venedig",
 "ref":
 "pmb462"}
 ,  {
 "placeName":
 "Lugano",
 "ref":
 "pmb885"}
 ,  {
 "placeName":
 "Hôtel du Parc",
 "ref":
 "pmb513"}
 ,  {
 "placeName":
 "Monte Generoso",
 "ref":
 "pmb548"}
 ,  {
 "placeName":
 "Varese",
 "ref":
 "pmb928"}
 ,  {
 "placeName":
 "Grand Hotel Varese",
 "ref":
 "pmb547"}
 ,  {
 "placeName":
 "Torcello",
 "ref":
 "pmb44094"}
 ,  {
 "placeName":
 "Ponte di Rialto",
 "ref":
 "pmb148"}
 ,  {
 "placeName":
 "Padua",
 "ref":
 "pmb44156"}
 ,  {
 "placeName":
 "Vicenza",
 "ref":
 "pmb44151"}
 ,  {
 "placeName":
 "Verona",
 "ref":
 "pmb44153"}
 ,  {
 "placeName":
 "Mailand",
 "ref":
 "pmb886"}
 ,  {
 "placeName":
 "Deutschland",
 "ref":
 "pmb151"}
 ,  {
 "placeName":
 "Schall und Rauch",
 "ref":
 "pmb128"}
 ,  {
 "placeName":
 "Südtirol",
 "ref":
 "pmb969"}
 ,  {
 "placeName":
 "Madonna di Campiglio",
 "ref":
 "pmb427"}
 ]
}
}, {
 "type":
 "schnitzler-orte",
 "color":
 "#045344",
 "caption":
 "Aufenthaltsorte",
 "head":
 "Wien",
 "desc":
{"listPlace":
  [
 {
 "placeName":
 "IX., Alsergrund",
 "ref":
 ""}
 ]
}
}, {
 "type":
 "schnitzler-bahr",
 "color":
 "#639FF9",
 "filename":
 "L041391",
 "caption":
 "Schnitzler/Bahr",
 "idno":
 "https://schnitzler-bahr.acdh.oeaw.ac.at/L041391.html",
 "head":
 "Schnitzler an Hofmannsthal, 26. 6. 1903",
 "desc":
{"listPerson":
  [
{
 "persName":
 "Hugo von Hofmannsthal",
 "ref":
 "pmb11740"},
 {
 "persName":
 "Hans Bernhard Schlesinger",
 "ref":
 "pmb24239"},
 {
 "persName":
 "Bertha Ober",
 "ref":
 "pmb27700"},
 {
 "persName":
 "Elisa Béha",
 "ref":
 "pmb28511"},
 {
 "persName":
 "Bernardino Luini",
 "ref":
 "pmb20676"},
 {
 "persName":
 "Alexandre père Dumas",
 "ref":
 "pmb11190"},
 {
 "persName":
 "Hermann Bahr",
 "ref":
 "pmb10815"},
 {
 "persName":
 "Richard Beer-Hofmann",
 "ref":
 "pmb10863"},
 {
 "persName":
 "Paula Beer-Hofmann",
 "ref":
 "pmb10860"},
 {
 "persName":
 "Mirjam Beer-Hofmann",
 "ref":
 "pmb2668"},
 {
 "persName":
 "Frank Wedekind",
 "ref":
 "pmb13068"},
 {
 "persName":
 "Emanuel Reicher",
 "ref":
 "pmb12491"},
 {
 "persName":
 "Gertrude von Hofmannsthal",
 "ref":
 "pmb2292"}],
 "listBibl":
  [
 {
 "title":
 "Der einsame Weg. Schauspiel in fünf Akten",
 "ref":
 "pmb29985"}
 ,  {
 "title":
 "Der Weg ins Freie. Roman",
 "ref":
 "pmb29923"}
 ,  {
 "title":
 "Die drei Musketiere",
 "ref":
 "pmb31517"}
 ,  {
 "title":
 "Erdgeist. Tragödie in vier Aufzügen",
 "ref":
 "pmb31323"}
 ,  {
 "title":
 "Faust",
 "ref":
 "pmb30247"}
 ],
 "listPlace":
  [
 {
 "placeName":
 "Wien",
 "ref":
 "pmb50"}
 ,  {
 "placeName":
 "Venedig",
 "ref":
 "pmb462"}
 ,  {
 "placeName":
 "Lugano",
 "ref":
 "pmb885"}
 ,  {
 "placeName":
 "Hôtel du Parc",
 "ref":
 "pmb513"}
 ,  {
 "placeName":
 "Varese",
 "ref":
 "pmb928"}
 ,  {
 "placeName":
 "Grand Hotel Varese",
 "ref":
 "pmb547"}
 ,  {
 "placeName":
 "Jihlava",
 "ref":
 "pmb44092"}
 ,  {
 "placeName":
 "Ponte di Rialto",
 "ref":
 "pmb148"}
 ,  {
 "placeName":
 "Padua",
 "ref":
 "pmb44156"}
 ,  {
 "placeName":
 "Vicenza",
 "ref":
 "pmb44151"}
 ,  {
 "placeName":
 "Verona",
 "ref":
 "pmb44153"}
 ,  {
 "placeName":
 "Mailand",
 "ref":
 "pmb886"}
 ,  {
 "placeName":
 "Deutschland",
 "ref":
 "pmb151"}
 ,  {
 "placeName":
 "Schall und Rauch",
 "ref":
 "pmb128"}
 ,  {
 "placeName":
 "Südtirol",
 "ref":
 "pmb969"}
 ,  {
 "placeName":
 "Madonna di Campiglio",
 "ref":
 "pmb427"}
 ]
}
}, {
 "type":
 "schnitzler-cmif",
 "subtype":
 "#y8d39a2f-76d4-4426-8799-986c8bf5bc60",
 "color":
 "#654321",
 "caption":
 "Gedruckte Briefwechsel",
 "head":
 "Samuel Fischer an Arthur Schnitzler, 26.6.1903",
 "source":
 "Samuel Fischer, Hedwig Fischer: Briefwechsel mit Autoren. S. Fischer Verlag, Frankfurt am Main: 1989. (nur Korrespondenz mit Arthur Schnitzler)"
}] 