[{
 "type":
 "schnitzler-tagebuch",
 "color":
 "#037a33",
 "filename":
 "entry__1903-09-07",
 "caption":
 "Tagebuch",
 "idno":
 "https://schnitzler-tagebuch.acdh.oeaw.ac.at/entry__1903-09-07.html",
 "head":
 "Tagebuch, 7. September 1903",
 "desc":
{"listPerson":
  [
{
 "persName":
 "Heinrich Schnitzler",
 "ref":
 "person_19822"},
 {
 "persName":
 "Emilie Sigmund",
 "ref":
 "person_20096"}],
 "listBibl":
  [
 {
 "title":
 "Briefwechsel zwischen Goethe und Zelter",
 "ref":
 "pmb29975"}
 ],
 "listPlace":
  [
 {
 "placeName":
 "Frankgasse",
 "ref":
 "pmb397"}
 ,  {
 "placeName":
 "Gersthof",
 "ref":
 "pmb90705"}
 ]
}
}, {
 "type":
 "schnitzler-briefe",
 "color":
 "#A63437",
 "filename":
 "L03386",
 "caption":
 "Briefe mit Autorinnen und Autoren",
 "idno":
 "https://schnitzler-briefe.acdh.oeaw.ac.at/L03386.html",
 "head":
 "Paul Goldmann an Arthur Schnitzler, 7. 9. 1903",
 "desc":
{"listPerson":
  [
{
 "persName":
 "Paul Goldmann",
 "ref":
 "pmb11485"},
 {
 "persName":
 "Emilio Rizzi",
 "ref":
 "pmb147065"},
 {
 "persName":
 "Georges Rodenbach",
 "ref":
 "pmb23486"},
 {
 "persName":
 "Theodore Rottenberg",
 "ref":
 "pmb23674"},
 {
 "persName":
 "Ludwig Rottenberg",
 "ref":
 "pmb9598"},
 {
 "persName":
 "Josef Rosengart",
 "ref":
 "pmb23593"},
 {
 "persName":
 "Ende
                           1902/Anfang 1903]   ?? [Partner von Theodore Rottenberg",
 "ref":
 "pmb145973"},
 {
 "persName":
 "Fedor Mamroth",
 "ref":
 "pmb4986"},
 {
 "persName":
 "Olga Schnitzler",
 "ref":
 "pmb2173"}],
 "listBibl":
  [
 {
 "title":
 "Der Puppenspieler. Studie in einem Aufzuge",
 "ref":
 "pmb29873"}
 ,  {
 "title":
 "Die stille Stadt. Schauspiel in 4 Akten",
 "ref":
 "pmb148088"}
 ],
 "listOrg":
  [
 {
 "orgName":
 "Deutsches Theater Berlin",
 "ref":
 "pmb35597"}
 ],
 "listPlace":
  [
 {
 "placeName":
 "Rovereto",
 "ref":
 "pmb100867"}
 ,  {
 "placeName":
 "Wien",
 "ref":
 "pmb50"}
 ,  {
 "placeName":
 "Hotel Centrale Rovereto",
 "ref":
 "pmb147062"}
 ,  {
 "placeName":
 "Berlin",
 "ref":
 "pmb168"}
 ,  {
 "placeName":
 "Venedig",
 "ref":
 "pmb462"}
 ]
}
}, {
 "type":
 "schnitzler-orte",
 "color":
 "#045344",
 "caption":
 "Aufenthaltsorte",
 "head":
 "Wien",
 "desc":
{"listPlace":
  [
 {
 "placeName":
 "IX., Alsergrund",
 "ref":
 ""}
 ]
}
}] 