[{
 "type":
 "schnitzler-tagebuch",
 "color":
 "#037a33",
 "filename":
 "entry__1903-05-22",
 "caption":
 "Tagebuch",
 "idno":
 "https://schnitzler-tagebuch.acdh.oeaw.ac.at/entry__1903-05-22.html",
 "head":
 "Tagebuch, 22. Mai 1903",
 "desc":
{"listPerson":
  [
{
 "persName":
 "Edmund Markbreiter",
 "ref":
 "person_17899"},
 {
 "persName":
 "Marie Reinhard",
 "ref":
 "person_19150"},
 {
 "persName":
 "Johann Schnitzler",
 "ref":
 "person_19824"}],
 "listBibl":
  [
 {
 "title":
 "Bruder Straubinger",
 "ref":
 "pmb78513"}
 ],
 "listPlace":
  [
 {
 "placeName":
 "Vereinigte Staaten von Amerika (USA)",
 "ref":
 "pmb43406"}
 ,  {
 "placeName":
 "Schopenhauergasse",
 "ref":
 "pmb92520"}
 ]
}
}, {
 "type":
 "schnitzler-briefe",
 "color":
 "#A63437",
 "filename":
 "L03373",
 "caption":
 "Briefe mit Autorinnen und Autoren",
 "idno":
 "https://schnitzler-briefe.acdh.oeaw.ac.at/L03373.html",
 "head":
 "Paul Goldmann an Arthur Schnitzler, [22.?] 5. [1903]",
 "desc":
{"listPerson":
  [
{
 "persName":
 "Paul Goldmann",
 "ref":
 "pmb11485"},
 {
 "persName":
 "Olga Schnitzler",
 "ref":
 "pmb2173"},
 {
 "persName":
 "Julius Elias",
 "ref":
 "pmb11246"},
 {
 "persName":
 "Otto Brahm",
 "ref":
 "pmb10986"},
 {
 "persName":
 "Georg Hirschfeld",
 "ref":
 "pmb11701"},
 {
 "persName":
 "Elly Petersen",
 "ref":
 "pmb9233"},
 {
 "persName":
 "Paul Jonas",
 "ref":
 "pmb4532"},
 {
 "persName":
 "Oscar Wilde",
 "ref":
 "pmb13115"},
 {
 "persName":
 "Felix Paul Greve",
 "ref":
 "pmb41972"},
 {
 "persName":
 "Johannes Gaulke",
 "ref":
 "pmb146954"},
 {
 "persName":
 "Theodore Rottenberg",
 "ref":
 "pmb23674"},
 {
 "persName":
 "Irene Triesch",
 "ref":
 "pmb12977"}],
 "listBibl":
  [
 {
 "title":
 "Professor Bernhardi. Komödie in fünf Akten",
 "ref":
 "pmb30203"}
 ,  {
 "title":
 "Fink und Fliederbusch. Komödie in drei Akten",
 "ref":
 "pmb30881"}
 ,  {
 "title":
 "Berliner Theater. (»Lebendige Stunden« von Arthur Schnitzler.)",
 "ref":
 "pmb144122"}
 ,  {
 "title":
 "Lebendige Stunden. Vier Einakter",
 "ref":
 "pmb29863"}
 ,  {
 "title":
 "Dorian Grays Bildnis",
 "ref":
 "pmb146947"}
 ,  {
 "title":
 "The picture of Dorian Gray",
 "ref":
 "pmb77598"}
 ,  {
 "title":
 "Dorian Gray",
 "ref":
 "pmb77594"}
 ,  {
 "title":
 "Der Schleier der Beatrice. Schauspiel in fünf Akten",
 "ref":
 "pmb29857"}
 ],
 "listOrg":
  [
 {
 "orgName":
 "J. C. C. Bruns",
 "ref":
 "pmb146925"}
 ,  {
 "orgName":
 "Verlag Max Spohr",
 "ref":
 "pmb146958"}
 ,  {
 "orgName":
 "Deutsches Theater Berlin",
 "ref":
 "pmb35597"}
 ],
 "listPlace":
  [
 {
 "placeName":
 "Berlin",
 "ref":
 "pmb168"}
 ,  {
 "placeName":
 "Wien",
 "ref":
 "pmb50"}
 ,  {
 "placeName":
 "Dessauer Straße",
 "ref":
 "pmb40583"}
 ,  {
 "placeName":
 "Italien",
 "ref":
 "pmb40306"}
 ,  {
 "placeName":
 "Südtirol",
 "ref":
 "pmb969"}
 ,  {
 "placeName":
 "Minden",
 "ref":
 "pmb58843"}
 ,  {
 "placeName":
 "Leipzig",
 "ref":
 "pmb864"}
 ,  {
 "placeName":
 "Schauspielhaus Leipzig",
 "ref":
 "pmb146964"}
 ]
}
}, {
 "type":
 "pmb",
 "color":
 "#9B5F98",
 "filename":
 "entity/50/",
 "caption":
 "PMB",
 "idno":
 "https://pmb.acdh.oeaw.ac.at/entity/50/",
 "text":
 "Wien"
}] 