[{
 "type":
 "schnitzler-tagebuch",
 "color":
 "#037a33",
 "filename":
 "entry__1903-06-01",
 "caption":
 "Tagebuch",
 "idno":
 "https://schnitzler-tagebuch.acdh.oeaw.ac.at/entry__1903-06-01.html",
 "head":
 "Tagebuch, 1. Juni 1903",
 "desc":
{"listPerson":
  [
{
 "persName":
 "Antonio no name provided",
 "ref":
 "person_13234"},
 {
 "persName":
 "Alberto Franchetti",
 "ref":
 "person_15110"},
 {
 "persName":
 "Hans Bernhard Schlesinger",
 "ref":
 "person_19731"}],
 "listPlace":
  [
 {
 "placeName":
 "Venedig",
 "ref":
 "pmb462"}
 ,  {
 "placeName":
 "Public Gardens",
 "ref":
 "pmb90711"}
 ]
}
}, {
 "type":
 "schnitzler-briefe",
 "color":
 "#A63437",
 "filename":
 "L01294",
 "caption":
 "Briefe mit Autorinnen und Autoren",
 "idno":
 "https://schnitzler-briefe.acdh.oeaw.ac.at/L01294.html",
 "head":
 "Arthur Schnitzler, Olga Schnitzler an Richard Beer-Hofmann, 1. 6. 1903",
 "desc":
{"listPerson":
  [
{
 "persName":
 "Arthur Schnitzler",
 "ref":
 "pmb2121"},
 {
 "persName":
 "Olga Schnitzler",
 "ref":
 "pmb2173"},
 {
 "persName":
 "Richard Beer-Hofmann",
 "ref":
 "pmb10863"},
 {
 "persName":
 "Richard Beer-Hofmann",
 "ref":
 "pmb10863"},
 {
 "persName":
 "Olga Schnitzler",
 "ref":
 "pmb2173"}],
 "listPlace":
  [
 {
 "placeName":
 "Rodaun",
 "ref":
 "pmb173"}
 ,  {
 "placeName":
 "Liesingerstraße",
 "ref":
 "pmb40101"}
 ,  {
 "placeName":
 "Österreich",
 "ref":
 "pmb41240"}
 ,  {
 "placeName":
 "Venedig",
 "ref":
 "pmb462"}
 ,  {
 "placeName":
 "Wien",
 "ref":
 "pmb50"}
 ,  {
 "placeName":
 "Palazzo Soranzo Van Axel",
 "ref":
 "pmb50915"}
 ,  {
 "placeName":
 "Stazione di Venezia Santa Lucia",
 "ref":
 "pmb850"}
 ]
}
}, {
 "type":
 "wienerschnitzler",
 "color":
 "#6F5106",
 "caption":
 "Wiener Schnitzler",
 "idno":
 "https://wienerschnitzler.org/tag.html#1903-06-01",
 "head":
 "Venedig",
 "desc":
{"listPlace":
  [
 {
 "placeName":
 "Hotel Centrale Vapore",
 "ref":
 ""}
 ,  {
 "placeName":
 "Ristorante Pilsen",
 "ref":
 ""}
 ,  {
 "placeName":
 "Ca’ d’Oro",
 "ref":
 ""}
 ,  {
 "placeName":
 "Museo Civico",
 "ref":
 ""}
 ,  {
 "placeName":
 "Giardini Napoleonici",
 "ref":
 ""}
 ,  {
 "placeName":
 "Caffè Quadri",
 "ref":
 ""}
 ]
}
}, {
 "type":
 "URL",
 "subtype":
 "pmb",
 "filename":
 "entity/297522/",
 "idno":
 "https://pmb.acdh.oeaw.ac.at/entity/297522/",
 "head":
 "Besuch von Museo Civico, 1.6.1903",
 "desc":
{"listPerson":
  [
{
 "persName":
 "Arthur Schnitzler",
 "ref":
 ""}],
 "listPlace":
  [
 {
 "placeName":
 "Museo Civico",
 "ref":
 ""}
 ]
}
}, {
 "type":
 "URL",
 "subtype":
 "pmb",
 "filename":
 "entity/297519/",
 "idno":
 "https://pmb.acdh.oeaw.ac.at/entity/297519/",
 "head":
 "Besuch des Ca’ d’Oro, 1.6.1903",
 "desc":
{"listPerson":
  [
{
 "persName":
 "Arthur Schnitzler",
 "ref":
 ""}],
 "listPlace":
  [
 {
 "placeName":
 "Ca’ d’Oro",
 "ref":
 ""}
 ]
}
}] 