[{
 "type":
 "schnitzler-tagebuch",
 "color":
 "#037a33",
 "filename":
 "entry__1903-08-18",
 "caption":
 "Tagebuch",
 "idno":
 "https://schnitzler-tagebuch.acdh.oeaw.ac.at/entry__1903-08-18.html",
 "head":
 "Tagebuch, 18. August 1903",
 "desc":
{"listPerson":
  [
{
 "persName":
 "Paul Goldmann",
 "ref":
 "person_15529"},
 {
 "persName":
 "Theodore Rottenberg",
 "ref":
 "person_19434"}],
 "listPlace":
  [
 {
 "placeName":
 "Madonna di Campiglio",
 "ref":
 "pmb427"}
 ,  {
 "placeName":
 "Pinzolo",
 "ref":
 "pmb91484"}
 ,  {
 "placeName":
 "Tione di Trento",
 "ref":
 "pmb91903"}
 ,  {
 "placeName":
 "Condino",
 "ref":
 "pmb90492"}
 ,  {
 "placeName":
 "Storo",
 "ref":
 "pmb91848"}
 ,  {
 "placeName":
 "Val d’Ampola",
 "ref":
 "pmb90152"}
 ,  {
 "placeName":
 "Pieve di Ledro",
 "ref":
 "pmb91480"}
 ,  {
 "placeName":
 "Riva del Garda",
 "ref":
 "pmb465"}
 ]
}
}, {
 "type":
 "schnitzler-briefe",
 "color":
 "#A63437",
 "filename":
 "L01309",
 "caption":
 "Briefe mit Autorinnen und Autoren",
 "idno":
 "https://schnitzler-briefe.acdh.oeaw.ac.at/L01309.html",
 "head":
 "Arthur Schnitzler an Hugo von Hofmannsthal, 18. 8. 1903",
 "desc":
{"listPerson":
  [
{
 "persName":
 "Arthur Schnitzler",
 "ref":
 "pmb2121"},
 {
 "persName":
 "Hugo von Hofmannsthal",
 "ref":
 "pmb11740"},
 {
 "persName":
 "Hugo von Hofmannsthal",
 "ref":
 "pmb11740"}],
 "listPlace":
  [
 {
 "placeName":
 "Badgasse",
 "ref":
 "pmb1006"}
 ,  {
 "placeName":
 "Rodaun",
 "ref":
 "pmb173"}
 ,  {
 "placeName":
 "Madonna di Campiglio",
 "ref":
 "pmb427"}
 ,  {
 "placeName":
 "Wien",
 "ref":
 "pmb50"}
 ]
}
}, {
 "type":
 "schnitzler-briefe",
 "color":
 "#A63437",
 "filename":
 "L03384",
 "caption":
 "Briefe mit Autorinnen und Autoren",
 "idno":
 "https://schnitzler-briefe.acdh.oeaw.ac.at/L03384.html",
 "head":
 "Paul Goldmann, Theodore Rottenberg an Arthur Schnitzler, 18. 8. [1903]",
 "desc":
{"listPerson":
  [
{
 "persName":
 "Paul Goldmann",
 "ref":
 "pmb11485"},
 {
 "persName":
 "Theodore Rottenberg",
 "ref":
 "pmb23674"},
 {
 "persName":
 "Arthur Schnitzler",
 "ref":
 "pmb2121"},
 {
 "persName":
 "Paul Goldmann",
 "ref":
 "pmb11485"},
 {
 "persName":
 "Theodore Rottenberg",
 "ref":
 "pmb23674"}],
 "listPlace":
  [
 {
 "placeName":
 "Riva del Garda",
 "ref":
 "pmb465"}
 ,  {
 "placeName":
 "Palast Hotel Lido",
 "ref":
 "pmb40808"}
 ,  {
 "placeName":
 "Lago di Garda",
 "ref":
 "pmb39975"}
 ,  {
 "placeName":
 "Grand Hotel Lavarone",
 "ref":
 "pmb147028"}
 ,  {
 "placeName":
 "Lavarone",
 "ref":
 "pmb461"}
 ,  {
 "placeName":
 "Madonna di Campiglio",
 "ref":
 "pmb427"}
 ,  {
 "placeName":
 "Trient",
 "ref":
 "pmb954"}
 ,  {
 "placeName":
 "Hotel Carloni",
 "ref":
 "pmb147024"}
 ]
}
}, {
 "type":
 "wienerschnitzler",
 "color":
 "#6F5106",
 "caption":
 "Wiener Schnitzler",
 "idno":
 "https://wienerschnitzler.org/tag.html#1903-08-18",
 "head":
 "Riva del Garda",
 "desc":
{"listPlace":
  [
 {
 "placeName":
 "Palast Hotel Lido",
 "ref":
 ""}
 ]
}
}, {
 "type":
 "wienerschnitzler",
 "color":
 "#6F5106",
 "caption":
 "Wiener Schnitzler",
 "idno":
 "https://wienerschnitzler.org/tag.html#1903-08-18",
 "head":
 "Tione di Trento"
}, {
 "type":
 "wienerschnitzler",
 "color":
 "#6F5106",
 "caption":
 "Wiener Schnitzler",
 "idno":
 "https://wienerschnitzler.org/tag.html#1903-08-18",
 "head":
 "Val d’Ampola"
}, {
 "type":
 "wienerschnitzler",
 "color":
 "#6F5106",
 "caption":
 "Wiener Schnitzler",
 "idno":
 "https://wienerschnitzler.org/tag.html#1903-08-18",
 "head":
 "Pieve di Ledro"
}, {
 "type":
 "wienerschnitzler",
 "color":
 "#6F5106",
 "caption":
 "Wiener Schnitzler",
 "idno":
 "https://wienerschnitzler.org/tag.html#1903-08-18",
 "head":
 "Pinzolo",
 "desc":
{"listPlace":
  [
 {
 "placeName":
 "Madonna di Campiglio",
 "ref":
 ""}
 ]
}
}, {
 "type":
 "wienerschnitzler",
 "color":
 "#6F5106",
 "caption":
 "Wiener Schnitzler",
 "idno":
 "https://wienerschnitzler.org/tag.html#1903-08-18",
 "head":
 "Condino"
}, {
 "type":
 "wienerschnitzler",
 "color":
 "#6F5106",
 "caption":
 "Wiener Schnitzler",
 "idno":
 "https://wienerschnitzler.org/tag.html#1903-08-18",
 "head":
 "Storo"
}, {
 "type":
 "kalliope-verbund",
 "color":
 "#003574",
 "caption":
 "Kalliope Verbundkatalog",
 "idno":
 "http://kalliope-verbund.info/DE-611-HS-1008175",
 "head":
 "Brief von Arthur Schnitzler an Hugo von Hofmannsthal",
 "text":
 "1 Kt., 2 S. (90x138mm)",
 "desc":
{"listPerson":
  [
{
 "persName":
 "Arthur (1862-1931) Schnitzler",
 "ref":
 "http://d-nb.info/gnd/126794855"},
 {
 "persName":
 "Hugo von (1874-1929) Hofmannsthal",
 "ref":
 "http://d-nb.info/gnd/118552759"}]
}
}] 