[{
 "type":
 "schnitzler-tagebuch",
 "color":
 "#037a33",
 "filename":
 "entry__1903-11-30",
 "caption":
 "Tagebuch",
 "idno":
 "https://schnitzler-tagebuch.acdh.oeaw.ac.at/entry__1903-11-30.html",
 "head":
 "Tagebuch, 30. November 1903",
 "desc":
{"listPerson":
  [
{
 "persName":
 "Gustav Frid",
 "ref":
 "person_15194"},
 {
 "persName":
 "Heinrich Schnitzler",
 "ref":
 "person_19822"}],
 "listBibl":
  [
 {
 "title":
 "Der Schleier der Beatrice. Schauspiel in fünf Akten",
 "ref":
 "pmb29857"}
 ,  {
 "title":
 "Der Schleier der Pierrette",
 "ref":
 "pmb30215"}
 ]
}
}, {
 "type":
 "wienerschnitzler",
 "color":
 "#ECDA98",
 "caption":
 "Wiener Schnitzler",
 "idno":
 "https://wienerschnitzler.org/tag.html#1903-11-30",
 "head":
 "Wien",
 "desc":
{"listPlace":
  [
 {
 "placeName":
 "II., Leopoldstadt",
 "ref":
 ""}
 ,  {
 "placeName":
 "IX., Alsergrund",
 "ref":
 ""}
 ,  {
 "placeName":
 "XVIII., Währing",
 "ref":
 ""}
 ]
}
}, {
 "type":
 "schnitzler-bahr",
 "color":
 "#639FF9",
 "filename":
 "D041446",
 "caption":
 "Schnitzler/Bahr",
 "idno":
 "https://schnitzler-bahr.acdh.oeaw.ac.at/D041446.html",
 "head":
 "Aufzeichnung von Bahr, 30. 11. 1903",
 "desc":
{"listPerson":
  [
{
 "persName":
 "Hermann Bahr",
 "ref":
 "pmb10815"},
 {
 "persName":
 "Anton Musger",
 "ref":
 "pmb28176"},
 {
 "persName":
 "Friedrich Waerndorfer",
 "ref":
 "pmb27882"},
 {
 "persName":
 "Koloman Moser",
 "ref":
 "pmb3280"},
 {
 "persName":
 "Gustav Klimt",
 "ref":
 "pmb11941"},
 {
 "persName":
 "Maximilian Harden",
 "ref":
 "pmb11581"}],
 "listBibl":
  [
 {
 "title":
 "Clavigo",
 "ref":
 "pmb31099"}
 ],
 "listPlace":
  [
 {
 "placeName":
 "Secession",
 "ref":
 "pmb7"}
 ,  {
 "placeName":
 "Volkstheater",
 "ref":
 "pmb20"}
 ,  {
 "placeName":
 "Volksgarten",
 "ref":
 "pmb103"}
 ,  {
 "placeName":
 "Italien",
 "ref":
 "pmb40306"}
 ,  {
 "placeName":
 "Griechenland",
 "ref":
 "pmb44293"}
 ,  {
 "placeName":
 "Österreich",
 "ref":
 "pmb41240"}
 ]
}
}] 