[{
 "type":
 "schnitzler-tagebuch",
 "color":
 "#037a33",
 "filename":
 "entry__1903-10-19",
 "caption":
 "Tagebuch",
 "idno":
 "https://schnitzler-tagebuch.acdh.oeaw.ac.at/entry__1903-10-19.html",
 "head":
 "Tagebuch, 19. Oktober 1903",
 "desc":
{"listPerson":
  [
{
 "persName":
 "Gustav Charlé",
 "ref":
 "person_14183"},
 {
 "persName":
 "Emmy Förster",
 "ref":
 "person_15062"},
 {
 "persName":
 "Fritz Grünbaum",
 "ref":
 "person_15697"},
 {
 "persName":
 "Gustav August? Kanitz",
 "ref":
 "person_16679"},
 {
 "persName":
 "Eduard Korngold",
 "ref":
 "person_17052"},
 {
 "persName":
 "Friedrich Mitterwurzer",
 "ref":
 "person_18190"},
 {
 "persName":
 "Gustav Müller",
 "ref":
 "person_18296"},
 {
 "persName":
 "Hans? Oberländer",
 "ref":
 "person_18509"},
 {
 "persName":
 "Paul-Charles-François de Thiébault",
 "ref":
 "person_20702"},
 {
 "persName":
 "Rudolf Gottlieb",
 "ref":
 "person_21617"},
 {
 "persName":
 "Rosa Gottlieb",
 "ref":
 "person_15589"}],
 "listBibl":
  [
 {
 "title":
 "Excentric",
 "ref":
 "pmb29893"}
 ,  {
 "title":
 "An die Alten",
 "ref":
 "pmb35818"}
 ,  {
 "title":
 "Der tapfere Cassian. Puppenspiel in einem Akt",
 "ref":
 "pmb30217"}
 ,  {
 "title":
 "Reigen. Zehn Dialoge",
 "ref":
 "pmb29855"}
 ],
 "listPlace":
  [
 {
 "placeName":
 "Brünn",
 "ref":
 "pmb833"}
 ,  {
 "placeName":
 "Špilberk",
 "ref":
 "pmb91786"}
 ,  {
 "placeName":
 "Padowetz",
 "ref":
 "pmb92434"}
 ]
}
}, {
 "type":
 "URL",
 "subtype":
 "wienerschnitzler",
 "head":
 "Wien",
 "desc":
{"listPlace":
  [
 {
 "placeName":
 "XVIII., Währing",
 "ref":
 ""}
 ]
}
}, {
 "type":
 "URL",
 "subtype":
 "wienerschnitzler",
 "head":
 "Brünn",
 "desc":
{"listPlace":
  [
 {
 "placeName":
 "Deutsches Haus [Brünn]",
 "ref":
 ""}
 ,  {
 "placeName":
 "Grand Hotel [Brünn]",
 "ref":
 ""}
 ,  {
 "placeName":
 "Pisárky",
 "ref":
 ""}
 ,  {
 "placeName":
 "Špilberk",
 "ref":
 ""}
 ,  {
 "placeName":
 "Palác Padowetz",
 "ref":
 ""}
 ]
}
}, {
 "type":
 "schnitzler-events",
 "color":
 "#9BC53D",
 "filename":
 "entity/46261/",
 "caption":
 "Ereignisse in der PMB",
 "idno":
 "https://pmb.acdh.oeaw.ac.at/entity/46261/",
 "head":
 "Lesung von Der tapfere Cassian, Excentric, An die Alten, 19.10.1903",
 "desc":
{"listOrg":
  [
 {
 "orgName":
 "Neue akademische Vereinigung",
 "ref":
 ""}
 ],
 "listBibl":
  [
 {
 "title":
 "Der tapfere Cassian. Puppenspiel in einem Akt",
 "ref":
 ""}
 ,  {
 "title":
 "Excentric",
 "ref":
 ""}
 ,  {
 "title":
 "An die Alten",
 "ref":
 ""}
 ],
 "listPerson":
  [
{
 "persName":
 "Arthur Schnitzler",
 "ref":
 ""}],
 "listPlace":
  [
 {
 "placeName":
 "Deutsches Haus [Brünn]",
 "ref":
 ""}
 ]
}
}] 