[{
 "type":
 "schnitzler-tagebuch",
 "color":
 "#037a33",
 "filename":
 "entry__1903-06-27",
 "caption":
 "Tagebuch",
 "idno":
 "https://schnitzler-tagebuch.acdh.oeaw.ac.at/entry__1903-06-27.html",
 "head":
 "Tagebuch, 27. Juni 1903",
 "desc":
{"listPerson":
  [
{
 "persName":
 "Siegfried Trebitsch",
 "ref":
 "person_20796"}],
 "listPlace":
  [
 {
 "placeName":
 "Neuwaldegg",
 "ref":
 "pmb170"}
 ,  {
 "placeName":
 "Pötzleinsdorf",
 "ref":
 "pmb169"}
 ]
}
}, {
 "type":
 "schnitzler-briefe",
 "color":
 "#A63437",
 "filename":
 "L03375",
 "caption":
 "Briefe mit Autorinnen und Autoren",
 "idno":
 "https://schnitzler-briefe.acdh.oeaw.ac.at/L03375.html",
 "head":
 "Paul Goldmann an Arthur Schnitzler, 27. 6. [1903]",
 "desc":
{"listPerson":
  [
{
 "persName":
 "Friedrich Zelnik",
 "ref":
 "pmb10663"},
 {
 "persName":
 "Ludwig Fulda",
 "ref":
 "pmb11391"},
 {
 "persName":
 "Paul Goldmann",
 "ref":
 "pmb11485"},
 {
 "persName":
 "Heinrich Schnitzler",
 "ref":
 "pmb12692"},
 {
 "persName":
 "Elisabeth von Heyking",
 "ref":
 "pmb143417"},
 {
 "persName":
 "Edmund Friedrich Gustav von Heyking",
 "ref":
 "pmb146978"},
 {
 "persName":
 "Karl Goldmann",
 "ref":
 "pmb17169"},
 {
 "persName":
 "Olga Schnitzler",
 "ref":
 "pmb2173"},
 {
 "persName":
 "Theodore Rottenberg",
 "ref":
 "pmb23674"},
 {
 "persName":
 "Ida d’Albert",
 "ref":
 "pmb2537"}],
 "listBibl":
  [
 {
 "title":
 "Briefe, die ihn nicht erreichten",
 "ref":
 "pmb146972"}
 ,  {
 "title":
 "Reigen. Zehn Dialoge",
 "ref":
 "pmb29855"}
 ,  {
 "title":
 "Fink und Fliederbusch. Komödie in drei Akten",
 "ref":
 "pmb30881"}
 ,  {
 "title":
 "Tägliche Rundschau",
 "ref":
 "pmb41550"}
 ,  {
 "title":
 "Die Tragödie des Triumphes",
 "ref":
 "pmb63526"}
 ,  {
 "title":
 "Briefe, die ihn nicht erreichten...",
 "ref":
 "pmb81530"}
 ],
 "listOrg":
  [
 {
 "orgName":
 "Reichstag",
 "ref":
 "pmb144185"}
 ,  {
 "orgName":
 "Akademisch-dramatischer Verein München",
 "ref":
 "pmb29265"}
 ,  {
 "orgName":
 "Gebrüder Paetel Verlag",
 "ref":
 "pmb29660"}
 ],
 "listPlace":
  [
 {
 "placeName":
 "China",
 "ref":
 "pmb1108"}
 ,  {
 "placeName":
 "Deutschland",
 "ref":
 "pmb151"}
 ,  {
 "placeName":
 "Berlin",
 "ref":
 "pmb168"}
 ,  {
 "placeName":
 "Edmund-Weiß-Gasse 7",
 "ref":
 "pmb168940"}
 ,  {
 "placeName":
 "Italien",
 "ref":
 "pmb40306"}
 ,  {
 "placeName":
 "Dessauer Straße",
 "ref":
 "pmb40583"}
 ,  {
 "placeName":
 "München",
 "ref":
 "pmb45258"}
 ,  {
 "placeName":
 "Lavarone",
 "ref":
 "pmb461"}
 ,  {
 "placeName":
 "Riva del Garda",
 "ref":
 "pmb465"}
 ,  {
 "placeName":
 "Wien",
 "ref":
 "pmb50"}
 ,  {
 "placeName":
 "XVIII., Währing",
 "ref":
 "pmb68"}
 ,  {
 "placeName":
 "Trient",
 "ref":
 "pmb954"}
 ,  {
 "placeName":
 "Südtirol",
 "ref":
 "pmb969"}
 ]
}
}, {
 "type":
 "wienerschnitzler",
 "color":
 "#6F5106",
 "caption":
 "Wiener Schnitzler",
 "idno":
 "https://wienerschnitzler.org/tag.html#1903-06-27",
 "head":
 "Wien",
 "desc":
{"listPlace":
  [
 {
 "placeName":
 "XVIII., Währing",
 "ref":
 ""}
 ,  {
 "placeName":
 "XVII., Hernals",
 "ref":
 ""}
 ,  {
 "placeName":
 "IX., Alsergrund",
 "ref":
 ""}
 ]
}
}, {
 "type":
 "kalliope-verbund",
 "color":
 "#003574",
 "caption":
 "Kalliope Verbundkatalog",
 "idno":
 "http://kalliope-verbund.info/DE-2498-HS00032695",
 "head":
 "Burstein, Isidor an Schnitzler, Arthur [Briefe]",
 "text":
 "2 Bl."
}] 