[{
 "type":
 "schnitzler-tagebuch",
 "color":
 "#037a33",
 "filename":
 "entry__1903-12-08",
 "caption":
 "Tagebuch",
 "idno":
 "https://schnitzler-tagebuch.acdh.oeaw.ac.at/entry__1903-12-08.html",
 "head":
 "Tagebuch, 8. Dezember 1903",
 "desc":
{"listPerson":
  [
{
 "persName":
 "Robert Breuer",
 "ref":
 "person_13965"},
 {
 "persName":
 "David Feuchtwang",
 "ref":
 "person_14959"},
 {
 "persName":
 "Gisela Hajek",
 "ref":
 "person_15854"},
 {
 "persName":
 "Paul Hammerschlag",
 "ref":
 "person_15890"},
 {
 "persName":
 "Irmgard Kaufmann",
 "ref":
 "person_16449"},
 {
 "persName":
 "Josef Kainz",
 "ref":
 "person_16646"},
 {
 "persName":
 "Josef Kaufmann",
 "ref":
 "person_16774"},
 {
 "persName":
 "Rudolf Kaufmann",
 "ref":
 "person_16777"},
 {
 "persName":
 "Josef Preindlsberger",
 "ref":
 "person_18951"},
 {
 "persName":
 "Julius Schnitzler",
 "ref":
 "person_19827"}],
 "listBibl":
  [
 {
 "title":
 "Der einsame Weg. Schauspiel in fünf Akten",
 "ref":
 "pmb29985"}
 ]
}
}, {
 "type":
 "schnitzler-briefe",
 "color":
 "#A63437",
 "filename":
 "L01347",
 "caption":
 "Briefe mit Autorinnen und Autoren",
 "idno":
 "https://schnitzler-briefe.acdh.oeaw.ac.at/L01347.html",
 "head":
 "Hugo von Hofmannsthal an Arthur Schnitzler, 8. 12. [1903]",
 "desc":
{"listPerson":
  [
{
 "persName":
 "Hugo von Hofmannsthal",
 "ref":
 "pmb11740"}],
 "listBibl":
  [
 {
 "title":
 "Frau Bertha Garlan. Roman",
 "ref":
 "pmb30486"}
 ,  {
 "title":
 "Der einsame Weg. Schauspiel in fünf Akten",
 "ref":
 "pmb29985"}
 ,  {
 "title":
 "Sterben. Novelle",
 "ref":
 "pmb30117"}
 ,  {
 "title":
 "Die Frau des Weisen. Novelletten",
 "ref":
 "pmb32460"}
 ,  {
 "title":
 "Elektra. Tragödie in einem Aufzug",
 "ref":
 "pmb30633"}
 ,  {
 "title":
 "Das gerettete Venedig. Trauerspiel in fünf Aufzügen",
 "ref":
 "pmb31091"}
 ],
 "listPlace":
  [
 {
 "placeName":
 "Rodaun",
 "ref":
 "pmb173"}
 ,  {
 "placeName":
 "Wien",
 "ref":
 "pmb50"}
 ,  {
 "placeName":
 "XIII., Hietzing",
 "ref":
 "pmb63"}
 ]
}
}, {
 "type":
 "wienerschnitzler",
 "color":
 "#ECDA98",
 "caption":
 "Wiener Schnitzler",
 "head":
 "Wien",
 "desc":
{"listPlace":
  [
 {
 "placeName":
 "XVIII., Währing",
 "ref":
 ""}
 ,  {
 "placeName":
 "I., Innere Stadt",
 "ref":
 ""}
 ,  {
 "placeName":
 "XIX., Döbling",
 "ref":
 ""}
 ]
}
}, {
 "type":
 "schnitzler-bahr",
 "color":
 "#639FF9",
 "filename":
 "L041628",
 "caption":
 "Schnitzler/Bahr",
 "idno":
 "https://schnitzler-bahr.acdh.oeaw.ac.at/L041628.html",
 "head":
 "Paul Block an Bahr, 8. 12. 1903",
 "desc":
{"listPerson":
  [
{
 "persName":
 "Paul Block",
 "ref":
 "pmb3256"},
 {
 "persName":
 "Hermann Bahr",
 "ref":
 "pmb10815"},
 {
 "persName":
 "Arthur Levysohn",
 "ref":
 "pmb3382"}],
 "listBibl":
  [
 {
 "title":
 "Unter sich. Ein Arme-Leut’-Stück",
 "ref":
 "pmb29909"}
 ,  {
 "title":
 "Reigen. Zehn Dialoge",
 "ref":
 "pmb29855"}
 ],
 "listPlace":
  [
 {
 "placeName":
 "Berlin",
 "ref":
 "pmb168"}
 ,  {
 "placeName":
 "Wien",
 "ref":
 "pmb50"}
 ,  {
 "placeName":
 "Jerusalemer Straße",
 "ref":
 "pmb747"}
 ,  {
 "placeName":
 "Kleines Theater",
 "ref":
 "pmb208"}
 ],
 "listOrg":
  [
 {
 "orgName":
 "Berliner Tageblatt",
 "ref":
 "pmb29329"}
 ]
}
}] 