[{
 "type":
 "schnitzler-tagebuch",
 "color":
 "#037a33",
 "filename":
 "entry__1903-06-15",
 "caption":
 "Tagebuch",
 "idno":
 "https://schnitzler-tagebuch.acdh.oeaw.ac.at/entry__1903-06-15.html",
 "head":
 "Tagebuch, 15. Juni 1903",
 "desc":
{"listPlace":
  [
 {
 "placeName":
 "Bozen",
 "ref":
 "pmb40260"}
 ]
}
}, {
 "type":
 "schnitzler-briefe",
 "color":
 "#A63437",
 "filename":
 "L03374",
 "caption":
 "Briefe mit Autorinnen und Autoren",
 "idno":
 "https://schnitzler-briefe.acdh.oeaw.ac.at/L03374.html",
 "head":
 "Paul Goldmann an Arthur Schnitzler, 15. 6. [1903]",
 "desc":
{"listPerson":
  [
{
 "persName":
 "Paul Goldmann",
 "ref":
 "pmb11485"},
 {
 "persName":
 "Olga Schnitzler",
 "ref":
 "pmb2173"},
 {
 "persName":
 "Ludwig Fulda",
 "ref":
 "pmb11391"},
 {
 "persName":
 "Ida d’Albert",
 "ref":
 "pmb2537"}],
 "listPlace":
  [
 {
 "placeName":
 "Berlin",
 "ref":
 "pmb168"}
 ,  {
 "placeName":
 "Wien",
 "ref":
 "pmb50"}
 ,  {
 "placeName":
 "Dessauer Straße",
 "ref":
 "pmb40583"}
 ,  {
 "placeName":
 "Italien",
 "ref":
 "pmb40306"}
 ,  {
 "placeName":
 "Südtirol",
 "ref":
 "pmb969"}
 ,  {
 "placeName":
 "Baden-Baden",
 "ref":
 "pmb228"}
 ]
}
}, {
 "type":
 "URL",
 "subtype":
 "wienerschnitzler",
 "head":
 "Bozen",
 "desc":
{"listPlace":
  [
 {
 "placeName":
 "Hotel Stiegl",
 "ref":
 ""}
 ]
}
}] 