[{
 "type":
 "schnitzler-orte",
 "color":
 "#045344",
 "caption":
 "Aufenthaltsorte",
 "idno":
 "https://pmb.acdh.oeaw.ac.at/entity/50/",
 "head":
 "Wien"
}{
 "type":
 "schnitzler-briefe",
 "color":
 "#A63437",
 "caption":
 "Briefe mit Autorinnen und Autoren",
 "idno":
 "https://schnitzler-briefe.acdh.oeaw.ac.at/L01351.html",
 "head":
 "Arthur Schnitzler, Olga Schnitzler, Hugo von Hofmannsthal, Gerty von Hofmannsthal, Richard Beer-Hofmann an Hermann Bahr, 14. 12. 1903",
 "desc":
{"listPerson":
  [
{
 "persName":
 "Olga Schnitzler",
 "ref":
 "pmb2173"},
 {
 "persName":
 "Hugo von Hofmannsthal",
 "ref":
 "pmb11740"},
 {
 "persName":
 "Gertrude von Hofmannsthal",
 "ref":
 "pmb2292"},
 {
 "persName":
 "Richard Beer-Hofmann",
 "ref":
 "pmb10863"},
 {
 "persName":
 "Hermann Bahr",
 "ref":
 "pmb10815"}],
 "listBibl":
  [
 {
 "title":
 "Der Meister",
 "ref":
 "pmb29983"}
 ,  {
 "title":
 "Unter sich. Ein Arme-Leut’-Stück",
 "ref":
 "pmb29909"}
 ],
 "listOrg":
  [
 {
 "orgName":
 "Die elf Scharfrichter",
 "ref":
 "pmb29779"}
 ],
 "listPlace":
  [
 {
 "placeName":
 "XVIII., Währing",
 "ref":
 "pmb68"}
 ,  {
 "placeName":
 "XIII., Hietzing",
 "ref":
 "pmb63"}
 ,  {
 "placeName":
 "Wien",
 "ref":
 "pmb50"}
 ,  {
 "placeName":
 "Ober Sankt Veit",
 "ref":
 "pmb165"}
 ,  {
 "placeName":
 "Veitlissengasse",
 "ref":
 "pmb220"}
 ,  {
 "placeName":
 "XIV., Penzing",
 "ref":
 "pmb64"}
 ,  {
 "placeName":
 "Auhofstraße",
 "ref":
 "pmb449"}
 ,  {
 "placeName":
 "Ottakringer Bräu",
 "ref":
 "pmb304"}
 ]
}
}{
 "type":
 "schnitzler-cmif",
 "subtype":
 "#l25eefe1-afeb-4a14-b13f-25d15ae20e34",
 "color":
 "#654321",
 "caption":
 "Gedruckte Briefwechsel",
 "head":
 "Arthur Schnitzler, Olga Schnitzler, Hugo von Hofmannsthal, Gerty von Hofmannsthal, Richard Beer-Hofmann an Hermann Bahr, 14. Dezember 1903",
 "desc":
{"listPerson":
  [
{
 "persName":
 "Schnitzler, Olga",
 "ref":
 "https://d-nb.info/gnd/116848723"},
 {
 "persName":
 "Hofmannsthal, Hugo von",
 "ref":
 "https://d-nb.info/gnd/118552759"},
 {
 "persName":
 "Hofmannsthal, Gerty von",
 "ref":
 "https://d-nb.info/gnd/116952199"},
 {
 "persName":
 "Beer-Hofmann, Richard",
 "ref":
 "https://d-nb.info/gnd/118654756"},
 {
 "persName":
 "Bahr, Hermann",
 "ref":
 "https://d-nb.info/gnd/118505955"}],
 "bibl":
 "Hugo und Gerty von Hofmannsthal - Hermann Bahr: Briefwechsel. 1891-1934. Hg. und kommentiert von Elsbeth Dangel-Pelloquin. Göttingen: Wallstein 2013."
}
}{
 "type":
 "schnitzler-tagebuch",
 "color":
 "#037a33",
 "caption":
 "Tagebuch",
 "idno":
 "https://schnitzler-tagebuch.acdh.oeaw.ac.at/entry__1903-12-14.html",
 "head":
 "Tagebuch, 14. Dezember 1903",
 "desc":
{"listPerson":
  [
{
 "persName":
 "Richard Beer-Hofmann",
 "ref":
 "person_13551"},
 {
 "persName":
 "Ernst von Dohnányi",
 "ref":
 "person_14473"},
 {
 "persName":
 "Paul Goldmann",
 "ref":
 "person_15529"},
 {
 "persName":
 "Gertrude von Hofmannsthal",
 "ref":
 "person_16292"},
 {
 "persName":
 "Wilhelm Karczag",
 "ref":
 "person_16715"},
 {
 "persName":
 "Karl Wallner",
 "ref":
 "person_21074"},
 {
 "persName":
 "Hugo von Hofmannsthal",
 "ref":
 "person_16293"}],
 "listBibl":
  [
 {
 "title":
 "Der Schleier der Pierrette",
 "ref":
 "pmb30215"}
 ],
 "listPlace":
  [
 {
 "placeName":
 "Berlin",
 "ref":
 "pmb168"}
 ]
}
}{
 "type":
 "schnitzler-bahr",
 "color":
 "#F9BD63",
 "caption":
 "Schnitzler/Bahr",
 "idno":
 "https://schnitzler-bahr.acdh.oeaw.ac.at/L041202.html",
 "head":
 "Schnitzler u. a. an Bahr, 14. 12. 1903",
 "desc":
{"listPerson":
  [
{
 "persName":
 "Olga Schnitzler",
 "ref":
 "pmb2173"},
 {
 "persName":
 "Hugo von Hofmannsthal",
 "ref":
 "pmb11740"},
 {
 "persName":
 "Gertrude von Hofmannsthal",
 "ref":
 "pmb2292"},
 {
 "persName":
 "Richard Beer-Hofmann",
 "ref":
 "pmb10863"},
 {
 "persName":
 "Hermann Bahr",
 "ref":
 "pmb10815"}],
 "listBibl":
  [
 {
 "title":
 "Der Meister",
 "ref":
 "pmb29983"}
 ,  {
 "title":
 "Unter sich. Ein Arme-Leut’-Stück",
 "ref":
 "pmb29909"}
 ],
 "listPlace":
  [
 {
 "placeName":
 "Wien",
 "ref":
 "pmb50"}
 ,  {
 "placeName":
 "Auhofstraße",
 "ref":
 "pmb449"}
 ,  {
 "placeName":
 "Ottakringer Bräu",
 "ref":
 "pmb304"}
 ,  {
 "placeName":
 "XVIII., Währing",
 "ref":
 "pmb68"}
 ,  {
 "placeName":
 "XIII., Hietzing",
 "ref":
 "pmb63"}
 ,  {
 "placeName":
 "Ober Sankt Veit",
 "ref":
 "pmb165"}
 ,  {
 "placeName":
 "Veitlissengasse",
 "ref":
 "pmb220"}
 ]
}
}{
 "type":
 "schnitzler-bahr",
 "color":
 "#F9BD63",
 "caption":
 "Schnitzler/Bahr",
 "idno":
 "https://schnitzler-bahr.acdh.oeaw.ac.at/T030036.html",
 "head":
 "Berliner Tageblatt: Hermann Bahr über Arthur Schnitzler, 14. 12. 1903",
 "desc":
{"listPerson":
  [
{
 "persName":
 "Hermann Bahr",
 "ref":
 "pmb10815"}],
 "listBibl":
  [
 {
 "title":
 "Reigen. Zehn Dialoge",
 "ref":
 "pmb29855"}
 ,  {
 "title":
 "Der Meister",
 "ref":
 "pmb29983"}
 ,  {
 "title":
 "Hermann Bahr über Arthur Schnitzler",
 "ref":
 "pmb32075"}
 ,  {
 "title":
 "Berliner Tageblatt",
 "ref":
 "pmb41531"}
 ],
 "listPlace":
  [
 {
 "placeName":
 "München",
 "ref":
 "pmb45258"}
 ,  {
 "placeName":
 "Ludwig-Maximilians-Universität München",
 "ref":
 "pmb1005"}
 ,  {
 "placeName":
 "Wien",
 "ref":
 "pmb50"}
 ],
 "listOrg":
  [
 {
 "orgName":
 "Akademisch-dramatischer Verein München",
 "ref":
 "pmb29265"}
 ,  {
 "orgName":
 "Niederösterreichische Statthalterei",
 "ref":
 "pmb29253"}
 ]
}
}] 