[{
 "type":
 "schnitzler-tagebuch",
 "color":
 "#037a33",
 "filename":
 "entry__1904-09-15",
 "caption":
 "Tagebuch",
 "idno":
 "https://schnitzler-tagebuch.acdh.oeaw.ac.at/entry__1904-09-15.html",
 "head":
 "Tagebuch, 15. September 1904",
 "desc":
{"listPerson":
  [
{
 "persName":
 "Max Eugen Burckhard",
 "ref":
 "person_14065"}],
 "listBibl":
  [
 {
 "title":
 "Zwischenspiel. Komödie in drei Akten",
 "ref":
 "pmb29903"}
 ],
 "listPlace":
  [
 {
 "placeName":
 "Pass Lueg",
 "ref":
 "pmb91173"}
 ]
}
}, {
 "type":
 "schnitzler-briefe",
 "color":
 "#A63437",
 "filename":
 "L01445",
 "caption":
 "Briefe mit Autorinnen und Autoren",
 "idno":
 "https://schnitzler-briefe.acdh.oeaw.ac.at/L01445.html",
 "head":
 "Richard Beer-Hofmann an Arthur Schnitzler, 15. 9. 1904",
 "desc":
{"listPerson":
  [
{
 "persName":
 "Richard Beer-Hofmann",
 "ref":
 "pmb10863"},
 {
 "persName":
 "Paula Beer-Hofmann",
 "ref":
 "pmb10860"},
 {
 "persName":
 "Gabriel Beer-Hofmann",
 "ref":
 "pmb13923"},
 {
 "persName":
 "Naëmah Beer-Hofmann",
 "ref":
 "pmb2534"},
 {
 "persName":
 "Mirjam Beer-Hofmann",
 "ref":
 "pmb2668"},
 {
 "persName":
 "Hermann Beer",
 "ref":
 "pmb13913"}],
 "listPlace":
  [
 {
 "placeName":
 "Bad Aussee",
 "ref":
 "pmb415"}
 ,  {
 "placeName":
 "St. Gilgen",
 "ref":
 "pmb33"}
 ,  {
 "placeName":
 "Baden bei Wien",
 "ref":
 "pmb662"}
 ,  {
 "placeName":
 "Lueg am Wolfgangsee",
 "ref":
 "pmb186"}
 ,  {
 "placeName":
 "Salzburg",
 "ref":
 "pmb30"}
 ,  {
 "placeName":
 "Café Tomaselli",
 "ref":
 "pmb41187"}
 ,  {
 "placeName":
 "Hotel Schiff",
 "ref":
 "pmb42349"}
 ]
}
}, {
 "type":
 "wienerschnitzler",
 "color":
 "#ECDA98",
 "caption":
 "Wiener Schnitzler",
 "head":
 "St. Gilgen",
 "desc":
{"listPlace":
  [
 {
 "placeName":
 "Lueg",
 "ref":
 ""}
 ]
}
}] 