[{
 "type":
 "schnitzler-tagebuch",
 "color":
 "#037a33",
 "filename":
 "entry__1904-02-05",
 "caption":
 "Tagebuch",
 "idno":
 "https://schnitzler-tagebuch.acdh.oeaw.ac.at/entry__1904-02-05.html",
 "head":
 "Tagebuch, 5. Februar 1904",
 "desc":
{"listPerson":
  [
{
 "persName":
 "Otto Brahm",
 "ref":
 "person_13913"},
 {
 "persName":
 "Friedrich Hebbel",
 "ref":
 "person_16009"},
 {
 "persName":
 "Emil Heilbut",
 "ref":
 "person_16036"},
 {
 "persName":
 "Paul Marx",
 "ref":
 "person_17958"},
 {
 "persName":
 "Marie Scherer",
 "ref":
 "person_19652"},
 {
 "persName":
 "Erich Schmidt",
 "ref":
 "person_19759"},
 {
 "persName":
 "Wally Schmidt",
 "ref":
 "person_19770"},
 {
 "persName":
 "Philipp Stein",
 "ref":
 "person_20355"},
 {
 "persName":
 "Elisabeth Steinrück",
 "ref":
 "person_20386"},
 {
 "persName":
 "Paul Jonas",
 "ref":
 "person_16574"}],
 "listBibl":
  [
 {
 "title":
 "Der einsame Weg. Schauspiel in fünf Akten",
 "ref":
 "pmb29985"}
 ,  {
 "title":
 "Tagebücher",
 "ref":
 "pmb30609"}
 ],
 "listPlace":
  [
 {
 "placeName":
 "Berlin",
 "ref":
 "pmb168"}
 ,  {
 "placeName":
 "Alt-Moabit",
 "ref":
 "pmb52918"}
 ]
}
}, {
 "type":
 "schnitzler-briefe",
 "color":
 "#A63437",
 "filename":
 "L01370",
 "caption":
 "Briefe mit Autorinnen und Autoren",
 "idno":
 "https://schnitzler-briefe.acdh.oeaw.ac.at/L01370.html",
 "head":
 "Hermann Bahr an Arthur Schnitzler, 5. 2. 1904",
 "desc":
{"listPerson":
  [
{
 "persName":
 "Hermann Bahr",
 "ref":
 "pmb10815"},
 {
 "persName":
 "Olga Schnitzler",
 "ref":
 "pmb2173"},
 {
 "persName":
 "Otto Brahm",
 "ref":
 "pmb10986"},
 {
 "persName":
 "Marie Reinhard",
 "ref":
 "pmb2378"},
 {
 "persName":
 "Siegfried Trebitsch",
 "ref":
 "pmb12968"}],
 "listBibl":
  [
 {
 "title":
 "Der einsame Weg. Schauspiel in fünf Akten",
 "ref":
 "pmb29985"}
 ,  {
 "title":
 "Der tapfere Cassian. Puppenspiel in einem Akt",
 "ref":
 "pmb30217"}
 ,  {
 "title":
 "Die neue Rundschau",
 "ref":
 "pmb36156"}
 ],
 "listPlace":
  [
 {
 "placeName":
 "Marbach am Bodensee",
 "ref":
 "pmb218"}
 ,  {
 "placeName":
 "Berlin",
 "ref":
 "pmb168"}
 ,  {
 "placeName":
 "Deutschland",
 "ref":
 "pmb151"}
 ,  {
 "placeName":
 "Opatija",
 "ref":
 "pmb38096"}
 ,  {
 "placeName":
 "Taormina",
 "ref":
 "pmb906"}
 ]
}
}, {
 "type":
 "wienerschnitzler",
 "color":
 "#ECDA98",
 "caption":
 "Wiener Schnitzler",
 "idno":
 "https://wienerschnitzler.org/tag.html#1904-02-05",
 "head":
 "Berlin",
 "desc":
{"listPlace":
  [
 {
 "placeName":
 "Hotel Continental [Berlin]",
 "ref":
 ""}
 ,  {
 "placeName":
 "Deutsches Theater Berlin",
 "ref":
 ""}
 ,  {
 "placeName":
 "Kronprinzenufer 7/In den Zelten 14",
 "ref":
 ""}
 ,  {
 "placeName":
 "Alt-Moabit",
 "ref":
 ""}
 ]
}
}, {
 "type":
 "schnitzler-bahr",
 "color":
 "#639FF9",
 "filename":
 "L041270",
 "caption":
 "Schnitzler/Bahr",
 "idno":
 "https://schnitzler-bahr.acdh.oeaw.ac.at/L041270.html",
 "head":
 "Bahr an Schnitzler, 5. 2. 1904",
 "desc":
{"listPerson":
  [
{
 "persName":
 "Hermann Bahr",
 "ref":
 "pmb10815"},
 {
 "persName":
 "Olga Schnitzler",
 "ref":
 "pmb2173"},
 {
 "persName":
 "Otto Brahm",
 "ref":
 "pmb10986"},
 {
 "persName":
 "Marie Reinhard",
 "ref":
 "pmb2378"},
 {
 "persName":
 "Siegfried Trebitsch",
 "ref":
 "pmb12968"}],
 "listBibl":
  [
 {
 "title":
 "Der einsame Weg. Schauspiel in fünf Akten",
 "ref":
 "pmb29985"}
 ],
 "listPlace":
  [
 {
 "placeName":
 "Marbach am Bodensee",
 "ref":
 "pmb218"}
 ,  {
 "placeName":
 "Deutschland",
 "ref":
 "pmb151"}
 ,  {
 "placeName":
 "Opatija",
 "ref":
 "pmb38096"}
 ,  {
 "placeName":
 "Taormina",
 "ref":
 "pmb906"}
 ]
}
}, {
 "type":
 "schnitzler-bahr",
 "color":
 "#639FF9",
 "filename":
 "L041487",
 "caption":
 "Schnitzler/Bahr",
 "idno":
 "https://schnitzler-bahr.acdh.oeaw.ac.at/L041487.html",
 "head":
 "Hofmannsthal an Bahr, 5. 2. 1904",
 "desc":
{"listPerson":
  [
{
 "persName":
 "Hugo von Hofmannsthal",
 "ref":
 "pmb11740"},
 {
 "persName":
 "Hermann Bahr",
 "ref":
 "pmb10815"},
 {
 "persName":
 "Gertrude von Hofmannsthal",
 "ref":
 "pmb2292"},
 {
 "persName":
 "Norbert von Ortner-Rodenstätt",
 "ref":
 "pmb2216"}],
 "listPlace":
  [
 {
 "placeName":
 "Wien",
 "ref":
 "pmb50"}
 ]
}
}, {
 "type":
 "schnitzler-events",
 "color":
 "#9BC53D",
 "filename":
 "entity/233722/",
 "caption":
 "Ereignisse in der PMB",
 "idno":
 "https://pmb.acdh.oeaw.ac.at/entity/233722/",
 "head":
 "Probe von Der einsame Weg, 5.2.1904",
 "desc":
{"listOrg":
  [
 {
 "orgName":
 "Deutsches Theater Berlin",
 "ref":
 ""}
 ],
 "listBibl":
  [
 {
 "title":
 "Der einsame Weg. Schauspiel in fünf Akten",
 "ref":
 ""}
 ],
 "listPerson":
  [
{
 "persName":
 "Arthur Schnitzler",
 "ref":
 ""}],
 "listPlace":
  [
 {
 "placeName":
 "Deutsches Theater Berlin",
 "ref":
 ""}
 ]
}
}] 