[{
 "type":
 "schnitzler-tagebuch",
 "color":
 "#037a33",
 "filename":
 "entry__1904-11-08",
 "caption":
 "Tagebuch",
 "idno":
 "https://schnitzler-tagebuch.acdh.oeaw.ac.at/entry__1904-11-08.html",
 "head":
 "Tagebuch, 8. November 1904",
 "desc":
{"listPerson":
  [
{
 "persName":
 "Rosa Albach-Retty",
 "ref":
 "person_13123"},
 {
 "persName":
 "Artur Fleischer",
 "ref":
 "person_15032"},
 {
 "persName":
 "Fritz Freund",
 "ref":
 "person_15183"},
 {
 "persName":
 "Rosa Hochsinger",
 "ref":
 "person_16245"},
 {
 "persName":
 "Hermann Kienzl",
 "ref":
 "person_16836"},
 {
 "persName":
 "Louise Schnitzler",
 "ref":
 "person_19831"},
 {
 "persName":
 "Robert Schumann",
 "ref":
 "person_19942"},
 {
 "persName":
 "Anna Elisabeth Sikora",
 "ref":
 "person_20097"},
 {
 "persName":
 "Anna Sikora",
 "ref":
 "person_20523"},
 {
 "persName":
 "Sigmund Wimmer",
 "ref":
 "person_21361"},
 {
 "persName":
 "Lotte Witt",
 "ref":
 "person_21403"}],
 "listBibl":
  [
 {
 "title":
 "Literatur",
 "ref":
 "pmb29869"}
 ,  {
 "title":
 "Zwischenspiel. Komödie in drei Akten",
 "ref":
 "pmb29903"}
 ,  {
 "title":
 "Das Glück (La veine)",
 "ref":
 "pmb77043"}
 ,  {
 "title":
 "Die beiden Schulen",
 "ref":
 "pmb77044"}
 ,  {
 "title":
 "Symphonie Nr. 3 Es-Dur op. 97",
 "ref":
 "pmb31587"}
 ],
 "listPlace":
  [
 {
 "placeName":
 "Deutsches Volkstheater",
 "ref":
 "pmb92202"}
 ]
}
}, {
 "type":
 "schnitzler-briefe",
 "color":
 "#A63437",
 "filename":
 "L01467",
 "caption":
 "Briefe mit Autorinnen und Autoren",
 "idno":
 "https://schnitzler-briefe.acdh.oeaw.ac.at/L01467.html",
 "head":
 "Arthur Schnitzler an Richard Beer-Hofmann, 8. 11. 1904",
 "desc":
{"listPerson":
  [
{
 "persName":
 "Richard Beer-Hofmann",
 "ref":
 "pmb10863"},
 {
 "persName":
 "Rudolf Berger",
 "ref":
 "pmb41731"}],
 "listBibl":
  [
 {
 "title":
 "Der grüne Kakadu. Groteske in einem Akt",
 "ref":
 "pmb29843"}
 ,  {
 "title":
 "Der tapfere Cassian. Puppenspiel in einem Akt",
 "ref":
 "pmb30217"}
 ],
 "listPlace":
  [
 {
 "placeName":
 "Wien",
 "ref":
 "pmb50"}
 ,  {
 "placeName":
 "Rodaun",
 "ref":
 "pmb173"}
 ,  {
 "placeName":
 "Liesingerstraße",
 "ref":
 "pmb40101"}
 ,  {
 "placeName":
 "Edmund-Weiß-Gasse",
 "ref":
 "pmb133"}
 ,  {
 "placeName":
 "Berlin",
 "ref":
 "pmb168"}
 ]
}
}, {
 "type":
 "URL",
 "subtype":
 "wienerschnitzler",
 "head":
 "Wien",
 "desc":
{"listPlace":
  [
 {
 "placeName":
 "VIII., Josefstadt",
 "ref":
 ""}
 ,  {
 "placeName":
 "VII., Neubau",
 "ref":
 ""}
 ,  {
 "placeName":
 "XVIII., Währing",
 "ref":
 ""}
 ]
}
}, {
 "type":
 "schnitzler-events",
 "color":
 "#9BC53D",
 "filename":
 "entity/209339/",
 "caption":
 "Ereignisse in der PMB",
 "idno":
 "https://pmb.acdh.oeaw.ac.at/entity/209339/",
 "head":
 "Aufführung von Die beiden Schulen, 8.11.1904",
 "desc":
{"listOrg":
  [
 {
 "orgName":
 "Volkstheater",
 "ref":
 ""}
 ],
 "listBibl":
  [
 {
 "title":
 "Die beiden Schulen",
 "ref":
 ""}
 ],
 "listPerson":
  [
{
 "persName":
 "Arthur Schnitzler",
 "ref":
 ""}],
 "listPlace":
  [
 {
 "placeName":
 "Volkstheater",
 "ref":
 ""}
 ]
}
}] 