[{
 "type":
 "schnitzler-tagebuch",
 "color":
 "#037a33",
 "filename":
 "entry__1904-02-15",
 "caption":
 "Tagebuch",
 "idno":
 "https://schnitzler-tagebuch.acdh.oeaw.ac.at/entry__1904-02-15.html",
 "head":
 "Tagebuch, 15. Februar 1904",
 "desc":
{"listPerson":
  [
{
 "persName":
 "Auguste Chlum",
 "ref":
 "person_14199"},
 {
 "persName":
 "Felix Dörmann",
 "ref":
 "person_14472"},
 {
 "persName":
 "Marie Glümer",
 "ref":
 "person_15485"},
 {
 "persName":
 "Siegfried Jacobsohn",
 "ref":
 "person_16477"},
 {
 "persName":
 "Arthur Kahane",
 "ref":
 "person_16632"},
 {
 "persName":
 "Elisabeth Steinrück",
 "ref":
 "person_20386"},
 {
 "persName":
 "Siegfried Trebitsch",
 "ref":
 "person_20796"},
 {
 "persName":
 "Franz Wolfbauer",
 "ref":
 "person_21434"},
 {
 "persName":
 "Marianne Wulf",
 "ref":
 "person_21477"},
 {
 "persName":
 "Mirjam Horwitz",
 "ref":
 "person_21546"},
 {
 "persName":
 "Albert Steinrück",
 "ref":
 "person_20383"},
 {
 "persName":
 "Hugo von Hofmannsthal",
 "ref":
 "person_16293"}],
 "listBibl":
  [
 {
 "title":
 "Der einsame Weg. Schauspiel in fünf Akten",
 "ref":
 "pmb29985"}
 ],
 "listPlace":
  [
 {
 "placeName":
 "Potsdam",
 "ref":
 "pmb56027"}
 ]
}
}, {
 "type":
 "schnitzler-briefe",
 "color":
 "#A63437",
 "filename":
 "L01373",
 "caption":
 "Briefe mit Autorinnen und Autoren",
 "idno":
 "https://schnitzler-briefe.acdh.oeaw.ac.at/L01373.html",
 "head":
 "Hermann Bahr an Arthur Schnitzler, 15. 2. 1904",
 "desc":
{"listPerson":
  [
{
 "persName":
 "Hermann Bahr",
 "ref":
 "pmb10815"},
 {
 "persName":
 "Siegfried Trebitsch",
 "ref":
 "pmb12968"}],
 "listBibl":
  [
 {
 "title":
 "Der einsame Weg. Schauspiel in fünf Akten",
 "ref":
 "pmb29985"}
 ],
 "listPlace":
  [
 {
 "placeName":
 "Opatija",
 "ref":
 "pmb38096"}
 ,  {
 "placeName":
 "XVIII., Währing",
 "ref":
 "pmb68"}
 ,  {
 "placeName":
 "Wien",
 "ref":
 "pmb50"}
 ,  {
 "placeName":
 "Edmund-Weiß-Gasse 7",
 "ref":
 "pmb168940"}
 ,  {
 "placeName":
 "Hotel Guarnero",
 "ref":
 "pmb306"}
 ]
}
}, {
 "type":
 "schnitzler-briefe",
 "color":
 "#A63437",
 "filename":
 "L01374",
 "caption":
 "Briefe mit Autorinnen und Autoren",
 "idno":
 "https://schnitzler-briefe.acdh.oeaw.ac.at/L01374.html",
 "head":
 "Thomas Mann an Arthur Schnitzler, 15. 2. 1904",
 "desc":
{"listPerson":
  [
{
 "persName":
 "Thomas Mann",
 "ref":
 "pmb12176"},
 {
 "persName":
 "Samuel Fischer",
 "ref":
 "pmb11324"}],
 "listBibl":
  [
 {
 "title":
 "Der einsame Weg. Schauspiel in fünf Akten",
 "ref":
 "pmb29985"}
 ,  {
 "title":
 "Lebendige Stunden. Vier Einakter",
 "ref":
 "pmb29863"}
 ],
 "listPlace":
  [
 {
 "placeName":
 "München",
 "ref":
 "pmb45258"}
 ,  {
 "placeName":
 "Wien",
 "ref":
 "pmb50"}
 ,  {
 "placeName":
 "Konradstraße",
 "ref":
 "pmb1241"}
 ]
}
}, {
 "type":
 "wienerschnitzler",
 "color":
 "#ECDA98",
 "caption":
 "Wiener Schnitzler",
 "idno":
 "https://wienerschnitzler.org/tag.html#1904-02-15",
 "head":
 "Berlin",
 "desc":
{"listPlace":
  [
 {
 "placeName":
 "Hotel Continental [Berlin]",
 "ref":
 ""}
 ,  {
 "placeName":
 "Restaurant Wedl",
 "ref":
 ""}
 ,  {
 "placeName":
 "Augsburger Straße",
 "ref":
 ""}
 ]
}
}, {
 "type":
 "wienerschnitzler",
 "color":
 "#ECDA98",
 "caption":
 "Wiener Schnitzler",
 "idno":
 "https://wienerschnitzler.org/tag.html#1904-02-15",
 "head":
 "Potsdam",
 "desc":
{"listPlace":
  [
 {
 "placeName":
 "Schloss Sanssouci",
 "ref":
 ""}
 ]
}
}, {
 "type":
 "schnitzler-bahr",
 "color":
 "#639FF9",
 "filename":
 "L041272",
 "caption":
 "Schnitzler/Bahr",
 "idno":
 "https://schnitzler-bahr.acdh.oeaw.ac.at/L041272.html",
 "head":
 "Bahr an Schnitzler, 15. 2. 1904",
 "desc":
{"listPerson":
  [
{
 "persName":
 "Hermann Bahr",
 "ref":
 "pmb10815"},
 {
 "persName":
 "Siegfried Trebitsch",
 "ref":
 "pmb12968"}],
 "listBibl":
  [
 {
 "title":
 "Der einsame Weg. Schauspiel in fünf Akten",
 "ref":
 "pmb29985"}
 ],
 "listPlace":
  [
 {
 "placeName":
 "Opatija",
 "ref":
 "pmb38096"}
 ,  {
 "placeName":
 "Wien",
 "ref":
 "pmb50"}
 ,  {
 "placeName":
 "XVIII., Währing",
 "ref":
 "pmb68"}
 ,  {
 "placeName":
 "Edmund-Weiß-Gasse",
 "ref":
 "pmb133"}
 ,  {
 "placeName":
 "Hotel Guarnero",
 "ref":
 "pmb306"}
 ]
}
}, {
 "type":
 "schnitzler-bahr",
 "color":
 "#639FF9",
 "filename":
 "L041645",
 "caption":
 "Schnitzler/Bahr",
 "idno":
 "https://schnitzler-bahr.acdh.oeaw.ac.at/L041645.html",
 "head":
 "Stephan Epstein an Bahr, 15. 2. 1904",
 "desc":
{"listPerson":
  [
{
 "persName":
 "Stephan Epstein",
 "ref":
 "pmb2199"},
 {
 "persName":
 "Hermann Bahr",
 "ref":
 "pmb10815"},
 {
 "persName":
 "André Antoine",
 "ref":
 "pmb2211"},
 {
 "persName":
 "Paul Ginisty",
 "ref":
 "pmb28001"},
 {
 "persName":
 "William Shakespeare",
 "ref":
 "pmb2412"},
 {
 "persName":
 "Alexandre père Dumas",
 "ref":
 "pmb11190"},
 {
 "persName":
 "Pedro Calderón de la Barca",
 "ref":
 "pmb11068"},
 {
 "persName":
 "Hermann Sudermann",
 "ref":
 "pmb12899"},
 {
 "persName":
 "Thubten Gyatsho",
 "ref":
 "pmb28347"},
 {
 "persName":
 "Jules Claretie",
 "ref":
 "pmb2500"},
 {
 "persName":
 "Pierre Loti",
 "ref":
 "pmb12114"},
 {
 "persName":
 "Auguste Chlum",
 "ref":
 "pmb14948"},
 {
 "persName":
 "Max Halbe",
 "ref":
 "pmb11565"},
 {
 "persName":
 "Eugène Brieux",
 "ref":
 "pmb4791"},
 {
 "persName":
 "Georges Feydeau",
 "ref":
 "pmb2931"}],
 "listBibl":
  [
 {
 "title":
 "Der Meister",
 "ref":
 "pmb29983"}
 ,  {
 "title":
 "Der Apostel",
 "ref":
 "pmb29887"}
 ,  {
 "title":
 "Hamlet",
 "ref":
 "pmb30009"}
 ,  {
 "title":
 "Die Ehre",
 "ref":
 "pmb30255"}
 ,  {
 "title":
 "König Lear",
 "ref":
 "pmb31623"}
 ,  {
 "title":
 "Der Alkade von Zalamea",
 "ref":
 "pmb31617"}
 ,  {
 "title":
 "Der grüne Kakadu. Groteske in einem Akt",
 "ref":
 "pmb29843"}
 ,  {
 "title":
 "Liebessünden. Ländliches Drama",
 "ref":
 "pmb31387"}
 ,  {
 "title":
 "Der Strom",
 "ref":
 "pmb31389"}
 ,  {
 "title":
 "Alt-Heidelberg",
 "ref":
 "pmb31505"}
 ,  {
 "title":
 "Der blinde Passagier",
 "ref":
 "pmb31915"}
 ,  {
 "title":
 "Don Quijote",
 "ref":
 "pmb31515"}
 ],
 "listPlace":
  [
 {
 "placeName":
 "Paris",
 "ref":
 "pmb182"}
 ,  {
 "placeName":
 "rue de l’Assomption",
 "ref":
 "pmb450"}
 ,  {
 "placeName":
 "16. Arrondissement (Passy)",
 "ref":
 "pmb47026"}
 ,  {
 "placeName":
 "Frankreich",
 "ref":
 "pmb166"}
 ,  {
 "placeName":
 "Théâtre Antoine-Simone Berriau",
 "ref":
 "pmb610"}
 ,  {
 "placeName":
 "Odéon",
 "ref":
 "pmb792"}
 ,  {
 "placeName":
 "Comédie française",
 "ref":
 "pmb554"}
 ,  {
 "placeName":
 "Spanien",
 "ref":
 "pmb388"}
 ,  {
 "placeName":
 "Institut de France",
 "ref":
 "pmb793"}
 ,  {
 "placeName":
 "Deutschland",
 "ref":
 "pmb151"}
 ,  {
 "placeName":
 "Österreich",
 "ref":
 "pmb41240"}
 ],
 "listOrg":
  [
 {
 "orgName":
 "Albert Langen",
 "ref":
 "pmb29654"}
 ,  {
 "orgName":
 "Albert Ahn",
 "ref":
 "pmb29711"}
 ,  {
 "orgName":
 "Le Figaro",
 "ref":
 "pmb29706"}
 ,  {
 "orgName":
 "Journal des débats",
 "ref":
 "pmb29221"}
 ]
}
}] 