[{
 "type":
 "schnitzler-tagebuch",
 "color":
 "#037a33",
 "filename":
 "entry__1904-01-31",
 "caption":
 "Tagebuch",
 "idno":
 "https://schnitzler-tagebuch.acdh.oeaw.ac.at/entry__1904-01-31.html",
 "head":
 "Tagebuch, 31. Januar 1904",
 "desc":
{"listPerson":
  [
{
 "persName":
 "Richard Beer-Hofmann",
 "ref":
 "person_13551"},
 {
 "persName":
 "Fichtengoltz",
 "ref":
 "person_14976"},
 {
 "persName":
 "Ida Van-Jung",
 "ref":
 "person_20924"},
 {
 "persName":
 "Leo Van-Jung",
 "ref":
 "person_20925"},
 {
 "persName":
 "Paula Beer-Hofmann",
 "ref":
 "person_13550"},
 {
 "persName":
 "Franziska Mütter",
 "ref":
 "person_18320"}],
 "listPlace":
  [
 {
 "placeName":
 "Neuwaldegg",
 "ref":
 "pmb170"}
 ,  {
 "placeName":
 "Salmannsdorf",
 "ref":
 "pmb91641"}
 ,  {
 "placeName":
 "Döbling",
 "ref":
 "pmb64219"}
 ]
}
}, {
 "type":
 "schnitzler-orte",
 "color":
 "#045344",
 "caption":
 "Aufenthaltsorte",
 "head":
 "Wien",
 "desc":
{"listPlace":
  [
 {
 "placeName":
 "XIX., Döbling",
 "ref":
 ""}
 ,  {
 "placeName":
 "IX., Alsergrund",
 "ref":
 ""}
 ,  {
 "placeName":
 "XVII., Hernals",
 "ref":
 ""}
 ,  {
 "placeName":
 "XVIII., Währing",
 "ref":
 ""}
 ,  {
 "placeName":
 "XIX., Döbling",
 "ref":
 ""}
 ]
}
}, {
 "type":
 "schnitzler-bahr",
 "color":
 "#639FF9",
 "filename":
 "L041637",
 "caption":
 "Schnitzler/Bahr",
 "idno":
 "https://schnitzler-bahr.acdh.oeaw.ac.at/L041637.html",
 "head":
 "Bahr an Siegfried Trebitsch, 31. 1. 1904",
 "desc":
{"listPerson":
  [
{
 "persName":
 "Hermann Bahr",
 "ref":
 "pmb10815"},
 {
 "persName":
 "Siegfried Trebitsch",
 "ref":
 "pmb12968"},
 {
 "persName":
 "Raphael Löwenfeld",
 "ref":
 "pmb12140"},
 {
 "persName":
 "Otto Brahm",
 "ref":
 "pmb10986"},
 {
 "persName":
 "Max Reinhardt",
 "ref":
 "pmb12504"},
 {
 "persName":
 "Gerhart Hauptmann",
 "ref":
 "pmb11617"}],
 "listPlace":
  [
 {
 "placeName":
 "Marbach am Bodensee",
 "ref":
 "pmb218"}
 ,  {
 "placeName":
 "Berlin",
 "ref":
 "pmb168"}
 ,  {
 "placeName":
 "Wien",
 "ref":
 "pmb50"}
 ]
}
}, {
 "type":
 "schnitzler-bahr",
 "color":
 "#639FF9",
 "filename":
 "D041458",
 "caption":
 "Schnitzler/Bahr",
 "idno":
 "https://schnitzler-bahr.acdh.oeaw.ac.at/D041458.html",
 "head":
 "Aufzeichnung von Bahr, 31. 1. 1904",
 "desc":
{"listPerson":
  [
{
 "persName":
 "Hermann Bahr",
 "ref":
 "pmb10815"},
 {
 "persName":
 "Arno Holz",
 "ref":
 "pmb11763"},
 {
 "persName":
 "Eduard Richter",
 "ref":
 "pmb3585"},
 {
 "persName":
 "Carl von Spiegelfeld",
 "ref":
 "pmb28314"}],
 "listBibl":
  [
 {
 "title":
 "Sanna. Schauspiel in fünf Aufzügen",
 "ref":
 "pmb29901"}
 ,  {
 "title":
 "Wilhelm Meisters Wanderjahre",
 "ref":
 "pmb31131"}
 ,  {
 "title":
 "Traumulus",
 "ref":
 "pmb31407"}
 ,  {
 "title":
 "Die Frau des Weisen. Erzählung",
 "ref":
 "pmb30075"}
 ],
 "listPlace":
  [
 {
 "placeName":
 "Salzburg",
 "ref":
 "pmb30"}
 ]
}
}] 