[{
 "type":
 "schnitzler-tagebuch",
 "color":
 "#037a33",
 "filename":
 "entry__1904-05-06",
 "caption":
 "Tagebuch",
 "idno":
 "https://schnitzler-tagebuch.acdh.oeaw.ac.at/entry__1904-05-06.html",
 "head":
 "Tagebuch, 6. Mai 1904",
 "desc":
{"listPerson":
  [
{
 "persName":
 "Arthur von Gutmann-Gelse",
 "ref":
 "person_15775"}],
 "listPlace":
  [
 {
 "placeName":
 "Rom",
 "ref":
 "pmb445"}
 ,  {
 "placeName":
 "Frascati",
 "ref":
 "pmb40272"}
 ,  {
 "placeName":
 "Grottaferrata",
 "ref":
 "pmb90781"}
 ,  {
 "placeName":
 "Marino",
 "ref":
 "pmb91215"}
 ,  {
 "placeName":
 "Castel Gandolfo",
 "ref":
 "pmb90454"}
 ,  {
 "placeName":
 "Albano Laziale",
 "ref":
 "pmb55780"}
 ,  {
 "placeName":
 "Genzano di Roma",
 "ref":
 "pmb90699"}
 ,  {
 "placeName":
 "Lake Nemi",
 "ref":
 "pmb91334"}
 ,  {
 "placeName":
 "Nemi",
 "ref":
 "pmb91332"}
 ,  {
 "placeName":
 "Appia nuova",
 "ref":
 "pmb92147"}
 ]
}
}, {
 "type":
 "wienerschnitzler",
 "color":
 "#ECDA98",
 "caption":
 "Wiener Schnitzler",
 "head":
 "Rom",
 "desc":
{"listPlace":
  [
 {
 "placeName":
 "Grand Hotel Roma",
 "ref":
 ""}
 ,  {
 "placeName":
 "Via Appia nuova",
 "ref":
 ""}
 ]
}
}, {
 "type":
 "wienerschnitzler",
 "color":
 "#ECDA98",
 "caption":
 "Wiener Schnitzler",
 "head":
 "Frascati"
}, {
 "type":
 "wienerschnitzler",
 "color":
 "#ECDA98",
 "caption":
 "Wiener Schnitzler",
 "head":
 "Albano Laziale",
 "desc":
{"listPlace":
  [
 {
 "placeName":
 "Via Appia nuova",
 "ref":
 ""}
 ]
}
}, {
 "type":
 "wienerschnitzler",
 "color":
 "#ECDA98",
 "caption":
 "Wiener Schnitzler",
 "head":
 "Castel Gandolfo"
}, {
 "type":
 "wienerschnitzler",
 "color":
 "#ECDA98",
 "caption":
 "Wiener Schnitzler",
 "head":
 "Genzano di Roma",
 "desc":
{"listPlace":
  [
 {
 "placeName":
 "Palazzo Sforza-Cesarini",
 "ref":
 ""}
 ]
}
}, {
 "type":
 "wienerschnitzler",
 "color":
 "#ECDA98",
 "caption":
 "Wiener Schnitzler",
 "head":
 "Grottaferrata"
}, {
 "type":
 "wienerschnitzler",
 "color":
 "#ECDA98",
 "caption":
 "Wiener Schnitzler",
 "head":
 "Marino"
}, {
 "type":
 "wienerschnitzler",
 "color":
 "#ECDA98",
 "caption":
 "Wiener Schnitzler",
 "head":
 "Lago di Nemi"
}] 