[{
 "type":
 "schnitzler-tagebuch",
 "color":
 "#037a33",
 "filename":
 "entry__1904-05-17",
 "caption":
 "Tagebuch",
 "idno":
 "https://schnitzler-tagebuch.acdh.oeaw.ac.at/entry__1904-05-17.html",
 "head":
 "Tagebuch, 17. Mai 1904",
 "desc":
{"listPerson":
  [
{
 "persName":
 "Enrico? Ragusa",
 "ref":
 "person_19034"}],
 "listPlace":
  [
 {
 "placeName":
 "Palermo",
 "ref":
 "pmb901"}
 ,  {
 "placeName":
 "Syrakus",
 "ref":
 "pmb48769"}
 ]
}
}, {
 "type":
 "schnitzler-briefe",
 "color":
 "#A63437",
 "filename":
 "L03443",
 "caption":
 "Briefe mit Autorinnen und Autoren",
 "idno":
 "https://schnitzler-briefe.acdh.oeaw.ac.at/L03443.html",
 "head":
 "Paul Goldmann an Arthur Schnitzler, 1[7?]. 5. [1904]",
 "desc":
{"listPerson":
  [
{
 "persName":
 "Paul Goldmann",
 "ref":
 "pmb11485"},
 {
 "persName":
 "Olga Schnitzler",
 "ref":
 "pmb2173"}],
 "listPlace":
  [
 {
 "placeName":
 "Berlin",
 "ref":
 "pmb168"}
 ,  {
 "placeName":
 "Taormina",
 "ref":
 "pmb906"}
 ,  {
 "placeName":
 "Dessauer Straße",
 "ref":
 "pmb40583"}
 ,  {
 "placeName":
 "Italien",
 "ref":
 "pmb40306"}
 ,  {
 "placeName":
 "Rom",
 "ref":
 "pmb445"}
 ,  {
 "placeName":
 "Neapel",
 "ref":
 "pmb595"}
 ,  {
 "placeName":
 "Pompei",
 "ref":
 "pmb1283"}
 ,  {
 "placeName":
 "Palermo",
 "ref":
 "pmb901"}
 ,  {
 "placeName":
 "Petersdom",
 "ref":
 "pmb41955"}
 ,  {
 "placeName":
 "Marienbad",
 "ref":
 "pmb772"}
 ]
}
}, {
 "type":
 "schnitzler-orte",
 "color":
 "#045344",
 "filename":
 "entity/901/",
 "caption":
 "Aufenthaltsorte",
 "idno":
 "https://pmb.acdh.oeaw.ac.at/entity/901/",
 "head":
 "Palermo"
}, {
 "type":
 "schnitzler-orte",
 "color":
 "#045344",
 "filename":
 "entity/234055/",
 "caption":
 "Aufenthaltsorte",
 "idno":
 "https://pmb.acdh.oeaw.ac.at/entity/234055/",
 "head":
 "Grand Hotel et des Palmes"
}, {
 "type":
 "schnitzler-orte",
 "color":
 "#045344",
 "filename":
 "entity/1281/",
 "caption":
 "Aufenthaltsorte",
 "idno":
 "https://pmb.acdh.oeaw.ac.at/entity/1281/",
 "head":
 "Syrakus"
}, {
 "type":
 "schnitzler-orte",
 "color":
 "#045344",
 "filename":
 "entity/234073/",
 "caption":
 "Aufenthaltsorte",
 "idno":
 "https://pmb.acdh.oeaw.ac.at/entity/234073/",
 "head":
 "Villa Achradina"
}, {
 "type":
 "schnitzler-orte",
 "color":
 "#045344",
 "filename":
 "entity/234077/",
 "caption":
 "Aufenthaltsorte",
 "idno":
 "https://pmb.acdh.oeaw.ac.at/entity/234077/",
 "head":
 "Teatro greco di Siracusa"
}, {
 "type":
 "schnitzler-orte",
 "color":
 "#045344",
 "filename":
 "entity/234080/",
 "caption":
 "Aufenthaltsorte",
 "idno":
 "https://pmb.acdh.oeaw.ac.at/entity/234080/",
 "head":
 "Latomie di Siracusa"
}, {
 "type":
 "schnitzler-orte",
 "color":
 "#045344",
 "filename":
 "entity/234083/",
 "caption":
 "Aufenthaltsorte",
 "idno":
 "https://pmb.acdh.oeaw.ac.at/entity/234083/",
 "head":
 "Orecchio di Dionisio"
}] 