[{
 "type":
 "schnitzler-tagebuch",
 "color":
 "#037a33",
 "filename":
 "entry__1904-05-05",
 "caption":
 "Tagebuch",
 "idno":
 "https://schnitzler-tagebuch.acdh.oeaw.ac.at/entry__1904-05-05.html",
 "head":
 "Tagebuch, 5. Mai 1904",
 "desc":
{"listPlace":
  [
 {
 "placeName":
 "Rom",
 "ref":
 "pmb445"}
 ,  {
 "placeName":
 "Vatican City",
 "ref":
 "pmb91997"}
 ]
}
}, {
 "type":
 "wienerschnitzler",
 "color":
 "#6F5106",
 "caption":
 "Wiener Schnitzler",
 "idno":
 "https://wienerschnitzler.org/tag.html#1904-05-05",
 "head":
 "Rom",
 "desc":
{"listPlace":
  [
 {
 "placeName":
 "Grand Hotel Roma",
 "ref":
 ""}
 ,  {
 "placeName":
 "Ristorante Umberto",
 "ref":
 ""}
 ,  {
 "placeName":
 "Palatin",
 "ref":
 ""}
 ,  {
 "placeName":
 "Villa Borghese Pinciana",
 "ref":
 ""}
 ,  {
 "placeName":
 "Monte Pincio",
 "ref":
 ""}
 ]
}
}, {
 "type":
 "wienerschnitzler",
 "color":
 "#6F5106",
 "caption":
 "Wiener Schnitzler",
 "idno":
 "https://wienerschnitzler.org/tag.html#1904-05-05",
 "head":
 "Vatikan"
}, {
 "type":
 "schnitzler-kultur",
 "color":
 "#6B4C5A",
 "filename":
 "pmb297501",
 "caption":
 "Kulturveranstaltungen",
 "idno":
 "https://schnitzler-kultur.acdh.oeaw.ac.at/pmb297501.html",
 "head":
 "Besuch der Villa Borghese Pinciana, 5.5.1904",
 "desc":
{"listPerson":
  [
{
 "persName":
 "Arthur Schnitzler",
 "ref":
 ""}],
 "listPlace":
  [
 {
 "placeName":
 "Villa Borghese Pinciana",
 "ref":
 ""}
 ]
}
}] 