[{
 "type":
 "schnitzler-tagebuch",
 "color":
 "#037a33",
 "filename":
 "entry__1904-08-05",
 "caption":
 "Tagebuch",
 "idno":
 "https://schnitzler-tagebuch.acdh.oeaw.ac.at/entry__1904-08-05.html",
 "head":
 "Tagebuch, 5. August 1904",
 "desc":
{"listPerson":
  [
{
 "persName":
 "Fichtengoltz",
 "ref":
 "person_14976"},
 {
 "persName":
 "Paul Marx",
 "ref":
 "person_17958"},
 {
 "persName":
 "Nikolaus II. von Russland",
 "ref":
 "person_18456"},
 {
 "persName":
 "Jewgeni W.? Pawlow",
 "ref":
 "person_18696"},
 {
 "persName":
 "Wjatscheslaw K. Plehwe",
 "ref":
 "person_18831"},
 {
 "persName":
 "Leo Van-Jung",
 "ref":
 "person_20925"},
 {
 "persName":
 "Joseph Mütter",
 "ref":
 "person_18322"},
 {
 "persName":
 "Hermann Bahr",
 "ref":
 "person_13374"},
 {
 "persName":
 "Franziska Mütter",
 "ref":
 "person_18320"},
 {
 "persName":
 "Josefine Rothenstein",
 "ref":
 "person_19424"}],
 "listBibl":
  [
 {
 "title":
 "Zwischenspiel. Komödie in drei Akten",
 "ref":
 "pmb29903"}
 ],
 "listPlace":
  [
 {
 "placeName":
 "Ober-Sankt-Veit",
 "ref":
 "pmb91377"}
 ,  {
 "placeName":
 "Vereinigte Staaten von Amerika (USA)",
 "ref":
 "pmb43406"}
 ,  {
 "placeName":
 "Türkenschanzpark",
 "ref":
 "pmb113"}
 ]
}
}, {
 "type":
 "schnitzler-briefe",
 "color":
 "#A63437",
 "filename":
 "L01422",
 "caption":
 "Briefe mit Autorinnen und Autoren",
 "idno":
 "https://schnitzler-briefe.acdh.oeaw.ac.at/L01422.html",
 "head":
 "Arthur Schnitzler an Hugo von Hofmannsthal, 5.–6. 8. 1904",
 "desc":
{"listPerson":
  [
{
 "persName":
 "Hugo von Hofmannsthal",
 "ref":
 "pmb11740"},
 {
 "persName":
 "Olga Schnitzler",
 "ref":
 "pmb2173"},
 {
 "persName":
 "Heinrich Schnitzler",
 "ref":
 "pmb12692"},
 {
 "persName":
 "Julius Schnitzler",
 "ref":
 "pmb12698"},
 {
 "persName":
 "Richard Beer-Hofmann",
 "ref":
 "pmb10863"},
 {
 "persName":
 "Franziska Mütter",
 "ref":
 "pmb21766"},
 {
 "persName":
 "Gertrude von Hofmannsthal",
 "ref":
 "pmb2292"}],
 "listBibl":
  [
 {
 "title":
 "Das gerettete Venedig. Trauerspiel in fünf Aufzügen",
 "ref":
 "pmb31091"}
 ,  {
 "title":
 "Das neue Lied",
 "ref":
 "pmb30655"}
 ,  {
 "title":
 "Der Weg ins Freie. Roman",
 "ref":
 "pmb29923"}
 ,  {
 "title":
 "Zwischenspiel. Komödie in drei Akten",
 "ref":
 "pmb29903"}
 ,  {
 "title":
 "Ritterlichkeit",
 "ref":
 "pmb30287"}
 ,  {
 "title":
 "Der junge Medardus. Dramatische Historie in einem Vorspiel und fünf Aufzügen",
 "ref":
 "pmb29937"}
 ],
 "listPlace":
  [
 {
 "placeName":
 "Wien",
 "ref":
 "pmb50"}
 ,  {
 "placeName":
 "Bad Fusch",
 "ref":
 "pmb573"}
 ,  {
 "placeName":
 "Reichenau an der Rax",
 "ref":
 "pmb483"}
 ,  {
 "placeName":
 "Nasswald",
 "ref":
 "pmb40881"}
 ,  {
 "placeName":
 "Rax",
 "ref":
 "pmb40884"}
 ,  {
 "placeName":
 "Wienerwald",
 "ref":
 "pmb40876"}
 ,  {
 "placeName":
 "Rodaun",
 "ref":
 "pmb173"}
 ,  {
 "placeName":
 "Mauer",
 "ref":
 "pmb7728"}
 ,  {
 "placeName":
 "Kalksburg",
 "ref":
 "pmb555"}
 ,  {
 "placeName":
 "Kalksburger Straße",
 "ref":
 "pmb40935"}
 ,  {
 "placeName":
 "Der rothe Stadl",
 "ref":
 "pmb40936"}
 ,  {
 "placeName":
 "Mauerbach",
 "ref":
 "pmb942"}
 ,  {
 "placeName":
 "Taormina",
 "ref":
 "pmb906"}
 ,  {
 "placeName":
 "Sophienalpe",
 "ref":
 "pmb539"}
 ,  {
 "placeName":
 "Bad Ischl",
 "ref":
 "pmb213"}
 ,  {
 "placeName":
 "Bad Aussee",
 "ref":
 "pmb415"}
 ]
}
}, {
 "type":
 "schnitzler-briefe",
 "color":
 "#A63437",
 "filename":
 "L01421",
 "caption":
 "Briefe mit Autorinnen und Autoren",
 "idno":
 "https://schnitzler-briefe.acdh.oeaw.ac.at/L01421.html",
 "head":
 "Hermann Bahr an Arthur Schnitzler, 5. 8. [1904]",
 "desc":
{"listPerson":
  [
{
 "persName":
 "Hermann Bahr",
 "ref":
 "pmb10815"},
 {
 "persName":
 "Felix Salten",
 "ref":
 "pmb2167"},
 {
 "persName":
 "Olga Schnitzler",
 "ref":
 "pmb2173"}],
 "listBibl":
  [
 {
 "title":
 "Dialog vom Marsyas",
 "ref":
 "pmb30065"}
 ],
 "listPlace":
  [
 {
 "placeName":
 "Wien",
 "ref":
 "pmb50"}
 ]
}
}, {
 "type":
 "schnitzler-orte",
 "color":
 "#045344",
 "filename":
 "entity/50/",
 "caption":
 "Aufenthaltsorte",
 "idno":
 "https://pmb.acdh.oeaw.ac.at/entity/50/",
 "text":
 "Wien"
}, {
 "type":
 "schnitzler-bahr",
 "color":
 "#639FF9",
 "filename":
 "L041281",
 "caption":
 "Schnitzler/Bahr",
 "idno":
 "https://schnitzler-bahr.acdh.oeaw.ac.at/L041281.html",
 "head":
 "Bahr an Schnitzler, 5. 8. [1904]",
 "desc":
{"listPerson":
  [
{
 "persName":
 "Hermann Bahr",
 "ref":
 "pmb10815"},
 {
 "persName":
 "Felix Salten",
 "ref":
 "pmb2167"},
 {
 "persName":
 "Olga Schnitzler",
 "ref":
 "pmb2173"}],
 "listBibl":
  [
 {
 "title":
 "Dialog vom Marsyas",
 "ref":
 "pmb30065"}
 ],
 "listPlace":
  [
 {
 "placeName":
 "Wien",
 "ref":
 "pmb50"}
 ]
}
}, {
 "type":
 "schnitzler-bahr",
 "color":
 "#639FF9",
 "filename":
 "D041232",
 "caption":
 "Schnitzler/Bahr",
 "idno":
 "https://schnitzler-bahr.acdh.oeaw.ac.at/D041232.html",
 "head":
 "Tagebuch von Schnitzler, 5. 8. 1904",
 "desc":
{"listPerson":
  [
{
 "persName":
 "Hermann Bahr",
 "ref":
 "pmb10815"},
 {
 "persName":
 "Paul Marx",
 "ref":
 "pmb21647"},
 {
 "persName":
 "Franziska Mütter",
 "ref":
 "pmb21766"},
 {
 "persName":
 "Joseph Mütter",
 "ref":
 "pmb21771"},
 {
 "persName":
 "Josefine Rothenstein",
 "ref":
 "pmb23661"},
 {
 "persName":
 "Leo Van-Jung",
 "ref":
 "pmb26392"},
 {
 "persName":
 "Fichtengoltz",
 "ref":
 "pmb16220"},
 {
 "persName":
 "Faina Słominska",
 "ref":
 "pmb27921"},
 {
 "persName":
 "Yegor Sasonov",
 "ref":
 "pmb27932"},
 {
 "persName":
 "Vjačeslav K. von Plehwe",
 "ref":
 "pmb27925"},
 {
 "persName":
 "Evgenij Vasil’evič Pavlov",
 "ref":
 "pmb27929"},
 {
 "persName":
 "Nikolaus II. von Russland",
 "ref":
 "pmb2996"}],
 "listBibl":
  [
 {
 "title":
 "Zwischenspiel. Komödie in drei Akten",
 "ref":
 "pmb29903"}
 ],
 "listPlace":
  [
 {
 "placeName":
 "Ober Sankt Veit",
 "ref":
 "pmb165"}
 ,  {
 "placeName":
 "Vereinigte Staaten von Amerika (USA)",
 "ref":
 "pmb43406"}
 ,  {
 "placeName":
 "Türkenschanzpark",
 "ref":
 "pmb113"}
 ]
}
}] 