[{
 "type":
 "schnitzler-tagebuch",
 "color":
 "#037a33",
 "filename":
 "entry__1904-06-11",
 "caption":
 "Tagebuch",
 "idno":
 "https://schnitzler-tagebuch.acdh.oeaw.ac.at/entry__1904-06-11.html",
 "head":
 "Tagebuch, 11. Juni 1904",
 "desc":
{"listPerson":
  [
{
 "persName":
 "Emma Altmann",
 "ref":
 "person_13169"},
 {
 "persName":
 "Paul Altmann",
 "ref":
 "person_13175"},
 {
 "persName":
 "Otto Brahm",
 "ref":
 "person_13913"},
 {
 "persName":
 "Ernst von Dohnányi",
 "ref":
 "person_14473"},
 {
 "persName":
 "Gisela Hajek",
 "ref":
 "person_15854"},
 {
 "persName":
 "Max Reinhardt",
 "ref":
 "person_19154"},
 {
 "persName":
 "Heinrich Schnitzler",
 "ref":
 "person_19822"},
 {
 "persName":
 "Helene Schnitzler",
 "ref":
 "person_19823"},
 {
 "persName":
 "Julius Schnitzler",
 "ref":
 "person_19827"},
 {
 "persName":
 "Agnes Sorma",
 "ref":
 "person_20219"},
 {
 "persName":
 "Alexander von Zemlinsky",
 "ref":
 "person_21537"}],
 "listBibl":
  [
 {
 "title":
 "Fink und Fliederbusch. Komödie in drei Akten",
 "ref":
 "pmb30881"}
 ,  {
 "title":
 "Frau Bertha Garlan. Roman",
 "ref":
 "pmb30486"}
 ,  {
 "title":
 "Der tapfere Kassian. Singspiel",
 "ref":
 "pmb46124"}
 ,  {
 "title":
 "Der junge Medardus. Dramatische Historie in einem Vorspiel und fünf Aufzügen",
 "ref":
 "pmb29937"}
 ,  {
 "title":
 "Ritterlichkeit",
 "ref":
 "pmb30287"}
 ,  {
 "title":
 "Der Schleier der Beatrice. Schauspiel in fünf Akten",
 "ref":
 "pmb29857"}
 ,  {
 "title":
 "Der Schleier der Pierrette",
 "ref":
 "pmb30215"}
 ,  {
 "title":
 "Der Weg ins Freie. Roman",
 "ref":
 "pmb29923"}
 ,  {
 "title":
 "Der einsame Weg. Schauspiel in fünf Akten",
 "ref":
 "pmb29985"}
 ],
 "listPlace":
  [
 {
 "placeName":
 "Bayern",
 "ref":
 "pmb314"}
 ,  {
 "placeName":
 "Taormina",
 "ref":
 "pmb906"}
 ,  {
 "placeName":
 "Wiednertheater",
 "ref":
 "pmb92603"}
 ,  {
 "placeName":
 "Wiesbaden",
 "ref":
 "pmb883"}
 ,  {
 "placeName":
 "Sternwartepark",
 "ref":
 "pmb794"}
 ]
}
}, {
 "type":
 "wienerschnitzler",
 "color":
 "#ECDA98",
 "caption":
 "Wiener Schnitzler",
 "idno":
 "https://wienerschnitzler.org/tag.html#1904-06-11",
 "head":
 "Wien",
 "desc":
{"listPlace":
  [
 {
 "placeName":
 "I., Innere Stadt",
 "ref":
 ""}
 ,  {
 "placeName":
 "XIX., Döbling",
 "ref":
 ""}
 ,  {
 "placeName":
 "XVIII., Währing",
 "ref":
 ""}
 ]
}
}] 