[{
 "type":
 "schnitzler-tagebuch",
 "color":
 "#037a33",
 "filename":
 "entry__1904-03-09",
 "caption":
 "Tagebuch",
 "idno":
 "https://schnitzler-tagebuch.acdh.oeaw.ac.at/entry__1904-03-09.html",
 "head":
 "Tagebuch, 9. März 1904",
 "desc":
{"listPerson":
  [
{
 "persName":
 "Julius von Gans-Ludassy",
 "ref":
 "person_15338"},
 {
 "persName":
 "Gisela Hajek",
 "ref":
 "person_15854"},
 {
 "persName":
 "Arnold Rosé",
 "ref":
 "person_19351"},
 {
 "persName":
 "Gustav Seidler",
 "ref":
 "person_20030"},
 {
 "persName":
 "Ludwig Mandl",
 "ref":
 "person_17825"},
 {
 "persName":
 "Alois Kreidl",
 "ref":
 "person_17127"}],
 "listBibl":
  [
 {
 "title":
 "Der junge Medardus. Dramatische Historie in einem Vorspiel und fünf Aufzügen",
 "ref":
 "pmb29937"}
 ,  {
 "title":
 "Der Weg ins Freie. Roman",
 "ref":
 "pmb29923"}
 ],
 "listPlace":
  [
 {
 "placeName":
 "Türkenschanzpark",
 "ref":
 "pmb113"}
 ]
}
}, {
 "type":
 "schnitzler-briefe",
 "color":
 "#A63437",
 "filename":
 "L01379",
 "caption":
 "Briefe mit Autorinnen und Autoren",
 "idno":
 "https://schnitzler-briefe.acdh.oeaw.ac.at/L01379.html",
 "head":
 "Hermann Bahr an Arthur Schnitzler, 9. 3. 1904",
 "desc":
{"listPerson":
  [
{
 "persName":
 "Hermann Bahr",
 "ref":
 "pmb10815"},
 {
 "persName":
 "Olga Schnitzler",
 "ref":
 "pmb2173"}],
 "listPlace":
  [
 {
 "placeName":
 "Edmund-Weiß-Gasse 7",
 "ref":
 "pmb168940"}
 ,  {
 "placeName":
 "Dalmatien",
 "ref":
 "pmb265"}
 ,  {
 "placeName":
 "Grand Hotel Imperial [Dubrovnik]",
 "ref":
 "pmb365"}
 ,  {
 "placeName":
 "Spanien",
 "ref":
 "pmb388"}
 ,  {
 "placeName":
 "Italien",
 "ref":
 "pmb40306"}
 ,  {
 "placeName":
 "Wien",
 "ref":
 "pmb50"}
 ,  {
 "placeName":
 "XVIII., Währing",
 "ref":
 "pmb68"}
 ,  {
 "placeName":
 "Dubrovnik",
 "ref":
 "pmb682"}
 ,  {
 "placeName":
 "Ombla",
 "ref":
 "pmb92731"}
 ]
}
}, {
 "type":
 "schnitzler-briefe",
 "color":
 "#A63437",
 "filename":
 "L01380",
 "caption":
 "Briefe mit Autorinnen und Autoren",
 "idno":
 "https://schnitzler-briefe.acdh.oeaw.ac.at/L01380.html",
 "head":
 "Hugo von Hofmannsthal an Arthur Schnitzler, [9. 3. 1904]",
 "desc":
{"listPerson":
  [
{
 "persName":
 "Hugo August von Hofmannsthal",
 "ref":
 "pmb11737"},
 {
 "persName":
 "Hugo von Hofmannsthal",
 "ref":
 "pmb11740"},
 {
 "persName":
 "Julius Schnitzler",
 "ref":
 "pmb12698"},
 {
 "persName":
 "Anna von Hofmannsthal",
 "ref":
 "pmb18404"},
 {
 "persName":
 "Hans Schandlbauer",
 "ref":
 "pmb40212"}],
 "listPlace":
  [
 {
 "placeName":
 "Salesianergasse 12",
 "ref":
 "pmb192623"}
 ,  {
 "placeName":
 "Wien",
 "ref":
 "pmb50"}
 ]
}
}, {
 "type":
 "wienerschnitzler",
 "color":
 "#6F5106",
 "caption":
 "Wiener Schnitzler",
 "idno":
 "https://wienerschnitzler.org/tag.html#1904-03-09",
 "head":
 "Wien",
 "desc":
{"listPlace":
  [
 {
 "placeName":
 "XVIII., Währing",
 "ref":
 ""}
 ,  {
 "placeName":
 "XIX., Döbling",
 "ref":
 ""}
 ]
}
}] 