[{
 "type":
 "schnitzler-tagebuch",
 "color":
 "#037a33",
 "filename":
 "entry__1904-01-24",
 "caption":
 "Tagebuch",
 "idno":
 "https://schnitzler-tagebuch.acdh.oeaw.ac.at/entry__1904-01-24.html",
 "head":
 "Tagebuch, 24. Januar 1904",
 "desc":
{"listPerson":
  [
{
 "persName":
 "Margarethe Manassewitsch",
 "ref":
 "person_17804"},
 {
 "persName":
 "Hans Schnitzler",
 "ref":
 "person_19821"},
 {
 "persName":
 "Helene Schnitzler",
 "ref":
 "person_19823"},
 {
 "persName":
 "Karl Schnitzler",
 "ref":
 "person_19828"},
 {
 "persName":
 "Louise Schnitzler",
 "ref":
 "person_19831"},
 {
 "persName":
 "Anna Donath",
 "ref":
 "person_14481"}],
 "listBibl":
  [
 {
 "title":
 "Das Haus Delorme. Eine Familienszene",
 "ref":
 "pmb31547"}
 ,  {
 "title":
 "Tagebuch",
 "ref":
 "pmb33243"}
 ]
}
}, {
 "type":
 "schnitzler-briefe",
 "color":
 "#A63437",
 "filename":
 "L01363",
 "caption":
 "Briefe mit Autorinnen und Autoren",
 "idno":
 "https://schnitzler-briefe.acdh.oeaw.ac.at/L01363.html",
 "head":
 "Arthur Schnitzler an Michael Georg Conrad, 24. 1. 1904",
 "desc":
{"listPerson":
  [
{
 "persName":
 "Michael Georg Conrad",
 "ref":
 "pmb11098"},
 {
 "persName":
 "Marie Knorr-Schmidt",
 "ref":
 "pmb5757"}],
 "listBibl":
  [
 {
 "title":
 "Evoë! Ein Schritt zur Lichtung des Seelenlebens",
 "ref":
 "pmb33562"}
 ],
 "listPlace":
  [
 {
 "placeName":
 "Steinsdorfstraße",
 "ref":
 "pmb1231"}
 ,  {
 "placeName":
 "Edmund-Weiß-Gasse 7",
 "ref":
 "pmb168940"}
 ,  {
 "placeName":
 "München",
 "ref":
 "pmb45258"}
 ,  {
 "placeName":
 "Wien",
 "ref":
 "pmb50"}
 ]
}
}, {
 "type":
 "wienerschnitzler",
 "color":
 "#ECDA98",
 "caption":
 "Wiener Schnitzler",
 "idno":
 "https://wienerschnitzler.org/tag.html#1904-01-24",
 "head":
 "Wien",
 "desc":
{"listPlace":
  [
 {
 "placeName":
 "IX., Alsergrund",
 "ref":
 ""}
 ,  {
 "placeName":
 "II., Leopoldstadt",
 "ref":
 ""}
 ,  {
 "placeName":
 "XVIII., Währing",
 "ref":
 ""}
 ]
}
}, {
 "type":
 "schnitzler-interviews",
 "color":
 "#3D5A80",
 "filename":
 "I018",
 "caption":
 "Interviews, Meinungen, Proteste",
 "idno":
 "https://schnitzler-interviews.acdh.oeaw.ac.at/I018.html",
 "head":
 "Th. Thomas [= Rudolph Lothar]: Ein deutsches Nationaltheater,
                            24. 1. 1904",
 "desc":
{"listPerson":
  [
{
 "persName":
 "Rudolf Lothar",
 "ref":
 "pmb2570"},
 {
 "persName":
 "Eduard Devrient",
 "ref":
 "pmb5150"},
 {
 "persName":
 "Louise Dumont",
 "ref":
 "pmb11195"},
 {
 "persName":
 "Henry Van der Velde",
 "ref":
 "pmb5153"},
 {
 "persName":
 "Aischylos",
 "ref":
 "pmb3648"},
 {
 "persName":
 "Sophokles",
 "ref":
 "pmb2693"},
 {
 "persName":
 "William Shakespeare",
 "ref":
 "pmb2412"},
 {
 "persName":
 "Johann Wolfgang von Goethe",
 "ref":
 "pmb11461"},
 {
 "persName":
 "Friedrich Hebbel",
 "ref":
 "pmb2404"},
 {
 "persName":
 "Heinrich von Kleist",
 "ref":
 "pmb11933"},
 {
 "persName":
 "Henrik Ibsen",
 "ref":
 "pmb11798"},
 {
 "persName":
 "Gerhart Hauptmann",
 "ref":
 "pmb11617"},
 {
 "persName":
 "Hugo von Hofmannsthal",
 "ref":
 "pmb11740"},
 {
 "persName":
 "Josef Kainz",
 "ref":
 "pmb11851"},
 {
 "persName":
 "Karl Alexander",
 "ref":
 "pmb29025"},
 {
 "persName":
 "Franz Grillparzer",
 "ref":
 "pmb11518"},
 {
 "persName":
 "Richard Wagner",
 "ref":
 "pmb13024"},
 {
 "persName":
 "Johann Nepomuk Nestroy",
 "ref":
 "pmb12338"},
 {
 "persName":
 "Ferdinand Raimund",
 "ref":
 "pmb12468"}],
 "listBibl":
  [
 {
 "title":
 "Das Nationaltheater des neuen Deutschland",
 "ref":
 "pmb32953"}
 ,  {
 "title":
 "Faust. Eine Tragödie",
 "ref":
 "pmb30247"}
 ,  {
 "title":
 "Torquato Tasso",
 "ref":
 "pmb30031"}
 ,  {
 "title":
 "Iphigenie auf Tauris",
 "ref":
 "pmb32951"}
 ,  {
 "title":
 "Ein deutsches Nationaltheater",
 "ref":
 "pmb32949"}
 ,  {
 "title":
 "Neue Freie Presse",
 "ref":
 "pmb36374"}
 ],
 "listPlace":
  [
 {
 "placeName":
 "Deutschland",
 "ref":
 "pmb151"}
 ,  {
 "placeName":
 "Wien",
 "ref":
 "pmb50"}
 ,  {
 "placeName":
 "Berlin",
 "ref":
 "pmb168"}
 ,  {
 "placeName":
 "Comédie française",
 "ref":
 "pmb554"}
 ,  {
 "placeName":
 "Frankreich",
 "ref":
 "pmb166"}
 ,  {
 "placeName":
 "München",
 "ref":
 "pmb45258"}
 ,  {
 "placeName":
 "Prag",
 "ref":
 "pmb652"}
 ,  {
 "placeName":
 "Düsseldorf",
 "ref":
 "pmb863"}
 ,  {
 "placeName":
 "Mekka",
 "ref":
 "pmb49130"}
 ,  {
 "placeName":
 "Weimar",
 "ref":
 "pmb197"}
 ,  {
 "placeName":
 "Eisenach",
 "ref":
 "pmb44240"}
 ,  {
 "placeName":
 "Bayreuth",
 "ref":
 "pmb734"}
 ,  {
 "placeName":
 "Schweiz",
 "ref":
 "pmb43435"}
 ],
 "listOrg":
  [
 {
 "orgName":
 "Preussisches Kultusministerium",
 "ref":
 "pmb29396"}
 ,  {
 "orgName":
 "Burgtheater",
 "ref":
 "pmb36247"}
 ,  {
 "orgName":
 "Meininger",
 "ref":
 "pmb29236"}
 ]
}
}, {
 "type":
 "kalliope-verbund",
 "color":
 "#003574",
 "caption":
 "Kalliope Verbundkatalog",
 "idno":
 "http://kalliope-verbund.info/DE-611-HS-1438409",
 "head":
 "Brief von Arthur Schnitzler an Michael Georg Conrad",
 "text":
 "1 Br.",
 "desc":
{"listPerson":
  [
{
 "persName":
 "Michael Georg (1846-1927) Conrad",
 "ref":
 "http://d-nb.info/gnd/118669915"}]
}
}] 