[{
 "type":
 "schnitzler-tagebuch",
 "color":
 "#037a33",
 "filename":
 "entry__1904-02-22",
 "caption":
 "Tagebuch",
 "idno":
 "https://schnitzler-tagebuch.acdh.oeaw.ac.at/entry__1904-02-22.html",
 "head":
 "Tagebuch, 22. Februar 1904",
 "desc":
{"listPerson":
  [
{
 "persName":
 "Richard Beer-Hofmann",
 "ref":
 "person_13551"},
 {
 "persName":
 "Gertrude von Hofmannsthal",
 "ref":
 "person_16292"},
 {
 "persName":
 "Edgar von Karg-Bebenburg",
 "ref":
 "person_16717"},
 {
 "persName":
 "Paul Liebesny",
 "ref":
 "person_17518"},
 {
 "persName":
 "Eduard von Waclawiczek",
 "ref":
 "person_21007"},
 {
 "persName":
 "Arthur Wilhelm",
 "ref":
 "person_21339"},
 {
 "persName":
 "Paula Beer-Hofmann",
 "ref":
 "person_13550"},
 {
 "persName":
 "Hugo von Hofmannsthal",
 "ref":
 "person_16293"},
 {
 "persName":
 "Elsa von Kalmár-Kövesházi",
 "ref":
 "person_16671"}],
 "listPlace":
  [
 {
 "placeName":
 "XIII., Hietzing",
 "ref":
 "pmb63"}
 ]
}
}, {
 "type":
 "schnitzler-briefe",
 "color":
 "#A63437",
 "filename":
 "L01376",
 "caption":
 "Briefe mit Autorinnen und Autoren",
 "idno":
 "https://schnitzler-briefe.acdh.oeaw.ac.at/L01376.html",
 "head":
 "Arthur Schnitzler an Hermann Bahr, 22. 2. 1904",
 "desc":
{"listPerson":
  [
{
 "persName":
 "Hermann Bahr",
 "ref":
 "pmb10815"},
 {
 "persName":
 "Gertrude von Hofmannsthal",
 "ref":
 "pmb2292"},
 {
 "persName":
 "Hugo von Hofmannsthal",
 "ref":
 "pmb11740"},
 {
 "persName":
 "Paula Beer-Hofmann",
 "ref":
 "pmb10860"},
 {
 "persName":
 "Richard Beer-Hofmann",
 "ref":
 "pmb10863"},
 {
 "persName":
 "Edgar von Karg-Bebenburg",
 "ref":
 "pmb2219"},
 {
 "persName":
 "Olga Schnitzler",
 "ref":
 "pmb2173"},
 {
 "persName":
 "Paul Goldmann",
 "ref":
 "pmb11485"}],
 "listBibl":
  [
 {
 "title":
 "Der einsame Weg. Schauspiel in fünf Akten",
 "ref":
 "pmb29985"}
 ,  {
 "title":
 "Schnitzlers »Einsamer Weg« (Telegramm der »Neuen Freien Presse«)",
 "ref":
 "pmb31277"}
 ,  {
 "title":
 "Neue Freie Presse",
 "ref":
 "pmb36374"}
 ,  {
 "title":
 "Berliner Theater. »Der einsame Weg«. Von Arthur Schnitzler",
 "ref":
 "pmb31281"}
 ],
 "listPlace":
  [
 {
 "placeName":
 "Wien",
 "ref":
 "pmb50"}
 ,  {
 "placeName":
 "XIII., Hietzing",
 "ref":
 "pmb63"}
 ,  {
 "placeName":
 "Dresden",
 "ref":
 "pmb866"}
 ,  {
 "placeName":
 "Gemäldegalerie Alte Meister",
 "ref":
 "pmb5"}
 ,  {
 "placeName":
 "Berlin",
 "ref":
 "pmb168"}
 ,  {
 "placeName":
 "Sizilien",
 "ref":
 "pmb451"}
 ,  {
 "placeName":
 "Korfu",
 "ref":
 "pmb41212"}
 ]
}
}, {
 "type":
 "schnitzler-bahr",
 "color":
 "#F9BD63",
 "filename":
 "L041071",
 "caption":
 "Schnitzler/Bahr",
 "idno":
 "https://schnitzler-bahr.acdh.oeaw.ac.at/L041071.html",
 "head":
 "Schnitzler an Bahr, 22. 2. 1904",
 "desc":
{"listPerson":
  [
{
 "persName":
 "Hermann Bahr",
 "ref":
 "pmb10815"},
 {
 "persName":
 "Gertrude von Hofmannsthal",
 "ref":
 "pmb2292"},
 {
 "persName":
 "Hugo von Hofmannsthal",
 "ref":
 "pmb11740"},
 {
 "persName":
 "Paula Beer-Hofmann",
 "ref":
 "pmb10860"},
 {
 "persName":
 "Richard Beer-Hofmann",
 "ref":
 "pmb10863"},
 {
 "persName":
 "Edgar von Karg-Bebenburg",
 "ref":
 "pmb2219"},
 {
 "persName":
 "Olga Schnitzler",
 "ref":
 "pmb2173"},
 {
 "persName":
 "Paul Goldmann",
 "ref":
 "pmb11485"}],
 "listBibl":
  [
 {
 "title":
 "Der einsame Weg. Schauspiel in fünf Akten",
 "ref":
 "pmb29985"}
 ,  {
 "title":
 "Schnitzlers »Einsamer Weg« (Telegramm der »Neuen Freien Presse«)",
 "ref":
 "pmb31277"}
 ,  {
 "title":
 "Berliner Theater. »Der einsame Weg«. Von Arthur Schnitzler",
 "ref":
 "pmb31281"}
 ],
 "listPlace":
  [
 {
 "placeName":
 "Wien",
 "ref":
 "pmb50"}
 ,  {
 "placeName":
 "XIII., Hietzing",
 "ref":
 "pmb63"}
 ,  {
 "placeName":
 "Dresden",
 "ref":
 "pmb866"}
 ,  {
 "placeName":
 "Gemäldegalerie Alte Meister",
 "ref":
 "pmb5"}
 ,  {
 "placeName":
 "Berlin",
 "ref":
 "pmb168"}
 ,  {
 "placeName":
 "Sizilien",
 "ref":
 "pmb451"}
 ,  {
 "placeName":
 "Korfu",
 "ref":
 "pmb41212"}
 ]
}
}, {
 "type":
 "schnitzler-bahr",
 "color":
 "#F9BD63",
 "filename":
 "L041488",
 "caption":
 "Schnitzler/Bahr",
 "idno":
 "https://schnitzler-bahr.acdh.oeaw.ac.at/L041488.html",
 "head":
 "Gerty von Hofmannsthal an Bahr, 22. 2. 1904",
 "desc":
{"listPerson":
  [
{
 "persName":
 "Gertrude von Hofmannsthal",
 "ref":
 "pmb2292"},
 {
 "persName":
 "Hermann Bahr",
 "ref":
 "pmb10815"},
 {
 "persName":
 "Hugo von Hofmannsthal",
 "ref":
 "pmb11740"},
 {
 "persName":
 "Olga Schnitzler",
 "ref":
 "pmb2173"}],
 "listPlace":
  [
 {
 "placeName":
 "Wien",
 "ref":
 "pmb50"}
 ,  {
 "placeName":
 "XIII., Hietzing",
 "ref":
 "pmb63"}
 ]
}
}{
 "type":
 "schnitzler-orte",
 "color":
 "#045344",
 "filename":
 "entity/50/",
 "caption":
 "Aufenthaltsorte",
 "idno":
 "https://pmb.acdh.oeaw.ac.at/entity/50/",
 "head":
 "Wien",
 "desc":
{
}
}, ] 