[{
 "type":
 "Arthur-Schnitzler-digital",
 "color":
 "#801e23",
 "caption":
 "Arthur Schnitzler digital (Werke 1905–1931)",
 "idno":
 "https://www.schnitzler-edition.net/Dokumentarisch/Dokumentklasse/WUR_K4_NH1_0001",
 "head":
 "Zum großen Wurstel, K4 hsl. Notiz 1, zwischen 10. und 19. September 1904"
}, {
 "type":
 "schnitzler-tagebuch",
 "color":
 "#037a33",
 "filename":
 "entry__1904-09-18",
 "caption":
 "Tagebuch",
 "idno":
 "https://schnitzler-tagebuch.acdh.oeaw.ac.at/entry__1904-09-18.html",
 "head":
 "Tagebuch, 18. September 1904",
 "desc":
{"listPerson":
  [
{
 "persName":
 "Richard Beer-Hofmann",
 "ref":
 "person_13551"},
 {
 "persName":
 "Hannibal von Karg-Bebenburg",
 "ref":
 "person_16718"},
 {
 "persName":
 "Hermann Bahr",
 "ref":
 "person_13374"},
 {
 "persName":
 "Hugo von Hofmannsthal",
 "ref":
 "person_16293"}],
 "listPlace":
  [
 {
 "placeName":
 "Salzburg",
 "ref":
 "pmb30"}
 ,  {
 "placeName":
 "Maxglan",
 "ref":
 "pmb49234"}
 ,  {
 "placeName":
 "Mozartplatz",
 "ref":
 "pmb91306"}
 ]
}
}, {
 "type":
 "wienerschnitzler",
 "color":
 "#6F5106",
 "caption":
 "Wiener Schnitzler",
 "idno":
 "https://wienerschnitzler.org/tag.html#1904-09-18",
 "head":
 "Salzburg",
 "desc":
{"listPlace":
  [
 {
 "placeName":
 "Hotel und Pension Nelböck",
 "ref":
 ""}
 ,  {
 "placeName":
 "Schloss Mirabell",
 "ref":
 ""}
 ,  {
 "placeName":
 "Maxglan",
 "ref":
 ""}
 ,  {
 "placeName":
 "Mozartplatz",
 "ref":
 ""}
 ]
}
}, {
 "type":
 "schnitzler-bahr",
 "color":
 "#639FF9",
 "filename":
 "D041237",
 "caption":
 "Schnitzler/Bahr",
 "idno":
 "https://schnitzler-bahr.acdh.oeaw.ac.at/D041237.html",
 "head":
 "Tagebuch von Schnitzler, 18. 9. 1904",
 "desc":
{"listPerson":
  [
{
 "persName":
 "Olga Schnitzler",
 "ref":
 "pmb2173"},
 {
 "persName":
 "Richard Beer-Hofmann",
 "ref":
 "pmb10863"},
 {
 "persName":
 "Hannibal von Karg-Bebenburg",
 "ref":
 "pmb2506"},
 {
 "persName":
 "Hugo von Hofmannsthal",
 "ref":
 "pmb11740"},
 {
 "persName":
 "Hermann Bahr",
 "ref":
 "pmb10815"}],
 "listPlace":
  [
 {
 "placeName":
 "Salzburg",
 "ref":
 "pmb30"}
 ,  {
 "placeName":
 "Maxglan",
 "ref":
 "pmb49234"}
 ,  {
 "placeName":
 "Mozartplatz",
 "ref":
 "pmb179"}
 ,  {
 "placeName":
 "Mirabell",
 "ref":
 "pmb180"}
 ],
 "listOrg":
  [
 {
 "orgName":
 "Internationaler Pressekongress",
 "ref":
 "pmb29390"}
 ]
}
}] 