{
 "date":
 {
 "when-iso":
 "1904-02-01",
 "written":
 "Montag, 1. Februar 1904"
},
"listEvent":
 [{
 "type":
 "schnitzler-orte",
 "idno":
 "https://pmb.acdh.oeaw.ac.at/entity/50/",
 "head":
 "Wien"
}, {
 "type":
 "schnitzler-briefe",
 "idno":
 "https://schnitzler-briefe.acdh.oeaw.ac.at/L01368.html",
 "head":
 "Arthur Schnitzler an Hermann Bahr, 1. 2. 1904",
 "desc":
{"listPerson":
  [
{
 "persName":
 "Hermann Bahr",
 "ref":
 "pmb10815"},
 {
 "persName":
 "Olga Schnitzler",
 "ref":
 "pmb2173"}],
 "listBibl":
  [
 {
 "title":
 "Der einsame Weg. Schauspiel in fünf Akten",
 "ref":
 "pmb29985"}
 ],
 "listPlace":
  [
 {
 "placeName":
 "Wien",
 "ref":
 "pmb50"}
 ,  {
 "placeName":
 "Radolfzell am Bodensee",
 "ref":
 "pmb845"}
 ,  {
 "placeName":
 "Taormina",
 "ref":
 "pmb906"}
 ,  {
 "placeName":
 "Sizilien",
 "ref":
 "pmb451"}
 ,  {
 "placeName":
 "Rijeka",
 "ref":
 "pmb44246"}
 ,  {
 "placeName":
 "Palermo",
 "ref":
 "pmb901"}
 ,  {
 "placeName":
 "Berlin",
 "ref":
 "pmb168"}
 ]}

}, {
 "type":
 "schnitzler-briefe",
 "idno":
 "https://schnitzler-briefe.acdh.oeaw.ac.at/L01369.html",
 "head":
 "Hugo von Hofmannsthal an Arthur Schnitzler, 1. 2. 1904",
 "desc":
{"listPerson":
  [
{
 "persName":
 "Hugo von Hofmannsthal",
 "ref":
 "pmb11740"},
 {
 "persName":
 "Edgar von Karg-Bebenburg",
 "ref":
 "pmb2219"},
 {
 "persName":
 "Olga Schnitzler",
 "ref":
 "pmb2173"}],
 "listPlace":
  [
 {
 "placeName":
 "Rodaun",
 "ref":
 "pmb173"}
 ,  {
 "placeName":
 "XVIII., Währing",
 "ref":
 "pmb68"}
 ,  {
 "placeName":
 "Wien",
 "ref":
 "pmb50"}
 ,  {
 "placeName":
 "Edmund-Weiß-Gasse",
 "ref":
 "pmb133"}
 ,  {
 "placeName":
 "Türkenschanzstrasse",
 "ref":
 "pmb43882"}
 ]}

}, {
 "type":
 "schnitzler-cmif",
 "subtype":
 "#ya489e21-54d5-40de-a56d-f4548e894428",
 "head":
 "Otto Brahm an Arthur Schnitzler, 1.2.1904",
 "desc":
{"listPerson":
  [
{
 "persName":
 "Brahm, Otto",
 "ref":
 "https://d-nb.info/gnd/118514245"}],
 "bibl":
 "Der Briefwechsel Arthur Schnitzler – Otto Brahm. Vollständige Ausgabe. Hg., eingel. und erl. von Oskar Seidlin. Tübingen: Niemeyer, 1975."}

}, {
 "type":
 "schnitzler-tagebuch",
 "idno":
 "https://schnitzler-tagebuch.acdh.oeaw.ac.at/entry__1904-02-01.html",
 "head":
 "Tagebuch, 1. Februar 1904",
 "desc":
{"listPerson":
  [
{
 "persName":
 "Rudolf Pick",
 "ref":
 "person_18780"},
 {
 "persName":
 "Adalbert Franz Seligmann",
 "ref":
 "person_20046"}]}

}, {
 "type":
 "schnitzler-bahr",
 "idno":
 "https://schnitzler-bahr.acdh.oeaw.ac.at/L041070.html",
 "head":
 "Schnitzler an Bahr, 1. 2. 1904",
 "desc":
{"listPerson":
  [
{
 "persName":
 "Hermann Bahr",
 "ref":
 "pmb10815"},
 {
 "persName":
 "Olga Schnitzler",
 "ref":
 "pmb2173"}],
 "listBibl":
  [
 {
 "title":
 "Der einsame Weg. Schauspiel in fünf Akten",
 "ref":
 "pmb29985"}
 ],
 "listPlace":
  [
 {
 "placeName":
 "Wien",
 "ref":
 "pmb50"}
 ,  {
 "placeName":
 "Radolfzell am Bodensee",
 "ref":
 "pmb845"}
 ,  {
 "placeName":
 "Taormina",
 "ref":
 "pmb906"}
 ,  {
 "placeName":
 "Sizilien",
 "ref":
 "pmb451"}
 ,  {
 "placeName":
 "Rijeka",
 "ref":
 "pmb44246"}
 ,  {
 "placeName":
 "Palermo",
 "ref":
 "pmb901"}
 ,  {
 "placeName":
 "Berlin",
 "ref":
 "pmb168"}
 ]}

}, {
 "type":
 "schnitzler-bahr",
 "idno":
 "https://schnitzler-bahr.acdh.oeaw.ac.at/D041457.html",
 "head":
 "Aufzeichnung von Bahr, 1. 2. 1904",
 "desc":
{"listPerson":
  [
{
 "persName":
 "Hermann Bahr",
 "ref":
 "pmb10815"},
 {
 "persName":
 "Alfred Kerr",
 "ref":
 "pmb11910"},
 {
 "persName":
 "Conrad Ferdinand Meyer",
 "ref":
 "pmb12234"},
 {
 "persName":
 "Elisabeth Meyer",
 "ref":
 "pmb28209"},
 {
 "persName":
 "Betsy Meyer",
 "ref":
 "pmb28212"},
 {
 "persName":
 "Franz Grillparzer",
 "ref":
 "pmb11518"},
 {
 "persName":
 "Francisco de Goya",
 "ref":
 "pmb11504"},
 {
 "persName":
 "Ernst Hardt",
 "ref":
 "pmb11585"}],
 "listBibl":
  [
 {
 "title":
 "Der einsame Weg. Schauspiel in fünf Akten",
 "ref":
 "pmb29985"}
 ,  {
 "title":
 "Der Meister",
 "ref":
 "pmb29983"}
 ,  {
 "title":
 "Conrad Ferdinand Meyer. In der Erinnerung seiner Schwester",
 "ref":
 "pmb31123"}
 ,  {
 "title":
 "Aus Grillparzer’s Tagebüchern",
 "ref":
 "pmb31127"}
 ,  {
 "title":
 "Sanna. Schauspiel in fünf Aufzügen",
 "ref":
 "pmb29901"}
 ,  {
 "title":
 "An den Toren des Lebens",
 "ref":
 "pmb31129"}
 ],
 "listPlace":
  [
 {
 "placeName":
 "Steckborn",
 "ref":
 "pmb977"}
 ,  {
 "placeName":
 "Berlin",
 "ref":
 "pmb168"}
 ,  {
 "placeName":
 "Österreich",
 "ref":
 "pmb41240"}
 ,  {
 "placeName":
 "Frankreich",
 "ref":
 "pmb166"}
 ],
 "listOrg":
  [
 {
 "orgName":
 "Neue Rundschau, Neue Deutsche Rundschau, Freie Bühne",
 "ref":
 "pmb29212"}
 ,  {
 "orgName":
 "Gebrüder Paetel Verlag",
 "ref":
 "pmb29660"}
 ]}

}] 
}