[{
 "type":
 "schnitzler-tagebuch",
 "color":
 "#037a33",
 "filename":
 "entry__1904-10-25",
 "caption":
 "Tagebuch",
 "idno":
 "https://schnitzler-tagebuch.acdh.oeaw.ac.at/entry__1904-10-25.html",
 "head":
 "Tagebuch, 25. Oktober 1904",
 "desc":
{"listPerson":
  [
{
 "persName":
 "Johannes Brahms",
 "ref":
 "person_13914"},
 {
 "persName":
 "Julius von Gans-Ludassy",
 "ref":
 "person_15338"},
 {
 "persName":
 "Rosa Hochsinger",
 "ref":
 "person_16245"},
 {
 "persName":
 "Heinrich Kadelburg",
 "ref":
 "person_16621"},
 {
 "persName":
 "Margarethe Manassewitsch",
 "ref":
 "person_17804"},
 {
 "persName":
 "Alfred Mandl",
 "ref":
 "person_17815"},
 {
 "persName":
 "Louise Schnitzler",
 "ref":
 "person_19831"},
 {
 "persName":
 "Emilie Sigmund",
 "ref":
 "person_20096"},
 {
 "persName":
 "Albert Heine",
 "ref":
 "person_16046"},
 {
 "persName":
 "Irene Mandl",
 "ref":
 "person_17822"},
 {
 "persName":
 "Ludwig Mandl",
 "ref":
 "person_17825"}],
 "listBibl":
  [
 {
 "title":
 "Freiwild. Schauspiel in 3 Akten",
 "ref":
 "pmb29899"}
 ,  {
 "title":
 "Der Puppenspieler",
 "ref":
 "pmb29873"}
 ,  {
 "title":
 "Literatur",
 "ref":
 "pmb29869"}
 ,  {
 "title":
 "Die letzten Masken",
 "ref":
 "pmb29877"}
 ,  {
 "title":
 "Zwischenspiel. Komödie in drei Akten",
 "ref":
 "pmb29903"}
 ,  {
 "title":
 "Klavierquintett f-Moll op. 134",
 "ref":
 "pmb78205"}
 ],
 "listPlace":
  [
 {
 "placeName":
 "Deutsches Volkstheater",
 "ref":
 "pmb92202"}
 ,  {
 "placeName":
 "Port Arthur",
 "ref":
 "pmb91510"}
 ,  {
 "placeName":
 "South Korea",
 "ref":
 "pmb91056"}
 ]
}
}, {
 "type":
 "wienerschnitzler",
 "color":
 "#ECDA98",
 "caption":
 "Wiener Schnitzler",
 "head":
 "Wien",
 "desc":
{"listPlace":
  [
 {
 "placeName":
 "IX., Alsergrund",
 "ref":
 ""}
 ,  {
 "placeName":
 "I., Innere Stadt",
 "ref":
 ""}
 ,  {
 "placeName":
 "VII., Neubau",
 "ref":
 ""}
 ,  {
 "placeName":
 "II., Leopoldstadt",
 "ref":
 ""}
 ,  {
 "placeName":
 "XVIII., Währing",
 "ref":
 ""}
 ]
}
}] 