[{
 "type":
 "schnitzler-tagebuch",
 "color":
 "#037a33",
 "filename":
 "entry__1904-11-15",
 "caption":
 "Tagebuch",
 "idno":
 "https://schnitzler-tagebuch.acdh.oeaw.ac.at/entry__1904-11-15.html",
 "head":
 "Tagebuch, 15. November 1904",
 "desc":
{"listPerson":
  [
{
 "persName":
 "Paul Marx",
 "ref":
 "person_17958"},
 {
 "persName":
 "Elisabeth Steinrück",
 "ref":
 "person_20386"},
 {
 "persName":
 "Erich Ziegel",
 "ref":
 "person_21545"},
 {
 "persName":
 "Mirjam Horwitz",
 "ref":
 "person_21546"},
 {
 "persName":
 "Ernst Gòth",
 "ref":
 "person_15581"},
 {
 "persName":
 "Albert Steinrück",
 "ref":
 "person_20383"}],
 "listBibl":
  [
 {
 "title":
 "Das Haus Delorme. Eine Familienszene",
 "ref":
 "pmb31547"}
 ,  {
 "title":
 "Die Frau vom Meer. Schauspiel in fünf Akten",
 "ref":
 "pmb40061"}
 ]
}
}, {
 "type":
 "schnitzler-briefe",
 "color":
 "#A63437",
 "filename":
 "L01471",
 "caption":
 "Briefe mit Autorinnen und Autoren",
 "idno":
 "https://schnitzler-briefe.acdh.oeaw.ac.at/L01471.html",
 "head":
 "Arthur Schnitzler an Richard Beer-Hofmann, 15. 11. 1904",
 "desc":
{"listPerson":
  [
{
 "persName":
 "Arthur Schnitzler",
 "ref":
 "pmb2121"},
 {
 "persName":
 "Richard Beer-Hofmann",
 "ref":
 "pmb10863"},
 {
 "persName":
 "Richard Beer-Hofmann",
 "ref":
 "pmb10863"},
 {
 "persName":
 "Alexander Moissi",
 "ref":
 "pmb12274"},
 {
 "persName":
 "Max Reinhardt",
 "ref":
 "pmb12504"}],
 "listBibl":
  [
 {
 "title":
 "Der grüne Kakadu. Groteske in einem Akt",
 "ref":
 "pmb29843"}
 ,  {
 "title":
 "Der tapfere Cassian. Puppenspiel in einem Akt",
 "ref":
 "pmb30217"}
 ],
 "listPlace":
  [
 {
 "placeName":
 "Hotel Bristol Berlin",
 "ref":
 "pmb127"}
 ,  {
 "placeName":
 "Berlin",
 "ref":
 "pmb168"}
 ,  {
 "placeName":
 "Rodaun",
 "ref":
 "pmb173"}
 ,  {
 "placeName":
 "Unter den Linden",
 "ref":
 "pmb216"}
 ,  {
 "placeName":
 "Liesingerstraße",
 "ref":
 "pmb40101"}
 ,  {
 "placeName":
 "Carlton Hotel [Berlin]",
 "ref":
 "pmb40580"}
 ,  {
 "placeName":
 "Wien",
 "ref":
 "pmb50"}
 ]
}
}, {
 "type":
 "wienerschnitzler",
 "color":
 "#6F5106",
 "caption":
 "Wiener Schnitzler",
 "idno":
 "https://wienerschnitzler.org/tag.html#1904-11-15",
 "head":
 "Berlin",
 "desc":
{"listPlace":
  [
 {
 "placeName":
 "Hotel Bristol Berlin",
 "ref":
 ""}
 ,  {
 "placeName":
 "Lessing-Theater",
 "ref":
 ""}
 ,  {
 "placeName":
 "Hotel und Restaurant »Prinz Wilhelm«",
 "ref":
 ""}
 ,  {
 "placeName":
 "Restaurant Wedl",
 "ref":
 ""}
 ,  {
 "placeName":
 "Kleines Theater",
 "ref":
 ""}
 ]
}
}, {
 "type":
 "URL",
 "subtype":
 "pmb",
 "filename":
 "entity/234602/",
 "idno":
 "https://pmb.acdh.oeaw.ac.at/entity/234602/",
 "head":
 "Probe von Das Haus Delorme, 15.11.1904",
 "desc":
{"listOrg":
  [
 {
 "orgName":
 "Kleines Theater",
 "ref":
 ""}
 ],
 "listBibl":
  [
 {
 "title":
 "Das Haus Delorme. Eine Familienszene",
 "ref":
 ""}
 ],
 "listPerson":
  [
{
 "persName":
 "Arthur Schnitzler",
 "ref":
 ""}],
 "listPlace":
  [
 {
 "placeName":
 "Kleines Theater",
 "ref":
 ""}
 ]
}
}, {
 "type":
 "URL",
 "subtype":
 "pmb",
 "filename":
 "entity/209342/",
 "idno":
 "https://pmb.acdh.oeaw.ac.at/entity/209342/",
 "head":
 "Aufführung von Die Frau vom Meer, 15.11.1904",
 "desc":
{"listOrg":
  [
 {
 "orgName":
 "Lessing-Theater",
 "ref":
 ""}
 ],
 "listBibl":
  [
 {
 "title":
 "Die Frau vom Meer. Schauspiel in fünf Akten",
 "ref":
 ""}
 ],
 "listPerson":
  [
{
 "persName":
 "Arthur Schnitzler",
 "ref":
 ""}],
 "listPlace":
  [
 {
 "placeName":
 "Lessing-Theater",
 "ref":
 ""}
 ]
}
}, {
 "type":
 "schnitzler-cmif",
 "subtype":
 "#j7685005-64da-4e31-99b6-b4641aa1628c",
 "color":
 "#654321",
 "caption":
 "Gedruckte Briefwechsel",
 "head":
 "Arthur Schnitzler an Olga Schnitzler, 15. 11. 1904",
 "source":
 "Arthur Schnitzler: Briefe 1875–1912. Hrsg. v. Therese Nickl u. Heinrich Schnitzler. Frankfurt am Main: S. Fischer 1981."
}] 