[{
 "type":
 "schnitzler-orte",
 "idno":
 "https://pmb.acdh.oeaw.ac.at/entity/50/",
 "head":
 "Wien"
}, {
 "type":
 "schnitzler-briefe",
 "idno":
 "https://schnitzler-briefe.acdh.oeaw.ac.at/L01458.html",
 "head":
 "Hermann Bahr an Arthur Schnitzler, 19. [10. 1904]",
 "desc":
{"listPerson":
  [
{
 "persName":
 "Hermann Bahr",
 "ref":
 "pmb10815"},
 {
 "persName":
 "Olga Schnitzler",
 "ref":
 "pmb2173"},
 {
 "persName":
 "Pauline Flöge",
 "ref":
 "pmb27677"},
 {
 "persName":
 "Helene Flöge",
 "ref":
 "pmb27674"},
 {
 "persName":
 "Emilie Flöge",
 "ref":
 "pmb2972"},
 {
 "persName":
 "Rosa Bahr",
 "ref":
 "pmb13682"}],
 "listPlace":
  [
 {
 "placeName":
 "Wien",
 "ref":
 "pmb50"}
 ,  {
 "placeName":
 "Dubrovnik",
 "ref":
 "pmb682"}
 ,  {
 "placeName":
 "Dalmatien",
 "ref":
 "pmb265"}
 ,  {
 "placeName":
 "Mariahilferstraße",
 "ref":
 "pmb302"}
 ,  {
 "placeName":
 "Casa Piccola",
 "ref":
 "pmb303"}
 ]}

}, {
 "type":
 "schnitzler-cmif",
 "subtype":
 "#u23454be-b4dd-4bf6-8dc1-c5e2e528c38d",
 "head":
 "Max Reinhardt an Arthur Schnitzler, 19.10.1904",
 "desc":
{"listPerson":
  [
{
 "persName":
 "Reinhardt, Max",
 "ref":
 "https://d-nb.info/gnd/118599380"}],
 "bibl":
 "Renate Wagner (Hg.): Der Briefwechsel Arthur Schnitzlers mit Max Reinhardt und dessen Mitarbeitern. Otto Müller Verlag, Salzburg: 1971."}

}, {
 "type":
 "schnitzler-tagebuch",
 "idno":
 "https://schnitzler-tagebuch.acdh.oeaw.ac.at/entry__1904-10-19.html",
 "head":
 "Tagebuch, 19. Oktober 1904",
 "desc":
{"listPerson":
  [
{
 "persName":
 "Hugo von Hofmannsthal",
 "ref":
 "person_16293"},
 {
 "persName":
 "Dimitrij S. Merežkovskij",
 "ref":
 "person_18086"}],
 "listBibl":
  [
 {
 "title":
 "Das neue Lied",
 "ref":
 "pmb30655"}
 ,  {
 "title":
 "Die Meistersinger von Nürnberg",
 "ref":
 "pmb30661"}
 ],
 "listPlace":
  [
 {
 "placeName":
 "Pötzleinsdorf",
 "ref":
 "pmb169"}
 ,  {
 "placeName":
 "Michaelerberg",
 "ref":
 "pmb91239"}
 ,  {
 "placeName":
 "XIII., Hietzing",
 "ref":
 "pmb63"}
 ]}

}, {
 "type":
 "schnitzler-bahr",
 "idno":
 "https://schnitzler-bahr.acdh.oeaw.ac.at/L041283.html",
 "head":
 "Bahr an Schnitzler, 19. 10. [1904]",
 "desc":
{"listPerson":
  [
{
 "persName":
 "Hermann Bahr",
 "ref":
 "pmb10815"},
 {
 "persName":
 "Olga Schnitzler",
 "ref":
 "pmb2173"},
 {
 "persName":
 "Pauline Flöge",
 "ref":
 "pmb27677"},
 {
 "persName":
 "Helene Flöge",
 "ref":
 "pmb27674"},
 {
 "persName":
 "Emilie Flöge",
 "ref":
 "pmb2972"},
 {
 "persName":
 "Rosa Bahr",
 "ref":
 "pmb13682"}],
 "listPlace":
  [
 {
 "placeName":
 "Wien",
 "ref":
 "pmb50"}
 ,  {
 "placeName":
 "Dubrovnik",
 "ref":
 "pmb682"}
 ,  {
 "placeName":
 "Mariahilferstraße",
 "ref":
 "pmb302"}
 ,  {
 "placeName":
 "Casa Piccola",
 "ref":
 "pmb303"}
 ]}

}] 