[{
 "type":
 "schnitzler-tagebuch",
 "color":
 "#037a33",
 "filename":
 "entry__1905-01-22",
 "caption":
 "Tagebuch",
 "idno":
 "https://schnitzler-tagebuch.acdh.oeaw.ac.at/entry__1905-01-22.html",
 "head":
 "Tagebuch, 22. Januar 1905",
 "desc":
{"listPerson":
  [
{
 "persName":
 "Lilli Lehmann",
 "ref":
 "person_17405"},
 {
 "persName":
 "Oskar Mayer",
 "ref":
 "person_18021"},
 {
 "persName":
 "Carl Moll",
 "ref":
 "person_18218"}],
 "listBibl":
  [
 {
 "title":
 "Ein Erfolg",
 "ref":
 "pmb33808"}
 ,  {
 "title":
 "Zum großen Wurstel",
 "ref":
 "pmb29951"}
 ,  {
 "title":
 "Fidelio op. 72",
 "ref":
 "pmb77145"}
 ],
 "listPlace":
  [
 {
 "placeName":
 "Grinzing",
 "ref":
 "pmb90771"}
 ,  {
 "placeName":
 "Heiligenstadt",
 "ref":
 "pmb90847"}
 ,  {
 "placeName":
 "Hohe Warte",
 "ref":
 "pmb92292"}
 ]
}
}, {
 "type":
 "schnitzler-orte",
 "color":
 "#045344",
 "caption":
 "Aufenthaltsorte",
 "head":
 "Wien",
 "desc":
{"listPlace":
  [
 {
 "placeName":
 "I., Innere Stadt",
 "ref":
 ""}
 ,  {
 "placeName":
 "XIX., Döbling",
 "ref":
 ""}
 ,  {
 "placeName":
 "XVIII., Währing",
 "ref":
 ""}
 ]
}
}, {
 "type":
 "schnitzler-interviews",
 "color":
 "#3D5A80",
 "filename":
 "I036",
 "caption":
 "Interviews, Meinungen, Proteste",
 "idno":
 "https://schnitzler-interviews.acdh.oeaw.ac.at/I036.html",
 "head":
 "[Camill Hoffmann]: Wien – Berlin. Theaterfragen, 22. 1. 1905",
 "desc":
{"listPerson":
  [
{
 "persName":
 "Camill Hoffmann",
 "ref":
 "pmb11727"},
 {
 "persName":
 "Hugo von Hofmannsthal",
 "ref":
 "pmb11740"},
 {
 "persName":
 "A. L.",
 "ref":
 "pmb27742"},
 {
 "persName":
 "Ferdinand Bronner",
 "ref":
 "pmb11021"},
 {
 "persName":
 "Hermann Bahr",
 "ref":
 "pmb10815"},
 {
 "persName":
 "Karl Schönherr",
 "ref":
 "pmb12749"},
 {
 "persName":
 "Richard Fellner",
 "ref":
 "pmb11308"},
 {
 "persName":
 "Ernst Gettke",
 "ref":
 "pmb2164"},
 {
 "persName":
 "Rainer Simons",
 "ref":
 "pmb12787"},
 {
 "persName":
 "Felix Salten",
 "ref":
 "pmb2167"}],
 "listBibl":
  [
 {
 "title":
 "Bei Hofmannsthal. Ein Interview",
 "ref":
 "pmb33021"}
 ,  {
 "title":
 "B.Z. am Mittag",
 "ref":
 "pmb58435"}
 ,  {
 "title":
 "Die Zeit",
 "ref":
 "pmb35935"}
 ,  {
 "title":
 "Wien – Berlin. Theaterfragen",
 "ref":
 "pmb33017"}
 ],
 "listPlace":
  [
 {
 "placeName":
 "Wien",
 "ref":
 "pmb50"}
 ,  {
 "placeName":
 "Berlin",
 "ref":
 "pmb168"}
 ,  {
 "placeName":
 "Volkstheater",
 "ref":
 "pmb20"}
 ,  {
 "placeName":
 "Raimund-Theater",
 "ref":
 "pmb77"}
 ,  {
 "placeName":
 "Volksoper",
 "ref":
 "pmb28"}
 ,  {
 "placeName":
 "Österreich",
 "ref":
 "pmb41240"}
 ],
 "listOrg":
  [
 {
 "orgName":
 "Burgtheater",
 "ref":
 "pmb36247"}
 ]
}
}, {
 "type":
 "schnitzler-events",
 "color":
 "#9BC53D",
 "filename":
 "entity/209357/",
 "caption":
 "Ereignisse in der PMB",
 "idno":
 "https://pmb.acdh.oeaw.ac.at/entity/209357/",
 "head":
 "Aufführung von Fidelio op. 72, 22.1.1905",
 "desc":
{"listOrg":
  [
 {
 "orgName":
 "K.K. Hof-Oper",
 "ref":
 ""}
 ],
 "listBibl":
  [
 {
 "title":
 "Fidelio op. 72",
 "ref":
 ""}
 ],
 "listPerson":
  [
{
 "persName":
 "Arthur Schnitzler",
 "ref":
 ""}],
 "listPlace":
  [
 {
 "placeName":
 "Oper",
 "ref":
 ""}
 ]
}
}] 