[{
 "type":
 "schnitzler-tagebuch",
 "color":
 "#037a33",
 "filename":
 "entry__1905-07-29",
 "caption":
 "Tagebuch",
 "idno":
 "https://schnitzler-tagebuch.acdh.oeaw.ac.at/entry__1905-07-29.html",
 "head":
 "Tagebuch, 29. Juli 1905",
 "desc":
{"listPerson":
  [
{
 "persName":
 "Auguste Chlum",
 "ref":
 "person_14199"},
 {
 "persName":
 "Theodor Friedl",
 "ref":
 "person_15217"},
 {
 "persName":
 "Marie Glümer",
 "ref":
 "person_15485"},
 {
 "persName":
 "Marie Reinhard",
 "ref":
 "person_19150"}],
 "listBibl":
  [
 {
 "title":
 "Im Spiel der Sommerlüfte. In drei Aufzügen",
 "ref":
 "pmb30945"}
 ],
 "listPlace":
  [
 {
 "placeName":
 "Neunkirchen",
 "ref":
 "pmb91340"}
 ,  {
 "placeName":
 "Hassbach",
 "ref":
 "pmb90839"}
 ,  {
 "placeName":
 "Kirchau",
 "ref":
 "pmb44725"}
 ,  {
 "placeName":
 "Baltic Sea",
 "ref":
 "pmb91421"}
 ,  {
 "placeName":
 "Scheiblingkirchen",
 "ref":
 "pmb91675"}
 ,  {
 "placeName":
 "Seebenstein",
 "ref":
 "pmb91715"}
 ,  {
 "placeName":
 "Wien",
 "ref":
 "pmb50"}
 ,  {
 "placeName":
 "Türkenschanzstraße",
 "ref":
 "pmb92571"}
 ]
}
}, {
 "type":
 "pmb",
 "color":
 "#9B5F98",
 "filename":
 "entity/483/",
 "caption":
 "PMB",
 "idno":
 "https://pmb.acdh.oeaw.ac.at/entity/483/",
 "text":
 "Reichenau an der Rax"
}, {
 "type":
 "pmb",
 "color":
 "#9B5F98",
 "filename":
 "entity/44725/",
 "caption":
 "PMB",
 "idno":
 "https://pmb.acdh.oeaw.ac.at/entity/44725/",
 "text":
 "Kirchau"
}, {
 "type":
 "pmb",
 "color":
 "#9B5F98",
 "filename":
 "entity/50/",
 "caption":
 "PMB",
 "idno":
 "https://pmb.acdh.oeaw.ac.at/entity/50/",
 "text":
 "Wien"
}, {
 "type":
 "pmb",
 "color":
 "#9B5F98",
 "filename":
 "entity/44982/",
 "caption":
 "PMB",
 "idno":
 "https://pmb.acdh.oeaw.ac.at/entity/44982/",
 "text":
 "Kurhaus Rudolfsbad"
}] 