[{
 "type":
 "schnitzler-tagebuch",
 "color":
 "#037a33",
 "filename":
 "entry__1905-11-23",
 "caption":
 "Tagebuch",
 "idno":
 "https://schnitzler-tagebuch.acdh.oeaw.ac.at/entry__1905-11-23.html",
 "head":
 "Tagebuch, 23. November 1905",
 "desc":
{"listPerson":
  [
{
 "persName":
 "Otto Brahm",
 "ref":
 "person_13913"},
 {
 "persName":
 "Paul Goldmann",
 "ref":
 "person_15529"},
 {
 "persName":
 "Dora Michaelis",
 "ref":
 "person_18137"},
 {
 "persName":
 "Karl Michaelis",
 "ref":
 "person_18140"},
 {
 "persName":
 "Emil Orlik",
 "ref":
 "person_18576"},
 {
 "persName":
 "Felix Salten",
 "ref":
 "person_19542"}],
 "listBibl":
  [
 {
 "title":
 "Zwischenspiel. Komödie in drei Akten",
 "ref":
 "pmb29903"}
 ,  {
 "title":
 "Der Kaufmann von Venedig",
 "ref":
 "pmb32047"}
 ],
 "listPlace":
  [
 {
 "placeName":
 "Berlin",
 "ref":
 "pmb168"}
 ]
}
}, {
 "type":
 "wienerschnitzler",
 "color":
 "#ECDA98",
 "caption":
 "Wiener Schnitzler",
 "idno":
 "https://wienerschnitzler.org/tag.html#1905-11-23",
 "head":
 "Berlin",
 "desc":
{"listPlace":
  [
 {
 "placeName":
 "Hotel Continental [Berlin]",
 "ref":
 ""}
 ,  {
 "placeName":
 "Deutsches Theater Berlin",
 "ref":
 ""}
 ,  {
 "placeName":
 "Hotel und Restaurant »Prinz Wilhelm«",
 "ref":
 ""}
 ,  {
 "placeName":
 "Lessing-Theater",
 "ref":
 ""}
 ,  {
 "placeName":
 "Hotel Westminster",
 "ref":
 ""}
 ]
}
}, {
 "type":
 "schnitzler-events",
 "color":
 "#9BC53D",
 "filename":
 "entity/236711/",
 "caption":
 "Ereignisse in der PMB",
 "idno":
 "https://pmb.acdh.oeaw.ac.at/entity/236711/",
 "head":
 "Probe von Zwischenspiel, 23.11.1905",
 "desc":
{"listOrg":
  [
 {
 "orgName":
 "Lessing-Theater",
 "ref":
 ""}
 ],
 "listBibl":
  [
 {
 "title":
 "Zwischenspiel. Komödie in drei Akten",
 "ref":
 ""}
 ],
 "listPerson":
  [
{
 "persName":
 "Arthur Schnitzler",
 "ref":
 ""}],
 "listPlace":
  [
 {
 "placeName":
 "Lessing-Theater",
 "ref":
 ""}
 ]
}
}, {
 "type":
 "schnitzler-events",
 "color":
 "#9BC53D",
 "filename":
 "entity/209392/",
 "caption":
 "Ereignisse in der PMB",
 "idno":
 "https://pmb.acdh.oeaw.ac.at/entity/209392/",
 "head":
 "Aufführung von The Merchant of Venice, 23.11.1905",
 "desc":
{"listOrg":
  [
 {
 "orgName":
 "Deutsches Theater Berlin",
 "ref":
 ""}
 ],
 "listBibl":
  [
 {
 "title":
 "The Merchant of Venice",
 "ref":
 ""}
 ],
 "listPerson":
  [
{
 "persName":
 "Arthur Schnitzler",
 "ref":
 ""}],
 "listPlace":
  [
 {
 "placeName":
 "Deutsches Theater Berlin",
 "ref":
 ""}
 ]
}
}] 