[{
 "type":
 "schnitzler-orte",
 "color":
 "#045344",
 "caption":
 "Aufenthaltsorte",
 "idno":
 "https://pmb.acdh.oeaw.ac.at/entity/50/",
 "head":
 "Wien"
}{
 "type":
 "schnitzler-briefe",
 "color":
 "#A63437",
 "caption":
 "Briefe mit Autorinnen und Autoren",
 "idno":
 "https://schnitzler-briefe.acdh.oeaw.ac.at/L01490.html",
 "head":
 "Arthur Schnitzler an Hermann Bahr, 1. 1. 1905",
 "desc":
{"listPerson":
  [
{
 "persName":
 "Hermann Bahr",
 "ref":
 "pmb10815"},
 {
 "persName":
 "Olga Schnitzler",
 "ref":
 "pmb2173"},
 {
 "persName":
 "Max Eugen Burckhard",
 "ref":
 "pmb11036"}],
 "listPlace":
  [
 {
 "placeName":
 "Wien",
 "ref":
 "pmb50"}
 ,  {
 "placeName":
 "Ober Sankt Veit",
 "ref":
 "pmb165"}
 ,  {
 "placeName":
 "Veitlissengasse",
 "ref":
 "pmb220"}
 ,  {
 "placeName":
 "Lueg am Wolfgangsee",
 "ref":
 "pmb186"}
 ]
}
}{
 "type":
 "schnitzler-tagebuch",
 "color":
 "#037a33",
 "caption":
 "Tagebuch",
 "idno":
 "https://schnitzler-tagebuch.acdh.oeaw.ac.at/entry__1905-01-01.html",
 "head":
 "Tagebuch, 1. Januar 1905",
 "desc":
{"listPerson":
  [
{
 "persName":
 "Gisela Hajek",
 "ref":
 "person_15854"},
 {
 "persName":
 "Hermann Kienzl",
 "ref":
 "person_16836"},
 {
 "persName":
 "Heinrich Schnitzler",
 "ref":
 "person_19822"},
 {
 "persName":
 "Anna Sikora",
 "ref":
 "person_20523"}],
 "listBibl":
  [
 {
 "title":
 "Die Meistersinger von Nürnberg",
 "ref":
 "pmb30661"}
 ],
 "listPlace":
  [
 {
 "placeName":
 "Neuwaldegg",
 "ref":
 "pmb170"}
 ,  {
 "placeName":
 "Pötzleinsdorf",
 "ref":
 "pmb169"}
 ]
}
}{
 "type":
 "schnitzler-bahr",
 "color":
 "#F9BD63",
 "caption":
 "Schnitzler/Bahr",
 "idno":
 "https://schnitzler-bahr.acdh.oeaw.ac.at/L041076.html",
 "head":
 "Schnitzler an Bahr, 1. 1. 1905",
 "desc":
{"listPerson":
  [
{
 "persName":
 "Hermann Bahr",
 "ref":
 "pmb10815"},
 {
 "persName":
 "Olga Schnitzler",
 "ref":
 "pmb2173"},
 {
 "persName":
 "Max Eugen Burckhard",
 "ref":
 "pmb11036"}],
 "listPlace":
  [
 {
 "placeName":
 "Wien",
 "ref":
 "pmb50"}
 ,  {
 "placeName":
 "Ober Sankt Veit",
 "ref":
 "pmb165"}
 ,  {
 "placeName":
 "Veitlissengasse",
 "ref":
 "pmb220"}
 ,  {
 "placeName":
 "Lueg am Wolfgangsee",
 "ref":
 "pmb186"}
 ]
}
}{
 "type":
 "schnitzler-bahr",
 "color":
 "#F9BD63",
 "caption":
 "Schnitzler/Bahr",
 "idno":
 "https://schnitzler-bahr.acdh.oeaw.ac.at/D041475.html",
 "head":
 "Aufzeichnung von Bahr, [Anfang 1905?]",
 "desc":
{"listPerson":
  [
{
 "persName":
 "Hermann Bahr",
 "ref":
 "pmb10815"},
 {
 "persName":
 "Fritz Oswald Bilse",
 "ref":
 "pmb3349"},
 {
 "persName":
 "Franz Adam Beyerlein",
 "ref":
 "pmb10915"},
 {
 "persName":
 "Alfonso de Borbón y Austria del Este",
 "ref":
 "pmb28437"},
 {
 "persName":
 "Eugen Brüll",
 "ref":
 "pmb14637"}],
 "listBibl":
  [
 {
 "title":
 "Freiwild. Schauspiel in 3 Akten",
 "ref":
 "pmb29899"}
 ]
}
}] 