{
 "date":
 {
 "when-iso":
 "1905-03-15",
 "written":
 "Mittwoch, 15. März 1905"
},
"listEvent":
 [{
 "type":
 "schnitzler-orte",
 "idno":
 "https://pmb.acdh.oeaw.ac.at/entity/49149/",
 "head":
 "Kotor"
}, {
 "type":
 "schnitzler-orte",
 "idno":
 "https://pmb.acdh.oeaw.ac.at/entity/682/",
 "head":
 "Dubrovnik"
}, {
 "type":
 "schnitzler-orte",
 "idno":
 "https://pmb.acdh.oeaw.ac.at/entity/365/",
 "head":
 "Hotel Imperial"
}, {
 "type":
 "schnitzler-briefe",
 "idno":
 "https://schnitzler-briefe.acdh.oeaw.ac.at/L01509.html",
 "head":
 "Arthur Schnitzler, Hugo von Hofmannsthal an Gerty von Hofmannsthal, 15. 3. 1905",
 "desc":
{"listPerson":
  [
{
 "persName":
 "Hugo von Hofmannsthal",
 "ref":
 "pmb11740"},
 {
 "persName":
 "Gertrude von Hofmannsthal",
 "ref":
 "pmb2292"}],
 "listPlace":
  [
 {
 "placeName":
 "Rijeka",
 "ref":
 "pmb44246"}
 ,  {
 "placeName":
 "Rodaun",
 "ref":
 "pmb173"}
 ,  {
 "placeName":
 "Dubrovnik",
 "ref":
 "pmb682"}
 ,  {
 "placeName":
 "Badgasse",
 "ref":
 "pmb1006"}
 ,  {
 "placeName":
 "Hamburg",
 "ref":
 "pmb506"}
 ,  {
 "placeName":
 "Amerika",
 "ref":
 "pmb175"}
 ]}

}, {
 "type":
 "schnitzler-tagebuch",
 "idno":
 "https://schnitzler-tagebuch.acdh.oeaw.ac.at/entry__1905-03-15.html",
 "head":
 "Tagebuch, 15. März 1905",
 "desc":
{"listPerson":
  [
{
 "persName":
 "Max Eugen Burckhard",
 "ref":
 "person_14065"},
 {
 "persName":
 "Hugo von Hofmannsthal",
 "ref":
 "person_16293"},
 {
 "persName":
 "Bernhard Wandel",
 "ref":
 "person_21090"}],
 "listPlace":
  [
 {
 "placeName":
 "Dubrovnik",
 "ref":
 "pmb682"}
 ,  {
 "placeName":
 "Gruž",
 "ref":
 "pmb90757"}
 ]}

}] 
}