[{
 "type":
 "schnitzler-tagebuch",
 "color":
 "#037a33",
 "filename":
 "entry__1905-02-26",
 "caption":
 "Tagebuch",
 "idno":
 "https://schnitzler-tagebuch.acdh.oeaw.ac.at/entry__1905-02-26.html",
 "head":
 "Tagebuch, 26. Februar 1905",
 "desc":
{"listPerson":
  [
{
 "persName":
 "Richard Beer-Hofmann",
 "ref":
 "person_13551"},
 {
 "persName":
 "Felix Speidel",
 "ref":
 "person_20242"},
 {
 "persName":
 "Agnes Ulmann",
 "ref":
 "person_20872"},
 {
 "persName":
 "Karl Gustav Vollmoeller",
 "ref":
 "person_20986"},
 {
 "persName":
 "Gortschakow",
 "ref":
 "person_15574"},
 {
 "persName":
 "Hugo von Hofmannsthal",
 "ref":
 "person_16293"}],
 "listBibl":
  [
 {
 "title":
 "Das neue Lied",
 "ref":
 "pmb30655"}
 ,  {
 "title":
 "Catherina, Gräfin von Armagnac und ihre beiden Liebhaber",
 "ref":
 "pmb77114"}
 ,  {
 "title":
 "Giulia",
 "ref":
 "pmb77117"}
 ,  {
 "title":
 "Der deutsche Graf",
 "ref":
 "pmb77116"}
 ],
 "listPlace":
  [
 {
 "placeName":
 "Monte Carlo",
 "ref":
 "pmb5862"}
 ,  {
 "placeName":
 "Griechenland",
 "ref":
 "pmb44293"}
 ]
}
}, {
 "type":
 "schnitzler-briefe",
 "color":
 "#A63437",
 "filename":
 "L01502",
 "caption":
 "Briefe mit Autorinnen und Autoren",
 "idno":
 "https://schnitzler-briefe.acdh.oeaw.ac.at/L01502.html",
 "head":
 "Arthur Schnitzler an Richard Beer-Hofmann, 26. 2. 1905",
 "desc":
{"listPerson":
  [
{
 "persName":
 "Paula Beer-Hofmann",
 "ref":
 "pmb10860"},
 {
 "persName":
 "Richard Beer-Hofmann",
 "ref":
 "pmb10863"},
 {
 "persName":
 "Hugo von Hofmannsthal",
 "ref":
 "pmb11740"},
 {
 "persName":
 "Gertrude von Hofmannsthal",
 "ref":
 "pmb2292"}],
 "listPlace":
  [
 {
 "placeName":
 "Rodaun",
 "ref":
 "pmb173"}
 ,  {
 "placeName":
 "Ottakringer Bräu",
 "ref":
 "pmb304"}
 ,  {
 "placeName":
 "Liesingerstraße",
 "ref":
 "pmb40101"}
 ,  {
 "placeName":
 "Mittelmeer",
 "ref":
 "pmb41016"}
 ,  {
 "placeName":
 "Wien",
 "ref":
 "pmb50"}
 ,  {
 "placeName":
 "Genua",
 "ref":
 "pmb994"}
 ]
}
}, {
 "type":
 "wienerschnitzler",
 "color":
 "#6F5106",
 "caption":
 "Wiener Schnitzler",
 "idno":
 "https://wienerschnitzler.org/tag.html#1905-02-26",
 "head":
 "Wien",
 "desc":
{"listPlace":
  [
 {
 "placeName":
 "XVIII., Währing",
 "ref":
 ""}
 ]
}
}] 