[{
 "type":
 "schnitzler-tagebuch",
 "color":
 "#037a33",
 "filename":
 "entry__1905-05-06",
 "caption":
 "Tagebuch",
 "idno":
 "https://schnitzler-tagebuch.acdh.oeaw.ac.at/entry__1905-05-06.html",
 "head":
 "Tagebuch, 6. Mai 1905",
 "desc":
{"listPerson":
  [
{
 "persName":
 "Herman Bang",
 "ref":
 "person_13403"},
 {
 "persName":
 "Heinrich Mann",
 "ref":
 "person_17834"}],
 "listBibl":
  [
 {
 "title":
 "Das weiße Haus",
 "ref":
 "pmb78274"}
 ,  {
 "title":
 "Les liaisons dangereuses",
 "ref":
 "pmb79262"}
 ,  {
 "title":
 "Professor Unrat oder Das Ende eines Tyrannen. Roman",
 "ref":
 "pmb76567"}
 ],
 "listPlace":
  [
 {
 "placeName":
 "Sonnwendstein",
 "ref":
 "pmb91776"}
 ,  {
 "placeName":
 "Wien",
 "ref":
 "pmb50"}
 ,  {
 "placeName":
 "Semmering",
 "ref":
 "pmb91735"}
 ]
}
}, {
 "type":
 "schnitzler-briefe",
 "color":
 "#A63437",
 "filename":
 "L03408",
 "caption":
 "Briefe mit Autorinnen und Autoren",
 "idno":
 "https://schnitzler-briefe.acdh.oeaw.ac.at/L03408.html",
 "head":
 "Felix Salten an Arthur Schnitzler, 6. 5. 1905",
 "desc":
{"listPerson":
  [
{
 "persName":
 "Felix Salten",
 "ref":
 "pmb2167"},
 {
 "persName":
 "Max Reinhardt",
 "ref":
 "pmb12504"},
 {
 "persName":
 "Olga Schnitzler",
 "ref":
 "pmb2173"},
 {
 "persName":
 "Ottilie Salten",
 "ref":
 "pmb23918"}],
 "listBibl":
  [
 {
 "title":
 "Ein Sommernachtstraum. Komödie in fünf Aufzügen",
 "ref":
 "pmb147280"}
 ,  {
 "title":
 "Die Zeit",
 "ref":
 "pmb35935"}
 ],
 "listOrg":
  [
 {
 "orgName":
 "Kleines Theater",
 "ref":
 "pmb45430"}
 ,  {
 "orgName":
 "Neues Theater",
 "ref":
 "pmb45434"}
 ],
 "listPlace":
  [
 {
 "placeName":
 "I., Innere Stadt",
 "ref":
 "pmb51"}
 ,  {
 "placeName":
 "Wien",
 "ref":
 "pmb50"}
 ,  {
 "placeName":
 "XVIII., Währing",
 "ref":
 "pmb68"}
 ,  {
 "placeName":
 "Edmund-Weiß-Gasse 7",
 "ref":
 "pmb168940"}
 ,  {
 "placeName":
 "Pötzleinsdorferstraße",
 "ref":
 "pmb92457"}
 ,  {
 "placeName":
 "Theater an der Wien",
 "ref":
 "pmb37"}
 ,  {
 "placeName":
 "Mariazell",
 "ref":
 "pmb431"}
 ,  {
 "placeName":
 "Florenz",
 "ref":
 "pmb263"}
 ]
}
}, {
 "type":
 "schnitzler-orte",
 "color":
 "#045344",
 "filename":
 "entity/189/",
 "caption":
 "Aufenthaltsorte",
 "idno":
 "https://pmb.acdh.oeaw.ac.at/entity/189/",
 "head":
 "Semmering"
}, {
 "type":
 "schnitzler-orte",
 "color":
 "#045344",
 "filename":
 "entity/50/",
 "caption":
 "Aufenthaltsorte",
 "idno":
 "https://pmb.acdh.oeaw.ac.at/entity/50/",
 "head":
 "Wien"
}, {
 "type":
 "schnitzler-orte",
 "color":
 "#045344",
 "filename":
 "entity/91776/",
 "caption":
 "Aufenthaltsorte",
 "idno":
 "https://pmb.acdh.oeaw.ac.at/entity/91776/",
 "head":
 "Sonnwendstein"
}, {
 "type":
 "schnitzler-orte",
 "color":
 "#045344",
 "filename":
 "entity/168940/",
 "caption":
 "Aufenthaltsorte",
 "idno":
 "https://pmb.acdh.oeaw.ac.at/entity/168940/",
 "head":
 "Edmund-Weiß-Gasse 7"
}, {
 "type":
 "kalliope-verbund",
 "color":
 "#003574",
 "caption":
 "Kalliope Verbundkatalog",
 "idno":
 "http://kalliope-verbund.info/DE-2498-HS00076157",
 "head":
 "Oettinger, Karl an Schnitzler, Arthur [Briefe]",
 "text":
 "1 Bl. Vis.kte"
}] 