[{
 "type":
 "schnitzler-tagebuch",
 "color":
 "#037a33",
 "filename":
 "entry__1905-08-21",
 "caption":
 "Tagebuch",
 "idno":
 "https://schnitzler-tagebuch.acdh.oeaw.ac.at/entry__1905-08-21.html",
 "head":
 "Tagebuch, 21. August 1905",
 "desc":
{"listPerson":
  [
{
 "persName":
 "Jakob Baechtold",
 "ref":
 "person_13369"},
 {
 "persName":
 "Helene Baumgartner",
 "ref":
 "person_13495"},
 {
 "persName":
 "Otto Brahm",
 "ref":
 "person_13913"},
 {
 "persName":
 "Isidor Samuely",
 "ref":
 "person_19559"},
 {
 "persName":
 "Julius Schnitzler",
 "ref":
 "person_19827"},
 {
 "persName":
 "Elisabeth Steinrück",
 "ref":
 "person_20386"},
 {
 "persName":
 "Anna Sikora",
 "ref":
 "person_20523"},
 {
 "persName":
 "Agnes Ulmann",
 "ref":
 "person_20872"},
 {
 "persName":
 "Honoré de Balzac",
 "ref":
 "person_13396"},
 {
 "persName":
 "Edgar Allan Poe",
 "ref":
 "person_18839"}],
 "listBibl":
  [
 {
 "title":
 "Der Ruf des Lebens. Schauspiel in drei Akten",
 "ref":
 "pmb29905"}
 ,  {
 "title":
 "Tagebuch",
 "ref":
 "pmb33243"}
 ,  {
 "title":
 "Gottfried Kellers Leben. Seine Briefe und Tagebücher",
 "ref":
 "pmb80111"}
 ,  {
 "title":
 "La cousine Bette",
 "ref":
 "pmb76713"}
 ,  {
 "title":
 "Briefe der Herzogin Elisabeth Charlotte von Orléans aus den Jahren 1676-1722",
 "ref":
 "pmb80426"}
 ,  {
 "title":
 "Briefwechsel zwischen Goethe und Reinhard in den Jahren 1807 bis 1832",
 "ref":
 "pmb76790"}
 ],
 "listPlace":
  [
 {
 "placeName":
 "Zandvoort",
 "ref":
 "pmb49966"}
 ]
}
}, {
 "type":
 "schnitzler-briefe",
 "color":
 "#A63437",
 "filename":
 "L03080",
 "caption":
 "Briefe mit Autorinnen und Autoren",
 "idno":
 "https://schnitzler-briefe.acdh.oeaw.ac.at/L03080.html",
 "head":
 "Paul Goldmann an Arthur Schnitzler, 21. 8. [1905?]",
 "desc":
{"listPerson":
  [
{
 "persName":
 "Paul Goldmann",
 "ref":
 "pmb11485"},
 {
 "persName":
 "Arthur Schnitzler",
 "ref":
 "pmb2121"},
 {
 "persName":
 "Paul Goldmann",
 "ref":
 "pmb11485"},
 {
 "persName":
 "Louis Cima",
 "ref":
 "pmb144223"},
 {
 "persName":
 "Olga Schnitzler",
 "ref":
 "pmb2173"},
 {
 "persName":
 "Anton Pavlovič Čechov",
 "ref":
 "pmb3603"}],
 "listBibl":
  [
 {
 "title":
 "Ein Zweikampf",
 "ref":
 "pmb77280"}
 ],
 "listPlace":
  [
 {
 "placeName":
 "St. Moritz-Bad",
 "ref":
 "pmb52277"}
 ,  {
 "placeName":
 "Wien",
 "ref":
 "pmb50"}
 ,  {
 "placeName":
 "Hôtel Metropole",
 "ref":
 "pmb144220"}
 ,  {
 "placeName":
 "Engadin",
 "ref":
 "pmb1061"}
 ,  {
 "placeName":
 "Schweiz",
 "ref":
 "pmb43435"}
 ,  {
 "placeName":
 "Bad Ischl",
 "ref":
 "pmb213"}
 ,  {
 "placeName":
 "St. Moritz",
 "ref":
 "pmb44374"}
 ,  {
 "placeName":
 "Innsbruck",
 "ref":
 "pmb867"}
 ,  {
 "placeName":
 "Russland",
 "ref":
 "pmb34438"}
 ,  {
 "placeName":
 "Berlin",
 "ref":
 "pmb168"}
 ]
}
}, {
 "type":
 "wienerschnitzler",
 "color":
 "#6F5106",
 "caption":
 "Wiener Schnitzler",
 "idno":
 "https://wienerschnitzler.org/tag.html#1905-08-21",
 "head":
 "Wien",
 "desc":
{"listPlace":
  [
 {
 "placeName":
 "VIII., Josefstadt",
 "ref":
 ""}
 ,  {
 "placeName":
 "XVIII., Währing",
 "ref":
 ""}
 ]
}
}, {
 "type":
 "schnitzler-bahr",
 "color":
 "#639FF9",
 "filename":
 "L041632",
 "caption":
 "Schnitzler/Bahr",
 "idno":
 "https://schnitzler-bahr.acdh.oeaw.ac.at/L041632.html",
 "head":
 "Bahr an Beer-Hofmann, 21. 8. 1905",
 "desc":
{"listPerson":
  [
{
 "persName":
 "Hermann Bahr",
 "ref":
 "pmb10815"},
 {
 "persName":
 "Richard Beer-Hofmann",
 "ref":
 "pmb10863"},
 {
 "persName":
 "Leo Van-Jung",
 "ref":
 "pmb26392"},
 {
 "persName":
 "Paula Beer-Hofmann",
 "ref":
 "pmb10860"},
 {
 "persName":
 "Max Reinhardt",
 "ref":
 "pmb12504"}],
 "listBibl":
  [
 {
 "title":
 "Die Andere",
 "ref":
 "pmb29999"}
 ],
 "listPlace":
  [
 {
 "placeName":
 "Wien",
 "ref":
 "pmb50"}
 ,  {
 "placeName":
 "Fulpmes",
 "ref":
 "pmb985"}
 ,  {
 "placeName":
 "Grand Hotel Stubai",
 "ref":
 "pmb751"}
 ,  {
 "placeName":
 "Rodaun",
 "ref":
 "pmb173"}
 ,  {
 "placeName":
 "Salzburg",
 "ref":
 "pmb30"}
 ]
}
}] 