{
 "date":
 {
 "when-iso":
 "1905-05-05",
 "written":
 "Freitag, 5. Mai 1905"
},
"listEvent":
 [{
 "type":
 "schnitzler-orte",
 "idno":
 "https://pmb.acdh.oeaw.ac.at/entity/91735/",
 "head":
 "Semmering"
}, {
 "type":
 "schnitzler-briefe",
 "idno":
 "https://schnitzler-briefe.acdh.oeaw.ac.at/L01513.html",
 "head":
 "Arthur Schnitzler, Olga Schnitzler an Hermann Bahr, 5. 5. 1905",
 "desc":
{"listPerson":
  [
{
 "persName":
 "Olga Schnitzler",
 "ref":
 "pmb2173"},
 {
 "persName":
 "Hermann Bahr",
 "ref":
 "pmb10815"}],
 "listPlace":
  [
 {
 "placeName":
 "Semmering",
 "ref":
 "pmb189"}
 ,  {
 "placeName":
 "Wien",
 "ref":
 "pmb50"}
 ,  {
 "placeName":
 "Ober Sankt Veit",
 "ref":
 "pmb165"}
 ,  {
 "placeName":
 "Veitlissengasse",
 "ref":
 "pmb220"}
 ,  {
 "placeName":
 "Südbahnhotel",
 "ref":
 "pmb413"}
 ]}

}, {
 "type":
 "schnitzler-tagebuch",
 "idno":
 "https://schnitzler-tagebuch.acdh.oeaw.ac.at/entry__1905-05-05.html",
 "head":
 "Tagebuch, 5. Mai 1905"
}, {
 "type":
 "schnitzler-bahr",
 "idno":
 "https://schnitzler-bahr.acdh.oeaw.ac.at/L041085.html",
 "head":
 "Arthur und Olga Schnitzler an Bahr, 5. 5. 1905",
 "desc":
{"listPerson":
  [
{
 "persName":
 "Olga Schnitzler",
 "ref":
 "pmb2173"},
 {
 "persName":
 "Hermann Bahr",
 "ref":
 "pmb10815"}],
 "listPlace":
  [
 {
 "placeName":
 "Semmering",
 "ref":
 "pmb189"}
 ,  {
 "placeName":
 "Wien",
 "ref":
 "pmb50"}
 ,  {
 "placeName":
 "Südbahnhotel",
 "ref":
 "pmb413"}
 ,  {
 "placeName":
 "Ober Sankt Veit",
 "ref":
 "pmb165"}
 ,  {
 "placeName":
 "Veitlissengasse",
 "ref":
 "pmb220"}
 ]}

}] 
}