[{
 "type":
 "schnitzler-tagebuch",
 "color":
 "#037a33",
 "filename":
 "entry__1905-06-03",
 "caption":
 "Tagebuch",
 "idno":
 "https://schnitzler-tagebuch.acdh.oeaw.ac.at/entry__1905-06-03.html",
 "head":
 "Tagebuch, 3. Juni 1905",
 "desc":
{"listPerson":
  [
{
 "persName":
 "Fritz Freund",
 "ref":
 "person_15183"},
 {
 "persName":
 "Franz Grillparzer",
 "ref":
 "person_15661"},
 {
 "persName":
 "Albert Hammerschlag",
 "ref":
 "person_15886"},
 {
 "persName":
 "Louise Schnitzler",
 "ref":
 "person_19831"},
 {
 "persName":
 "Elisabeth Steinrück",
 "ref":
 "person_20386"},
 {
 "persName":
 "Clemens Wenzel von Metternich-Winneburg",
 "ref":
 "person_18098"},
 {
 "persName":
 "Jakob Wassermann",
 "ref":
 "person_21107"}],
 "listBibl":
  [
 {
 "title":
 "Tagebuch",
 "ref":
 "pmb33243"}
 ,  {
 "title":
 "Zwischenspiel. Komödie in drei Akten",
 "ref":
 "pmb29903"}
 ,  {
 "title":
 "Gottfried Kellers Leben. Seine Briefe und Tagebücher",
 "ref":
 "pmb80111"}
 ,  {
 "title":
 "Briefwechsel zwischen Goethe und Reinhard in den Jahren 1807 bis 1832",
 "ref":
 "pmb76790"}
 ,  {
 "title":
 "Grillparzers Gespräche",
 "ref":
 "pmb76990"}
 ,  {
 "title":
 "Der neue Pitaval",
 "ref":
 "pmb78574"}
 ,  {
 "title":
 "Geschichte der deutschen Höfe seit der Reformation",
 "ref":
 "pmb31315"}
 ],
 "listPlace":
  [
 {
 "placeName":
 "XIII., Hietzing",
 "ref":
 "pmb63"}
 ]
}
}, {
 "type":
 "schnitzler-briefe",
 "color":
 "#A63437",
 "filename":
 "L03409",
 "caption":
 "Briefe mit Autorinnen und Autoren",
 "idno":
 "https://schnitzler-briefe.acdh.oeaw.ac.at/L03409.html",
 "head":
 "Felix Salten, Ottilie Salten an Arthur Schnitzler, Olga Schnitzler, 3. 6. [1905?]",
 "desc":
{"listPerson":
  [
{
 "persName":
 "Ottilie Salten",
 "ref":
 "pmb23918"},
 {
 "persName":
 "Felix Salten",
 "ref":
 "pmb2167"},
 {
 "persName":
 "Olga Schnitzler",
 "ref":
 "pmb2173"},
 {
 "persName":
 "Heinrich Schnitzler",
 "ref":
 "pmb12692"}],
 "listPlace":
  [
 {
 "placeName":
 "Hellbrunn",
 "ref":
 "pmb31"}
 ,  {
 "placeName":
 "Salzburg",
 "ref":
 "pmb30"}
 ,  {
 "placeName":
 "Wien",
 "ref":
 "pmb50"}
 ,  {
 "placeName":
 "XVIII., Währing",
 "ref":
 "pmb68"}
 ,  {
 "placeName":
 "Edmund-Weiß-Gasse 7",
 "ref":
 "pmb168940"}
 ,  {
 "placeName":
 "Schloss Hellbrunn",
 "ref":
 "pmb147319"}
 ]
}
}, {
 "type":
 "wienerschnitzler",
 "color":
 "#ECDA98",
 "caption":
 "Wiener Schnitzler",
 "idno":
 "https://wienerschnitzler.org/tag.html#1905-06-03",
 "head":
 "Wien",
 "desc":
{"listPlace":
  [
 {
 "placeName":
 "XVIII., Währing",
 "ref":
 ""}
 ,  {
 "placeName":
 "IX., Alsergrund",
 "ref":
 ""}
 ,  {
 "placeName":
 "XIII., Hietzing",
 "ref":
 ""}
 ]
}
}, {
 "type":
 "kalliope-verbund",
 "color":
 "#003574",
 "caption":
 "Kalliope Verbundkatalog",
 "idno":
 "http://kalliope-verbund.info/DE-2498-HS00079000",
 "head":
 "Schnitzler, Arthur an Frey, Philipp [Briefe]",
 "text":
 "3 Bl.Durchschl."
}] 