[{
 "type":
 "schnitzler-tagebuch",
 "color":
 "#037a33",
 "filename":
 "entry__1905-06-01",
 "caption":
 "Tagebuch",
 "idno":
 "https://schnitzler-tagebuch.acdh.oeaw.ac.at/entry__1905-06-01.html",
 "head":
 "Tagebuch, 1. Juni 1905",
 "desc":
{"listPerson":
  [
{
 "persName":
 "Josef Kainz",
 "ref":
 "person_16646"},
 {
 "persName":
 "Felix Speidel",
 "ref":
 "person_20242"},
 {
 "persName":
 "Clemens Wenzel von Metternich-Winneburg",
 "ref":
 "person_18098"}],
 "listBibl":
  [
 {
 "title":
 "Fink und Fliederbusch. Komödie in drei Akten",
 "ref":
 "pmb30881"}
 ,  {
 "title":
 "Geschichte der deutschen Höfe seit der Reformation",
 "ref":
 "pmb31315"}
 ],
 "listPlace":
  [
 {
 "placeName":
 "Salmannsdorf",
 "ref":
 "pmb91641"}
 ,  {
 "placeName":
 "Pötzleinsdorf",
 "ref":
 "pmb169"}
 ]
}
}, {
 "type":
 "schnitzler-briefe",
 "color":
 "#A63437",
 "filename":
 "L01522",
 "caption":
 "Briefe mit Autorinnen und Autoren",
 "idno":
 "https://schnitzler-briefe.acdh.oeaw.ac.at/L01522.html",
 "head":
 "Hugo von Hofmannsthal an Arthur Schnitzler, [1. 6. 1905]",
 "desc":
{"listPerson":
  [
{
 "persName":
 "Hugo von Hofmannsthal",
 "ref":
 "pmb11740"}],
 "listBibl":
  [
 {
 "title":
 "Ein Sommernachtstraum",
 "ref":
 "pmb34239"}
 ],
 "listOrg":
  [
 {
 "orgName":
 "Kleines Theater",
 "ref":
 "pmb45430"}
 ,  {
 "orgName":
 "Neues Theater",
 "ref":
 "pmb45434"}
 ],
 "listPlace":
  [
 {
 "placeName":
 "Rodaun",
 "ref":
 "pmb173"}
 ,  {
 "placeName":
 "Wien",
 "ref":
 "pmb50"}
 ,  {
 "placeName":
 "Theater an der Wien",
 "ref":
 "pmb37"}
 ]
}
}, {
 "type":
 "wienerschnitzler",
 "color":
 "#ECDA98",
 "caption":
 "Wiener Schnitzler",
 "idno":
 "https://wienerschnitzler.org/tag.html#1905-06-01",
 "head":
 "Wien",
 "desc":
{"listPlace":
  [
 {
 "placeName":
 "XIX., Döbling",
 "ref":
 ""}
 ,  {
 "placeName":
 "XVII., Hernals",
 "ref":
 ""}
 ,  {
 "placeName":
 "XVIII., Währing",
 "ref":
 ""}
 ]
}
}, {
 "type":
 "schnitzler-events",
 "color":
 "#9BC53D",
 "filename":
 "entity/235604/",
 "caption":
 "Ereignisse in der PMB",
 "idno":
 "https://pmb.acdh.oeaw.ac.at/entity/235604/",
 "head":
 "Private Lesung der Skizze von Fink und Fliederbusch, 1.6.1905",
 "desc":
{"listBibl":
  [
 {
 "title":
 "Fink und Fliederbusch. Komödie in drei Akten",
 "ref":
 ""}
 ],
 "listPerson":
  [
{
 "persName":
 "Arthur Schnitzler",
 "ref":
 ""},
 {
 "persName":
 "Olga Schnitzler",
 "ref":
 ""}],
 "listPlace":
  [
 {
 "placeName":
 "Edmund-Weiß-Gasse 7",
 "ref":
 ""}
 ]
}
}] 