[{
 "type":
 "schnitzler-tagebuch",
 "color":
 "#037a33",
 "filename":
 "entry__1905-07-20",
 "caption":
 "Tagebuch",
 "idno":
 "https://schnitzler-tagebuch.acdh.oeaw.ac.at/entry__1905-07-20.html",
 "head":
 "Tagebuch, 20. Juli 1905",
 "desc":
{"listPerson":
  [
{
 "persName":
 "Brady",
 "ref":
 "person_13905"},
 {
 "persName":
 "Brady",
 "ref":
 "person_13906"},
 {
 "persName":
 "Paul Marx",
 "ref":
 "person_17958"}],
 "listPlace":
  [
 {
 "placeName":
 "Fölz",
 "ref":
 "pmb90643"}
 ]
}
}, {
 "type":
 "schnitzler-briefe",
 "color":
 "#A63437",
 "filename":
 "L03000",
 "caption":
 "Briefe mit Autorinnen und Autoren",
 "idno":
 "https://schnitzler-briefe.acdh.oeaw.ac.at/L03000.html",
 "head":
 "Arthur Schnitzler an Felix Salten, 20. 7. 1905",
 "source":
 "Arthur Schnitzler – Briefwechsel mit Autorinnen und Autoren. Digitale Edition herausgegeben von Martin Anton Müller, Gerd-Hermann Susen und Laura Untner, 2018–[2024]"
}, {
 "type":
 "schnitzler-briefe",
 "color":
 "#A63437",
 "filename":
 "L03000",
 "caption":
 "Briefe mit Autorinnen und Autoren",
 "idno":
 "https://schnitzler-briefe.acdh.oeaw.ac.at/L03000.html",
 "head":
 "Arthur Schnitzler an Felix Salten, 20. 7. 1905",
 "desc":
{"listPerson":
  [
{
 "persName":
 "Felix Salten",
 "ref":
 "pmb2167"},
 {
 "persName":
 "Paul Marx",
 "ref":
 "pmb21647"},
 {
 "persName":
 "Gustav Schwarzkopf",
 "ref":
 "pmb12740"},
 {
 "persName":
 "Paul Salten",
 "ref":
 "pmb2922"},
 {
 "persName":
 "Hermann Bahr",
 "ref":
 "pmb10815"}],
 "listBibl":
  [
 {
 "title":
 "Die Andere",
 "ref":
 "pmb29999"}
 ],
 "listPlace":
  [
 {
 "placeName":
 "Wien",
 "ref":
 "pmb50"}
 ,  {
 "placeName":
 "Reichenau an der Rax",
 "ref":
 "pmb483"}
 ,  {
 "placeName":
 "Hochschwab",
 "ref":
 "pmb52353"}
 ,  {
 "placeName":
 "Kurhaus Rudolfsbad",
 "ref":
 "pmb44982"}
 ,  {
 "placeName":
 "Hotel Hochschwab",
 "ref":
 "pmb142510"}
 ,  {
 "placeName":
 "Mariazell",
 "ref":
 "pmb431"}
 ,  {
 "placeName":
 "Wildalpen",
 "ref":
 "pmb34627"}
 ,  {
 "placeName":
 "Weichselboden",
 "ref":
 "pmb92057"}
 ,  {
 "placeName":
 "Eisenerz",
 "ref":
 "pmb908"}
 ]
}
}, {
 "type":
 "schnitzler-orte",
 "color":
 "#045344",
 "filename":
 "entity/483/",
 "caption":
 "Aufenthaltsorte",
 "idno":
 "https://pmb.acdh.oeaw.ac.at/entity/483/",
 "head":
 "Reichenau an der Rax"
}, {
 "type":
 "schnitzler-orte",
 "color":
 "#045344",
 "filename":
 "entity/52353/",
 "caption":
 "Aufenthaltsorte",
 "idno":
 "https://pmb.acdh.oeaw.ac.at/entity/52353/",
 "head":
 "Hochschwab"
}, {
 "type":
 "schnitzler-orte",
 "color":
 "#045344",
 "filename":
 "entity/44982/",
 "caption":
 "Aufenthaltsorte",
 "idno":
 "https://pmb.acdh.oeaw.ac.at/entity/44982/",
 "head":
 "Kurhaus Rudolfsbad"
}, {
 "type":
 "schnitzler-cmif",
 "subtype":
 "#asbw_0a380dfe-61d4-4b9e-8641-01eba8e50760",
 "color":
 "#654321",
 "caption":
 "Gedruckte Briefwechsel",
 "head":
 "Erhalt von Hugo von Hofmannsthal, Gerty von Hofmannsthal an Arthur Schnitzler, [16. 7. 1905?]",
 "source":
 "Arthur Schnitzler – Briefwechsel mit Autorinnen und Autoren. Digitale Edition herausgegeben von Martin Anton Müller, Gerd-Hermann Susen und Laura Untner, 2018–[2024]"
}] 