[{
 "type":
 "schnitzler-orte",
 "color":
 "#045344",
 "caption":
 "Aufenthaltsorte",
 "idno":
 "https://pmb.acdh.oeaw.ac.at/entity/959/",
 "head":
 "Marienlyst"
}{
 "type":
 "schnitzler-briefe",
 "color":
 "#A63437",
 "caption":
 "Briefe mit Autorinnen und Autoren",
 "idno":
 "https://schnitzler-briefe.acdh.oeaw.ac.at/L01606.html",
 "head":
 "Arthur Schnitzler, Olga Schnitzler an Richard Beer-Hofmann, 3. 7. 1906",
 "desc":
{"listPerson":
  [
{
 "persName":
 "Olga Schnitzler",
 "ref":
 "pmb2173"},
 {
 "persName":
 "Richard Beer-Hofmann",
 "ref":
 "pmb10863"},
 {
 "persName":
 "Georg Brandes",
 "ref":
 "pmb10992"}],
 "listBibl":
  [
 {
 "title":
 "Der Graf von Charolais. Ein Trauerspiel",
 "ref":
 "pmb30233"}
 ],
 "listPlace":
  [
 {
 "placeName":
 "Marienlyst",
 "ref":
 "pmb959"}
 ,  {
 "placeName":
 "Rodaun",
 "ref":
 "pmb173"}
 ,  {
 "placeName":
 "Wien",
 "ref":
 "pmb50"}
 ,  {
 "placeName":
 "Liesingerstraße",
 "ref":
 "pmb40101"}
 ,  {
 "placeName":
 "Österreich",
 "ref":
 "pmb41240"}
 ,  {
 "placeName":
 "Kurhotellet",
 "ref":
 "pmb41010"}
 ,  {
 "placeName":
 "Kommunehospitalet",
 "ref":
 "pmb1109"}
 ,  {
 "placeName":
 "Kopenhagen",
 "ref":
 "pmb36300"}
 ]
}
}{
 "type":
 "schnitzler-tagebuch",
 "color":
 "#037a33",
 "caption":
 "Tagebuch",
 "idno":
 "https://schnitzler-tagebuch.acdh.oeaw.ac.at/entry__1906-07-03.html",
 "head":
 "Tagebuch, 3. Juli 1906",
 "desc":
{"listPerson":
  [
{
 "persName":
 "Helene Böhlau",
 "ref":
 "person_13829"}],
 "listBibl":
  [
 {
 "title":
 "Der Rangierbahnhof. Roman",
 "ref":
 "pmb78648"}
 ],
 "listPlace":
  [
 {
 "placeName":
 "Helsingborg",
 "ref":
 "pmb90861"}
 ,  {
 "placeName":
 "Ålsgårde",
 "ref":
 "pmb90178"}
 ]
}
}] 