[{
 "type":
 "schnitzler-tagebuch",
 "color":
 "#037a33",
 "filename":
 "entry__1906-06-09",
 "caption":
 "Tagebuch",
 "idno":
 "https://schnitzler-tagebuch.acdh.oeaw.ac.at/entry__1906-06-09.html",
 "head":
 "Tagebuch, 9. Juni 1906",
 "desc":
{"listPerson":
  [
{
 "persName":
 "Richard Beer-Hofmann",
 "ref":
 "person_13551"},
 {
 "persName":
 "Artur Fleischer",
 "ref":
 "person_15032"},
 {
 "persName":
 "Abraham Halbert",
 "ref":
 "person_15861"},
 {
 "persName":
 "Bratislav Emil Lvovsky",
 "ref":
 "person_17749"},
 {
 "persName":
 "Paul Marx",
 "ref":
 "person_17958"},
 {
 "persName":
 "Hugo Schmidl",
 "ref":
 "person_19755"},
 {
 "persName":
 "Anna Sikora",
 "ref":
 "person_20523"},
 {
 "persName":
 "Agnes Ulmann",
 "ref":
 "person_20872"},
 {
 "persName":
 "Mirjam Beer-Hofmann",
 "ref":
 "person_13548"},
 {
 "persName":
 "Paula Beer-Hofmann",
 "ref":
 "person_13550"},
 {
 "persName":
 "Berthold Ullmann",
 "ref":
 "person_20864"}],
 "listBibl":
  [
 {
 "title":
 "Elga",
 "ref":
 "pmb30693"}
 ,  {
 "title":
 "Geschichte der deutschen Höfe seit der Reformation",
 "ref":
 "pmb31315"}
 ],
 "listPlace":
  [
 {
 "placeName":
 "Österreich",
 "ref":
 "pmb41240"}
 ]
}
}, {
 "type":
 "schnitzler-briefe",
 "color":
 "#A63437",
 "filename":
 "L03424",
 "caption":
 "Briefe mit Autorinnen und Autoren",
 "idno":
 "https://schnitzler-briefe.acdh.oeaw.ac.at/L03424.html",
 "head":
 "Felix Salten an Arthur Schnitzler, 9. 6. 1906",
 "desc":
{"listPerson":
  [
{
 "persName":
 "Felix Salten",
 "ref":
 "pmb2167"},
 {
 "persName":
 "Arthur Schnitzler",
 "ref":
 "pmb2121"},
 {
 "persName":
 "Felix Salten",
 "ref":
 "pmb2167"}],
 "listPlace":
  [
 {
 "placeName":
 "Goethes Wohnhaus",
 "ref":
 "pmb191"}
 ,  {
 "placeName":
 "Weimar",
 "ref":
 "pmb197"}
 ,  {
 "placeName":
 "Wien",
 "ref":
 "pmb50"}
 ,  {
 "placeName":
 "XVIII., Währing",
 "ref":
 "pmb68"}
 ,  {
 "placeName":
 "Edmund-Weiß-Gasse 7",
 "ref":
 "pmb168940"}
 ]
}
}, {
 "type":
 "wienerschnitzler",
 "color":
 "#6F5106",
 "caption":
 "Wiener Schnitzler",
 "idno":
 "https://wienerschnitzler.org/tag.html#1906-06-09",
 "head":
 "Wien",
 "desc":
{"listPlace":
  [
 {
 "placeName":
 "VI., Mariahilf",
 "ref":
 ""}
 ,  {
 "placeName":
 "I., Innere Stadt",
 "ref":
 ""}
 ,  {
 "placeName":
 "XVIII., Währing",
 "ref":
 ""}
 ]
}
}, {
 "type":
 "schnitzler-kultur",
 "color":
 "#6B4C5A",
 "filename":
 "pmb297057",
 "caption":
 "Kulturveranstaltungen",
 "idno":
 "https://schnitzler-kultur.acdh.oeaw.ac.at/pmb297057.html",
 "head":
 "Besuch des Österreichischen Museums fur Kunst und Industrie, 9.6.1906",
 "desc":
{"listPerson":
  [
{
 "persName":
 "Arthur Schnitzler",
 "ref":
 ""}],
 "listPlace":
  [
 {
 "placeName":
 "Museum für Angewandte Kunst",
 "ref":
 ""}
 ]
}
}, {
 "type":
 "schnitzler-kultur",
 "color":
 "#6B4C5A",
 "filename":
 "pmb209439",
 "caption":
 "Kulturveranstaltungen",
 "idno":
 "https://schnitzler-kultur.acdh.oeaw.ac.at/pmb209439.html",
 "head":
 "Vorstellung des Konservatoriums der Gesellschaft der Musikfreunde, 9.6.1906",
 "desc":
{"listOrg":
  [
 {
 "orgName":
 "Konservatorium der Gesellschaft der Musikfreunde",
 "ref":
 ""}
 ],
 "listPerson":
  [
{
 "persName":
 "Arthur Schnitzler",
 "ref":
 ""}],
 "listPlace":
  [
 {
 "placeName":
 "Theater an der Wien",
 "ref":
 ""}
 ]
}
}] 