[{
 "type":
 "schnitzler-orte",
 "idno":
 "https://pmb.acdh.oeaw.ac.at/entity/91213/",
 "head":
 "Marienlyst"
}, {
 "type":
 "schnitzler-briefe",
 "idno":
 "https://schnitzler-briefe.acdh.oeaw.ac.at/L01608.html",
 "head":
 "Arthur Schnitzler an Georg Brandes, 11. 7. 1906",
 "desc":
{"listPerson":
  [
{
 "persName":
 "Georg Brandes",
 "ref":
 "pmb10992"},
 {
 "persName":
 "Otto Brahm",
 "ref":
 "pmb10986"},
 {
 "persName":
 "Henrik Ibsen",
 "ref":
 "pmb11798"}],
 "listBibl":
  [
 {
 "title":
 "Henrik Ibsen",
 "ref":
 "pmb33396"}
 ],
 "listPlace":
  [
 {
 "placeName":
 "Marienlyst",
 "ref":
 "pmb959"}
 ,  {
 "placeName":
 "Kopenhagen",
 "ref":
 "pmb36300"}
 ]}

}, {
 "type":
 "schnitzler-briefe",
 "idno":
 "https://schnitzler-briefe.acdh.oeaw.ac.at/L01609.html",
 "head":
 "Georg Brandes an Arthur Schnitzler, 11. 7. 1906",
 "desc":
{"listPerson":
  [
{
 "persName":
 "Georg Brandes",
 "ref":
 "pmb10992"},
 {
 "persName":
 "Hugo von Hofmannsthal",
 "ref":
 "pmb11740"}],
 "listBibl":
  [
 {
 "title":
 "Der Thor und der Tod",
 "ref":
 "pmb30279"}
 ,  {
 "title":
 "Elektra. Tragödie in einem Aufzug",
 "ref":
 "pmb30633"}
 ,  {
 "title":
 "Oedipus und die Sphinx. Tragödie in drei Aufzügen",
 "ref":
 "pmb31189"}
 ],
 "listOrg":
  [
 {
 "orgName":
 "Althing",
 "ref":
 "pmb29523"}
 ],
 "listPlace":
  [
 {
 "placeName":
 "Kommunehospitalet",
 "ref":
 "pmb1109"}
 ,  {
 "placeName":
 "Helsingør",
 "ref":
 "pmb726"}
 ,  {
 "placeName":
 "Island",
 "ref":
 "pmb44096"}
 ,  {
 "placeName":
 "Kopenhagen",
 "ref":
 "pmb36300"}
 ]}

}, {
 "type":
 "schnitzler-tagebuch",
 "idno":
 "https://schnitzler-tagebuch.acdh.oeaw.ac.at/entry__1906-07-11.html",
 "head":
 "Tagebuch, 11. Juli 1906",
 "desc":
{"listPerson":
  [
{
 "persName":
 "Peter Altenberg",
 "ref":
 "person_13162"},
 {
 "persName":
 "Elisabeth Steinrück",
 "ref":
 "person_20386"},
 {
 "persName":
 "Albert Steinrück",
 "ref":
 "person_20383"}],
 "listBibl":
  [
 {
 "title":
 "Das Wort. Tragikomödie in fünf Akten",
 "ref":
 "pmb30615"}
 ],
 "listPlace":
  [
 {
 "placeName":
 "Helsingør",
 "ref":
 "pmb726"}
 ,  {
 "placeName":
 "Gilleleje",
 "ref":
 "pmb44252"}
 ]}

}] 