[{
 "type":
 "schnitzler-tagebuch",
 "color":
 "#037a33",
 "filename":
 "entry__1906-08-23",
 "caption":
 "Tagebuch",
 "idno":
 "https://schnitzler-tagebuch.acdh.oeaw.ac.at/entry__1906-08-23.html",
 "head":
 "Tagebuch, 23. August 1906",
 "desc":
{"listPerson":
  [
{
 "persName":
 "Gustav Schwarzkopf",
 "ref":
 "person_19986"}],
 "listBibl":
  [
 {
 "title":
 "Tristan und Isolde",
 "ref":
 "pmb29897"}
 ],
 "listPlace":
  [
 {
 "placeName":
 "Türkenschanzpark",
 "ref":
 "pmb113"}
 ]
}
}, {
 "type":
 "schnitzler-briefe",
 "color":
 "#A63437",
 "filename":
 "L03433",
 "caption":
 "Briefe mit Autorinnen und Autoren",
 "idno":
 "https://schnitzler-briefe.acdh.oeaw.ac.at/L03433.html",
 "head":
 "Felix Salten an Arthur Schnitzler, 23. 8. 1906",
 "desc":
{"listPerson":
  [
{
 "persName":
 "Felix Salten",
 "ref":
 "pmb2167"},
 {
 "persName":
 "Ottilie Salten",
 "ref":
 "pmb23918"},
 {
 "persName":
 "Richard Metzl",
 "ref":
 "pmb21365"}],
 "listPlace":
  [
 {
 "placeName":
 "Bansin",
 "ref":
 "pmb147498"}
 ,  {
 "placeName":
 "Wien",
 "ref":
 "pmb50"}
 ,  {
 "placeName":
 "Edmund-Weiß-Gasse",
 "ref":
 "pmb133"}
 ,  {
 "placeName":
 "Weimar",
 "ref":
 "pmb197"}
 ,  {
 "placeName":
 "Lübeck",
 "ref":
 "pmb884"}
 ,  {
 "placeName":
 "Hamburg",
 "ref":
 "pmb506"}
 ,  {
 "placeName":
 "Eisenach",
 "ref":
 "pmb44240"}
 ,  {
 "placeName":
 "Dresden",
 "ref":
 "pmb866"}
 ,  {
 "placeName":
 "Adriatisches Meer",
 "ref":
 "pmb568"}
 ,  {
 "placeName":
 "Venedig",
 "ref":
 "pmb462"}
 ,  {
 "placeName":
 "Reichenau an der Rax",
 "ref":
 "pmb483"}
 ,  {
 "placeName":
 "Kantstraße",
 "ref":
 "pmb62140"}
 ]
}
}, {
 "type":
 "schnitzler-orte",
 "color":
 "#045344",
 "caption":
 "Aufenthaltsorte",
 "head":
 "Wien",
 "desc":
{"listPlace":
  [
 {
 "placeName":
 "XVIII., Währing",
 "ref":
 ""}
 ,  {
 "placeName":
 "I., Innere Stadt",
 "ref":
 ""}
 ]
}
}] 