[{
 "type":
 "schnitzler-tagebuch",
 "color":
 "#037a33",
 "filename":
 "entry__1906-08-10",
 "caption":
 "Tagebuch",
 "idno":
 "https://schnitzler-tagebuch.acdh.oeaw.ac.at/entry__1906-08-10.html",
 "head":
 "Tagebuch, 10. August 1906",
 "desc":
{"listPerson":
  [
{
 "persName":
 "Heinrich Schnitzler",
 "ref":
 "person_19822"},
 {
 "persName":
 "Elisabeth Steinrück",
 "ref":
 "person_20386"},
 {
 "persName":
 "Heinrich Teweles",
 "ref":
 "person_20682"},
 {
 "persName":
 "Albert Steinrück",
 "ref":
 "person_20383"},
 {
 "persName":
 "Charlotte Bondy",
 "ref":
 "person_13860"}],
 "listPlace":
  [
 {
 "placeName":
 "Rosenborg Slot",
 "ref":
 "pmb91616"}
 ,  {
 "placeName":
 "Ny Carlsberg Glyptohek",
 "ref":
 "pmb121"}
 ,  {
 "placeName":
 "Wien",
 "ref":
 "pmb50"}
 ,  {
 "placeName":
 "Kopenhagen",
 "ref":
 "pmb36300"}
 ]
}
}, {
 "type":
 "wienerschnitzler",
 "color":
 "#6F5106",
 "caption":
 "Wiener Schnitzler",
 "idno":
 "https://wienerschnitzler.org/tag.html#1906-08-10",
 "head":
 "Kopenhagen",
 "desc":
{"listPlace":
  [
 {
 "placeName":
 "Hotel Kongen af Danmark",
 "ref":
 ""}
 ,  {
 "placeName":
 "Ny Carlsberg Glyptohek",
 "ref":
 ""}
 ,  {
 "placeName":
 "Hotel D’Angleterre",
 "ref":
 ""}
 ,  {
 "placeName":
 "Københavns Hovedbanegård",
 "ref":
 ""}
 ,  {
 "placeName":
 "Rosenborg Slot",
 "ref":
 ""}
 ]
}
}, {
 "type":
 "URL",
 "subtype":
 "schnitzler-kultur",
 "filename":
 "pmb209440",
 "idno":
 "https://schnitzler-kultur.acdh.oeaw.ac.at/pmb209440.html",
 "head":
 "Zirkus Ciniselli, 10.8.1906",
 "desc":
{"listOrg":
  [
 {
 "orgName":
 "Zirkus Ciniselli",
 "ref":
 ""}
 ],
 "listPerson":
  [
{
 "persName":
 "Arthur Schnitzler",
 "ref":
 ""}],
 "listPlace":
  [
 {
 "placeName":
 "Kopenhagen",
 "ref":
 ""}
 ]
}
}] 