[{
 "type":
 "schnitzler-tagebuch",
 "color":
 "#037a33",
 "filename":
 "entry__1906-01-29",
 "caption":
 "Tagebuch",
 "idno":
 "https://schnitzler-tagebuch.acdh.oeaw.ac.at/entry__1906-01-29.html",
 "head":
 "Tagebuch, 29. Januar 1906",
 "desc":
{"listPerson":
  [
{
 "persName":
 "Marie Lattermann",
 "ref":
 "person_17349"},
 {
 "persName":
 "Claire Tagger",
 "ref":
 "person_20618"},
 {
 "persName":
 "Marie Luggin",
 "ref":
 "person_17734"},
 {
 "persName":
 "August von Platen",
 "ref":
 "person_18827"}],
 "listBibl":
  [
 {
 "title":
 "Komtesse Mizzi oder Der Familientag",
 "ref":
 "pmb29931"}
 ,  {
 "title":
 "Reigen. Zehn Dialoge",
 "ref":
 "pmb29855"}
 ,  {
 "title":
 "Der Weg ins Freie. Roman",
 "ref":
 "pmb29923"}
 ,  {
 "title":
 "Tagebücher",
 "ref":
 "pmb30713"}
 ]
}
}, {
 "type":
 "schnitzler-briefe",
 "color":
 "#A63437",
 "filename":
 "L01577",
 "caption":
 "Briefe mit Autorinnen und Autoren",
 "idno":
 "https://schnitzler-briefe.acdh.oeaw.ac.at/L01577.html",
 "head":
 "Hermann Bahr an Arthur Schnitzler, 29. 1. 1906",
 "desc":
{"listPerson":
  [
{
 "persName":
 "Hermann Bahr",
 "ref":
 "pmb10815"},
 {
 "persName":
 "Albert von Speidel",
 "ref":
 "pmb12813"},
 {
 "persName":
 "Olga Schnitzler",
 "ref":
 "pmb2173"}],
 "listBibl":
  [
 {
 "title":
 "Der Ruf des Lebens. Schauspiel in drei Akten",
 "ref":
 "pmb29905"}
 ],
 "listPlace":
  [
 {
 "placeName":
 "Ober Sankt Veit",
 "ref":
 "pmb165"}
 ,  {
 "placeName":
 "München",
 "ref":
 "pmb45258"}
 ,  {
 "placeName":
 "Wien",
 "ref":
 "pmb50"}
 ]
}
}, {
 "type":
 "schnitzler-briefe",
 "color":
 "#A63437",
 "filename":
 "L01578",
 "caption":
 "Briefe mit Autorinnen und Autoren",
 "idno":
 "https://schnitzler-briefe.acdh.oeaw.ac.at/L01578.html",
 "head":
 "Arthur Schnitzler an Hermann Bahr, 29. 1. 1906",
 "desc":
{"listPerson":
  [
{
 "persName":
 "Hermann Bahr",
 "ref":
 "pmb10815"},
 {
 "persName":
 "Olga Schnitzler",
 "ref":
 "pmb2173"}],
 "listBibl":
  [
 {
 "title":
 "Der Ruf des Lebens. Schauspiel in drei Akten",
 "ref":
 "pmb29905"}
 ],
 "listOrg":
  [
 {
 "orgName":
 "Nationaltheater München",
 "ref":
 "pmb44112"}
 ],
 "listPlace":
  [
 {
 "placeName":
 "Alexandrinski-Theater",
 "ref":
 "pmb10"}
 ,  {
 "placeName":
 "Edmund-Weiß-Gasse 7",
 "ref":
 "pmb168940"}
 ,  {
 "placeName":
 "Wien",
 "ref":
 "pmb50"}
 ]
}
}, {
 "type":
 "schnitzler-briefe",
 "color":
 "#A63437",
 "filename":
 "L01579",
 "caption":
 "Briefe mit Autorinnen und Autoren",
 "idno":
 "https://schnitzler-briefe.acdh.oeaw.ac.at/L01579.html",
 "head":
 "Arthur Schnitzler an Charlotte Ehrenstein, 29. 1. 1906",
 "desc":
{"listPerson":
  [
{
 "persName":
 "Albert Ehrenstein",
 "ref":
 "pmb11230"},
 {
 "persName":
 "Alexander Ehrenstein",
 "ref":
 "pmb15712"},
 {
 "persName":
 "Charlotte Ehrenstein",
 "ref":
 "pmb15716"},
 {
 "persName":
 "Adolf Treibl",
 "ref":
 "pmb29150"}],
 "listPlace":
  [
 {
 "placeName":
 "Edmund-Weiß-Gasse 7",
 "ref":
 "pmb168940"}
 ,  {
 "placeName":
 "Wien",
 "ref":
 "pmb50"}
 ]
}
}, {
 "type":
 "schnitzler-briefe",
 "color":
 "#A63437",
 "filename":
 "L03413",
 "caption":
 "Briefe mit Autorinnen und Autoren",
 "idno":
 "https://schnitzler-briefe.acdh.oeaw.ac.at/L03413.html",
 "head":
 "Felix Salten an Arthur Schnitzler, 29. 1. 1906",
 "desc":
{"listPerson":
  [
{
 "persName":
 "Otto Brahm",
 "ref":
 "pmb10986"},
 {
 "persName":
 "Heinrich Schnitzler",
 "ref":
 "pmb12692"},
 {
 "persName":
 "Felix Salten",
 "ref":
 "pmb2167"},
 {
 "persName":
 "Olga Schnitzler",
 "ref":
 "pmb2173"},
 {
 "persName":
 "Anna Katharina Rehmann",
 "ref":
 "pmb23915"},
 {
 "persName":
 "Ottilie Salten",
 "ref":
 "pmb23918"},
 {
 "persName":
 "Paul Salten",
 "ref":
 "pmb2922"}],
 "listOrg":
  [
 {
 "orgName":
 "Theater des Westens",
 "ref":
 "pmb147380"}
 ,  {
 "orgName":
 "Ullstein Verlag",
 "ref":
 "pmb29681"}
 ,  {
 "orgName":
 "B.Z. am Mittag",
 "ref":
 "pmb29702"}
 ,  {
 "orgName":
 "Berliner Morgenpost",
 "ref":
 "pmb46218"}
 ],
 "listPlace":
  [
 {
 "placeName":
 "Potsdamer Platz",
 "ref":
 "pmb141471"}
 ,  {
 "placeName":
 "Berlin",
 "ref":
 "pmb168"}
 ,  {
 "placeName":
 "Edmund-Weiß-Gasse 7",
 "ref":
 "pmb168940"}
 ,  {
 "placeName":
 "Hotel Saxonia",
 "ref":
 "pmb40853"}
 ,  {
 "placeName":
 "Wien",
 "ref":
 "pmb50"}
 ,  {
 "placeName":
 "Kantstraße",
 "ref":
 "pmb62140"}
 ,  {
 "placeName":
 "XVIII., Währing",
 "ref":
 "pmb68"}
 ,  {
 "placeName":
 "Charlottenburg",
 "ref":
 "pmb9925"}
 ]
}
}, {
 "type":
 "wienerschnitzler",
 "color":
 "#6F5106",
 "caption":
 "Wiener Schnitzler",
 "idno":
 "https://wienerschnitzler.org/tag.html#1906-01-29",
 "head":
 "Wien",
 "desc":
{"listPlace":
  [
 {
 "placeName":
 "I., Innere Stadt",
 "ref":
 ""}
 ,  {
 "placeName":
 "XVIII., Währing",
 "ref":
 ""}
 ]
}
}, {
 "type":
 "schnitzler-bahr",
 "color":
 "#639FF9",
 "filename":
 "L041145",
 "caption":
 "Schnitzler/Bahr",
 "idno":
 "https://schnitzler-bahr.acdh.oeaw.ac.at/L041145.html",
 "head":
 "Bahr an Schnitzler, 29. 1. 1906",
 "desc":
{"listPerson":
  [
{
 "persName":
 "Hermann Bahr",
 "ref":
 "pmb10815"},
 {
 "persName":
 "Albert von Speidel",
 "ref":
 "pmb12813"},
 {
 "persName":
 "Olga Schnitzler",
 "ref":
 "pmb2173"}],
 "listBibl":
  [
 {
 "title":
 "Der Ruf des Lebens. Schauspiel in drei Akten",
 "ref":
 "pmb29905"}
 ],
 "listPlace":
  [
 {
 "placeName":
 "Wien",
 "ref":
 "pmb50"}
 ,  {
 "placeName":
 "Ober Sankt Veit",
 "ref":
 "pmb165"}
 ,  {
 "placeName":
 "München",
 "ref":
 "pmb45258"}
 ]
}
}, {
 "type":
 "schnitzler-bahr",
 "color":
 "#639FF9",
 "filename":
 "L041088",
 "caption":
 "Schnitzler/Bahr",
 "idno":
 "https://schnitzler-bahr.acdh.oeaw.ac.at/L041088.html",
 "head":
 "Schnitzler an Bahr, 29. 1. 1906",
 "desc":
{"listPerson":
  [
{
 "persName":
 "Hermann Bahr",
 "ref":
 "pmb10815"},
 {
 "persName":
 "Olga Schnitzler",
 "ref":
 "pmb2173"}],
 "listBibl":
  [
 {
 "title":
 "Der Ruf des Lebens. Schauspiel in drei Akten",
 "ref":
 "pmb29905"}
 ],
 "listPlace":
  [
 {
 "placeName":
 "Wien",
 "ref":
 "pmb50"}
 ,  {
 "placeName":
 "Edmund-Weiß-Gasse",
 "ref":
 "pmb133"}
 ,  {
 "placeName":
 "Königlich Bayerische Hoftheater",
 "ref":
 "pmb9"}
 ,  {
 "placeName":
 "Alexandrinski-Theater",
 "ref":
 "pmb10"}
 ]
}
}, {
 "type":
 "schnitzler-bahr",
 "color":
 "#639FF9",
 "filename":
 "D041486",
 "caption":
 "Schnitzler/Bahr",
 "idno":
 "https://schnitzler-bahr.acdh.oeaw.ac.at/D041486.html",
 "head":
 "Aufzeichnung von Bahr, 29. 1. 1906",
 "desc":
{"listPerson":
  [
{
 "persName":
 "Hermann Bahr",
 "ref":
 "pmb10815"},
 {
 "persName":
 "Albert von Speidel",
 "ref":
 "pmb12813"},
 {
 "persName":
 "Samuel Fischer",
 "ref":
 "pmb11324"},
 {
 "persName":
 "Franz Blei",
 "ref":
 "pmb10955"},
 {
 "persName":
 "Victor Naumann",
 "ref":
 "pmb3666"},
 {
 "persName":
 "Vincent van Gogh",
 "ref":
 "pmb11464"},
 {
 "persName":
 "Gustav Harpner",
 "ref":
 "pmb11590"}],
 "listBibl":
  [
 {
 "title":
 "Der Ruf des Lebens. Schauspiel in drei Akten",
 "ref":
 "pmb29905"}
 ],
 "listPlace":
  [
 {
 "placeName":
 "Hotel Klomser",
 "ref":
 "pmb377"}
 ]
}
}] 