[{
 "type":
 "schnitzler-tagebuch",
 "color":
 "#037a33",
 "filename":
 "entry__1906-06-19",
 "caption":
 "Tagebuch",
 "idno":
 "https://schnitzler-tagebuch.acdh.oeaw.ac.at/entry__1906-06-19.html",
 "head":
 "Tagebuch, 19. Juni 1906",
 "desc":
{"listPerson":
  [
{
 "persName":
 "Ludwig van Beethoven",
 "ref":
 "person_13555"},
 {
 "persName":
 "Louise Schnitzler",
 "ref":
 "person_19831"},
 {
 "persName":
 "Siegfried Trebitsch",
 "ref":
 "person_20796"},
 {
 "persName":
 "Bruno Walter",
 "ref":
 "person_21080"}],
 "listBibl":
  [
 {
 "title":
 "Komtesse Mizzi oder Der Familientag",
 "ref":
 "pmb29931"}
 ,  {
 "title":
 "Tagebuch",
 "ref":
 "pmb33243"}
 ,  {
 "title":
 "Klaviertrio Nr. 7 B-Dur op. 97 (Erzherzog-Trio)",
 "ref":
 "pmb77158"}
 ,  {
 "title":
 "Der Troubadour",
 "ref":
 "pmb76691"}
 ],
 "listPlace":
  [
 {
 "placeName":
 "Montenegro",
 "ref":
 "pmb366"}
 ]
}
}, {
 "type":
 "schnitzler-briefe",
 "color":
 "#A63437",
 "filename":
 "L03427",
 "caption":
 "Briefe mit Autorinnen und Autoren",
 "idno":
 "https://schnitzler-briefe.acdh.oeaw.ac.at/L03427.html",
 "head":
 "Felix Salten an Arthur Schnitzler, 19. 6. 1906",
 "desc":
{"listPerson":
  [
{
 "persName":
 "Felix Salten",
 "ref":
 "pmb2167"},
 {
 "persName":
 "Arthur Schnitzler",
 "ref":
 "pmb2121"},
 {
 "persName":
 "Felix Salten",
 "ref":
 "pmb2167"},
 {
 "persName":
 "Julius Ferdinand Wollf",
 "ref":
 "pmb10608"},
 {
 "persName":
 "Max Meyerfeld",
 "ref":
 "pmb21399"},
 {
 "persName":
 "Winston Churchill",
 "ref":
 "pmb169681"},
 {
 "persName":
 "David Lloyd George",
 "ref":
 "pmb20530"},
 {
 "persName":
 "Richard Haldane",
 "ref":
 "pmb150123"},
 {
 "persName":
 "Ottilie Salten",
 "ref":
 "pmb23918"},
 {
 "persName":
 "Anna Katharina Rehmann",
 "ref":
 "pmb23915"},
 {
 "persName":
 "Paul Salten",
 "ref":
 "pmb2922"}],
 "listBibl":
  [
 {
 "title":
 "Erinnerungen",
 "ref":
 "pmb168879"}
 ],
 "listPlace":
  [
 {
 "placeName":
 "Nordsee",
 "ref":
 "pmb118890"}
 ,  {
 "placeName":
 "Wien",
 "ref":
 "pmb50"}
 ,  {
 "placeName":
 "Edmund-Weiß-Gasse 7",
 "ref":
 "pmb168940"}
 ,  {
 "placeName":
 "Österreich",
 "ref":
 "pmb41240"}
 ,  {
 "placeName":
 "Klopeiner See",
 "ref":
 "pmb147557"}
 ,  {
 "placeName":
 "England",
 "ref":
 "pmb254"}
 ,  {
 "placeName":
 "Bremerhaven",
 "ref":
 "pmb36766"}
 ,  {
 "placeName":
 "Southampton",
 "ref":
 "pmb47658"}
 ,  {
 "placeName":
 "London",
 "ref":
 "pmb224"}
 ,  {
 "placeName":
 "Stratford-upon-Avon",
 "ref":
 "pmb49870"}
 ,  {
 "placeName":
 "Cambridge",
 "ref":
 "pmb893"}
 ,  {
 "placeName":
 "Bansin",
 "ref":
 "pmb147498"}
 ,  {
 "placeName":
 "Heringsdorf",
 "ref":
 "pmb64659"}
 ,  {
 "placeName":
 "Dänemark",
 "ref":
 "pmb43570"}
 ,  {
 "placeName":
 "Berlin",
 "ref":
 "pmb168"}
 ,  {
 "placeName":
 "Marienlyst",
 "ref":
 "pmb959"}
 ],
 "listOrg":
  [
 {
 "orgName":
 "Deutsch-amerikanische Seepost",
 "ref":
 "pmb147552"}
 ,  {
 "orgName":
 "Norddeutscher Lloyd",
 "ref":
 "pmb53340"}
 ,  {
 "orgName":
 "Kronprinz Wilhelm",
 "ref":
 "pmb147555"}
 ]
}
}, {
 "type":
 "wienerschnitzler",
 "color":
 "#6F5106",
 "caption":
 "Wiener Schnitzler",
 "idno":
 "https://wienerschnitzler.org/tag.html#1906-06-19",
 "head":
 "Wien",
 "desc":
{"listPlace":
  [
 {
 "placeName":
 "IX., Alsergrund",
 "ref":
 ""}
 ,  {
 "placeName":
 "XVIII., Währing",
 "ref":
 ""}
 ,  {
 "placeName":
 "I., Innere Stadt",
 "ref":
 ""}
 ,  {
 "placeName":
 "VI., Mariahilf",
 "ref":
 ""}
 ]
}
}, {
 "type":
 "URL",
 "subtype":
 "pmb",
 "filename":
 "entity/297666/",
 "idno":
 "https://pmb.acdh.oeaw.ac.at/entity/297666/",
 "head":
 "Besuch des Kaiserpanoramas [Wien, Schubertring 4], 19.6.1906",
 "desc":
{"listPerson":
  [
{
 "persName":
 "Arthur Schnitzler",
 "ref":
 ""}],
 "listPlace":
  [
 {
 "placeName":
 "Kaiserpanorama [Wien, Schubertring 4]",
 "ref":
 ""}
 ]
}
}] 