[{
 "type":
 "schnitzler-tagebuch",
 "color":
 "#037a33",
 "filename":
 "entry__1906-07-06",
 "caption":
 "Tagebuch",
 "idno":
 "https://schnitzler-tagebuch.acdh.oeaw.ac.at/entry__1906-07-06.html",
 "head":
 "Tagebuch, 6. Juli 1906",
 "desc":
{"listPerson":
  [
{
 "persName":
 "Peter Altenberg",
 "ref":
 "person_13162"},
 {
 "persName":
 "Consul Petersen",
 "ref":
 "person_18725"}],
 "listBibl":
  [
 {
 "title":
 "Das Wort. Tragikomödie in fünf Akten",
 "ref":
 "pmb30615"}
 ]
}
}, {
 "type":
 "schnitzler-briefe",
 "color":
 "#A63437",
 "filename":
 "L03430",
 "caption":
 "Briefe mit Autorinnen und Autoren",
 "idno":
 "https://schnitzler-briefe.acdh.oeaw.ac.at/L03430.html",
 "head":
 "Felix Salten an Arthur Schnitzler, 6. 7. 1906",
 "desc":
{"listPerson":
  [
{
 "persName":
 "Felix Salten",
 "ref":
 "pmb2167"},
 {
 "persName":
 "Max Liebermann",
 "ref":
 "pmb12068"},
 {
 "persName":
 "Richard Strauss",
 "ref":
 "pmb12870"},
 {
 "persName":
 "Ludwig Bauer",
 "ref":
 "pmb10848"},
 {
 "persName":
 "Ernst Egon Friedegg",
 "ref":
 "pmb147600"},
 {
 "persName":
 "Julius von Gans-Ludassy",
 "ref":
 "pmb11406"},
 {
 "persName":
 "Ignaz Salzmann",
 "ref":
 "pmb142919"},
 {
 "persName":
 "Agathe Salzmann",
 "ref":
 "pmb147584"},
 {
 "persName":
 "Marie Salzmann",
 "ref":
 "pmb142895"},
 {
 "persName":
 "Katharina Salzmann",
 "ref":
 "pmb142958"},
 {
 "persName":
 "Philipp Salzmann",
 "ref":
 "pmb142892"},
 {
 "persName":
 "Ottilie Salten",
 "ref":
 "pmb23918"},
 {
 "persName":
 "Anna Katharina Rehmann",
 "ref":
 "pmb23915"},
 {
 "persName":
 "Paul Salten",
 "ref":
 "pmb2922"},
 {
 "persName":
 "Olga Schnitzler",
 "ref":
 "pmb2173"},
 {
 "persName":
 "Heinrich Schnitzler",
 "ref":
 "pmb12692"}],
 "listOrg":
  [
 {
 "orgName":
 "Die Zeit",
 "ref":
 "pmb29626"}
 ,  {
 "orgName":
 "Morgen. Wochenschrift für deutsche Kultur",
 "ref":
 "pmb34262"}
 ],
 "listPlace":
  [
 {
 "placeName":
 "Berlin",
 "ref":
 "pmb168"}
 ,  {
 "placeName":
 "Wien",
 "ref":
 "pmb50"}
 ,  {
 "placeName":
 "Marienlyst",
 "ref":
 "pmb959"}
 ,  {
 "placeName":
 "Deutschland",
 "ref":
 "pmb151"}
 ,  {
 "placeName":
 "Österreich",
 "ref":
 "pmb41240"}
 ,  {
 "placeName":
 "Preußen",
 "ref":
 "pmb206"}
 ,  {
 "placeName":
 "England",
 "ref":
 "pmb254"}
 ,  {
 "placeName":
 "Bansin",
 "ref":
 "pmb147498"}
 ,  {
 "placeName":
 "Kopenhagen",
 "ref":
 "pmb36300"}
 ,  {
 "placeName":
 "Nordsee",
 "ref":
 "pmb118890"}
 ,  {
 "placeName":
 "London",
 "ref":
 "pmb224"}
 ,  {
 "placeName":
 "Stratford-upon-Avon",
 "ref":
 "pmb49870"}
 ,  {
 "placeName":
 "Cambridge",
 "ref":
 "pmb893"}
 ,  {
 "placeName":
 "Southampton",
 "ref":
 "pmb47658"}
 ,  {
 "placeName":
 "Plymouth",
 "ref":
 "pmb147595"}
 ,  {
 "placeName":
 "Cherbourg-Octeville",
 "ref":
 "pmb145903"}
 ,  {
 "placeName":
 "Dornbach",
 "ref":
 "pmb499"}
 ,  {
 "placeName":
 "Seestraße",
 "ref":
 "pmb147597"}
 ]
}
}, {
 "type":
 "schnitzler-orte",
 "color":
 "#045344",
 "filename":
 "entity/959/",
 "caption":
 "Aufenthaltsorte",
 "idno":
 "https://pmb.acdh.oeaw.ac.at/entity/959/",
 "head":
 "Marienlyst"
}, {
 "type":
 "schnitzler-orte",
 "color":
 "#045344",
 "filename":
 "entity/41010/",
 "caption":
 "Aufenthaltsorte",
 "idno":
 "https://pmb.acdh.oeaw.ac.at/entity/41010/",
 "head":
 "Kurhotellet"
}, {
 "type":
 "schnitzler-mikrofilme-daten",
 "color":
 "#6e7b8b",
 "filename":
 "1589057_0033",
 "caption":
 "Mikroverfilmung des Nachlasses",
 "idno":
 "https://schnitzler-mikrofilme.acdh.oeaw.ac.at/1589057_0033.html",
 "head":
 "Mappe A196",
 "text":
 "Datumsangabe auf Blatt von Das Wort"
}, {
 "type":
 "kalliope-verbund",
 "color":
 "#003574",
 "caption":
 "Kalliope Verbundkatalog",
 "idno":
 "http://kalliope-verbund.info/DE-2498-HS00084161",
 "head":
 "Schnitzler, Arthur: Das Wort. Tragikomödie [Dramatisches] (Manuskripttitel)",
 "text":
 "43 Bl.Abschr. mit hs. Einschüben"
}] 