[{
 "type":
 "schnitzler-tagebuch",
 "color":
 "#037a33",
 "filename":
 "entry__1906-11-26",
 "caption":
 "Tagebuch",
 "idno":
 "https://schnitzler-tagebuch.acdh.oeaw.ac.at/entry__1906-11-26.html",
 "head":
 "Tagebuch, 26. November 1906",
 "desc":
{"listPerson":
  [
{
 "persName":
 "Karl Dülberg",
 "ref":
 "person_14533"},
 {
 "persName":
 "Erna Fleischer",
 "ref":
 "person_15033"},
 {
 "persName":
 "W. Fred",
 "ref":
 "person_15158"},
 {
 "persName":
 "Fritz Freund",
 "ref":
 "person_15183"},
 {
 "persName":
 "Benjamin Gomperz",
 "ref":
 "person_15562"},
 {
 "persName":
 "Grete Jacques",
 "ref":
 "person_16485"},
 {
 "persName":
 "Gerolamo Enrico Nani",
 "ref":
 "person_18352"},
 {
 "persName":
 "Felix Salten",
 "ref":
 "person_19542"},
 {
 "persName":
 "Isidor Samuely",
 "ref":
 "person_19559"},
 {
 "persName":
 "Samuel Fischer",
 "ref":
 "person_15009"}],
 "listBibl":
  [
 {
 "title":
 "Dämmerseelen. Novellen",
 "ref":
 "pmb29921"}
 ,  {
 "title":
 "Die Geschichte eines Genies",
 "ref":
 "pmb35505"}
 ,  {
 "title":
 "Reigen. Zehn Dialoge",
 "ref":
 "pmb29855"}
 ,  {
 "title":
 "Der Weg ins Freie. Roman",
 "ref":
 "pmb29923"}
 ,  {
 "title":
 "Zwischenspiel. Komödie in drei Akten",
 "ref":
 "pmb29903"}
 ],
 "listPlace":
  [
 {
 "placeName":
 "Bayern",
 "ref":
 "pmb314"}
 ,  {
 "placeName":
 "Semmering",
 "ref":
 "pmb91735"}
 ,  {
 "placeName":
 "Mailand",
 "ref":
 "pmb886"}
 ,  {
 "placeName":
 "Russland",
 "ref":
 "pmb34438"}
 ,  {
 "placeName":
 "Vereinigte Staaten von Amerika (USA)",
 "ref":
 "pmb43406"}
 ]
}
}, {
 "type":
 "wienerschnitzler",
 "color":
 "#6F5106",
 "caption":
 "Wiener Schnitzler",
 "idno":
 "https://wienerschnitzler.org/tag.html#1906-11-26",
 "head":
 "Wien",
 "desc":
{"listPlace":
  [
 {
 "placeName":
 "I., Innere Stadt",
 "ref":
 ""}
 ,  {
 "placeName":
 "XVIII., Währing",
 "ref":
 ""}
 ]
}
}, {
 "type":
 "URL",
 "subtype":
 "schnitzler-kultur",
 "filename":
 "pmb297693",
 "idno":
 "https://schnitzler-kultur.acdh.oeaw.ac.at/pmb297693.html",
 "head":
 "Besuch des Kaiserpanoramas [Wien, Schubertring 4], 26.11.1906",
 "desc":
{"listPerson":
  [
{
 "persName":
 "Arthur Schnitzler",
 "ref":
 ""}],
 "listPlace":
  [
 {
 "placeName":
 "Kaiserpanorama [Wien, Schubertring 4]",
 "ref":
 ""}
 ]
}
}] 