[{
 "type":
 "schnitzler-orte",
 "color":
 "#045344",
 "caption":
 "Aufenthaltsorte",
 "idno":
 "https://pmb.acdh.oeaw.ac.at/entity/50/",
 "head":
 "Wien"
}, {
 "type":
 "schnitzler-briefe",
 "color":
 "#A63437",
 "caption":
 "Briefe mit Autorinnen und Autoren",
 "idno":
 "https://schnitzler-briefe.acdh.oeaw.ac.at/L01625.html",
 "head":
 "Arthur Schnitzler an Hugo von Hofmannsthal, 8. 9. 1906",
 "desc":
{"listPerson":
  [
{
 "persName":
 "Hugo von Hofmannsthal",
 "ref":
 "pmb11740"},
 {
 "persName":
 "Felix Salten",
 "ref":
 "pmb2167"},
 {
 "persName":
 "Ottilie Salten",
 "ref":
 "pmb23918"},
 {
 "persName":
 "Richard Metzl",
 "ref":
 "pmb21365"},
 {
 "persName":
 "Wladimir Metzl",
 "ref":
 "pmb21368"},
 {
 "persName":
 "Metzl",
 "ref":
 "pmb45490"},
 {
 "persName":
 "Emil Salzmann",
 "ref":
 "pmb45493"},
 {
 "persName":
 "Ida d’Albert",
 "ref":
 "pmb2537"},
 {
 "persName":
 "Elisabeth Steinrück",
 "ref":
 "pmb2315"},
 {
 "persName":
 "Albert Steinrück",
 "ref":
 "pmb12837"},
 {
 "persName":
 "Heinrich Schnitzler",
 "ref":
 "pmb12692"},
 {
 "persName":
 "Anna Loew",
 "ref":
 "pmb20562"},
 {
 "persName":
 "W. Fred",
 "ref":
 "pmb2226"},
 {
 "persName":
 "Paul Brann",
 "ref":
 "pmb10998"},
 {
 "persName":
 "Olga Schnitzler",
 "ref":
 "pmb2173"},
 {
 "persName":
 "Julius Schnitzler",
 "ref":
 "pmb12698"},
 {
 "persName":
 "Jakob Wassermann",
 "ref":
 "pmb13055"},
 {
 "persName":
 "Agnes Ulmann",
 "ref":
 "pmb27942"},
 {
 "persName":
 "Felix Speidel",
 "ref":
 "pmb2646"},
 {
 "persName":
 "Else Speidel-Haeberle",
 "ref":
 "pmb2642"}],
 "listBibl":
  [
 {
 "title":
 "Das Wort. Tragikomödie in fünf Akten",
 "ref":
 "pmb30615"}
 ,  {
 "title":
 "Komtesse Mizzi oder Der Familientag",
 "ref":
 "pmb29931"}
 ,  {
 "title":
 "Fink und Fliederbusch. Komödie in drei Akten",
 "ref":
 "pmb30881"}
 ],
 "listPlace":
  [
 {
 "placeName":
 "Wien",
 "ref":
 "pmb50"}
 ,  {
 "placeName":
 "St. Gilgen",
 "ref":
 "pmb33"}
 ,  {
 "placeName":
 "Marienlyst",
 "ref":
 "pmb959"}
 ,  {
 "placeName":
 "Berlin",
 "ref":
 "pmb168"}
 ,  {
 "placeName":
 "Gilleleje",
 "ref":
 "pmb44252"}
 ,  {
 "placeName":
 "Kopenhagen",
 "ref":
 "pmb36300"}
 ,  {
 "placeName":
 "Görbersdorf",
 "ref":
 "pmb44254"}
 ,  {
 "placeName":
 "Weimar",
 "ref":
 "pmb197"}
 ,  {
 "placeName":
 "Ilmenau",
 "ref":
 "pmb2351"}
 ,  {
 "placeName":
 "Kickelhahn",
 "ref":
 "pmb40920"}
 ,  {
 "placeName":
 "Thüringer Wald",
 "ref":
 "pmb40921"}
 ,  {
 "placeName":
 "Schmücke",
 "ref":
 "pmb40923"}
 ,  {
 "placeName":
 "Oberhof",
 "ref":
 "pmb40933"}
 ,  {
 "placeName":
 "Eisenach",
 "ref":
 "pmb44240"}
 ,  {
 "placeName":
 "Nürnberg",
 "ref":
 "pmb44172"}
 ,  {
 "placeName":
 "Semmering",
 "ref":
 "pmb189"}
 ,  {
 "placeName":
 "Salzkammergut",
 "ref":
 "pmb429"}
 ,  {
 "placeName":
 "Südbahnhotel",
 "ref":
 "pmb413"}
 ,  {
 "placeName":
 "Lueg am Wolfgangsee",
 "ref":
 "pmb186"}
 ]
}
}, {
 "type":
 "schnitzler-tagebuch",
 "color":
 "#037a33",
 "caption":
 "Tagebuch",
 "idno":
 "https://schnitzler-tagebuch.acdh.oeaw.ac.at/entry__1906-09-08.html",
 "head":
 "Tagebuch, 8. September 1906",
 "desc":
{"listPerson":
  [
{
 "persName":
 "W. Fred",
 "ref":
 "person_15158"},
 {
 "persName":
 "Franziska Reich",
 "ref":
 "person_17368"},
 {
 "persName":
 "Heinrich Schnitzler",
 "ref":
 "person_19822"},
 {
 "persName":
 "Else Speidel",
 "ref":
 "person_20241"}],
 "listBibl":
  [
 {
 "title":
 "Die Geschichte von Amadeus dem Poeten",
 "ref":
 "pmb35800"}
 ],
 "listPlace":
  [
 {
 "placeName":
 "Volksgarten",
 "ref":
 "pmb103"}
 ,  {
 "placeName":
 "Marienlyst",
 "ref":
 "pmb959"}
 ]
}
}] 