[{
 "type":
 "schnitzler-tagebuch",
 "color":
 "#037a33",
 "filename":
 "entry__1906-02-19",
 "caption":
 "Tagebuch",
 "idno":
 "https://schnitzler-tagebuch.acdh.oeaw.ac.at/entry__1906-02-19.html",
 "head":
 "Tagebuch, 19. Februar 1906",
 "desc":
{"listPerson":
  [
{
 "persName":
 "Albert Bassermann",
 "ref":
 "person_13457"},
 {
 "persName":
 "Ludwig Blumenthal",
 "ref":
 "person_13807"},
 {
 "persName":
 "Rudolf Rittner",
 "ref":
 "person_19288"},
 {
 "persName":
 "Felix Salten",
 "ref":
 "person_19542"},
 {
 "persName":
 "Elisabeth Steinrück",
 "ref":
 "person_20386"},
 {
 "persName":
 "Julius Elias",
 "ref":
 "person_14718"}],
 "listBibl":
  [
 {
 "title":
 "Der Ruf des Lebens. Schauspiel in drei Akten",
 "ref":
 "pmb29905"}
 ,  {
 "title":
 "Rosmersholm",
 "ref":
 "pmb29955"}
 ]
}
}, {
 "type":
 "schnitzler-briefe",
 "color":
 "#A63437",
 "filename":
 "L01585",
 "caption":
 "Briefe mit Autorinnen und Autoren",
 "idno":
 "https://schnitzler-briefe.acdh.oeaw.ac.at/L01585.html",
 "head":
 "Lou Andreas-Salomé an Arthur Schnitzler, 19. 2. 1906",
 "desc":
{"listPerson":
  [
{
 "persName":
 "Lou Andreas-Salomé",
 "ref":
 "pmb10762"},
 {
 "persName":
 "Otto Brahm",
 "ref":
 "pmb10986"},
 {
 "persName":
 "Gerhart Hauptmann",
 "ref":
 "pmb11617"}],
 "listBibl":
  [
 {
 "title":
 "Der Ruf des Lebens. Schauspiel in drei Akten",
 "ref":
 "pmb29905"}
 ,  {
 "title":
 "Und Pippa tanzt!",
 "ref":
 "pmb33043"}
 ,  {
 "title":
 "Tagebuch",
 "ref":
 "pmb33243"}
 ],
 "listOrg":
  [
 {
 "orgName":
 "Deutsches Theater Berlin",
 "ref":
 "pmb35597"}
 ],
 "listPlace":
  [
 {
 "placeName":
 "Marburger Straße",
 "ref":
 "pmb1103"}
 ,  {
 "placeName":
 "Hospiz des Westens",
 "ref":
 "pmb1104"}
 ,  {
 "placeName":
 "Berlin",
 "ref":
 "pmb168"}
 ,  {
 "placeName":
 "Hotel Continental [Berlin]",
 "ref":
 "pmb399"}
 ]
}
}, {
 "type":
 "schnitzler-briefe",
 "color":
 "#A63437",
 "filename":
 "L03240",
 "caption":
 "Briefe mit Autorinnen und Autoren",
 "idno":
 "https://schnitzler-briefe.acdh.oeaw.ac.at/L03240.html",
 "head":
 "Paul Goldmann an Arthur Schnitzler, 19. 2. 1906",
 "desc":
{"listPerson":
  [
{
 "persName":
 "Paul Goldmann",
 "ref":
 "pmb11485"},
 {
 "persName":
 "Olga Schnitzler",
 "ref":
 "pmb2173"}],
 "listPlace":
  [
 {
 "placeName":
 "Reichstag",
 "ref":
 "pmb142545"}
 ,  {
 "placeName":
 "Berlin",
 "ref":
 "pmb168"}
 ,  {
 "placeName":
 "Dessauer Straße",
 "ref":
 "pmb40583"}
 ]
}
}, {
 "type":
 "wienerschnitzler",
 "color":
 "#6F5106",
 "caption":
 "Wiener Schnitzler",
 "idno":
 "https://wienerschnitzler.org/tag.html#1906-02-19",
 "head":
 "Berlin",
 "desc":
{"listPlace":
  [
 {
 "placeName":
 "Hotel Continental [Berlin]",
 "ref":
 ""}
 ,  {
 "placeName":
 "Lessing-Theater",
 "ref":
 ""}
 ,  {
 "placeName":
 "Hotel und Restaurant »Prinz Wilhelm«",
 "ref":
 ""}
 ]
}
}, {
 "type":
 "schnitzler-kultur",
 "color":
 "#6B4C5A",
 "filename":
 "pmb237330",
 "caption":
 "Kulturveranstaltungen",
 "idno":
 "https://schnitzler-kultur.acdh.oeaw.ac.at/pmb237330.html",
 "head":
 "Probe von Der Ruf des Lebens, 19.2.1906",
 "desc":
{"listOrg":
  [
 {
 "orgName":
 "Lessing-Theater",
 "ref":
 ""}
 ],
 "listBibl":
  [
 {
 "title":
 "Der Ruf des Lebens. Schauspiel in drei Akten",
 "ref":
 ""}
 ],
 "listPerson":
  [
{
 "persName":
 "Arthur Schnitzler",
 "ref":
 ""}],
 "listPlace":
  [
 {
 "placeName":
 "Lessing-Theater",
 "ref":
 ""}
 ]
}
}, {
 "type":
 "schnitzler-kultur",
 "color":
 "#6B4C5A",
 "filename":
 "pmb209415",
 "caption":
 "Kulturveranstaltungen",
 "idno":
 "https://schnitzler-kultur.acdh.oeaw.ac.at/pmb209415.html",
 "head":
 "Aufführung von Rosmersholm. Schauspiel in vier Akten, 19.2.1906",
 "desc":
{"listOrg":
  [
 {
 "orgName":
 "Lessing-Theater",
 "ref":
 ""}
 ],
 "listBibl":
  [
 {
 "title":
 "Rosmersholm. Schauspiel in vier Akten",
 "ref":
 ""}
 ],
 "listPerson":
  [
{
 "persName":
 "Arthur Schnitzler",
 "ref":
 ""}],
 "listPlace":
  [
 {
 "placeName":
 "Lessing-Theater",
 "ref":
 ""}
 ]
}
}] 