[{
 "type":
 "schnitzler-tagebuch",
 "color":
 "#037a33",
 "filename":
 "entry__1906-01-26",
 "caption":
 "Tagebuch",
 "idno":
 "https://schnitzler-tagebuch.acdh.oeaw.ac.at/entry__1906-01-26.html",
 "head":
 "Tagebuch, 26. Januar 1906",
 "desc":
{"listPerson":
  [
{
 "persName":
 "Georg Hirschfeld",
 "ref":
 "person_16222"},
 {
 "persName":
 "Margarethe Kainz",
 "ref":
 "person_16647"},
 {
 "persName":
 "Gustav Schwarzkopf",
 "ref":
 "person_19986"},
 {
 "persName":
 "Felix Speidel",
 "ref":
 "person_20242"},
 {
 "persName":
 "Peter Rotenstern",
 "ref":
 "person_19411"}],
 "listBibl":
  [
 {
 "title":
 "Der Ruf des Lebens. Schauspiel in drei Akten",
 "ref":
 "pmb29905"}
 ,  {
 "title":
 "Der Weg ins Freie. Roman",
 "ref":
 "pmb29923"}
 ,  {
 "title":
 "Nebeneinander",
 "ref":
 "pmb76653"}
 ],
 "listPlace":
  [
 {
 "placeName":
 "Pötzleinsdorf",
 "ref":
 "pmb169"}
 ,  {
 "placeName":
 "Neuwaldegg",
 "ref":
 "pmb170"}
 ,  {
 "placeName":
 "Sankt Petersburg",
 "ref":
 "pmb433"}
 ]
}
}, {
 "type":
 "URL",
 "subtype":
 "wienerschnitzler",
 "head":
 "Wien",
 "desc":
{"listPlace":
  [
 {
 "placeName":
 "I., Innere Stadt",
 "ref":
 ""}
 ,  {
 "placeName":
 "II., Leopoldstadt",
 "ref":
 ""}
 ,  {
 "placeName":
 "XVIII., Währing",
 "ref":
 ""}
 ,  {
 "placeName":
 "XVII., Hernals",
 "ref":
 ""}
 ]
}
}, {
 "type":
 "schnitzler-bahr",
 "color":
 "#639FF9",
 "filename":
 "L041193",
 "caption":
 "Schnitzler/Bahr",
 "idno":
 "https://schnitzler-bahr.acdh.oeaw.ac.at/L041193.html",
 "head":
 "Albert von Speidel an Bahr, 26. 1. 1906",
 "desc":
{"listPerson":
  [
{
 "persName":
 "Albert von Speidel",
 "ref":
 "pmb12813"},
 {
 "persName":
 "Hermann Bahr",
 "ref":
 "pmb10815"},
 {
 "persName":
 "Maxim Gorkij",
 "ref":
 "pmb2323"}],
 "listBibl":
  [
 {
 "title":
 "Der Ruf des Lebens. Schauspiel in drei Akten",
 "ref":
 "pmb29905"}
 ,  {
 "title":
 "Kinder der Sonne",
 "ref":
 "pmb30059"}
 ],
 "listPlace":
  [
 {
 "placeName":
 "München",
 "ref":
 "pmb45258"}
 ,  {
 "placeName":
 "Wien",
 "ref":
 "pmb50"}
 ,  {
 "placeName":
 "Königlich Bayerische Hoftheater",
 "ref":
 "pmb9"}
 ,  {
 "placeName":
 "Prinzregenten-Theater",
 "ref":
 "pmb703"}
 ]
}
}, {
 "type":
 "schnitzler-events",
 "color":
 "#9BC53D",
 "filename":
 "entity/209410/",
 "caption":
 "Ereignisse in der PMB",
 "idno":
 "https://pmb.acdh.oeaw.ac.at/entity/209410/",
 "head":
 "Premiere von Nebeneinander, 26.1.1906",
 "desc":
{"listBibl":
  [
 {
 "title":
 "Nebeneinander. Schauspiel in drei Akten",
 "ref":
 ""}
 ],
 "listPerson":
  [
{
 "persName":
 "Arthur Schnitzler",
 "ref":
 ""}],
 "listPlace":
  [
 {
 "placeName":
 "Lustspieltheater [Wien]",
 "ref":
 ""}
 ]
}
}, {
 "type":
 "schnitzler-cmif",
 "subtype":
 "#d43bae78-6be4-4898-b4e5-86e3d9bc9f34",
 "color":
 "#654321",
 "caption":
 "Gedruckte Briefwechsel",
 "head":
 "Stefan Zweig an Arthur Schnitzler, 26.1.1906",
 "source":
 "Stefan Zweig: Briefwechsel mit Hermann Bahr, Sigmund Freud, Rainer Maria Rilke und Arthur Schnitzler. Hgg. Jeffrey B. Berlin, Hans-Ulrich Lindken und Donald A. Prater. Berlin: S. Fischer 1987. (Nur Briefe an Bahr und Schnitzler erfasst)"
}] 