[{
 "type":
 "schnitzler-tagebuch",
 "color":
 "#037a33",
 "filename":
 "entry__1906-06-12",
 "caption":
 "Tagebuch",
 "idno":
 "https://schnitzler-tagebuch.acdh.oeaw.ac.at/entry__1906-06-12.html",
 "head":
 "Tagebuch, 12. Juni 1906",
 "desc":
{"listPerson":
  [
{
 "persName":
 "Peter Altenberg",
 "ref":
 "person_13162"},
 {
 "persName":
 "Paul Marx",
 "ref":
 "person_17958"},
 {
 "persName":
 "Louise Schnitzler",
 "ref":
 "person_19831"},
 {
 "persName":
 "Gustav Schwarzkopf",
 "ref":
 "person_19986"},
 {
 "persName":
 "Gustav Mahler",
 "ref":
 "person_17786"}],
 "listBibl":
  [
 {
 "title":
 "Große Szene",
 "ref":
 "pmb31429"}
 ,  {
 "title":
 "Das Wort. Tragikomödie in fünf Akten",
 "ref":
 "pmb30615"}
 ,  {
 "title":
 "Zwischenspiel. Komödie in drei Akten",
 "ref":
 "pmb29903"}
 ],
 "listPlace":
  [
 {
 "placeName":
 "Pyrenees",
 "ref":
 "pmb89410"}
 ]
}
}, {
 "type":
 "schnitzler-briefe",
 "color":
 "#A63437",
 "filename":
 "L01600",
 "caption":
 "Briefe mit Autorinnen und Autoren",
 "idno":
 "https://schnitzler-briefe.acdh.oeaw.ac.at/L01600.html",
 "head":
 "Mirjam Beer-Hofmann an Olga Schnitzler, 12. 6. 1906",
 "desc":
{"listPerson":
  [
{
 "persName":
 "Mirjam Beer-Hofmann",
 "ref":
 "pmb2668"},
 {
 "persName":
 "Olga Schnitzler",
 "ref":
 "pmb2173"}],
 "listPlace":
  [
 {
 "placeName":
 "Dahmsdorf",
 "ref":
 "pmb50112"}
 ,  {
 "placeName":
 "Wien",
 "ref":
 "pmb50"}
 ,  {
 "placeName":
 "XVIII., Währing",
 "ref":
 "pmb68"}
 ,  {
 "placeName":
 "Edmund-Weiß-Gasse",
 "ref":
 "pmb133"}
 ,  {
 "placeName":
 "Buckow",
 "ref":
 "pmb50107"}
 ,  {
 "placeName":
 "Neue Promenade",
 "ref":
 "pmb50109"}
 ]
}
}, {
 "type":
 "wienerschnitzler",
 "color":
 "#ECDA98",
 "caption":
 "Wiener Schnitzler",
 "head":
 "Wien",
 "desc":
{"listPlace":
  [
 {
 "placeName":
 "XVIII., Währing",
 "ref":
 ""}
 ,  {
 "placeName":
 "IX., Alsergrund",
 "ref":
 ""}
 ,  {
 "placeName":
 "I., Innere Stadt",
 "ref":
 ""}
 ]
}
}] 