[{
 "type":
 "Arthur-Schnitzler-digital",
 "color":
 "#801e23",
 "caption":
 "Arthur Schnitzler digital (Werke 1905–1931)",
 "idno":
 "https://www.schnitzler-edition.net",
 "head":
 "Fink und Fliederbusch, Typoskript",
 "text":
 "Publikation in Vorbereitung"
}, {
 "type":
 "schnitzler-tagebuch",
 "color":
 "#037a33",
 "filename":
 "entry__1906-03-11",
 "caption":
 "Tagebuch",
 "idno":
 "https://schnitzler-tagebuch.acdh.oeaw.ac.at/entry__1906-03-11.html",
 "head":
 "Tagebuch, 11. März 1906",
 "desc":
{"listPerson":
  [
{
 "persName":
 "Ludwig van Beethoven",
 "ref":
 "person_13555"},
 {
 "persName":
 "Louise Schnitzler",
 "ref":
 "person_19831"}],
 "listBibl":
  [
 {
 "title":
 "Fink und Fliederbusch. Komödie in drei Akten",
 "ref":
 "pmb30881"}
 ,  {
 "title":
 "Klaviertrio Nr. 4 B-Dur op. 11",
 "ref":
 "pmb77156"}
 ],
 "listPlace":
  [
 {
 "placeName":
 "Neuwaldegg",
 "ref":
 "pmb170"}
 ,  {
 "placeName":
 "Penzing",
 "ref":
 "pmb90913"}
 ]
}
}, {
 "type":
 "schnitzler-briefe",
 "color":
 "#A63437",
 "filename":
 "L01589",
 "caption":
 "Briefe mit Autorinnen und Autoren",
 "idno":
 "https://schnitzler-briefe.acdh.oeaw.ac.at/L01589.html",
 "head":
 "Georg Brandes an Arthur Schnitzler, 11. 3. 1906",
 "desc":
{"listPerson":
  [
{
 "persName":
 "Georg Brandes",
 "ref":
 "pmb10992"},
 {
 "persName":
 "Arthur Schnitzler",
 "ref":
 "pmb2121"},
 {
 "persName":
 "Georg Brandes",
 "ref":
 "pmb10992"},
 {
 "persName":
 "Ludwig Fulda",
 "ref":
 "pmb11391"},
 {
 "persName":
 "Leopold Schönhoff",
 "ref":
 "pmb3390"}],
 "listBibl":
  [
 {
 "title":
 "Lieutenant Gustl. Novelle",
 "ref":
 "pmb29853"}
 ,  {
 "title":
 "Der Schleier der Beatrice. Schauspiel in fünf Akten",
 "ref":
 "pmb29857"}
 ,  {
 "title":
 "Der Ruf des Lebens. Schauspiel in drei Akten",
 "ref":
 "pmb29905"}
 ,  {
 "title":
 "Sterben. Novelle",
 "ref":
 "pmb30117"}
 ,  {
 "title":
 "»Der Ruf des Lebens.« Schauspiel von Artur Schnitzler. Erste Aufführung im Lessingtheater",
 "ref":
 "pmb33352"}
 ,  {
 "title":
 "Der Tag",
 "ref":
 "pmb41560"}
 ],
 "listPlace":
  [
 {
 "placeName":
 "Berlin",
 "ref":
 "pmb168"}
 ,  {
 "placeName":
 "Kopenhagen",
 "ref":
 "pmb36300"}
 ,  {
 "placeName":
 "Dänemark",
 "ref":
 "pmb43570"}
 ,  {
 "placeName":
 "Wien",
 "ref":
 "pmb50"}
 ],
 "listOrg":
  [
 {
 "orgName":
 "Der Tag",
 "ref":
 "pmb29650"}
 ]
}
}, {
 "type":
 "wienerschnitzler",
 "color":
 "#6F5106",
 "caption":
 "Wiener Schnitzler",
 "idno":
 "https://wienerschnitzler.org/tag.html#1906-03-11",
 "head":
 "Wien",
 "desc":
{"listPlace":
  [
 {
 "placeName":
 "IX., Alsergrund",
 "ref":
 ""}
 ,  {
 "placeName":
 "XIV., Penzing",
 "ref":
 ""}
 ,  {
 "placeName":
 "XVII., Hernals",
 "ref":
 ""}
 ,  {
 "placeName":
 "XVIII., Währing",
 "ref":
 ""}
 ]
}
}] 