[{
 "type":
 "schnitzler-tagebuch",
 "color":
 "#037a33",
 "filename":
 "entry__1906-05-26",
 "caption":
 "Tagebuch",
 "idno":
 "https://schnitzler-tagebuch.acdh.oeaw.ac.at/entry__1906-05-26.html",
 "head":
 "Tagebuch, 26. Mai 1906",
 "desc":
{"listPerson":
  [
{
 "persName":
 "Ludwig van Beethoven",
 "ref":
 "person_13555"},
 {
 "persName":
 "G. Lenotre",
 "ref":
 "person_17440"},
 {
 "persName":
 "Anna Rotenstern-Tesi",
 "ref":
 "person_19412"},
 {
 "persName":
 "Louise Schnitzler",
 "ref":
 "person_19831"},
 {
 "persName":
 "August von Platen",
 "ref":
 "person_18827"}],
 "listBibl":
  [
 {
 "title":
 "Streichquartett Nr. 10 Es-Dur op. 74",
 "ref":
 "pmb77171"}
 ,  {
 "title":
 "Paris révolutionnaire",
 "ref":
 "pmb77028"}
 ,  {
 "title":
 "Tagebücher",
 "ref":
 "pmb30713"}
 ]
}
}, {
 "type":
 "schnitzler-briefe",
 "color":
 "#A63437",
 "filename":
 "L03006",
 "caption":
 "Briefe mit Autorinnen und Autoren",
 "idno":
 "https://schnitzler-briefe.acdh.oeaw.ac.at/L03006.html",
 "head":
 "Arthur Schnitzler an Felix Salten, 26. 5. 1906",
 "desc":
{"listPerson":
  [
{
 "persName":
 "Arthur Schnitzler",
 "ref":
 "pmb2121"},
 {
 "persName":
 "Felix Salten",
 "ref":
 "pmb2167"},
 {
 "persName":
 "Felix Salten",
 "ref":
 "pmb2167"},
 {
 "persName":
 "Henrik Ibsen",
 "ref":
 "pmb11798"},
 {
 "persName":
 "Friedrich Mitterwurzer",
 "ref":
 "pmb12265"}],
 "listBibl":
  [
 {
 "title":
 "Totenrede auf Henrik Ibsen",
 "ref":
 "pmb142570"}
 ,  {
 "title":
 "B.Z. am Mittag",
 "ref":
 "pmb58435"}
 ],
 "listPlace":
  [
 {
 "placeName":
 "Wien",
 "ref":
 "pmb50"}
 ,  {
 "placeName":
 "Berlin",
 "ref":
 "pmb168"}
 ,  {
 "placeName":
 "Edmund-Weiß-Gasse 7",
 "ref":
 "pmb168940"}
 ]
}
}, {
 "type":
 "schnitzler-briefe",
 "color":
 "#A63437",
 "filename":
 "L01599",
 "caption":
 "Briefe mit Autorinnen und Autoren",
 "idno":
 "https://schnitzler-briefe.acdh.oeaw.ac.at/L01599.html",
 "head":
 "Michael Georg Conrad an Arthur Schnitzler, 26. 5. 1906",
 "desc":
{"listPerson":
  [
{
 "persName":
 "Michael Georg Conrad",
 "ref":
 "pmb11098"},
 {
 "persName":
 "Arthur Schnitzler",
 "ref":
 "pmb2121"},
 {
 "persName":
 "Michael Georg Conrad",
 "ref":
 "pmb11098"}],
 "listPlace":
  [
 {
 "placeName":
 "Steinsdorfstraße",
 "ref":
 "pmb1231"}
 ,  {
 "placeName":
 "München",
 "ref":
 "pmb45258"}
 ,  {
 "placeName":
 "Wien",
 "ref":
 "pmb50"}
 ]
}
}, {
 "type":
 "wienerschnitzler",
 "color":
 "#6F5106",
 "caption":
 "Wiener Schnitzler",
 "idno":
 "https://wienerschnitzler.org/tag.html#1906-05-26",
 "head":
 "Wien",
 "desc":
{"listPlace":
  [
 {
 "placeName":
 "IX., Alsergrund",
 "ref":
 ""}
 ,  {
 "placeName":
 "XVIII., Währing",
 "ref":
 ""}
 ,  {
 "placeName":
 "I., Innere Stadt",
 "ref":
 ""}
 ]
}
}, {
 "type":
 "kalliope-verbund",
 "color":
 "#003574",
 "caption":
 "Kalliope Verbundkatalog",
 "idno":
 "http://kalliope-verbund.info/DE-2498-HS00071172",
 "head":
 "Nachod, Walther an Schnitzler, Arthur [Briefe]",
 "text":
 "2 Bl."
}] 