[{
 "type":
 "schnitzler-tagebuch",
 "color":
 "#037a33",
 "filename":
 "entry__1906-10-25",
 "caption":
 "Tagebuch",
 "idno":
 "https://schnitzler-tagebuch.acdh.oeaw.ac.at/entry__1906-10-25.html",
 "head":
 "Tagebuch, 25. Oktober 1906",
 "desc":
{"listPerson":
  [
{
 "persName":
 "Eugen Frankfurter",
 "ref":
 "person_15136"},
 {
 "persName":
 "W. Fred",
 "ref":
 "person_15158"},
 {
 "persName":
 "Konrad von Hohenlohe-Schillingsfürst",
 "ref":
 "person_16304"},
 {
 "persName":
 "Otto von Bismarck",
 "ref":
 "person_13749"},
 {
 "persName":
 "Peter Rotenstern",
 "ref":
 "person_19411"},
 {
 "persName":
 "Hermann Bahr",
 "ref":
 "person_13374"}],
 "listBibl":
  [
 {
 "title":
 "Der Weg ins Freie. Roman",
 "ref":
 "pmb29923"}
 ],
 "listPlace":
  [
 {
 "placeName":
 "Berlin",
 "ref":
 "pmb168"}
 ,  {
 "placeName":
 "Paris",
 "ref":
 "pmb182"}
 ,  {
 "placeName":
 "Dessau",
 "ref":
 "pmb870"}
 ,  {
 "placeName":
 "Karlsruhe",
 "ref":
 "pmb871"}
 ]
}
}, {
 "type":
 "schnitzler-orte",
 "color":
 "#045344",
 "caption":
 "Aufenthaltsorte",
 "head":
 "Wien",
 "desc":
{"listPlace":
  [
 {
 "placeName":
 "I., Innere Stadt",
 "ref":
 ""}
 ,  {
 "placeName":
 "XVIII., Währing",
 "ref":
 ""}
 ]
}
}, {
 "type":
 "schnitzler-bahr",
 "color":
 "#639FF9",
 "filename":
 "D041278",
 "caption":
 "Schnitzler/Bahr",
 "idno":
 "https://schnitzler-bahr.acdh.oeaw.ac.at/D041278.html",
 "head":
 "Tagebuch von Schnitzler, 25. 10. 1906",
 "desc":
{"listPerson":
  [
{
 "persName":
 "Hermann Bahr",
 "ref":
 "pmb10815"},
 {
 "persName":
 "W. Fred",
 "ref":
 "pmb2226"},
 {
 "persName":
 "Konrad von Hohenlohe-Schillingsfürst",
 "ref":
 "pmb2686"},
 {
 "persName":
 "Otto von Bismarck",
 "ref":
 "pmb10943"},
 {
 "persName":
 "Peter Rotenstern",
 "ref":
 "pmb2992"},
 {
 "persName":
 "Olga Schnitzler",
 "ref":
 "pmb2173"},
 {
 "persName":
 "Eugen Frankfurter",
 "ref":
 "pmb16482"}],
 "listBibl":
  [
 {
 "title":
 "Der Weg ins Freie. Roman",
 "ref":
 "pmb29923"}
 ,  {
 "title":
 "Figaros Hochzeit",
 "ref":
 "pmb30937"}
 ,  {
 "title":
 "Tannhäuser und der Sängerkrieg auf Wartburg",
 "ref":
 "pmb31425"}
 ],
 "listPlace":
  [
 {
 "placeName":
 "Berlin",
 "ref":
 "pmb168"}
 ,  {
 "placeName":
 "Paris",
 "ref":
 "pmb182"}
 ,  {
 "placeName":
 "Hotel Bristol",
 "ref":
 "pmb205"}
 ,  {
 "placeName":
 "Dessau",
 "ref":
 "pmb870"}
 ,  {
 "placeName":
 "Karlsruhe",
 "ref":
 "pmb871"}
 ]
}
}] 