[{
 "type":
 "schnitzler-tagebuch",
 "color":
 "#037a33",
 "filename":
 "entry__1906-05-16",
 "caption":
 "Tagebuch",
 "idno":
 "https://schnitzler-tagebuch.acdh.oeaw.ac.at/entry__1906-05-16.html",
 "head":
 "Tagebuch, 16. Mai 1906",
 "desc":
{"listPerson":
  [
{
 "persName":
 "Ludwig Bauer",
 "ref":
 "person_13473"},
 {
 "persName":
 "W. Fred",
 "ref":
 "person_15158"},
 {
 "persName":
 "Wolfgang Amadeus Mozart",
 "ref":
 "person_18282"},
 {
 "persName":
 "Julius Schnitzler",
 "ref":
 "person_19827"},
 {
 "persName":
 "Felix Speidel",
 "ref":
 "person_20242"},
 {
 "persName":
 "Arthur Kaufmann",
 "ref":
 "person_16770"}],
 "listBibl":
  [
 {
 "title":
 "Der einsame Weg. Schauspiel in fünf Akten",
 "ref":
 "pmb29985"}
 ]
}
}, {
 "type":
 "schnitzler-briefe",
 "color":
 "#A63437",
 "filename":
 "L03005",
 "caption":
 "Briefe mit Autorinnen und Autoren",
 "idno":
 "https://schnitzler-briefe.acdh.oeaw.ac.at/L03005.html",
 "head":
 "Arthur Schnitzler an Felix Salten, 16. 5. 1906",
 "desc":
{"listPerson":
  [
{
 "persName":
 "Albert Bassermann",
 "ref":
 "pmb10844"},
 {
 "persName":
 "Paula Beer-Hofmann",
 "ref":
 "pmb10860"},
 {
 "persName":
 "Richard Beer-Hofmann",
 "ref":
 "pmb10863"},
 {
 "persName":
 "Julius von Gans-Ludassy",
 "ref":
 "pmb11406"},
 {
 "persName":
 "Theodor Herzl",
 "ref":
 "pmb11673"},
 {
 "persName":
 "Hugo von Hofmannsthal",
 "ref":
 "pmb11740"},
 {
 "persName":
 "Alfred Kerr",
 "ref":
 "pmb11910"},
 {
 "persName":
 "Emanuel Reicher",
 "ref":
 "pmb12491"},
 {
 "persName":
 "Johann Loew",
 "ref":
 "pmb142527"},
 {
 "persName":
 "Dora Erl",
 "ref":
 "pmb15983"},
 {
 "persName":
 "Olga von Gans-Ludassy",
 "ref":
 "pmb16902"},
 {
 "persName":
 "Anna Loew",
 "ref":
 "pmb20562"},
 {
 "persName":
 "Felix Salten",
 "ref":
 "pmb2167"},
 {
 "persName":
 "Jacob Pollak",
 "ref":
 "pmb22733"},
 {
 "persName":
 "Arthur Kaufmann",
 "ref":
 "pmb2496"},
 {
 "persName":
 "Else Speidel-Haeberle",
 "ref":
 "pmb2642"},
 {
 "persName":
 "Felix Speidel",
 "ref":
 "pmb2646"},
 {
 "persName":
 "Mirjam Beer-Hofmann",
 "ref":
 "pmb2668"},
 {
 "persName":
 "Charlotte Pohl-Glas",
 "ref":
 "pmb3784"}],
 "listBibl":
  [
 {
 "title":
 "Die fremde Stadt. Thema mit Variationen",
 "ref":
 "pmb142524"}
 ,  {
 "title":
 "Der einsame Weg",
 "ref":
 "pmb144926"}
 ,  {
 "title":
 "Altern",
 "ref":
 "pmb144930"}
 ,  {
 "title":
 "Der einsame Weg. Schauspiel in fünf Akten",
 "ref":
 "pmb29985"}
 ,  {
 "title":
 "Die Zeit",
 "ref":
 "pmb35935"}
 ,  {
 "title":
 "Herr Wenzel auf Rehberg. Novelle",
 "ref":
 "pmb76519"}
 ,  {
 "title":
 "Die Historie von König David. Ein Zyklus",
 "ref":
 "pmb76591"}
 ],
 "listOrg":
  [
 {
 "orgName":
 "S. Fischer Verlag",
 "ref":
 "pmb29639"}
 ],
 "listPlace":
  [
 {
 "placeName":
 "Świnoujście",
 "ref":
 "pmb142880"}
 ,  {
 "placeName":
 "Wartburg",
 "ref":
 "pmb143185"}
 ,  {
 "placeName":
 "Berlin",
 "ref":
 "pmb168"}
 ,  {
 "placeName":
 "Edmund-Weiß-Gasse 7",
 "ref":
 "pmb168940"}
 ,  {
 "placeName":
 "Deutsches Theater Berlin",
 "ref":
 "pmb3"}
 ,  {
 "placeName":
 "Theater an der Wien",
 "ref":
 "pmb37"}
 ,  {
 "placeName":
 "Spanien",
 "ref":
 "pmb388"}
 ,  {
 "placeName":
 "Griechenland",
 "ref":
 "pmb44293"}
 ,  {
 "placeName":
 "Hotel Radetzky",
 "ref":
 "pmb44510"}
 ,  {
 "placeName":
 "Wien",
 "ref":
 "pmb50"}
 ,  {
 "placeName":
 "Heringsdorf",
 "ref":
 "pmb64659"}
 ,  {
 "placeName":
 "Hinterbrühl",
 "ref":
 "pmb75"}
 ,  {
 "placeName":
 "Brüssel",
 "ref":
 "pmb862"}
 ,  {
 "placeName":
 "Dresden",
 "ref":
 "pmb866"}
 ,  {
 "placeName":
 "Waterloo",
 "ref":
 "pmb92051"}
 ,  {
 "placeName":
 "Meissl &amp; Schadn",
 "ref":
 "pmb96"}
 ]
}
}, {
 "type":
 "wienerschnitzler",
 "color":
 "#ECDA98",
 "caption":
 "Wiener Schnitzler",
 "idno":
 "https://wienerschnitzler.org/tag.html#1906-05-16",
 "head":
 "Wien",
 "desc":
{"listPlace":
  [
 {
 "placeName":
 "IX., Alsergrund",
 "ref":
 ""}
 ,  {
 "placeName":
 "XVIII., Währing",
 "ref":
 ""}
 ]
}
}, {
 "type":
 "kalliope-verbund",
 "color":
 "#003574",
 "caption":
 "Kalliope Verbundkatalog",
 "idno":
 "http://kalliope-verbund.info/DE-2498-HS00043639",
 "head":
 "Strasser, Wilhelm an Schnitzler, Arthur [Briefe]",
 "text":
 "2 Bl."
}, {
 "type":
 "kalliope-verbund",
 "color":
 "#003574",
 "caption":
 "Kalliope Verbundkatalog",
 "idno":
 "http://kalliope-verbund.info/DE-2498-HS00032253",
 "head":
 "Benedikt, Isidor an Schnitzler, Arthur [Briefe]",
 "text":
 "1 Br., 1 Kte 3 Bl."
}] 