[{
 "type":
 "schnitzler-tagebuch",
 "color":
 "#037a33",
 "filename":
 "entry__1906-05-01",
 "caption":
 "Tagebuch",
 "idno":
 "https://schnitzler-tagebuch.acdh.oeaw.ac.at/entry__1906-05-01.html",
 "head":
 "Tagebuch, 1. Mai 1906",
 "desc":
{"listPerson":
  [
{
 "persName":
 "Ludwig van Beethoven",
 "ref":
 "person_13555"},
 {
 "persName":
 "Markus Hajek",
 "ref":
 "person_15855"},
 {
 "persName":
 "Heinrich Schnitzler",
 "ref":
 "person_19822"},
 {
 "persName":
 "Louise Schnitzler",
 "ref":
 "person_19831"}],
 "listBibl":
  [
 {
 "title":
 "Der Weg ins Freie. Roman",
 "ref":
 "pmb29923"}
 ,  {
 "title":
 "Streichquartett Nr. 12 Es-Dur op. 127",
 "ref":
 "pmb77173"}
 ]
}
}, {
 "type":
 "schnitzler-briefe",
 "color":
 "#A63437",
 "filename":
 "L03422",
 "caption":
 "Briefe mit Autorinnen und Autoren",
 "idno":
 "https://schnitzler-briefe.acdh.oeaw.ac.at/L03422.html",
 "head":
 "Felix Salten an Arthur Schnitzler, 1. 5. 1906",
 "desc":
{"listPerson":
  [
{
 "persName":
 "Felix Salten",
 "ref":
 "pmb2167"},
 {
 "persName":
 "Alfons XIII.",
 "ref":
 "pmb89420"},
 {
 "persName":
 "Victoria Eugénie von Spanien",
 "ref":
 "pmb147521"},
 {
 "persName":
 "Theodor Herzl",
 "ref":
 "pmb11673"},
 {
 "persName":
 "Anna Katharina Rehmann",
 "ref":
 "pmb23915"},
 {
 "persName":
 "Paul Salten",
 "ref":
 "pmb2922"},
 {
 "persName":
 "Ottilie Salten",
 "ref":
 "pmb23918"},
 {
 "persName":
 "Hugo von Hofmannsthal",
 "ref":
 "pmb11740"},
 {
 "persName":
 "Moritz Heimann",
 "ref":
 "pmb11632"},
 {
 "persName":
 "Siegfried Jacobsohn",
 "ref":
 "pmb11813"},
 {
 "persName":
 "Rudolf Rittner",
 "ref":
 "pmb12530"},
 {
 "persName":
 "Hedwig Fischer",
 "ref":
 "pmb2657"},
 {
 "persName":
 "Samuel Fischer",
 "ref":
 "pmb11324"},
 {
 "persName":
 "Max Reinhardt",
 "ref":
 "pmb12504"},
 {
 "persName":
 "Oskar Bie",
 "ref":
 "pmb2914"},
 {
 "persName":
 "Felix Poppenberg",
 "ref":
 "pmb12441"},
 {
 "persName":
 "Alfred Kerr",
 "ref":
 "pmb11910"},
 {
 "persName":
 "Maximilian Harden",
 "ref":
 "pmb11581"},
 {
 "persName":
 "Richard Metzl",
 "ref":
 "pmb21365"},
 {
 "persName":
 "Vasilij Ilʹič Safonov",
 "ref":
 "pmb146023"},
 {
 "persName":
 "Leopold Godowsky",
 "ref":
 "pmb7445"},
 {
 "persName":
 "Arthur Nikisch",
 "ref":
 "pmb9085"},
 {
 "persName":
 "Fritz Kreisler",
 "ref":
 "pmb11992"},
 {
 "persName":
 "Ida d’Albert",
 "ref":
 "pmb2537"},
 {
 "persName":
 "Olga Schnitzler",
 "ref":
 "pmb2173"},
 {
 "persName":
 "Julius von Gans-Ludassy",
 "ref":
 "pmb11406"},
 {
 "persName":
 "Herbert Ginsberg",
 "ref":
 "pmb17629"}],
 "listBibl":
  [
 {
 "title":
 "Herr Wenzel auf Rehberg. Novelle",
 "ref":
 "pmb76519"}
 ,  {
 "title":
 "Die neue Rundschau",
 "ref":
 "pmb36156"}
 ],
 "listPlace":
  [
 {
 "placeName":
 "Berlin",
 "ref":
 "pmb168"}
 ,  {
 "placeName":
 "Wien",
 "ref":
 "pmb50"}
 ,  {
 "placeName":
 "Madrid",
 "ref":
 "pmb914"}
 ,  {
 "placeName":
 "Toledo",
 "ref":
 "pmb29004"}
 ,  {
 "placeName":
 "Sevilla",
 "ref":
 "pmb49183"}
 ,  {
 "placeName":
 "Cadiz",
 "ref":
 "pmb147483"}
 ,  {
 "placeName":
 "Tanger",
 "ref":
 "pmb951"}
 ,  {
 "placeName":
 "Gibraltar",
 "ref":
 "pmb51646"}
 ,  {
 "placeName":
 "Granada",
 "ref":
 "pmb147487"}
 ,  {
 "placeName":
 "Lissabon",
 "ref":
 "pmb15227"}
 ,  {
 "placeName":
 "Bansin",
 "ref":
 "pmb147498"}
 ,  {
 "placeName":
 "Świnoujście",
 "ref":
 "pmb142880"}
 ,  {
 "placeName":
 "Heringsdorf",
 "ref":
 "pmb64659"}
 ,  {
 "placeName":
 "Skodsborg",
 "ref":
 "pmb958"}
 ,  {
 "placeName":
 "Spanien",
 "ref":
 "pmb388"}
 ,  {
 "placeName":
 "Italien",
 "ref":
 "pmb40306"}
 ,  {
 "placeName":
 "Tiergarten",
 "ref":
 "pmb36914"}
 ,  {
 "placeName":
 "Friedrichstraße",
 "ref":
 "pmb482"}
 ]
}
}, {
 "type":
 "URL",
 "subtype":
 "wienerschnitzler",
 "head":
 "Wien",
 "desc":
{"listPlace":
  [
 {
 "placeName":
 "IX., Alsergrund",
 "ref":
 ""}
 ,  {
 "placeName":
 "XVIII., Währing",
 "ref":
 ""}
 ]
}
}] 