[{
 "type":
 "schnitzler-tagebuch",
 "color":
 "#037a33",
 "filename":
 "entry__1907-08-15",
 "caption":
 "Tagebuch",
 "idno":
 "https://schnitzler-tagebuch.acdh.oeaw.ac.at/entry__1907-08-15.html",
 "head":
 "Tagebuch, 15. August 1907",
 "desc":
{"listBibl":
  [
 {
 "title":
 "Der Weg ins Freie. Roman",
 "ref":
 "pmb29923"}
 ]
}
}, {
 "type":
 "schnitzler-briefe",
 "color":
 "#A63437",
 "filename":
 "L03510",
 "caption":
 "Briefe mit Autorinnen und Autoren",
 "idno":
 "https://schnitzler-briefe.acdh.oeaw.ac.at/L03510.html",
 "head":
 "Felix Salten an Arthur Schnitzler, 15. 8. 1907",
 "desc":
{"listPerson":
  [
{
 "persName":
 "Julius Elias",
 "ref":
 "pmb11246"},
 {
 "persName":
 "Siegfried Jacobsohn",
 "ref":
 "pmb11813"},
 {
 "persName":
 "Eduard Pötzl",
 "ref":
 "pmb12460"},
 {
 "persName":
 "Paul Schlenther",
 "ref":
 "pmb12671"},
 {
 "persName":
 "das Tennis spielt]
   
      ?? [Mädchen",
 "ref":
 "pmb147714"},
 {
 "persName":
 "?? [Kinderbetreuerin bei Salten]",
 "ref":
 "pmb169265"},
 {
 "persName":
 "Felix Salten",
 "ref":
 "pmb2167"},
 {
 "persName":
 "Anna Katharina Rehmann",
 "ref":
 "pmb23915"},
 {
 "persName":
 "Ottilie Salten",
 "ref":
 "pmb23918"},
 {
 "persName":
 "Paul Salten",
 "ref":
 "pmb2922"}],
 "listBibl":
  [
 {
 "title":
 "Der Graf. Komödie in einem Akt",
 "ref":
 "pmb145211"}
 ,  {
 "title":
 "Der Ernst des Lebens. Schauspiel in einem Akt",
 "ref":
 "pmb145239"}
 ,  {
 "title":
 "Rotkäppchen",
 "ref":
 "pmb147719"}
 ,  {
 "title":
 "?? [Englische Reise]",
 "ref":
 "pmb147720"}
 ,  {
 "title":
 "Der Wiener Korrespondent",
 "ref":
 "pmb31293"}
 ,  {
 "title":
 "Das gelobte Wien",
 "ref":
 "pmb31713"}
 ,  {
 "title":
 "Morgen. Wochenschrift für deutsche Kultur",
 "ref":
 "pmb41630"}
 ,  {
 "title":
 "Auferstehung. Komödie in einem Akt",
 "ref":
 "pmb76503"}
 ,  {
 "title":
 "Der Hund von Florenz",
 "ref":
 "pmb76509"}
 ,  {
 "title":
 "Vom andern Ufer. Einakter",
 "ref":
 "pmb76527"}
 ],
 "listOrg":
  [
 {
 "orgName":
 "Die Zeit",
 "ref":
 "pmb29626"}
 ],
 "listPlace":
  [
 {
 "placeName":
 "Ferdinandquelle",
 "ref":
 "pmb147704"}
 ,  {
 "placeName":
 "Café Nimrod",
 "ref":
 "pmb147706"}
 ,  {
 "placeName":
 "Hotel Rübezahl",
 "ref":
 "pmb147708"}
 ,  {
 "placeName":
 "Café Egerländer",
 "ref":
 "pmb147710"}
 ,  {
 "placeName":
 "Café Forstwarte",
 "ref":
 "pmb147712"}
 ,  {
 "placeName":
 "Ambrosiusquelle",
 "ref":
 "pmb147717"}
 ,  {
 "placeName":
 "Berlin",
 "ref":
 "pmb168"}
 ,  {
 "placeName":
 "?? [Delikatessenhandlung in Marienbad]",
 "ref":
 "pmb169267"}
 ,  {
 "placeName":
 "Semmering",
 "ref":
 "pmb189"}
 ,  {
 "placeName":
 "Schneeberg",
 "ref":
 "pmb27068"}
 ,  {
 "placeName":
 "Lago di Garda",
 "ref":
 "pmb39975"}
 ,  {
 "placeName":
 "Welsberg-Taisten",
 "ref":
 "pmb428"}
 ,  {
 "placeName":
 "München",
 "ref":
 "pmb45258"}
 ,  {
 "placeName":
 "Lviv",
 "ref":
 "pmb46224"}
 ,  {
 "placeName":
 "Wien",
 "ref":
 "pmb50"}
 ,  {
 "placeName":
 "Hotel Quisisana",
 "ref":
 "pmb509"}
 ,  {
 "placeName":
 "Kreuzbrunnen",
 "ref":
 "pmb708"}
 ,  {
 "placeName":
 "Marienbad",
 "ref":
 "pmb772"}
 ,  {
 "placeName":
 "Mannheim",
 "ref":
 "pmb881"}
 ]
}
}, {
 "type":
 "wienerschnitzler",
 "color":
 "#6F5106",
 "caption":
 "Wiener Schnitzler",
 "idno":
 "https://wienerschnitzler.org/tag.html#1907-08-15",
 "head":
 "Welsberg-Taisten",
 "desc":
{"listPlace":
  [
 {
 "placeName":
 "Wildbad Waldbrunn",
 "ref":
 ""}
 ]
}
}] 