[{
 "type":
 "schnitzler-tagebuch",
 "color":
 "#037a33",
 "filename":
 "entry__1907-09-05",
 "caption":
 "Tagebuch",
 "idno":
 "https://schnitzler-tagebuch.acdh.oeaw.ac.at/entry__1907-09-05.html",
 "head":
 "Tagebuch, 5. September 1907",
 "desc":
{"listBibl":
  [
 {
 "title":
 "Der Weg ins Freie. Roman",
 "ref":
 "pmb29923"}
 ],
 "listPlace":
  [
 {
 "placeName":
 "Val Venosta",
 "ref":
 "pmb92017"}
 ]
}
}, {
 "type":
 "schnitzler-briefe",
 "color":
 "#A63437",
 "filename":
 "L01704",
 "caption":
 "Briefe mit Autorinnen und Autoren",
 "idno":
 "https://schnitzler-briefe.acdh.oeaw.ac.at/L01704.html",
 "head":
 "Hugo von Hofmannsthal an Arthur Schnitzler, [Anfang
                  September 1907]",
 "desc":
{"listPerson":
  [
{
 "persName":
 "Hugo von Hofmannsthal",
 "ref":
 "pmb11740"}],
 "listBibl":
  [
 {
 "title":
 "Der Weg ins Freie. Roman",
 "ref":
 "pmb29923"}
 ],
 "listOrg":
  [
 {
 "orgName":
 "Morgen. Wochenschrift für deutsche Kultur",
 "ref":
 "pmb34262"}
 ,  {
 "orgName":
 "Neue Rundschau, Neue Deutsche Rundschau, Freie Bühne",
 "ref":
 "pmb29212"}
 ],
 "listPlace":
  [
 {
 "placeName":
 "Semmering",
 "ref":
 "pmb189"}
 ,  {
 "placeName":
 "Meran",
 "ref":
 "pmb43520"}
 ]
}
}, {
 "type":
 "schnitzler-briefe",
 "color":
 "#A63437",
 "filename":
 "L01705",
 "caption":
 "Briefe mit Autorinnen und Autoren",
 "idno":
 "https://schnitzler-briefe.acdh.oeaw.ac.at/L01705.html",
 "head":
 "Hugo von Hofmannsthal, Louise Schnitzler an Arthur Schnitzler, 5. 9. 1907",
 "desc":
{"listPerson":
  [
{
 "persName":
 "Hugo von Hofmannsthal",
 "ref":
 "pmb11740"},
 {
 "persName":
 "Louise Schnitzler",
 "ref":
 "pmb12701"},
 {
 "persName":
 "Johann Nepomuk Nestroy",
 "ref":
 "pmb12338"},
 {
 "persName":
 "Carlo Goldoni",
 "ref":
 "pmb5892"}],
 "listBibl":
  [
 {
 "title":
 "Silvia im »Stern«",
 "ref":
 "pmb43478"}
 ],
 "listPlace":
  [
 {
 "placeName":
 "Semmering",
 "ref":
 "pmb189"}
 ,  {
 "placeName":
 "Meran",
 "ref":
 "pmb43520"}
 ,  {
 "placeName":
 "Palasthotel Meran",
 "ref":
 "pmb41086"}
 ,  {
 "placeName":
 "Wien",
 "ref":
 "pmb50"}
 ]
}
}, {
 "type":
 "schnitzler-briefe",
 "color":
 "#A63437",
 "filename":
 "L03511",
 "caption":
 "Briefe mit Autorinnen und Autoren",
 "idno":
 "https://schnitzler-briefe.acdh.oeaw.ac.at/L03511.html",
 "head":
 "Felix Salten an Arthur Schnitzler, 5. 9. 1907",
 "desc":
{"listPerson":
  [
{
 "persName":
 "Felix Salten",
 "ref":
 "pmb2167"}],
 "listPlace":
  [
 {
 "placeName":
 "Wien",
 "ref":
 "pmb50"}
 ,  {
 "placeName":
 "XIX., Döbling",
 "ref":
 "pmb69"}
 ,  {
 "placeName":
 "XVIII., Währing",
 "ref":
 "pmb68"}
 ,  {
 "placeName":
 "Edmund-Weiß-Gasse",
 "ref":
 "pmb133"}
 ,  {
 "placeName":
 "Marienbad",
 "ref":
 "pmb772"}
 ,  {
 "placeName":
 "Berlin",
 "ref":
 "pmb168"}
 ]
}
}, {
 "type":
 "schnitzler-orte",
 "color":
 "#045344",
 "filename":
 "entity/887/",
 "caption":
 "Aufenthaltsorte",
 "idno":
 "https://pmb.acdh.oeaw.ac.at/entity/887/",
 "head":
 "Meran"
}, {
 "type":
 "kalliope-verbund",
 "color":
 "#003574",
 "caption":
 "Kalliope Verbundkatalog",
 "idno":
 "http://kalliope-verbund.info/DE-2498-HS00075887",
 "head":
 "Weede, Olga an Schnitzler, Arthur [Briefe]",
 "text":
 "2 Bl."
}] 