[{
 "type":
 "schnitzler-tagebuch",
 "color":
 "#037a33",
 "filename":
 "entry__1907-05-16",
 "caption":
 "Tagebuch",
 "idno":
 "https://schnitzler-tagebuch.acdh.oeaw.ac.at/entry__1907-05-16.html",
 "head":
 "Tagebuch, 16. Mai 1907",
 "desc":
{"listPerson":
  [
{
 "persName":
 "Otto Brahm",
 "ref":
 "person_13913"},
 {
 "persName":
 "Rudolf Rittner",
 "ref":
 "person_19288"},
 {
 "persName":
 "Heinrich Schnitzler",
 "ref":
 "person_19822"},
 {
 "persName":
 "Agnes Ulmann",
 "ref":
 "person_20872"},
 {
 "persName":
 "Julie Wassermann",
 "ref":
 "person_21109"},
 {
 "persName":
 "Jakob Wassermann",
 "ref":
 "person_21107"}],
 "listBibl":
  [
 {
 "title":
 "Das Wort. Tragikomödie in fünf Akten",
 "ref":
 "pmb30615"}
 ,  {
 "title":
 "Florian Geyer. Die Tragödie des Bauernkrieges",
 "ref":
 "pmb33273"}
 ],
 "listPlace":
  [
 {
 "placeName":
 "Brühl",
 "ref":
 "pmb44413"}
 ,  {
 "placeName":
 "Radetzky",
 "ref":
 "pmb92471"}
 ,  {
 "placeName":
 "Burg Liechtenstein",
 "ref":
 "pmb91145"}
 ,  {
 "placeName":
 "Wiednertheater",
 "ref":
 "pmb92603"}
 ,  {
 "placeName":
 "Sacher",
 "ref":
 "pmb92506"}
 ]
}
}, {
 "type":
 "wienerschnitzler",
 "color":
 "#ECDA98",
 "caption":
 "Wiener Schnitzler",
 "idno":
 "https://wienerschnitzler.org/tag.html#1907-05-16",
 "head":
 "Wien",
 "desc":
{"listPlace":
  [
 {
 "placeName":
 "I., Innere Stadt",
 "ref":
 ""}
 ,  {
 "placeName":
 "VI., Mariahilf",
 "ref":
 ""}
 ,  {
 "placeName":
 "XVIII., Währing",
 "ref":
 ""}
 ]
}
}, {
 "type":
 "wienerschnitzler",
 "color":
 "#ECDA98",
 "caption":
 "Wiener Schnitzler",
 "idno":
 "https://wienerschnitzler.org/tag.html#1907-05-16",
 "head":
 "Mödling",
 "desc":
{"listPlace":
  [
 {
 "placeName":
 "Vorderbrühl",
 "ref":
 ""}
 ]
}
}, {
 "type":
 "wienerschnitzler",
 "color":
 "#ECDA98",
 "caption":
 "Wiener Schnitzler",
 "idno":
 "https://wienerschnitzler.org/tag.html#1907-05-16",
 "head":
 "Hinterbrühl"
}, {
 "type":
 "schnitzler-kultur",
 "color":
 "#6B4C5A",
 "filename":
 "pmb209485",
 "caption":
 "Kulturveranstaltungen",
 "idno":
 "https://schnitzler-kultur.acdh.oeaw.ac.at/pmb209485.html",
 "head":
 "Aufführung von Florian Geyer,
                        16.5.1907",
 "desc":
{"listOrg":
  [
 {
 "orgName":
 "Lessing-Theater",
 "ref":
 ""}
 ],
 "listBibl":
  [
 {
 "title":
 "Florian Geyer. Die Tragödie des Bauernkrieges",
 "ref":
 ""}
 ],
 "listPerson":
  [
{
 "persName":
 "Arthur Schnitzler",
 "ref":
 ""}],
 "listPlace":
  [
 {
 "placeName":
 "Theater an der Wien",
 "ref":
 ""}
 ]
}
}] 