[{
 "type":
 "schnitzler-tagebuch",
 "color":
 "#037a33",
 "filename":
 "entry__1907-01-18",
 "caption":
 "Tagebuch",
 "idno":
 "https://schnitzler-tagebuch.acdh.oeaw.ac.at/entry__1907-01-18.html",
 "head":
 "Tagebuch, 18. Januar 1907",
 "desc":
{"listPerson":
  [
{
 "persName":
 "Ludwig Bauer",
 "ref":
 "person_13473"},
 {
 "persName":
 "Alexander Salkind",
 "ref":
 "person_19533"},
 {
 "persName":
 "Louise Schnitzler",
 "ref":
 "person_19831"},
 {
 "persName":
 "Bertha Klein",
 "ref":
 "person_16882"}],
 "listBibl":
  [
 {
 "title":
 "Der Weg ins Freie. Roman",
 "ref":
 "pmb29923"}
 ,  {
 "title":
 "Arthur Schnitzler. Eine kritische Studie über seine hervorragendsten Werke",
 "ref":
 "pmb81227"}
 ,  {
 "title":
 "Mignon",
 "ref":
 "pmb81418"}
 ],
 "listPlace":
  [
 {
 "placeName":
 "Ägypten",
 "ref":
 "pmb211"}
 ,  {
 "placeName":
 "Syria",
 "ref":
 "pmb51664"}
 ]
}
}, {
 "type":
 "schnitzler-briefe",
 "color":
 "#A63437",
 "filename":
 "L03007",
 "caption":
 "Briefe mit Autorinnen und Autoren",
 "idno":
 "https://schnitzler-briefe.acdh.oeaw.ac.at/L03007.html",
 "head":
 "Arthur Schnitzler an Felix Salten, 18. 1. 1907",
 "desc":
{"listPerson":
  [
{
 "persName":
 "Hermann Bahr",
 "ref":
 "pmb10815"},
 {
 "persName":
 "Felix Salten",
 "ref":
 "pmb2167"},
 {
 "persName":
 "Ottilie Salten",
 "ref":
 "pmb23918"}],
 "listBibl":
  [
 {
 "title":
 "Burgtheater. »Husarenfieber.« Schwank in vier Akten von Gustav Kadelburg und Richard Skowronnek. – Zum erstenmal: am 17. Januar 1907",
 "ref":
 "pmb31287"}
 ,  {
 "title":
 "Die Zeit",
 "ref":
 "pmb35935"}
 ],
 "listPlace":
  [
 {
 "placeName":
 "Heiligenstadt",
 "ref":
 "pmb159"}
 ,  {
 "placeName":
 "Edmund-Weiß-Gasse 7",
 "ref":
 "pmb168940"}
 ,  {
 "placeName":
 "Österreich",
 "ref":
 "pmb41240"}
 ,  {
 "placeName":
 "Wien",
 "ref":
 "pmb50"}
 ,  {
 "placeName":
 "Armbrustergasse",
 "ref":
 "pmb722"}
 ]
}
}, {
 "type":
 "wienerschnitzler",
 "color":
 "#6F5106",
 "caption":
 "Wiener Schnitzler",
 "idno":
 "https://wienerschnitzler.org/tag.html#1907-01-18",
 "head":
 "Wien",
 "desc":
{"listPlace":
  [
 {
 "placeName":
 "IX., Alsergrund",
 "ref":
 ""}
 ,  {
 "placeName":
 "I., Innere Stadt",
 "ref":
 ""}
 ,  {
 "placeName":
 "XVIII., Währing",
 "ref":
 ""}
 ]
}
}, {
 "type":
 "schnitzler-bahr",
 "color":
 "#639FF9",
 "filename":
 "L041395",
 "caption":
 "Schnitzler/Bahr",
 "idno":
 "https://schnitzler-bahr.acdh.oeaw.ac.at/L041395.html",
 "head":
 "Schnitzler an Salten, 18. 1. 1907",
 "desc":
{"listPerson":
  [
{
 "persName":
 "Felix Salten",
 "ref":
 "pmb2167"},
 {
 "persName":
 "Hermann Bahr",
 "ref":
 "pmb10815"},
 {
 "persName":
 "Ottilie Salten",
 "ref":
 "pmb23918"},
 {
 "persName":
 "Gustav Kadelburg",
 "ref":
 "pmb11845"},
 {
 "persName":
 "Richard Skowronnek",
 "ref":
 "pmb2827"}],
 "listBibl":
  [
 {
 "title":
 "Burgtheater »Husarenfieber.« Schwank in vier Akten von Gustav Kadelburg und Richard Skowronnek. – Zum erstenmal: am 17. Januar 1907",
 "ref":
 "pmb31287"}
 ,  {
 "title":
 "Husarenfieber",
 "ref":
 "pmb31717"}
 ],
 "listPlace":
  [
 {
 "placeName":
 "Wien",
 "ref":
 "pmb50"}
 ,  {
 "placeName":
 "Edmund-Weiß-Gasse",
 "ref":
 "pmb133"}
 ,  {
 "placeName":
 "Österreich",
 "ref":
 "pmb41240"}
 ],
 "listOrg":
  [
 {
 "orgName":
 "Die Zeit",
 "ref":
 "pmb29626"}
 ]
}
}] 