[{
 "type":
 "schnitzler-tagebuch",
 "color":
 "#037a33",
 "filename":
 "entry__1907-08-05",
 "caption":
 "Tagebuch",
 "idno":
 "https://schnitzler-tagebuch.acdh.oeaw.ac.at/entry__1907-08-05.html",
 "head":
 "Tagebuch, 5. August 1907",
 "desc":
{"listPerson":
  [
{
 "persName":
 "Egon Epstein",
 "ref":
 "person_14773"},
 {
 "persName":
 "Max von Rosenberg",
 "ref":
 "person_19374"},
 {
 "persName":
 "Louise Schnitzler",
 "ref":
 "person_19831"}],
 "listBibl":
  [
 {
 "title":
 "Der Weg ins Freie. Roman",
 "ref":
 "pmb29923"}
 ],
 "listPlace":
  [
 {
 "placeName":
 "Vulpera",
 "ref":
 "pmb61018"}
 ,  {
 "placeName":
 "Bozen",
 "ref":
 "pmb40260"}
 ]
}
}, {
 "type":
 "schnitzler-briefe",
 "color":
 "#A63437",
 "filename":
 "L03009",
 "caption":
 "Briefe mit Autorinnen und Autoren",
 "idno":
 "https://schnitzler-briefe.acdh.oeaw.ac.at/L03009.html",
 "head":
 "Arthur Schnitzler an Felix Salten, 5. 8. 1907",
 "desc":
{"listPerson":
  [
{
 "persName":
 "Arthur Schnitzler",
 "ref":
 "pmb2121"},
 {
 "persName":
 "Felix Salten",
 "ref":
 "pmb2167"},
 {
 "persName":
 "Hermann Bahr",
 "ref":
 "pmb10815"},
 {
 "persName":
 "Felix Salten",
 "ref":
 "pmb2167"},
 {
 "persName":
 "Josef Böhm",
 "ref":
 "pmb47572"},
 {
 "persName":
 "Ottilie Salten",
 "ref":
 "pmb23918"},
 {
 "persName":
 "Paul Salten",
 "ref":
 "pmb2922"},
 {
 "persName":
 "Louise Schnitzler",
 "ref":
 "pmb12701"},
 {
 "persName":
 "Heinrich Schnitzler",
 "ref":
 "pmb12692"},
 {
 "persName":
 "Olga Schnitzler",
 "ref":
 "pmb2173"},
 {
 "persName":
 "Richard Beer-Hofmann",
 "ref":
 "pmb10863"},
 {
 "persName":
 "Paula Beer-Hofmann",
 "ref":
 "pmb10860"},
 {
 "persName":
 "Marie Epstein",
 "ref":
 "pmb15958"},
 {
 "persName":
 "Anna Epstein",
 "ref":
 "pmb28285"},
 {
 "persName":
 "Leonie Guttmann",
 "ref":
 "pmb17605"},
 {
 "persName":
 "Ella Frankfurter",
 "ref":
 "pmb16479"},
 {
 "persName":
 "Irene Auernheimer",
 "ref":
 "pmb3223"},
 {
 "persName":
 "Albert Frankfurter",
 "ref":
 "pmb16477"},
 {
 "persName":
 "Eduard Pötzl",
 "ref":
 "pmb12460"},
 {
 "persName":
 "Hans von Bülow",
 "ref":
 "pmb11065"},
 {
 "persName":
 "Heinrich Mann",
 "ref":
 "pmb12170"},
 {
 "persName":
 "Werner Sombart",
 "ref":
 "pmb9931"},
 {
 "persName":
 "Richard Strauss",
 "ref":
 "pmb12870"},
 {
 "persName":
 "Hugo von Hofmannsthal",
 "ref":
 "pmb11740"},
 {
 "persName":
 "Georg Brandes",
 "ref":
 "pmb10992"},
 {
 "persName":
 "Richard Muther",
 "ref":
 "pmb12319"}],
 "listBibl":
  [
 {
 "title":
 "Der Wiener Korrespondent",
 "ref":
 "pmb31293"}
 ,  {
 "title":
 "Morgen. Wochenschrift für deutsche Kultur",
 "ref":
 "pmb41630"}
 ,  {
 "title":
 "Das gelobte Wien",
 "ref":
 "pmb31713"}
 ,  {
 "title":
 "Der Weg ins Freie. Roman",
 "ref":
 "pmb29923"}
 ,  {
 "title":
 "Der Ruf des Lebens. Schauspiel in drei Akten",
 "ref":
 "pmb29905"}
 ,  {
 "title":
 "Briefe und Schriften",
 "ref":
 "pmb30719"}
 ,  {
 "title":
 "Zwischen den Rassen",
 "ref":
 "pmb31289"}
 ,  {
 "title":
 "B.Z. am Mittag",
 "ref":
 "pmb58435"}
 ],
 "listPlace":
  [
 {
 "placeName":
 "Welsberg-Taisten",
 "ref":
 "pmb428"}
 ,  {
 "placeName":
 "Wien",
 "ref":
 "pmb50"}
 ,  {
 "placeName":
 "Wildbad Waldbrunn",
 "ref":
 "pmb723"}
 ,  {
 "placeName":
 "Pustertal",
 "ref":
 "pmb724"}
 ,  {
 "placeName":
 "Tirol",
 "ref":
 "pmb423"}
 ,  {
 "placeName":
 "Große Dolomitenstraße",
 "ref":
 "pmb40120"}
 ,  {
 "placeName":
 "Bozen",
 "ref":
 "pmb40260"}
 ,  {
 "placeName":
 "Meran",
 "ref":
 "pmb43520"}
 ,  {
 "placeName":
 "Lago di Garda",
 "ref":
 "pmb39975"}
 ,  {
 "placeName":
 "Berlin",
 "ref":
 "pmb168"}
 ,  {
 "placeName":
 "Lienz",
 "ref":
 "pmb897"}
 ,  {
 "placeName":
 "Dölsach",
 "ref":
 "pmb945"}
 ,  {
 "placeName":
 "England",
 "ref":
 "pmb254"}
 ],
 "listOrg":
  [
 {
 "orgName":
 "Österreichischer Lloyd",
 "ref":
 "pmb29770"}
 ]
}
}, {
 "type":
 "wienerschnitzler",
 "color":
 "#6F5106",
 "caption":
 "Wiener Schnitzler",
 "idno":
 "https://wienerschnitzler.org/tag.html#1907-08-05",
 "head":
 "Welsberg-Taisten",
 "desc":
{"listPlace":
  [
 {
 "placeName":
 "Wildbad Waldbrunn",
 "ref":
 ""}
 ]
}
}, {
 "type":
 "schnitzler-bahr",
 "color":
 "#639FF9",
 "filename":
 "L041396",
 "caption":
 "Schnitzler/Bahr",
 "idno":
 "https://schnitzler-bahr.acdh.oeaw.ac.at/L041396.html",
 "head":
 "Schnitzler an Salten, 5. 8. 1907",
 "desc":
{"listPerson":
  [
{
 "persName":
 "Felix Salten",
 "ref":
 "pmb2167"},
 {
 "persName":
 "Ottilie Salten",
 "ref":
 "pmb23918"},
 {
 "persName":
 "Paul Salten",
 "ref":
 "pmb2922"},
 {
 "persName":
 "Olga Schnitzler",
 "ref":
 "pmb2173"},
 {
 "persName":
 "Heinrich Schnitzler",
 "ref":
 "pmb12692"},
 {
 "persName":
 "Louise Schnitzler",
 "ref":
 "pmb12701"},
 {
 "persName":
 "Richard Beer-Hofmann",
 "ref":
 "pmb10863"},
 {
 "persName":
 "Paula Beer-Hofmann",
 "ref":
 "pmb10860"},
 {
 "persName":
 "Marie Epstein",
 "ref":
 "pmb15958"},
 {
 "persName":
 "Anna Epstein",
 "ref":
 "pmb28285"},
 {
 "persName":
 "Ella Frankfurter",
 "ref":
 "pmb16479"},
 {
 "persName":
 "Leonie Guttmann",
 "ref":
 "pmb17605"},
 {
 "persName":
 "Irene Auernheimer",
 "ref":
 "pmb3223"},
 {
 "persName":
 "Albert Frankfurter",
 "ref":
 "pmb16477"},
 {
 "persName":
 "Hermann Bahr",
 "ref":
 "pmb10815"},
 {
 "persName":
 "Eduard Pötzl",
 "ref":
 "pmb12460"},
 {
 "persName":
 "Hans von Bülow",
 "ref":
 "pmb11065"},
 {
 "persName":
 "Heinrich Mann",
 "ref":
 "pmb12170"}],
 "listBibl":
  [
 {
 "title":
 "Der Wiener Korrespondent",
 "ref":
 "pmb31293"}
 ,  {
 "title":
 "Das gelobte Wien",
 "ref":
 "pmb31713"}
 ,  {
 "title":
 "Der Weg ins Freie. Roman",
 "ref":
 "pmb29923"}
 ,  {
 "title":
 "Der Ruf des Lebens. Schauspiel in drei Akten",
 "ref":
 "pmb29905"}
 ,  {
 "title":
 "Briefe und Schriften",
 "ref":
 "pmb30719"}
 ,  {
 "title":
 "Zwischen den Rassen",
 "ref":
 "pmb31289"}
 ],
 "listPlace":
  [
 {
 "placeName":
 "Welsberg-Taisten",
 "ref":
 "pmb428"}
 ,  {
 "placeName":
 "Wildbad Waldbrunn",
 "ref":
 "pmb723"}
 ,  {
 "placeName":
 "Wien",
 "ref":
 "pmb50"}
 ,  {
 "placeName":
 "Bozen",
 "ref":
 "pmb40260"}
 ,  {
 "placeName":
 "Meran",
 "ref":
 "pmb43520"}
 ,  {
 "placeName":
 "Berlin",
 "ref":
 "pmb168"}
 ,  {
 "placeName":
 "Lienz",
 "ref":
 "pmb897"}
 ,  {
 "placeName":
 "Dölsach",
 "ref":
 "pmb945"}
 ],
 "listOrg":
  [
 {
 "orgName":
 "Österreichischer Lloyd",
 "ref":
 "pmb29770"}
 ,  {
 "orgName":
 "Der Morgen. Wiener Montagsblatt",
 "ref":
 "pmb29398"}
 ]
}
}] 