[{
 "type":
 "schnitzler-tagebuch",
 "color":
 "#037a33",
 "filename":
 "entry__1907-07-15",
 "caption":
 "Tagebuch",
 "idno":
 "https://schnitzler-tagebuch.acdh.oeaw.ac.at/entry__1907-07-15.html",
 "head":
 "Tagebuch, 15. Juli 1907",
 "desc":
{"listPerson":
  [
{
 "persName":
 "Hugo von Hofmannsthal",
 "ref":
 "person_16293"}],
 "listBibl":
  [
 {
 "title":
 "Der Weg ins Freie. Roman",
 "ref":
 "pmb29923"}
 ],
 "listPlace":
  [
 {
 "placeName":
 "Taisten",
 "ref":
 "pmb91867"}
 ]
}
}, {
 "type":
 "schnitzler-briefe",
 "color":
 "#A63437",
 "filename":
 "L01692",
 "caption":
 "Briefe mit Autorinnen und Autoren",
 "idno":
 "https://schnitzler-briefe.acdh.oeaw.ac.at/L01692.html",
 "head":
 "Max Mell an Arthur Schnitzler, 15. 7. 1907",
 "desc":
{"listPerson":
  [
{
 "persName":
 "Max Mell",
 "ref":
 "pmb12225"},
 {
 "persName":
 "Friedrich Wärndorfer",
 "ref":
 "pmb27386"},
 {
 "persName":
 "Josef Hoffmann",
 "ref":
 "pmb7891"},
 {
 "persName":
 "Olga Schnitzler",
 "ref":
 "pmb2173"},
 {
 "persName":
 "Maria Mell",
 "ref":
 "pmb5765"}],
 "listBibl":
  [
 {
 "title":
 "Almanach der Wiener Werkstätte",
 "ref":
 "pmb50960"}
 ],
 "listOrg":
  [
 {
 "orgName":
 "Wiener Werkstätte",
 "ref":
 "pmb40016"}
 ],
 "listPlace":
  [
 {
 "placeName":
 "Wien",
 "ref":
 "pmb50"}
 ,  {
 "placeName":
 "VII., Neubau",
 "ref":
 "pmb57"}
 ,  {
 "placeName":
 "Neustiftgasse",
 "ref":
 "pmb50568"}
 ,  {
 "placeName":
 "Ungarn",
 "ref":
 "pmb35512"}
 ,  {
 "placeName":
 "Wittelsbachstraße",
 "ref":
 "pmb1238"}
 ]
}
}, {
 "type":
 "schnitzler-briefe",
 "color":
 "#A63437",
 "filename":
 "L03488",
 "caption":
 "Briefe mit Autorinnen und Autoren",
 "idno":
 "https://schnitzler-briefe.acdh.oeaw.ac.at/L03488.html",
 "head":
 "Felix Salten an Arthur Schnitzler, 15. 7. 1907",
 "desc":
{"listPerson":
  [
{
 "persName":
 "Felix Salten",
 "ref":
 "pmb2167"},
 {
 "persName":
 "Olga Schnitzler",
 "ref":
 "pmb2173"},
 {
 "persName":
 "Richard Beer-Hofmann",
 "ref":
 "pmb10863"},
 {
 "persName":
 "Alois Hofmann",
 "ref":
 "pmb34949"},
 {
 "persName":
 "Gustav Mahler",
 "ref":
 "pmb12163"},
 {
 "persName":
 "Maria Anna Mahler",
 "ref":
 "pmb147681"},
 {
 "persName":
 "Michael Emil Salzmann",
 "ref":
 "pmb45493"},
 {
 "persName":
 "Ottilie Salten",
 "ref":
 "pmb23918"}],
 "listBibl":
  [
 {
 "title":
 "Kindertotenlieder",
 "ref":
 "pmb147688"}
 ],
 "listOrg":
  [
 {
 "orgName":
 "Neue Freie Presse",
 "ref":
 "pmb29351"}
 ],
 "listPlace":
  [
 {
 "placeName":
 "XIX., Döbling",
 "ref":
 "pmb69"}
 ,  {
 "placeName":
 "Welsberg-Taisten",
 "ref":
 "pmb428"}
 ,  {
 "placeName":
 "Wien",
 "ref":
 "pmb50"}
 ,  {
 "placeName":
 "Wildbad Waldbrunn",
 "ref":
 "pmb723"}
 ,  {
 "placeName":
 "Südtirol",
 "ref":
 "pmb969"}
 ,  {
 "placeName":
 "Wocheiner See",
 "ref":
 "pmb44456"}
 ,  {
 "placeName":
 "Edlach",
 "ref":
 "pmb470"}
 ]
}
}, {
 "type":
 "wienerschnitzler",
 "color":
 "#ECDA98",
 "caption":
 "Wiener Schnitzler",
 "idno":
 "https://wienerschnitzler.org/tag.html#1907-07-15",
 "head":
 "Welsberg-Taisten",
 "desc":
{"listPlace":
  [
 {
 "placeName":
 "Wildbad Waldbrunn",
 "ref":
 ""}
 ,  {
 "placeName":
 "Taisten",
 "ref":
 ""}
 ]
}
}] 