[{
 "type":
 "schnitzler-tagebuch",
 "color":
 "#037a33",
 "filename":
 "entry__1907-08-25",
 "caption":
 "Tagebuch",
 "idno":
 "https://schnitzler-tagebuch.acdh.oeaw.ac.at/entry__1907-08-25.html",
 "head":
 "Tagebuch, 25. August 1907",
 "desc":
{"listPerson":
  [
{
 "persName":
 "Paul Goldmann",
 "ref":
 "person_15529"},
 {
 "persName":
 "Carl Guttmann",
 "ref":
 "person_15780"},
 {
 "persName":
 "Leonie Guttmann",
 "ref":
 "person_15781"},
 {
 "persName":
 "Grete Jacques",
 "ref":
 "person_16485"}],
 "listBibl":
  [
 {
 "title":
 "Der Weg ins Freie. Roman",
 "ref":
 "pmb29923"}
 ],
 "listPlace":
  [
 {
 "placeName":
 "Gossensass",
 "ref":
 "pmb40474"}
 ]
}
}, {
 "type":
 "schnitzler-briefe",
 "color":
 "#A63437",
 "filename":
 "L01702",
 "caption":
 "Briefe mit Autorinnen und Autoren",
 "idno":
 "https://schnitzler-briefe.acdh.oeaw.ac.at/L01702.html",
 "head":
 "Arthur Schnitzler an Richard Beer-Hofmann, 25. 8. 1907",
 "desc":
{"listPerson":
  [
{
 "persName":
 "Richard Beer-Hofmann",
 "ref":
 "pmb10863"},
 {
 "persName":
 "Josef Böhm",
 "ref":
 "pmb47572"},
 {
 "persName":
 "Heinrich Schnitzler",
 "ref":
 "pmb12692"},
 {
 "persName":
 "Olga Schnitzler",
 "ref":
 "pmb2173"},
 {
 "persName":
 "Theoderich der Große",
 "ref":
 "pmb5626"},
 {
 "persName":
 "Peter Vischer",
 "ref":
 "pmb41097"},
 {
 "persName":
 "Paul Goldmann",
 "ref":
 "pmb11485"},
 {
 "persName":
 "Clementine Goldmann",
 "ref":
 "pmb17163"}],
 "listBibl":
  [
 {
 "title":
 "Dämmerseele",
 "ref":
 "pmb33776"}
 ],
 "listPlace":
  [
 {
 "placeName":
 "Hotel &amp; Pension Bavaria",
 "ref":
 "pmb47570"}
 ,  {
 "placeName":
 "Obermais",
 "ref":
 "pmb11483"}
 ,  {
 "placeName":
 "Wildbad Waldbrunn",
 "ref":
 "pmb723"}
 ,  {
 "placeName":
 "Pustertal",
 "ref":
 "pmb724"}
 ,  {
 "placeName":
 "Welsberg-Taisten",
 "ref":
 "pmb428"}
 ,  {
 "placeName":
 "Velden am Wörthersee",
 "ref":
 "pmb909"}
 ,  {
 "placeName":
 "Wörthersee",
 "ref":
 "pmb430"}
 ,  {
 "placeName":
 "Etablissement Ernst Wahliss",
 "ref":
 "pmb40118"}
 ,  {
 "placeName":
 "Wien",
 "ref":
 "pmb50"}
 ,  {
 "placeName":
 "Ponte Gardena",
 "ref":
 "pmb40343"}
 ,  {
 "placeName":
 "Val Badia",
 "ref":
 "pmb40350"}
 ,  {
 "placeName":
 "Grödner Joch",
 "ref":
 "pmb40346"}
 ,  {
 "placeName":
 "Corvara",
 "ref":
 "pmb40366"}
 ,  {
 "placeName":
 "Arabba",
 "ref":
 "pmb40354"}
 ,  {
 "placeName":
 "Pordoijoch",
 "ref":
 "pmb40369"}
 ,  {
 "placeName":
 "Vigo di Fassa",
 "ref":
 "pmb40362"}
 ,  {
 "placeName":
 "Karersee",
 "ref":
 "pmb40371"}
 ,  {
 "placeName":
 "Bozen",
 "ref":
 "pmb40260"}
 ,  {
 "placeName":
 "Meran",
 "ref":
 "pmb43520"}
 ,  {
 "placeName":
 "Palasthotel Meran",
 "ref":
 "pmb41086"}
 ,  {
 "placeName":
 "Mendelpass",
 "ref":
 "pmb41083"}
 ,  {
 "placeName":
 "Innsbruck",
 "ref":
 "pmb867"}
 ,  {
 "placeName":
 "Hofkirche",
 "ref":
 "pmb41093"}
 ,  {
 "placeName":
 "Salzburg",
 "ref":
 "pmb30"}
 ,  {
 "placeName":
 "Lago di Garda",
 "ref":
 "pmb39975"}
 ,  {
 "placeName":
 "Gossensass",
 "ref":
 "pmb40474"}
 ]
}
}, {
 "type":
 "schnitzler-orte",
 "color":
 "#045344",
 "filename":
 "entity/723/",
 "caption":
 "Aufenthaltsorte",
 "idno":
 "https://pmb.acdh.oeaw.ac.at/entity/723/",
 "head":
 "Wildbad Waldbrunn"
}, {
 "type":
 "schnitzler-orte",
 "color":
 "#045344",
 "filename":
 "entity/428/",
 "caption":
 "Aufenthaltsorte",
 "idno":
 "https://pmb.acdh.oeaw.ac.at/entity/428/",
 "head":
 "Welsberg-Taisten"
}, {
 "type":
 "schnitzler-orte",
 "color":
 "#045344",
 "filename":
 "entity/723/",
 "caption":
 "Aufenthaltsorte",
 "idno":
 "https://pmb.acdh.oeaw.ac.at/entity/723/",
 "head":
 "Wildbad Waldbrunn"
}] 