[{
 "type":
 "schnitzler-tagebuch",
 "color":
 "#037a33",
 "filename":
 "entry__1907-08-27",
 "caption":
 "Tagebuch",
 "idno":
 "https://schnitzler-tagebuch.acdh.oeaw.ac.at/entry__1907-08-27.html",
 "head":
 "Tagebuch, 27. August 1907",
 "desc":
{"listPerson":
  [
{
 "persName":
 "Emil Reich",
 "ref":
 "person_19115"},
 {
 "persName":
 "Leo Strisower",
 "ref":
 "person_20536"}],
 "listBibl":
  [
 {
 "title":
 "Der Weg ins Freie. Roman",
 "ref":
 "pmb29923"}
 ],
 "listPlace":
  [
 {
 "placeName":
 "Waidbruck",
 "ref":
 "pmb92031"}
 ,  {
 "placeName":
 "Urtijëi",
 "ref":
 "pmb91969"}
 ,  {
 "placeName":
 "Sëlva",
 "ref":
 "pmb92101"}
 ]
}
}, {
 "type":
 "schnitzler-briefe",
 "color":
 "#A63437",
 "filename":
 "L03459",
 "caption":
 "Briefe mit Autorinnen und Autoren",
 "idno":
 "https://schnitzler-briefe.acdh.oeaw.ac.at/L03459.html",
 "head":
 "Paul Goldmann, Markus Hajek, Gisela Hajek, Margot Vallo an Arthur Schnitzler, [27. 8. 1907?]",
 "desc":
{"listPerson":
  [
{
 "persName":
 "Paul Goldmann",
 "ref":
 "pmb11485"},
 {
 "persName":
 "Markus Hajek",
 "ref":
 "pmb2284"},
 {
 "persName":
 "Gisela Hajek",
 "ref":
 "pmb2461"},
 {
 "persName":
 "Margot Vallo",
 "ref":
 "pmb28004"}],
 "listPlace":
  [
 {
 "placeName":
 "Gossensass",
 "ref":
 "pmb40474"}
 ,  {
 "placeName":
 "Hühnerspiel",
 "ref":
 "pmb147506"}
 ,  {
 "placeName":
 "Wien",
 "ref":
 "pmb50"}
 ,  {
 "placeName":
 "Edmund-Weiß-Gasse",
 "ref":
 "pmb133"}
 ,  {
 "placeName":
 "Hühnerspielalm",
 "ref":
 "pmb167610"}
 ]
}
}, {
 "type":
 "schnitzler-orte",
 "color":
 "#045344",
 "filename":
 "entity/92031/",
 "caption":
 "Aufenthaltsorte",
 "idno":
 "https://pmb.acdh.oeaw.ac.at/entity/92031/",
 "text":
 "Waidbruck"
}, {
 "type":
 "schnitzler-orte",
 "color":
 "#045344",
 "filename":
 "entity/91969/",
 "caption":
 "Aufenthaltsorte",
 "idno":
 "https://pmb.acdh.oeaw.ac.at/entity/91969/",
 "text":
 "Urtijëi"
}, {
 "type":
 "schnitzler-orte",
 "color":
 "#045344",
 "filename":
 "entity/65735/",
 "caption":
 "Aufenthaltsorte",
 "idno":
 "https://pmb.acdh.oeaw.ac.at/entity/65735/",
 "text":
 "Selva di Val Gardena"
}] 