[{
 "type":
 "schnitzler-tagebuch",
 "color":
 "#037a33",
 "filename":
 "entry__1907-10-01",
 "caption":
 "Tagebuch",
 "idno":
 "https://schnitzler-tagebuch.acdh.oeaw.ac.at/entry__1907-10-01.html",
 "head":
 "Tagebuch, 1. Oktober 1907",
 "desc":
{"listPerson":
  [
{
 "persName":
 "Hermann John",
 "ref":
 "person_16563"},
 {
 "persName":
 "Heinrich Schnitzler",
 "ref":
 "person_19822"},
 {
 "persName":
 "Louise Schnitzler",
 "ref":
 "person_19831"},
 {
 "persName":
 "Robert Schumann",
 "ref":
 "person_19942"},
 {
 "persName":
 "Gustav Davis",
 "ref":
 "person_14365"}],
 "listBibl":
  [
 {
 "title":
 "Das Märchen. Schauspiel in drei Aufzügen",
 "ref":
 "pmb29823"}
 ,  {
 "title":
 "Der Weg ins Freie. Roman",
 "ref":
 "pmb29923"}
 ],
 "listPlace":
  [
 {
 "placeName":
 "Pötzleinsdorf",
 "ref":
 "pmb169"}
 ,  {
 "placeName":
 "Neuwaldegg",
 "ref":
 "pmb170"}
 ]
}
}, {
 "type":
 "schnitzler-briefe",
 "color":
 "#A63437",
 "filename":
 "L03512",
 "caption":
 "Briefe mit Autorinnen und Autoren",
 "idno":
 "https://schnitzler-briefe.acdh.oeaw.ac.at/L03512.html",
 "head":
 "Felix Salten an Arthur Schnitzler, 1. 10. 1907",
 "desc":
{"listPerson":
  [
{
 "persName":
 "Felix Salten",
 "ref":
 "pmb2167"},
 {
 "persName":
 "Ferdinand von Fellner-Feldegg",
 "ref":
 "pmb28197"}],
 "listBibl":
  [
 {
 "title":
 "Mit seinem Gotte allein. Volksschauspiel in 4 Aufzügen",
 "ref":
 "pmb147722"}
 ,  {
 "title":
 "Vom andern Ufer. Einakter",
 "ref":
 "pmb76527"}
 ],
 "listOrg":
  [
 {
 "orgName":
 "Lessing-Theater",
 "ref":
 "pmb35053"}
 ],
 "listPlace":
  [
 {
 "placeName":
 "I., Innere Stadt",
 "ref":
 "pmb51"}
 ,  {
 "placeName":
 "XVIII., Währing",
 "ref":
 "pmb68"}
 ,  {
 "placeName":
 "Wien",
 "ref":
 "pmb50"}
 ,  {
 "placeName":
 "XIX., Döbling",
 "ref":
 "pmb69"}
 ,  {
 "placeName":
 "Armbrustergasse",
 "ref":
 "pmb722"}
 ,  {
 "placeName":
 "Edmund-Weiß-Gasse",
 "ref":
 "pmb133"}
 ,  {
 "placeName":
 "Heiligenstadt",
 "ref":
 "pmb159"}
 ,  {
 "placeName":
 "Raimund-Theater",
 "ref":
 "pmb77"}
 ,  {
 "placeName":
 "Berlin",
 "ref":
 "pmb168"}
 ]
}
}, {
 "type":
 "schnitzler-orte",
 "color":
 "#045344",
 "caption":
 "Aufenthaltsorte",
 "head":
 "Wien",
 "desc":
{"listPlace":
  [
 {
 "placeName":
 "IX., Alsergrund",
 "ref":
 ""}
 ,  {
 "placeName":
 "XVIII., Währing",
 "ref":
 ""}
 ,  {
 "placeName":
 "XVII., Hernals",
 "ref":
 ""}
 ]
}
}, {
 "type":
 "kalliope-verbund",
 "color":
 "#003574",
 "caption":
 "Kalliope Verbundkatalog",
 "idno":
 "http://kalliope-verbund.info/DE-2498-HS00031692",
 "head":
 "Arfken, Ernst Joachim an Schnitzler, Arthur [Briefe]",
 "text":
 "1 Bl."
}] 