[{
 "type":
 "schnitzler-tagebuch",
 "color":
 "#037a33",
 "filename":
 "entry__1907-10-22",
 "caption":
 "Tagebuch",
 "idno":
 "https://schnitzler-tagebuch.acdh.oeaw.ac.at/entry__1907-10-22.html",
 "head":
 "Tagebuch, 22. Oktober 1907",
 "desc":
{"listPerson":
  [
{
 "persName":
 "Gustav Harpner",
 "ref":
 "person_15929"},
 {
 "persName":
 "Johann Ress",
 "ref":
 "person_19197"},
 {
 "persName":
 "Julius Schnitzler",
 "ref":
 "person_19827"},
 {
 "persName":
 "Samuel Fischer",
 "ref":
 "person_15009"},
 {
 "persName":
 "Moriz Károlyi",
 "ref":
 "person_16735"}],
 "listBibl":
  [
 {
 "title":
 "Der Weg ins Freie. Roman",
 "ref":
 "pmb29923"}
 ]
}
}, {
 "type":
 "schnitzler-briefe",
 "color":
 "#A63437",
 "filename":
 "L03514",
 "caption":
 "Briefe mit Autorinnen und Autoren",
 "idno":
 "https://schnitzler-briefe.acdh.oeaw.ac.at/L03514.html",
 "head":
 "Felix Salten an Arthur Schnitzler, 22. 10. 1907",
 "desc":
{"listPerson":
  [
{
 "persName":
 "Felix Salten",
 "ref":
 "pmb2167"}],
 "listBibl":
  [
 {
 "title":
 "Vom andern Ufer. Einakter",
 "ref":
 "pmb76527"}
 ],
 "listOrg":
  [
 {
 "orgName":
 "Lessing-Theater",
 "ref":
 "pmb35053"}
 ],
 "listPlace":
  [
 {
 "placeName":
 "Charlottenburg",
 "ref":
 "pmb9925"}
 ,  {
 "placeName":
 "Berlin",
 "ref":
 "pmb168"}
 ,  {
 "placeName":
 "Wien",
 "ref":
 "pmb50"}
 ,  {
 "placeName":
 "XVIII., Währing",
 "ref":
 "pmb68"}
 ,  {
 "placeName":
 "Edmund-Weiß-Gasse",
 "ref":
 "pmb133"}
 ,  {
 "placeName":
 "Unter den Linden",
 "ref":
 "pmb216"}
 ,  {
 "placeName":
 "Friedrichstraße",
 "ref":
 "pmb482"}
 ,  {
 "placeName":
 "Hotel Victoria und Victoria-Café",
 "ref":
 "pmb147749"}
 ]
}
}, {
 "type":
 "URL",
 "subtype":
 "wienerschnitzler",
 "head":
 "Wien",
 "desc":
{"listPlace":
  [
 {
 "placeName":
 "I., Innere Stadt",
 "ref":
 ""}
 ,  {
 "placeName":
 "XVIII., Währing",
 "ref":
 ""}
 ]
}
}, {
 "type":
 "schnitzler-cmif",
 "subtype":
 "#u02092b4-47df-42e7-a68c-556d17f8d217",
 "color":
 "#654321",
 "caption":
 "Gedruckte Briefwechsel",
 "head":
 "Arthur Schnitzler an Franz Nabl, 22.10.1907",
 "source":
 "Reinhard Urbach: Arthur Schnitzler – Franz Nabl. Briefwechsel. In: Studium Generale, Jg. 24, 1971, S. 1256-1270."
}, {
 "type":
 "schnitzler-cmif",
 "subtype":
 "#ya489e21-54d5-40de-a56d-f4548e894428",
 "color":
 "#654321",
 "caption":
 "Gedruckte Briefwechsel",
 "head":
 "Otto Brahm an Arthur Schnitzler, 22.10.1907",
 "source":
 "Der Briefwechsel Arthur Schnitzler – Otto Brahm. Vollständige Ausgabe. Hg., eingel. und erl. von Oskar Seidlin. Tübingen: Niemeyer, 1975."
}] 