[{
 "type":
 "schnitzler-tagebuch",
 "color":
 "#037a33",
 "filename":
 "entry__1907-06-28",
 "caption":
 "Tagebuch",
 "idno":
 "https://schnitzler-tagebuch.acdh.oeaw.ac.at/entry__1907-06-28.html",
 "head":
 "Tagebuch, 28. Juni 1907",
 "desc":
{"listPerson":
  [
{
 "persName":
 "Friederike Stöhr",
 "ref":
 "person_20447"},
 {
 "persName":
 "Ernst Stöhr",
 "ref":
 "person_20448"}],
 "listPlace":
  [
 {
 "placeName":
 "Lake Bohinj",
 "ref":
 "pmb92091"}
 ]
}
}, {
 "type":
 "schnitzler-briefe",
 "color":
 "#A63437",
 "filename":
 "L01687",
 "caption":
 "Briefe mit Autorinnen und Autoren",
 "idno":
 "https://schnitzler-briefe.acdh.oeaw.ac.at/L01687.html",
 "head":
 "Arthur Schnitzler, Olga Schnitzler an Richard Beer-Hofmann, 28. 6. 1907",
 "desc":
{"listPerson":
  [
{
 "persName":
 "Arthur Schnitzler",
 "ref":
 "pmb2121"},
 {
 "persName":
 "Olga Schnitzler",
 "ref":
 "pmb2173"},
 {
 "persName":
 "Richard Beer-Hofmann",
 "ref":
 "pmb10863"},
 {
 "persName":
 "Richard Beer-Hofmann",
 "ref":
 "pmb10863"},
 {
 "persName":
 "Olga Schnitzler",
 "ref":
 "pmb2173"}],
 "listPlace":
  [
 {
 "placeName":
 "Hasenauerstraße 59",
 "ref":
 "pmb235251"}
 ,  {
 "placeName":
 "Wocheiner See",
 "ref":
 "pmb44456"}
 ,  {
 "placeName":
 "Wien",
 "ref":
 "pmb50"}
 ,  {
 "placeName":
 "St. Johann am Wocheiner See",
 "ref":
 "pmb51794"}
 ,  {
 "placeName":
 "Bled",
 "ref":
 "pmb590"}
 ,  {
 "placeName":
 "XVIII., Währing",
 "ref":
 "pmb68"}
 ]
}
}, {
 "type":
 "wienerschnitzler",
 "color":
 "#6F5106",
 "caption":
 "Wiener Schnitzler",
 "idno":
 "https://wienerschnitzler.org/tag.html#1907-06-28",
 "head":
 "Klagenfurt",
 "desc":
{"listPlace":
  [
 {
 "placeName":
 "Hotel Kaiser von Österreich",
 "ref":
 ""}
 ]
}
}, {
 "type":
 "wienerschnitzler",
 "color":
 "#6F5106",
 "caption":
 "Wiener Schnitzler",
 "idno":
 "https://wienerschnitzler.org/tag.html#1907-06-28",
 "head":
 "Wocheiner See"
}, {
 "type":
 "wienerschnitzler",
 "color":
 "#6F5106",
 "caption":
 "Wiener Schnitzler",
 "idno":
 "https://wienerschnitzler.org/tag.html#1907-06-28",
 "head":
 "Ribčev Laz",
 "desc":
{"listPlace":
  [
 {
 "placeName":
 "Die Wochein",
 "ref":
 ""}
 ]
}
}] 