[{
 "type":
 "schnitzler-tagebuch",
 "color":
 "#037a33",
 "filename":
 "entry__1907-07-11",
 "caption":
 "Tagebuch",
 "idno":
 "https://schnitzler-tagebuch.acdh.oeaw.ac.at/entry__1907-07-11.html",
 "head":
 "Tagebuch, 11. Juli 1907",
 "desc":
{"listPerson":
  [
{
 "persName":
 "Maurice Maeterlinck",
 "ref":
 "person_17779"}],
 "listBibl":
  [
 {
 "title":
 "Der Weg ins Freie. Roman",
 "ref":
 "pmb29923"}
 ,  {
 "title":
 "Das Leben der Bienen",
 "ref":
 "pmb76828"}
 ],
 "listPlace":
  [
 {
 "placeName":
 "Welsberg-Taisten",
 "ref":
 "pmb428"}
 ]
}
}, {
 "type":
 "schnitzler-briefe",
 "color":
 "#A63437",
 "filename":
 "L01689",
 "caption":
 "Briefe mit Autorinnen und Autoren",
 "idno":
 "https://schnitzler-briefe.acdh.oeaw.ac.at/L01689.html",
 "head":
 "Arthur Schnitzler an Richard Beer-Hofmann, 11. 7. 1907",
 "desc":
{"listPerson":
  [
{
 "persName":
 "Richard Beer-Hofmann",
 "ref":
 "pmb10863"},
 {
 "persName":
 "Heinrich Schnitzler",
 "ref":
 "pmb12692"}],
 "listPlace":
  [
 {
 "placeName":
 "Welsberg-Taisten",
 "ref":
 "pmb428"}
 ,  {
 "placeName":
 "Maria Schutz",
 "ref":
 "pmb45277"}
 ,  {
 "placeName":
 "Semmering",
 "ref":
 "pmb189"}
 ,  {
 "placeName":
 "Schloss Welsperg",
 "ref":
 "pmb1100"}
 ,  {
 "placeName":
 "Wildbad Waldbrunn",
 "ref":
 "pmb723"}
 ]
}
}, {
 "type":
 "schnitzler-briefe",
 "color":
 "#A63437",
 "filename":
 "L01690",
 "caption":
 "Briefe mit Autorinnen und Autoren",
 "idno":
 "https://schnitzler-briefe.acdh.oeaw.ac.at/L01690.html",
 "head":
 "Hugo von Hofmannsthal an Arthur Schnitzler, 11. 7. 1907",
 "desc":
{"listPerson":
  [
{
 "persName":
 "Hugo von Hofmannsthal",
 "ref":
 "pmb11740"}],
 "listBibl":
  [
 {
 "title":
 "Silvia im »Stern«",
 "ref":
 "pmb43478"}
 ],
 "listPlace":
  [
 {
 "placeName":
 "Cortina d'Ampezzo",
 "ref":
 "pmb34199"}
 ,  {
 "placeName":
 "Welsberg-Taisten",
 "ref":
 "pmb428"}
 ,  {
 "placeName":
 "Wildbad Waldbrunn",
 "ref":
 "pmb723"}
 ,  {
 "placeName":
 "Pustertal",
 "ref":
 "pmb724"}
 ]
}
}, {
 "type":
 "schnitzler-orte",
 "color":
 "#045344",
 "filename":
 "entity/428/",
 "caption":
 "Aufenthaltsorte",
 "idno":
 "https://pmb.acdh.oeaw.ac.at/entity/428/",
 "head":
 "Welsberg-Taisten"
}, {
 "type":
 "schnitzler-orte",
 "color":
 "#045344",
 "filename":
 "entity/723/",
 "caption":
 "Aufenthaltsorte",
 "idno":
 "https://pmb.acdh.oeaw.ac.at/entity/723/",
 "head":
 "Wildbad Waldbrunn"
}, {
 "type":
 "schnitzler-orte",
 "color":
 "#045344",
 "filename":
 "entity/723/",
 "caption":
 "Aufenthaltsorte",
 "idno":
 "https://pmb.acdh.oeaw.ac.at/entity/723/",
 "head":
 "Wildbad Waldbrunn"
}] 