[{
 "type":
 "schnitzler-tagebuch",
 "color":
 "#037a33",
 "filename":
 "entry__1908-04-21",
 "caption":
 "Tagebuch",
 "idno":
 "https://schnitzler-tagebuch.acdh.oeaw.ac.at/entry__1908-04-21.html",
 "head":
 "Tagebuch, 21. April 1908",
 "desc":
{"listPerson":
  [
{
 "persName":
 "Jacques Eisenstein",
 "ref":
 "person_14690"},
 {
 "persName":
 "Richard Fellner",
 "ref":
 "person_14939"},
 {
 "persName":
 "Moriz Neumann",
 "ref":
 "person_18420"},
 {
 "persName":
 "August Schenker-Angerer",
 "ref":
 "person_19648"},
 {
 "persName":
 "Julius Herzka",
 "ref":
 "person_16159"}],
 "listBibl":
  [
 {
 "title":
 "Gedichte",
 "ref":
 "pmb76533"}
 ,  {
 "title":
 "Komödie der Verführung. In drei Akten",
 "ref":
 "pmb30205"}
 ,  {
 "title":
 "Komtesse Mizzi oder Der Familientag",
 "ref":
 "pmb29931"}
 ],
 "listPlace":
  [
 {
 "placeName":
 "Deutsches Volkstheater",
 "ref":
 "pmb92202"}
 ]
}
}, {
 "type":
 "schnitzler-briefe",
 "color":
 "#A63437",
 "filename":
 "L03496",
 "caption":
 "Briefe mit Autorinnen und Autoren",
 "idno":
 "https://schnitzler-briefe.acdh.oeaw.ac.at/L03496.html",
 "head":
 "Felix Salten an Arthur Schnitzler, [zwischen 19. und 21. 4. 1908]",
 "desc":
{"listPerson":
  [
{
 "persName":
 "Reinhard Ernst Petermann",
 "ref":
 "pmb101307"},
 {
 "persName":
 "Felix Salten",
 "ref":
 "pmb2167"},
 {
 "persName":
 "Ottilie Salten",
 "ref":
 "pmb23918"}],
 "listBibl":
  [
 {
 "title":
 "Führer durch Dalmatien",
 "ref":
 "pmb164584"}
 ,  {
 "title":
 "Unsichere Reise",
 "ref":
 "pmb169784"}
 ,  {
 "title":
 "Komtesse Mizzi oder: Der Familientag",
 "ref":
 "pmb29931"}
 ,  {
 "title":
 "Der Tod des Junggesellen. Novelle",
 "ref":
 "pmb33758"}
 ,  {
 "title":
 "Die Zeit",
 "ref":
 "pmb35935"}
 ,  {
 "title":
 "Die Zeit. Wiener Wochenschrift",
 "ref":
 "pmb36340"}
 ,  {
 "title":
 "Neue Freie Presse",
 "ref":
 "pmb36374"}
 ,  {
 "title":
 "Österreichische Rundschau",
 "ref":
 "pmb41555"}
 ],
 "listPlace":
  [
 {
 "placeName":
 "Dalmatien",
 "ref":
 "pmb265"}
 ,  {
 "placeName":
 "Venedig",
 "ref":
 "pmb462"}
 ,  {
 "placeName":
 "Wien",
 "ref":
 "pmb50"}
 ,  {
 "placeName":
 "Pula",
 "ref":
 "pmb851"}
 ,  {
 "placeName":
 "Triest",
 "ref":
 "pmb873"}
 ]
}
}, {
 "type":
 "wienerschnitzler",
 "color":
 "#6F5106",
 "caption":
 "Wiener Schnitzler",
 "idno":
 "https://wienerschnitzler.org/tag.html#1908-04-21",
 "head":
 "Wien",
 "desc":
{"listPlace":
  [
 {
 "placeName":
 "I., Innere Stadt",
 "ref":
 ""}
 ,  {
 "placeName":
 "IX., Alsergrund",
 "ref":
 ""}
 ,  {
 "placeName":
 "XVIII., Währing",
 "ref":
 ""}
 ]
}
}] 