[{
 "type":
 "schnitzler-tagebuch",
 "color":
 "#037a33",
 "filename":
 "entry__1908-11-17",
 "caption":
 "Tagebuch",
 "idno":
 "https://schnitzler-tagebuch.acdh.oeaw.ac.at/entry__1908-11-17.html",
 "head":
 "Tagebuch, 17. November 1908",
 "desc":
{"listPerson":
  [
{
 "persName":
 "Richard Beer-Hofmann",
 "ref":
 "person_13551"},
 {
 "persName":
 "Theodor Entsch",
 "ref":
 "person_14766"},
 {
 "persName":
 "Siegfried Jacobsohn",
 "ref":
 "person_16477"},
 {
 "persName":
 "Jacob Pollak",
 "ref":
 "person_18884"},
 {
 "persName":
 "Erich Reiss",
 "ref":
 "person_19167"},
 {
 "persName":
 "Felix Salten",
 "ref":
 "person_19542"},
 {
 "persName":
 "Adolf Sliwinski",
 "ref":
 "person_20167"},
 {
 "persName":
 "Oscar Straus",
 "ref":
 "person_20490"}],
 "listBibl":
  [
 {
 "title":
 "Der tapfere Kassian. Singspiel",
 "ref":
 "pmb46124"}
 ,  {
 "title":
 "Liebelei. Schauspiel in drei Akten",
 "ref":
 "pmb29917"}
 ]
}
}, {
 "type":
 "schnitzler-briefe",
 "color":
 "#A63437",
 "filename":
 "L01804",
 "caption":
 "Briefe mit Autorinnen und Autoren",
 "idno":
 "https://schnitzler-briefe.acdh.oeaw.ac.at/L01804.html",
 "head":
 "Hermann Bahr an Arthur Schnitzler, [17.–21. 11.] 1908",
 "desc":
{"listPerson":
  [
{
 "persName":
 "Hermann Bahr",
 "ref":
 "pmb10815"}],
 "listBibl":
  [
 {
 "title":
 "Die Rahl. Roman",
 "ref":
 "pmb30619"}
 ],
 "listOrg":
  [
 {
 "orgName":
 "S. Fischer Verlag",
 "ref":
 "pmb29639"}
 ],
 "listPlace":
  [
 {
 "placeName":
 "Wien",
 "ref":
 "pmb50"}
 ,  {
 "placeName":
 "Berlin",
 "ref":
 "pmb168"}
 ]
}
}, {
 "type":
 "schnitzler-briefe",
 "color":
 "#A63437",
 "filename":
 "L01806",
 "caption":
 "Briefe mit Autorinnen und Autoren",
 "idno":
 "https://schnitzler-briefe.acdh.oeaw.ac.at/L01806.html",
 "head":
 "Arthur Schnitzler an Richard Beer-Hofmann, [17.? 11. 1908]",
 "desc":
{"listPerson":
  [
{
 "persName":
 "Richard Beer-Hofmann",
 "ref":
 "pmb10863"},
 {
 "persName":
 "Leopold Oser",
 "ref":
 "pmb41647"},
 {
 "persName":
 "Edmund von Gutmann-Gelse",
 "ref":
 "pmb17588"}],
 "listBibl":
  [
 {
 "title":
 "Tantris der Narr. Drama in fünf Aufzügen",
 "ref":
 "pmb30741"}
 ],
 "listPlace":
  [
 {
 "placeName":
 "Wien",
 "ref":
 "pmb50"}
 ,  {
 "placeName":
 "Edmund-Weiß-Gasse",
 "ref":
 "pmb133"}
 ,  {
 "placeName":
 "XVIII., Währing",
 "ref":
 "pmb68"}
 ,  {
 "placeName":
 "Hasenauerstraße",
 "ref":
 "pmb383"}
 ]
}
}, {
 "type":
 "wienerschnitzler",
 "color":
 "#ECDA98",
 "caption":
 "Wiener Schnitzler",
 "idno":
 "https://wienerschnitzler.org/tag.html#1908-11-17",
 "head":
 "Wien",
 "desc":
{"listPlace":
  [
 {
 "placeName":
 "I., Innere Stadt",
 "ref":
 ""}
 ,  {
 "placeName":
 "XVIII., Währing",
 "ref":
 ""}
 ]
}
}, {
 "type":
 "schnitzler-bahr",
 "color":
 "#639FF9",
 "filename":
 "L041578",
 "caption":
 "Schnitzler/Bahr",
 "idno":
 "https://schnitzler-bahr.acdh.oeaw.ac.at/L041578.html",
 "head":
 "Bahr: Widmungsexemplar Die Rahl, [17.–21. 11.] 1908",
 "desc":
{"listPerson":
  [
{
 "persName":
 "Hermann Bahr",
 "ref":
 "pmb10815"}],
 "listBibl":
  [
 {
 "title":
 "Die Rahl. Roman",
 "ref":
 "pmb30619"}
 ],
 "listPlace":
  [
 {
 "placeName":
 "Wien",
 "ref":
 "pmb50"}
 ,  {
 "placeName":
 "Berlin",
 "ref":
 "pmb168"}
 ],
 "listOrg":
  [
 {
 "orgName":
 "S. Fischer Verlag",
 "ref":
 "pmb29639"}
 ]
}
}] 