[{
 "type":
 "schnitzler-tagebuch",
 "color":
 "#037a33",
 "filename":
 "entry__1908-06-21",
 "caption":
 "Tagebuch",
 "idno":
 "https://schnitzler-tagebuch.acdh.oeaw.ac.at/entry__1908-06-21.html",
 "head":
 "Tagebuch, 21. Juni 1908",
 "desc":
{"listPlace":
  [
 {
 "placeName":
 "Obertressen",
 "ref":
 "pmb36473"}
 ,  {
 "placeName":
 "Altaussee",
 "ref":
 "pmb90229"}
 ,  {
 "placeName":
 "Lauffen",
 "ref":
 "pmb35658"}
 ,  {
 "placeName":
 "Bad Ischl",
 "ref":
 "pmb213"}
 ]
}
}, {
 "type":
 "wienerschnitzler",
 "color":
 "#6F5106",
 "caption":
 "Wiener Schnitzler",
 "idno":
 "https://wienerschnitzler.org/tag.html#1908-06-21",
 "head":
 "Bad Aussee",
 "desc":
{"listPlace":
  [
 {
 "placeName":
 "Hackinger’s Hotel zum Kaiser von Österreich",
 "ref":
 ""}
 ,  {
 "placeName":
 "Obertressen",
 "ref":
 ""}
 ]
}
}, {
 "type":
 "wienerschnitzler",
 "color":
 "#6F5106",
 "caption":
 "Wiener Schnitzler",
 "idno":
 "https://wienerschnitzler.org/tag.html#1908-06-21",
 "head":
 "Altaussee",
 "desc":
{"listPlace":
  [
 {
 "placeName":
 "Kuppers Hotel Panorama",
 "ref":
 ""}
 ]
}
}, {
 "type":
 "wienerschnitzler",
 "color":
 "#6F5106",
 "caption":
 "Wiener Schnitzler",
 "idno":
 "https://wienerschnitzler.org/tag.html#1908-06-21",
 "head":
 "Bad Ischl",
 "desc":
{"listPlace":
  [
 {
 "placeName":
 "Hotel zum goldenen Kreuz [Bad Ischl]",
 "ref":
 ""}
 ,  {
 "placeName":
 "Lauffen",
 "ref":
 ""}
 ]
}
}] 