[{
 "type":
 "schnitzler-tagebuch",
 "color":
 "#037a33",
 "filename":
 "entry__1908-05-13",
 "caption":
 "Tagebuch",
 "idno":
 "https://schnitzler-tagebuch.acdh.oeaw.ac.at/entry__1908-05-13.html",
 "head":
 "Tagebuch, 13. Mai 1908",
 "desc":
{"listPerson":
  [
{
 "persName":
 "Paul Brann",
 "ref":
 "person_13925"},
 {
 "persName":
 "Karl Lanckoroński",
 "ref":
 "person_17266"},
 {
 "persName":
 "Ludwig Wahrmund",
 "ref":
 "person_21045"}],
 "listPlace":
  [
 {
 "placeName":
 "Englischer Garten",
 "ref":
 "pmb90589"}
 ]
}
}, {
 "type":
 "wienerschnitzler",
 "color":
 "#ECDA98",
 "caption":
 "Wiener Schnitzler",
 "idno":
 "https://wienerschnitzler.org/tag.html#1908-05-13",
 "head":
 "München",
 "desc":
{"listPlace":
  [
 {
 "placeName":
 "Hotel Vier Jahreszeiten",
 "ref":
 ""}
 ,  {
 "placeName":
 "Künstlerhaus am Lenbachplatz",
 "ref":
 ""}
 ,  {
 "placeName":
 "Kinematograph-Theater",
 "ref":
 ""}
 ,  {
 "placeName":
 "Englischer Garten [München]",
 "ref":
 ""}
 ,  {
 "placeName":
 "Warenhaus Tietz",
 "ref":
 ""}
 ]
}
}, {
 "type":
 "schnitzler-kultur",
 "color":
 "#6B4C5A",
 "filename":
 "pmb297399",
 "caption":
 "Kulturveranstaltungen",
 "idno":
 "https://schnitzler-kultur.acdh.oeaw.ac.at/pmb297399.html",
 "head":
 "Besuch des Künstlerhauses am Lenbachplatz,
                        13.5.1908",
 "desc":
{"listPerson":
  [
{
 "persName":
 "Arthur Schnitzler",
 "ref":
 ""}],
 "listPlace":
  [
 {
 "placeName":
 "Künstlerhaus am Lenbachplatz",
 "ref":
 ""}
 ]
}
}, {
 "type":
 "schnitzler-kultur",
 "color":
 "#6B4C5A",
 "filename":
 "pmb210456",
 "caption":
 "Kulturveranstaltungen",
 "idno":
 "https://schnitzler-kultur.acdh.oeaw.ac.at/pmb210456.html",
 "head":
 "Filmvorführung, 13.5.1908",
 "desc":
{"listPerson":
  [
{
 "persName":
 "Arthur Schnitzler",
 "ref":
 ""}],
 "listPlace":
  [
 {
 "placeName":
 "München",
 "ref":
 ""}
 ]
}
}, {
 "type":
 "schnitzler-kino-buch",
 "subtype":
 "#ISBN978-3205787464",
 "color":
 "#B43C9C",
 "caption":
 "Kino",
 "head":
 "Schnitzler geht ins Kino in München, 13. Mai 1908",
 "source":
 "»A. ist manchmal wie ein kleines Kind«. Clara Katharina Pollaczek und Arthur Schnitzler gehen ins Kino. Herausgegeben von Stephan Kurz und Michael Rohrwasser unter Mitarbeit von Daniel Schopper. Wien, Köln, Weimar: Böhlau Verlag 2012."
}, {
 "type":
 "kalliope-verbund",
 "color":
 "#003574",
 "caption":
 "Kalliope Verbundkatalog",
 "idno":
 "http://kalliope-verbund.info/DE-2498-HS00051524",
 "head":
 "Fleischer, Arthur an Schnitzler, Olga [Briefe]",
 "text":
 "2 Bl.",
 "desc":
{"listPerson":
  [
{
 "persName":
 "Olga (1882-1970) Schnitzler",
 "ref":
 "http://d-nb.info/gnd/116848723"}]
}
}] 