[{
 "type":
 "schnitzler-tagebuch",
 "color":
 "#037a33",
 "filename":
 "entry__1908-06-07",
 "caption":
 "Tagebuch",
 "idno":
 "https://schnitzler-tagebuch.acdh.oeaw.ac.at/entry__1908-06-07.html",
 "head":
 "Tagebuch, 7. Juni 1908",
 "desc":
{"listPerson":
  [
{
 "persName":
 "Bodansky",
 "ref":
 "person_13817"},
 {
 "persName":
 "Isidor Samuely",
 "ref":
 "person_19559"},
 {
 "persName":
 "Schön",
 "ref":
 "person_19837"}],
 "listBibl":
  [
 {
 "title":
 "Die Hirtenflöte. Novelle",
 "ref":
 "pmb30213"}
 ]
}
}, {
 "type":
 "schnitzler-briefe",
 "color":
 "#A63437",
 "filename":
 "L01774",
 "caption":
 "Briefe mit Autorinnen und Autoren",
 "idno":
 "https://schnitzler-briefe.acdh.oeaw.ac.at/L01774.html",
 "head":
 "Max Burckhard an Arthur Schnitzler, 7. 6. 1908",
 "desc":
{"listPerson":
  [
{
 "persName":
 "Max Eugen Burckhard",
 "ref":
 "pmb11036"},
 {
 "persName":
 "Olga Schnitzler",
 "ref":
 "pmb2173"}],
 "listBibl":
  [
 {
 "title":
 "Der Weg ins Freie. Roman",
 "ref":
 "pmb29923"}
 ,  {
 "title":
 "Die neue Rundschau",
 "ref":
 "pmb36156"}
 ],
 "listPlace":
  [
 {
 "placeName":
 "St. Gilgen",
 "ref":
 "pmb33"}
 ,  {
 "placeName":
 "Wien",
 "ref":
 "pmb50"}
 ,  {
 "placeName":
 "Porzellangasse",
 "ref":
 "pmb436"}
 ]
}
}, {
 "type":
 "schnitzler-orte",
 "color":
 "#045344",
 "filename":
 "entity/50/",
 "caption":
 "Aufenthaltsorte",
 "idno":
 "https://pmb.acdh.oeaw.ac.at/entity/50/",
 "text":
 "Wien"
}, {
 "type":
 "schnitzler-bahr",
 "color":
 "#639FF9",
 "filename":
 "T030039",
 "caption":
 "Schnitzler/Bahr",
 "idno":
 "https://schnitzler-bahr.acdh.oeaw.ac.at/T030039.html",
 "head":
 "Bahr: [Notizen zu Der Weg ins Freie], 7.–[12.] 6. 1908",
 "desc":
{"listPerson":
  [
{
 "persName":
 "Hermann Bahr",
 "ref":
 "pmb10815"},
 {
 "persName":
 "Franz Karl Weidlich",
 "ref":
 "pmb27680"}],
 "listBibl":
  [
 {
 "title":
 "Samson und Dalila",
 "ref":
 "pmb31211"}
 ,  {
 "title":
 "Der Weg ins Freie. Roman",
 "ref":
 "pmb29923"}
 ],
 "listPlace":
  [
 {
 "placeName":
 "Hofburg",
 "ref":
 "pmb320"}
 ,  {
 "placeName":
 "Wien",
 "ref":
 "pmb50"}
 ,  {
 "placeName":
 "XVI., Ottakring",
 "ref":
 "pmb66"}
 ,  {
 "placeName":
 "Polen",
 "ref":
 "pmb313"}
 ,  {
 "placeName":
 "Rumänien",
 "ref":
 "pmb378"}
 ,  {
 "placeName":
 "Italien",
 "ref":
 "pmb40306"}
 ]
}
}] 