[{
 "type":
 "schnitzler-tagebuch",
 "color":
 "#037a33",
 "filename":
 "entry__1908-04-25",
 "caption":
 "Tagebuch",
 "idno":
 "https://schnitzler-tagebuch.acdh.oeaw.ac.at/entry__1908-04-25.html",
 "head":
 "Tagebuch, 25. April 1908",
 "desc":
{"listPerson":
  [
{
 "persName":
 "Ferdinand Kürnberger",
 "ref":
 "person_17169"}],
 "listBibl":
  [
 {
 "title":
 "Ferdinand Kürnbergers Briefe an eine Freundin (1859-1879)",
 "ref":
 "pmb78122"}
 ],
 "listPlace":
  [
 {
 "placeName":
 "Dolomites",
 "ref":
 "pmb90533"}
 ]
}
}, {
 "type":
 "schnitzler-briefe",
 "color":
 "#A63437",
 "filename":
 "L03495",
 "caption":
 "Briefe mit Autorinnen und Autoren",
 "idno":
 "https://schnitzler-briefe.acdh.oeaw.ac.at/L03495.html",
 "head":
 "Felix Salten an Arthur Schnitzler, 25. 4. 1908",
 "desc":
{"listPerson":
  [
{
 "persName":
 "Felix Salten",
 "ref":
 "pmb2167"},
 {
 "persName":
 "Arthur Schnitzler",
 "ref":
 "pmb2121"},
 {
 "persName":
 "Felix Salten",
 "ref":
 "pmb2167"},
 {
 "persName":
 "Raffaello Sanzio da Urbino",
 "ref":
 "pmb3527"},
 {
 "persName":
 "Heinrich Kanner",
 "ref":
 "pmb11867"},
 {
 "persName":
 "Isidor Singer",
 "ref":
 "pmb12790"}],
 "listBibl":
  [
 {
 "title":
 "Die Verzückung der Heiligen Cäcilia",
 "ref":
 "pmb147773"}
 ,  {
 "title":
 "Der Schleier der Beatrice. Schauspiel in fünf Akten",
 "ref":
 "pmb29857"}
 ,  {
 "title":
 "Unsichere Reise",
 "ref":
 "pmb169784"}
 ,  {
 "title":
 "Die Zeit",
 "ref":
 "pmb35935"}
 ],
 "listPlace":
  [
 {
 "placeName":
 "Bologna",
 "ref":
 "pmb896"}
 ,  {
 "placeName":
 "Wien",
 "ref":
 "pmb50"}
 ,  {
 "placeName":
 "Österreich",
 "ref":
 "pmb41240"}
 ,  {
 "placeName":
 "Edmund-Weiß-Gasse 7",
 "ref":
 "pmb168940"}
 ,  {
 "placeName":
 "Pinacoteca Nazionale di Bologna",
 "ref":
 "pmb147771"}
 ,  {
 "placeName":
 "Florenz",
 "ref":
 "pmb263"}
 ,  {
 "placeName":
 "Ravenna",
 "ref":
 "pmb44290"}
 ,  {
 "placeName":
 "Rimini",
 "ref":
 "pmb44523"}
 ]
}
}, {
 "type":
 "wienerschnitzler",
 "color":
 "#6F5106",
 "caption":
 "Wiener Schnitzler",
 "idno":
 "https://wienerschnitzler.org/tag.html#1908-04-25",
 "head":
 "Wien",
 "desc":
{"listPlace":
  [
 {
 "placeName":
 "I., Innere Stadt",
 "ref":
 ""}
 ,  {
 "placeName":
 "XVIII., Währing",
 "ref":
 ""}
 ]
}
}, {
 "type":
 "URL",
 "subtype":
 "schnitzler-kultur",
 "filename":
 "pmb297777",
 "idno":
 "https://schnitzler-kultur.acdh.oeaw.ac.at/pmb297777.html",
 "head":
 "Besuch des Kaiserpanoramas [Wien, Schubertring 4], 25.4.1908",
 "desc":
{"listPerson":
  [
{
 "persName":
 "Arthur Schnitzler",
 "ref":
 ""}],
 "listPlace":
  [
 {
 "placeName":
 "Kaiserpanorama [Wien, Schubertring 4]",
 "ref":
 ""}
 ]
}
}, {
 "type":
 "kalliope-verbund",
 "color":
 "#003574",
 "caption":
 "Kalliope Verbundkatalog",
 "idno":
 "http://kalliope-verbund.info/DE-2498-HS00046454",
 "head":
 "Schnitzler, Arthur an Holzer, Marie [Briefe]",
 "text":
 "1 Bl.Durchschl.",
 "desc":
{"listPerson":
  [
{
 "persName":
 "Marie (1874-1924) Holzer",
 "ref":
 "http://d-nb.info/gnd/1027728154"}]
}
}] 