[{
 "type":
 "schnitzler-tagebuch",
 "color":
 "#037a33",
 "filename":
 "entry__1908-07-05",
 "caption":
 "Tagebuch",
 "idno":
 "https://schnitzler-tagebuch.acdh.oeaw.ac.at/entry__1908-07-05.html",
 "head":
 "Tagebuch, 5. Juli 1908",
 "desc":
{"listPerson":
  [
{
 "persName":
 "Martin Beck",
 "ref":
 "person_13511"},
 {
 "persName":
 "Grace Palotta",
 "ref":
 "person_18649"},
 {
 "persName":
 "Zinaida A. Vengerova",
 "ref":
 "person_21232"}],
 "listBibl":
  [
 {
 "title":
 "Die Hirtenflöte. Novelle",
 "ref":
 "pmb30213"}
 ,  {
 "title":
 "Liebelei. Schauspiel in drei Akten",
 "ref":
 "pmb29917"}
 ,  {
 "title":
 "Der Weg ins Freie. Roman",
 "ref":
 "pmb29923"}
 ],
 "listPlace":
  [
 {
 "placeName":
 "San Francisco",
 "ref":
 "pmb38216"}
 ]
}
}, {
 "type":
 "schnitzler-briefe",
 "color":
 "#A63437",
 "filename":
 "L03800",
 "caption":
 "Briefe mit Autorinnen und Autoren",
 "idno":
 "https://schnitzler-briefe.acdh.oeaw.ac.at/L03800.html",
 "head":
 "Arthur Schnitzler an Stefan Zweig, 5. 7. 1908",
 "desc":
{"listPerson":
  [
{
 "persName":
 "Arthur Schnitzler",
 "ref":
 "pmb2121"},
 {
 "persName":
 "Stefan Zweig",
 "ref":
 "pmb13212"},
 {
 "persName":
 "Stefan Zweig",
 "ref":
 "pmb13212"},
 {
 "persName":
 "Franz August Carl Maria Reisch",
 "ref":
 "pmb27687"},
 {
 "persName":
 "Honoré de Balzac",
 "ref":
 "pmb10825"},
 {
 "persName":
 "Lothar Brieger",
 "ref":
 "pmb257804"}],
 "listBibl":
  [
 {
 "title":
 "Balzac. Sein Weltbild aus den Werken",
 "ref":
 "pmb296135"}
 ,  {
 "title":
 "Aus der Gedankenwelt großer Geister. Eine Sammlung von Auswahlbänden",
 "ref":
 "pmb296138"}
 ,  {
 "title":
 "Tirol: Seis am Schlern",
 "ref":
 "pmb296908"}
 ],
 "listPlace":
  [
 {
 "placeName":
 "Seis am Schlern",
 "ref":
 "pmb988"}
 ,  {
 "placeName":
 "Wien",
 "ref":
 "pmb50"}
 ,  {
 "placeName":
 "VIII., Josefstadt",
 "ref":
 "pmb58"}
 ,  {
 "placeName":
 "Kochgasse 8",
 "ref":
 "pmb249577"}
 ,  {
 "placeName":
 "Punta Santner",
 "ref":
 "pmb296521"}
 ,  {
 "placeName":
 "Burgstall",
 "ref":
 "pmb296523"}
 ,  {
 "placeName":
 "Piccolo Sciliar",
 "ref":
 "pmb296525"}
 ,  {
 "placeName":
 "Südtirol",
 "ref":
 "pmb969"}
 ,  {
 "placeName":
 "Meran",
 "ref":
 "pmb43520"}
 ],
 "listOrg":
  [
 {
 "orgName":
 "Robert Lutz",
 "ref":
 "pmb143489"}
 ]
}
}, {
 "type":
 "schnitzler-briefe",
 "color":
 "#A63437",
 "filename":
 "L03497",
 "caption":
 "Briefe mit Autorinnen und Autoren",
 "idno":
 "https://schnitzler-briefe.acdh.oeaw.ac.at/L03497.html",
 "head":
 "Felix Salten an Arthur Schnitzler, 5. 7. 1908",
 "desc":
{"listPerson":
  [
{
 "persName":
 "Felix Salten",
 "ref":
 "pmb2167"},
 {
 "persName":
 "Arthur Schnitzler",
 "ref":
 "pmb2121"},
 {
 "persName":
 "Felix Salten",
 "ref":
 "pmb2167"},
 {
 "persName":
 "Olga Schnitzler",
 "ref":
 "pmb2173"},
 {
 "persName":
 "Michael Emil Salzmann",
 "ref":
 "pmb45493"},
 {
 "persName":
 "Ottilie Salten",
 "ref":
 "pmb23918"},
 {
 "persName":
 "Marie Salzmann",
 "ref":
 "pmb142895"}],
 "listPlace":
  [
 {
 "placeName":
 "Wien",
 "ref":
 "pmb50"}
 ,  {
 "placeName":
 "Noordwijk",
 "ref":
 "pmb960"}
 ,  {
 "placeName":
 "Franzensbad",
 "ref":
 "pmb390"}
 ,  {
 "placeName":
 "Bayreuth",
 "ref":
 "pmb734"}
 ,  {
 "placeName":
 "Salzkammergut",
 "ref":
 "pmb429"}
 ]
}
}, {
 "type":
 "wienerschnitzler",
 "color":
 "#6F5106",
 "caption":
 "Wiener Schnitzler",
 "idno":
 "https://wienerschnitzler.org/tag.html#1908-07-05",
 "head":
 "Seis am Schlern",
 "desc":
{"listPlace":
  [
 {
 "placeName":
 "Villa Heufler",
 "ref":
 ""}
 ,  {
 "placeName":
 "Laranzer Wald",
 "ref":
 ""}
 ]
}
}, {
 "type":
 "schnitzler-mikrofilme-daten",
 "color":
 "#6e7b8b",
 "filename":
 "1428199_0033",
 "caption":
 "Mikroverfilmung des Nachlasses",
 "idno":
 "https://schnitzler-mikrofilme.acdh.oeaw.ac.at/1428199_0033.html",
 "head":
 "Mappe A96",
 "text":
 "Datumsangabe auf Blatt von Das weite Land: »Mauer: Ich glaube, seit ich ein Kind war.«"
}, {
 "type":
 "kalliope-verbund",
 "color":
 "#003574",
 "caption":
 "Kalliope Verbundkatalog",
 "idno":
 "http://kalliope-verbund.info/DE-2498-HS00082668",
 "head":
 "Schnitzler, Arthur: Das weite Land [Dramatisches] (Drucktitel)",
 "text":
 "Letztes Objekt aus der Mappe. 14 Bl."
}] 