[{
 "type":
 "schnitzler-tagebuch",
 "color":
 "#037a33",
 "filename":
 "entry__1908-10-07",
 "caption":
 "Tagebuch",
 "idno":
 "https://schnitzler-tagebuch.acdh.oeaw.ac.at/entry__1908-10-07.html",
 "head":
 "Tagebuch, 7. Oktober 1908",
 "desc":
{"listPerson":
  [
{
 "persName":
 "Josef Basevi",
 "ref":
 "person_13454"},
 {
 "persName":
 "Max Eugen Burckhard",
 "ref":
 "person_14065"},
 {
 "persName":
 "Elisabeth Steinrück",
 "ref":
 "person_20386"},
 {
 "persName":
 "Olga Waissnix",
 "ref":
 "person_21047"},
 {
 "persName":
 "Albert Steinrück",
 "ref":
 "person_20383"}],
 "listPlace":
  [
 {
 "placeName":
 "Höllental",
 "ref":
 "pmb90901"}
 ,  {
 "placeName":
 "Edlach",
 "ref":
 "pmb470"}
 ,  {
 "placeName":
 "Wien",
 "ref":
 "pmb50"}
 ]
}
}, {
 "type":
 "URL",
 "subtype":
 "wienerschnitzler",
 "head":
 "Edlach",
 "desc":
{"listPlace":
  [
 {
 "placeName":
 "Hotel Edlacherhof",
 "ref":
 ""}
 ]
}
}, {
 "type":
 "URL",
 "subtype":
 "wienerschnitzler",
 "head":
 "Höllental"
}, {
 "type":
 "URL",
 "subtype":
 "wienerschnitzler",
 "head":
 "Wien",
 "desc":
{"listPlace":
  [
 {
 "placeName":
 "X., Favoriten",
 "ref":
 ""}
 ,  {
 "placeName":
 "XVIII., Währing",
 "ref":
 ""}
 ]
}
}, {
 "type":
 "URL",
 "subtype":
 "wienerschnitzler",
 "head":
 "Nasswald",
 "desc":
{"listPlace":
  [
 {
 "placeName":
 "Binder-Wirtshaus im Reisstal",
 "ref":
 ""}
 ,  {
 "placeName":
 "Eugen Wallner’s Gasthof zum alten Wilderer",
 "ref":
 ""}
 ]
}
}, {
 "type":
 "schnitzler-cmif",
 "subtype":
 "#asbw_4ed2e411-8d76-435f-aea0-faf299e96d86",
 "color":
 "#654321",
 "caption":
 "Gedruckte Briefwechsel",
 "head":
 "Erhalt von Zinaida Vengerova an Arthur Schnitzler, 1. 10. [1908]",
 "source":
 "Die Korrespondenz von Arthur Schnitzler mit Isabella Vengerova und Zinaida Vengerova. Herausgegeben von Konstantin Asadowski und Martin Anton Müller. In: Hofmannsthal-Jahrbuch zur europäischen Moderne, Bd. 30 (2022), S. 7–91."
}] 