[{
 "type":
 "schnitzler-orte",
 "color":
 "#045344",
 "caption":
 "Aufenthaltsorte",
 "idno":
 "https://pmb.acdh.oeaw.ac.at/entity/988/",
 "head":
 "Seis am Schlern"
}{
 "type":
 "schnitzler-orte",
 "color":
 "#045344",
 "caption":
 "Aufenthaltsorte",
 "idno":
 "https://pmb.acdh.oeaw.ac.at/entity/467/",
 "head":
 "Villa Heufler"
}{
 "type":
 "schnitzler-briefe",
 "color":
 "#A63437",
 "caption":
 "Briefe mit Autorinnen und Autoren",
 "idno":
 "https://schnitzler-briefe.acdh.oeaw.ac.at/L01778.html",
 "head":
 "Olga Schnitzler, Arthur Schnitzler an Richard Beer-Hofmann, Paula Beer-Hofmann, 26. 6. 1908",
 "desc":
{"listPerson":
  [
{
 "persName":
 "Olga Schnitzler",
 "ref":
 "pmb2173"},
 {
 "persName":
 "Richard Beer-Hofmann",
 "ref":
 "pmb10863"},
 {
 "persName":
 "Paula Beer-Hofmann",
 "ref":
 "pmb10860"},
 {
 "persName":
 "Franz August Carl Maria Reisch",
 "ref":
 "pmb27687"},
 {
 "persName":
 "Heinrich Schnitzler",
 "ref":
 "pmb12692"},
 {
 "persName":
 "Michael Honeck",
 "ref":
 "pmb18492"},
 {
 "persName":
 "Naëmah Beer-Hofmann",
 "ref":
 "pmb2534"},
 {
 "persName":
 "Mirjam Beer-Hofmann",
 "ref":
 "pmb2668"},
 {
 "persName":
 "Gabriel Beer-Hofmann",
 "ref":
 "pmb13923"}],
 "listBibl":
  [
 {
 "title":
 "Partie in Seis am Schlern",
 "ref":
 "pmb51884"}
 ],
 "listPlace":
  [
 {
 "placeName":
 "Seis am Schlern",
 "ref":
 "pmb988"}
 ,  {
 "placeName":
 "Wien",
 "ref":
 "pmb50"}
 ,  {
 "placeName":
 "XVIII., Währing",
 "ref":
 "pmb68"}
 ,  {
 "placeName":
 "Hasenauerstraße",
 "ref":
 "pmb383"}
 ,  {
 "placeName":
 "Südtirol",
 "ref":
 "pmb969"}
 ,  {
 "placeName":
 "Villa Heufler",
 "ref":
 "pmb467"}
 ,  {
 "placeName":
 "Meran",
 "ref":
 "pmb43520"}
 ,  {
 "placeName":
 "Hotel Salegg",
 "ref":
 "pmb51945"}
 ,  {
 "placeName":
 "Seiserhof",
 "ref":
 "pmb51953"}
 ]
}
}{
 "type":
 "schnitzler-cmif",
 "subtype":
 "#u23454be-b4dd-4bf6-8dc1-c5e2e528c38d",
 "color":
 "#654321",
 "caption":
 "Gedruckte Briefwechsel",
 "head":
 "Max Reinhardt an Arthur Schnitzler, 26.6.1908",
 "desc":
{"listPerson":
  [
{
 "persName":
 "Reinhardt, Max",
 "ref":
 "https://d-nb.info/gnd/118599380"}],
 "bibl":
 "Renate Wagner (Hg.): Der Briefwechsel Arthur Schnitzlers mit Max Reinhardt und dessen Mitarbeitern. Otto Müller Verlag, Salzburg: 1971."
}
}{
 "type":
 "schnitzler-tagebuch",
 "color":
 "#037a33",
 "caption":
 "Tagebuch",
 "idno":
 "https://schnitzler-tagebuch.acdh.oeaw.ac.at/entry__1908-06-26.html",
 "head":
 "Tagebuch, 26. Juni 1908",
 "desc":
{"listPerson":
  [
{
 "persName":
 "Georg Brandes",
 "ref":
 "person_13920"},
 {
 "persName":
 "Ernst von Dohnányi",
 "ref":
 "person_14473"},
 {
 "persName":
 "David Feuchtwang",
 "ref":
 "person_14959"},
 {
 "persName":
 "Auguste Hauschner",
 "ref":
 "person_15984"},
 {
 "persName":
 "Heinrich Schnitzler",
 "ref":
 "person_19822"}],
 "listBibl":
  [
 {
 "title":
 "Das weite Land. Tragikomödie in fünf Akten",
 "ref":
 "pmb30207"}
 ,  {
 "title":
 "Der Schleier der Pierrette",
 "ref":
 "pmb30215"}
 ,  {
 "title":
 "Der Weg ins Freie. Roman",
 "ref":
 "pmb29923"}
 ,  {
 "title":
 "Nju",
 "ref":
 "pmb79941"}
 ],
 "listPlace":
  [
 {
 "placeName":
 "Burg Salegg",
 "ref":
 "pmb41156"}
 ]
}
}] 