[{
 "type":
 "schnitzler-tagebuch",
 "color":
 "#037a33",
 "filename":
 "entry__1908-07-14",
 "caption":
 "Tagebuch",
 "idno":
 "https://schnitzler-tagebuch.acdh.oeaw.ac.at/entry__1908-07-14.html",
 "head":
 "Tagebuch, 14. Juli 1908",
 "desc":
{"listPerson":
  [
{
 "persName":
 "Otto Brahm",
 "ref":
 "person_13913"}],
 "listBibl":
  [
 {
 "title":
 "Die Hirtenflöte. Novelle",
 "ref":
 "pmb30213"}
 ]
}
}, {
 "type":
 "schnitzler-briefe",
 "color":
 "#A63437",
 "filename":
 "L01783",
 "caption":
 "Briefe mit Autorinnen und Autoren",
 "idno":
 "https://schnitzler-briefe.acdh.oeaw.ac.at/L01783.html",
 "head":
 "Max Burckhard an Arthur Schnitzler, 14. 7. 1908",
 "desc":
{"listPerson":
  [
{
 "persName":
 "Max Burckhard",
 "ref":
 "pmb11036"},
 {
 "persName":
 "Arthur Schnitzler",
 "ref":
 "pmb2121"},
 {
 "persName":
 "Max Eugen Burckhard",
 "ref":
 "pmb11036"},
 {
 "persName":
 "Olga Schnitzler",
 "ref":
 "pmb2173"}],
 "listPlace":
  [
 {
 "placeName":
 "Seiser Alm",
 "ref":
 "pmb1216"}
 ,  {
 "placeName":
 "St. Gilgen",
 "ref":
 "pmb33"}
 ,  {
 "placeName":
 "Schlern",
 "ref":
 "pmb39874"}
 ,  {
 "placeName":
 "Porzellangasse",
 "ref":
 "pmb436"}
 ,  {
 "placeName":
 "Südtirol",
 "ref":
 "pmb969"}
 ,  {
 "placeName":
 "Seis am Schlern",
 "ref":
 "pmb988"}
 ]
}
}, {
 "type":
 "schnitzler-briefe",
 "color":
 "#A63437",
 "filename":
 "L03498",
 "caption":
 "Briefe mit Autorinnen und Autoren",
 "idno":
 "https://schnitzler-briefe.acdh.oeaw.ac.at/L03498.html",
 "head":
 "Felix Salten an Arthur Schnitzler, 14. 7. 1908",
 "desc":
{"listPerson":
  [
{
 "persName":
 "Felix Salten",
 "ref":
 "pmb2167"},
 {
 "persName":
 "Arthur Schnitzler",
 "ref":
 "pmb2121"},
 {
 "persName":
 "Felix Salten",
 "ref":
 "pmb2167"}],
 "listPlace":
  [
 {
 "placeName":
 "Noordwijk",
 "ref":
 "pmb960"}
 ,  {
 "placeName":
 "Seis am Schlern",
 "ref":
 "pmb988"}
 ,  {
 "placeName":
 "Österreich",
 "ref":
 "pmb41240"}
 ,  {
 "placeName":
 "Südtirol",
 "ref":
 "pmb969"}
 ,  {
 "placeName":
 "Tirol",
 "ref":
 "pmb423"}
 ]
}
}, {
 "type":
 "wienerschnitzler",
 "color":
 "#6F5106",
 "caption":
 "Wiener Schnitzler",
 "idno":
 "https://wienerschnitzler.org/tag.html#1908-07-14",
 "head":
 "Seis am Schlern",
 "desc":
{"listPlace":
  [
 {
 "placeName":
 "Villa Heufler",
 "ref":
 ""}
 ]
}
}] 