[{
 "type":
 "schnitzler-tagebuch",
 "color":
 "#037a33",
 "filename":
 "entry__1908-09-02",
 "caption":
 "Tagebuch",
 "idno":
 "https://schnitzler-tagebuch.acdh.oeaw.ac.at/entry__1908-09-02.html",
 "head":
 "Tagebuch, 2. September 1908",
 "desc":
{"listPerson":
  [
{
 "persName":
 "Heinrich Schnitzler",
 "ref":
 "person_19822"}],
 "listPlace":
  [
 {
 "placeName":
 "Seis am Schlern",
 "ref":
 "pmb988"}
 ,  {
 "placeName":
 "Waidbruck",
 "ref":
 "pmb92031"}
 ,  {
 "placeName":
 "Bozen",
 "ref":
 "pmb40260"}
 ,  {
 "placeName":
 "Virgl",
 "ref":
 "pmb92584"}
 ]
}
}, {
 "type":
 "wienerschnitzler",
 "color":
 "#ECDA98",
 "caption":
 "Wiener Schnitzler",
 "idno":
 "https://wienerschnitzler.org/tag.html#1908-09-02",
 "head":
 "Seis am Schlern",
 "desc":
{"listPlace":
  [
 {
 "placeName":
 "Villa Heufler",
 "ref":
 ""}
 ]
}
}, {
 "type":
 "wienerschnitzler",
 "color":
 "#ECDA98",
 "caption":
 "Wiener Schnitzler",
 "idno":
 "https://wienerschnitzler.org/tag.html#1908-09-02",
 "head":
 "Bozen",
 "desc":
{"listPlace":
  [
 {
 "placeName":
 "Hotel Stiegl",
 "ref":
 ""}
 ,  {
 "placeName":
 "Virgl",
 "ref":
 ""}
 ,  {
 "placeName":
 "Hotel Bristol Bozen",
 "ref":
 ""}
 ]
}
}, {
 "type":
 "wienerschnitzler",
 "color":
 "#ECDA98",
 "caption":
 "Wiener Schnitzler",
 "idno":
 "https://wienerschnitzler.org/tag.html#1908-09-02",
 "head":
 "Ponte Gardena"
}] 