[{
 "type":
 "schnitzler-orte",
 "idno":
 "https://pmb.acdh.oeaw.ac.at/entity/45258/",
 "head":
 "München"
}, {
 "type":
 "schnitzler-briefe",
 "idno":
 "https://schnitzler-briefe.acdh.oeaw.ac.at/L01770.html",
 "head":
 "Arthur Schnitzler, Olga Schnitzler an Hermann Bahr, 6. 5. 1908",
 "desc":
{"listPerson":
  [
{
 "persName":
 "Olga Schnitzler",
 "ref":
 "pmb2173"},
 {
 "persName":
 "Heinrich Kley",
 "ref":
 "pmb2306"},
 {
 "persName":
 "Hermann Bahr",
 "ref":
 "pmb10815"}],
 "listPlace":
  [
 {
 "placeName":
 "München",
 "ref":
 "pmb45258"}
 ,  {
 "placeName":
 "Wien",
 "ref":
 "pmb50"}
 ,  {
 "placeName":
 "Ober Sankt Veit",
 "ref":
 "pmb165"}
 ,  {
 "placeName":
 "Veitlissengasse",
 "ref":
 "pmb220"}
 ,  {
 "placeName":
 "Hofgarten",
 "ref":
 "pmb466"}
 ]}

}, {
 "type":
 "schnitzler-cmif",
 "subtype":
 "#u23454be-b4dd-4bf6-8dc1-c5e2e528c38d",
 "head":
 "Max Reinhardt an Arthur Schnitzler, 6.5.1908",
 "desc":
{"listPerson":
  [
{
 "persName":
 "Reinhardt, Max",
 "ref":
 "https://d-nb.info/gnd/118599380"}],
 "bibl":
 "Renate Wagner (Hg.): Der Briefwechsel Arthur Schnitzlers mit Max Reinhardt und dessen Mitarbeitern. Otto Müller Verlag, Salzburg: 1971."}

}, {
 "type":
 "schnitzler-tagebuch",
 "idno":
 "https://schnitzler-tagebuch.acdh.oeaw.ac.at/entry__1908-05-06.html",
 "head":
 "Tagebuch, 6. Mai 1908",
 "desc":
{"listPerson":
  [
{
 "persName":
 "Friedrich Freksa",
 "ref":
 "person_15167"},
 {
 "persName":
 "Max Bernstein",
 "ref":
 "person_13682"}],
 "listBibl":
  [
 {
 "title":
 "Barock",
 "ref":
 "pmb80537"}
 ]}

}, {
 "type":
 "schnitzler-bahr",
 "idno":
 "https://schnitzler-bahr.acdh.oeaw.ac.at/L041106.html",
 "head":
 "Arthur und Olga Schnitzler an Bahr, 6. 5. 1908",
 "desc":
{"listPerson":
  [
{
 "persName":
 "Olga Schnitzler",
 "ref":
 "pmb2173"},
 {
 "persName":
 "Hermann Bahr",
 "ref":
 "pmb10815"},
 {
 "persName":
 "Heinrich Kley",
 "ref":
 "pmb2306"}],
 "listPlace":
  [
 {
 "placeName":
 "München",
 "ref":
 "pmb45258"}
 ,  {
 "placeName":
 "Wien",
 "ref":
 "pmb50"}
 ,  {
 "placeName":
 "Hofgarten",
 "ref":
 "pmb466"}
 ,  {
 "placeName":
 "Ober Sankt Veit",
 "ref":
 "pmb165"}
 ,  {
 "placeName":
 "Veitlissengasse",
 "ref":
 "pmb220"}
 ]}

}] 