[{
 "type":
 "schnitzler-tagebuch",
 "color":
 "#037a33",
 "filename":
 "entry__1908-04-19",
 "caption":
 "Tagebuch",
 "idno":
 "https://schnitzler-tagebuch.acdh.oeaw.ac.at/entry__1908-04-19.html",
 "head":
 "Tagebuch, 19. April 1908",
 "desc":
{"listPerson":
  [
{
 "persName":
 "Erna Fleischer",
 "ref":
 "person_15033"},
 {
 "persName":
 "Paul Goldmann",
 "ref":
 "person_15529"},
 {
 "persName":
 "Grete Jacques",
 "ref":
 "person_16485"},
 {
 "persName":
 "Heinrich Schnitzler",
 "ref":
 "person_19822"},
 {
 "persName":
 "Christine Schönberger",
 "ref":
 "person_19843"},
 {
 "persName":
 "Gustav Schwarzkopf",
 "ref":
 "person_19986"},
 {
 "persName":
 "Paul Wilhelm",
 "ref":
 "person_21342"},
 {
 "persName":
 "Hugo von Hofmannsthal",
 "ref":
 "person_16293"},
 {
 "persName":
 "Christine Schönberger",
 "ref":
 "person_19842"},
 {
 "persName":
 "Rudolf Schwarzkopf",
 "ref":
 "person_19988"}],
 "listBibl":
  [
 {
 "title":
 "Komtesse Mizzi oder Der Familientag",
 "ref":
 "pmb29931"}
 ,  {
 "title":
 "Die Verwandlungen des Pierrot",
 "ref":
 "pmb33804"}
 ],
 "listPlace":
  [
 {
 "placeName":
 "Pötzleinsdorf",
 "ref":
 "pmb169"}
 ,  {
 "placeName":
 "Währing",
 "ref":
 "pmb90546"}
 ,  {
 "placeName":
 "Dornbacher Park",
 "ref":
 "pmb176"}
 ,  {
 "placeName":
 "Semmering",
 "ref":
 "pmb91735"}
 ]
}
}, {
 "type":
 "schnitzler-briefe",
 "color":
 "#A63437",
 "filename":
 "L03496",
 "caption":
 "Briefe mit Autorinnen und Autoren",
 "idno":
 "https://schnitzler-briefe.acdh.oeaw.ac.at/L03496.html",
 "head":
 "Felix Salten an Arthur Schnitzler, [zwischen 19. und
                  24. 4. 1908]",
 "desc":
{"listPerson":
  [
{
 "persName":
 "Felix Salten",
 "ref":
 "pmb2167"}],
 "listBibl":
  [
 {
 "title":
 "?? [Dalmatinisches Buch]",
 "ref":
 "pmb147781"}
 ,  {
 "title":
 "Komtesse Mizzi oder: Der Familientag",
 "ref":
 "pmb29931"}
 ,  {
 "title":
 "Neue Freie Presse",
 "ref":
 "pmb36374"}
 ,  {
 "title":
 "Der Tod des Junggesellen. Novelle",
 "ref":
 "pmb33758"}
 ,  {
 "title":
 "Österreichische Rundschau",
 "ref":
 "pmb41555"}
 ,  {
 "title":
 "Die Zeit. Wiener Wochenschrift",
 "ref":
 "pmb36340"}
 ],
 "listPlace":
  [
 {
 "placeName":
 "Wien",
 "ref":
 "pmb50"}
 ]
}
}, {
 "type":
 "URL",
 "subtype":
 "wienerschnitzler",
 "head":
 "Wien",
 "desc":
{"listPlace":
  [
 {
 "placeName":
 "XVII., Hernals",
 "ref":
 ""}
 ,  {
 "placeName":
 "XVIII., Währing",
 "ref":
 ""}
 ]
}
}, {
 "type":
 "schnitzler-interviews",
 "color":
 "#3D5A80",
 "filename":
 "I025",
 "caption":
 "Interviews, Meinungen, Proteste",
 "idno":
 "https://schnitzler-interviews.acdh.oeaw.ac.at/I025.html",
 "head":
 "Paul Wilhelm: Bei Artur Schnitzler, 19. 4. 1908",
 "desc":
{"listPerson":
  [
{
 "persName":
 "Paul Wilhelm",
 "ref":
 "pmb27150"},
 {
 "persName":
 "Franz Grillparzer",
 "ref":
 "pmb11518"},
 {
 "persName":
 "Richard Beer-Hofmann",
 "ref":
 "pmb10863"},
 {
 "persName":
 "William Shakespeare",
 "ref":
 "pmb2412"},
 {
 "persName":
 "Johann Wolfgang von Goethe",
 "ref":
 "pmb11461"},
 {
 "persName":
 "Anton Bruckner",
 "ref":
 "pmb11024"},
 {
 "persName":
 "Gustav Mahler",
 "ref":
 "pmb12163"},
 {
 "persName":
 "Hans Pfitzner",
 "ref":
 "pmb2674"},
 {
 "persName":
 "Max Reger",
 "ref":
 "pmb12484"},
 {
 "persName":
 "Theodor Streicher",
 "ref":
 "pmb12873"},
 {
 "persName":
 "Hugo Wolf",
 "ref":
 "pmb13152"}],
 "listBibl":
  [
 {
 "title":
 "Des Meeres und der Liebe Wellen. Trauerspiel in fünf Aufzügen",
 "ref":
 "pmb32987"}
 ,  {
 "title":
 "Anatol",
 "ref":
 "pmb29935"}
 ,  {
 "title":
 "Liebelei. Schauspiel in drei Akten",
 "ref":
 "pmb29917"}
 ,  {
 "title":
 "Shakespeares House",
 "ref":
 "pmb32983"}
 ,  {
 "title":
 "Richard Beer-Hofmann",
 "ref":
 "pmb32985"}
 ,  {
 "title":
 "Der Weg ins Freie. Roman",
 "ref":
 "pmb29923"}
 ,  {
 "title":
 "Der einsame Weg. Schauspiel in fünf Akten",
 "ref":
 "pmb29985"}
 ,  {
 "title":
 "Der Ruf des Lebens. Schauspiel in drei Akten",
 "ref":
 "pmb29905"}
 ,  {
 "title":
 "Bei Artur Schnitzler",
 "ref":
 "pmb32981"}
 ,  {
 "title":
 "Neues Wiener Journal",
 "ref":
 "pmb36376"}
 ],
 "listPlace":
  [
 {
 "placeName":
 "Wien",
 "ref":
 "pmb50"}
 ,  {
 "placeName":
 "Österreich",
 "ref":
 "pmb41240"}
 ,  {
 "placeName":
 "XVIII., Währing",
 "ref":
 "pmb68"}
 ,  {
 "placeName":
 "Edmund-Weiß-Gasse",
 "ref":
 "pmb133"}
 ,  {
 "placeName":
 "Sternwartepark",
 "ref":
 "pmb794"}
 ,  {
 "placeName":
 "Wienerwald",
 "ref":
 "pmb40876"}
 ,  {
 "placeName":
 "Pötzleinsdorf",
 "ref":
 "pmb169"}
 ,  {
 "placeName":
 "Neuwaldegg",
 "ref":
 "pmb170"}
 ,  {
 "placeName":
 "Dornbacher Park",
 "ref":
 "pmb176"}
 ,  {
 "placeName":
 "Berlin",
 "ref":
 "pmb168"}
 ,  {
 "placeName":
 "Deutschland",
 "ref":
 "pmb151"}
 ],
 "listOrg":
  [
 {
 "orgName":
 "Neues Wiener Journal",
 "ref":
 "pmb29320"}
 ]
}
}, {
 "type":
 "kalliope-verbund",
 "color":
 "#003574",
 "caption":
 "Kalliope Verbundkatalog",
 "idno":
 "http://kalliope-verbund.info/DE-2498-HS00082686",
 "head":
 "Schnitzler, Arthur: Komtesse Mizzi [Dramatisches] (Drucktitel)",
 "text":
 "1 Broschüre 20 Bl."
}] 