[{
 "type":
 "schnitzler-tagebuch",
 "color":
 "#037a33",
 "filename":
 "entry__1908-01-02",
 "caption":
 "Tagebuch",
 "idno":
 "https://schnitzler-tagebuch.acdh.oeaw.ac.at/entry__1908-01-02.html",
 "head":
 "Tagebuch, 2. Januar 1908",
 "desc":
{"listPerson":
  [
{
 "persName":
 "Anton Bum",
 "ref":
 "person_14061"},
 {
 "persName":
 "Leopold? Lewinger",
 "ref":
 "person_17491"},
 {
 "persName":
 "Karl Lueger",
 "ref":
 "person_17731"},
 {
 "persName":
 "Alma Maria Mahler",
 "ref":
 "person_17784"},
 {
 "persName":
 "Thomas Mann",
 "ref":
 "person_17838"},
 {
 "persName":
 "Rosa Papier",
 "ref":
 "person_18659"},
 {
 "persName":
 "Friedrich Schik",
 "ref":
 "person_19685"},
 {
 "persName":
 "Julius Schnitzler",
 "ref":
 "person_19827"},
 {
 "persName":
 "Alexander Strial",
 "ref":
 "person_20522"},
 {
 "persName":
 "Anna Sikora",
 "ref":
 "person_20523"},
 {
 "persName":
 "Maximilian Harden",
 "ref":
 "person_15919"},
 {
 "persName":
 "Napoleon Bonaparte",
 "ref":
 "person_18356"},
 {
 "persName":
 "Marie Reinhard",
 "ref":
 "person_19150"},
 {
 "persName":
 "Johann Schnitzler",
 "ref":
 "person_19824"},
 {
 "persName":
 "Hugo von Hofmannsthal",
 "ref":
 "person_16293"},
 {
 "persName":
 "Kuno von Moltke",
 "ref":
 "person_18229"},
 {
 "persName":
 "Felix Mottl",
 "ref":
 "person_18277"}],
 "listBibl":
  [
 {
 "title":
 "Der Weg ins Freie. Roman",
 "ref":
 "pmb29923"}
 ,  {
 "title":
 "Faust. Eine Tragödie",
 "ref":
 "pmb30247"}
 ,  {
 "title":
 "Goethe über seine Dichtungen",
 "ref":
 "pmb30979"}
 ,  {
 "title":
 "Briefe",
 "ref":
 "pmb81038"}
 ],
 "listPlace":
  [
 {
 "placeName":
 "Wiesbaden",
 "ref":
 "pmb883"}
 ,  {
 "placeName":
 "Wien",
 "ref":
 "pmb50"}
 ,  {
 "placeName":
 "Olsztyn",
 "ref":
 "pmb64601"}
 ,  {
 "placeName":
 "Meran",
 "ref":
 "pmb43520"}
 ,  {
 "placeName":
 "Kassel",
 "ref":
 "pmb39640"}
 ,  {
 "placeName":
 "Burgring",
 "ref":
 "pmb274"}
 ,  {
 "placeName":
 "Spöttelgasse",
 "ref":
 "pmb92539"}
 ]
}
}, {
 "type":
 "URL",
 "subtype":
 "wienerschnitzler",
 "head":
 "Wien",
 "desc":
{"listPlace":
  [
 {
 "placeName":
 "XVIII., Währing",
 "ref":
 ""}
 ]
}
}] 