[{
 "type":
 "schnitzler-orte",
 "idno":
 "https://pmb.acdh.oeaw.ac.at/entity/45258/",
 "head":
 "München"
}, {
 "type":
 "schnitzler-orte",
 "idno":
 "https://pmb.acdh.oeaw.ac.at/entity/52262/",
 "head":
 "Starnberger See"
}, {
 "type":
 "schnitzler-orte",
 "idno":
 "https://pmb.acdh.oeaw.ac.at/entity/667/",
 "head":
 "Garmisch-Partenkirchen"
}, {
 "type":
 "schnitzler-orte",
 "idno":
 "https://pmb.acdh.oeaw.ac.at/entity/90294/",
 "head":
 "Badersee"
}, {
 "type":
 "schnitzler-orte",
 "idno":
 "https://pmb.acdh.oeaw.ac.at/entity/90567/",
 "head":
 "Eibsee"
}, {
 "type":
 "schnitzler-briefe",
 "idno":
 "https://schnitzler-briefe.acdh.oeaw.ac.at/L01771.html",
 "head":
 "Arthur Schnitzler, Olga Schnitzler an Richard Beer-Hofmann, Paula Beer-Hofmann, 11. 5. 1908",
 "desc":
{"listPerson":
  [
{
 "persName":
 "Olga Schnitzler",
 "ref":
 "pmb2173"},
 {
 "persName":
 "Richard Beer-Hofmann",
 "ref":
 "pmb10863"},
 {
 "persName":
 "Paula Beer-Hofmann",
 "ref":
 "pmb10860"}],
 "listPlace":
  [
 {
 "placeName":
 "Garmisch-Partenkirchen",
 "ref":
 "pmb667"}
 ,  {
 "placeName":
 "Wien",
 "ref":
 "pmb50"}
 ,  {
 "placeName":
 "XVIII., Währing",
 "ref":
 "pmb68"}
 ,  {
 "placeName":
 "Hasenauerstraße",
 "ref":
 "pmb383"}
 ,  {
 "placeName":
 "Alpspitze",
 "ref":
 "pmb51495"}
 ,  {
 "placeName":
 "Waxenstein",
 "ref":
 "pmb47580"}
 ,  {
 "placeName":
 "Zugspitze",
 "ref":
 "pmb47581"}
 ,  {
 "placeName":
 "München",
 "ref":
 "pmb45258"}
 ]}

}, {
 "type":
 "schnitzler-tagebuch",
 "idno":
 "https://schnitzler-tagebuch.acdh.oeaw.ac.at/entry__1908-05-11.html",
 "head":
 "Tagebuch, 11. Mai 1908",
 "desc":
{"listPlace":
  [
 {
 "placeName":
 "München",
 "ref":
 "pmb45258"}
 ,  {
 "placeName":
 "Starnberger See",
 "ref":
 "pmb52262"}
 ,  {
 "placeName":
 "Garmisch-Partenkirchen",
 "ref":
 "pmb667"}
 ,  {
 "placeName":
 "Rissersee",
 "ref":
 "pmb92487"}
 ,  {
 "placeName":
 "Badersee",
 "ref":
 "pmb90294"}
 ,  {
 "placeName":
 "Eibsee",
 "ref":
 "pmb90567"}
 ]}

}] 