[{
 "type":
 "schnitzler-tagebuch",
 "color":
 "#037a33",
 "filename":
 "entry__1908-03-08",
 "caption":
 "Tagebuch",
 "idno":
 "https://schnitzler-tagebuch.acdh.oeaw.ac.at/entry__1908-03-08.html",
 "head":
 "Tagebuch, 8. März 1908",
 "desc":
{"listPerson":
  [
{
 "persName":
 "Anton Bruckner",
 "ref":
 "person_14008"},
 {
 "persName":
 "Agnes Ulmann",
 "ref":
 "person_20872"}],
 "listBibl":
  [
 {
 "title":
 "Symphonie Nr. 4 Es-Dur WAB 104 (Romantische)",
 "ref":
 "pmb76607"}
 ],
 "listPlace":
  [
 {
 "placeName":
 "Heiligenstadt",
 "ref":
 "pmb90847"}
 ]
}
}, {
 "type":
 "schnitzler-briefe",
 "color":
 "#A63437",
 "filename":
 "L01762",
 "caption":
 "Briefe mit Autorinnen und Autoren",
 "idno":
 "https://schnitzler-briefe.acdh.oeaw.ac.at/L01762.html",
 "head":
 "Richard Beer-Hofmann an Arthur Schnitzler, 8. 3. 1908",
 "desc":
{"listPerson":
  [
{
 "persName":
 "Richard Beer-Hofmann",
 "ref":
 "pmb10863"}],
 "listPlace":
  [
 {
 "placeName":
 "Berlin",
 "ref":
 "pmb168"}
 ,  {
 "placeName":
 "Wien",
 "ref":
 "pmb50"}
 ,  {
 "placeName":
 "Edmund-Weiß-Gasse",
 "ref":
 "pmb133"}
 ,  {
 "placeName":
 "Berliner Dom",
 "ref":
 "pmb51520"}
 ,  {
 "placeName":
 "Friedrichsbrücke",
 "ref":
 "pmb51521"}
 ,  {
 "placeName":
 "Börse",
 "ref":
 "pmb51522"}
 ]
}
}, {
 "type":
 "schnitzler-orte",
 "color":
 "#045344",
 "caption":
 "Aufenthaltsorte",
 "head":
 "Wien",
 "desc":
{"listPlace":
  [
 {
 "placeName":
 "XVIII., Währing",
 "ref":
 ""}
 ]
}
}] 