[{
 "type":
 "schnitzler-tagebuch",
 "color":
 "#037a33",
 "filename":
 "entry__1909-11-22",
 "caption":
 "Tagebuch",
 "idno":
 "https://schnitzler-tagebuch.acdh.oeaw.ac.at/entry__1909-11-22.html",
 "head":
 "Tagebuch, 22. November 1909",
 "desc":
{"listPerson":
  [
{
 "persName":
 "Gemma Bellincioni",
 "ref":
 "person_13570"},
 {
 "persName":
 "Benjamin Gomperz",
 "ref":
 "person_15562"}],
 "listBibl":
  [
 {
 "title":
 "Die Hirtenflöte. Novelle",
 "ref":
 "pmb30213"}
 ,  {
 "title":
 "Carmen",
 "ref":
 "pmb30627"}
 ],
 "listPlace":
  [
 {
 "placeName":
 "Golf von Tonkin",
 "ref":
 "pmb91911"}
 ,  {
 "placeName":
 "Schweiz",
 "ref":
 "pmb43435"}
 ,  {
 "placeName":
 "Genfer See",
 "ref":
 "pmb512"}
 ]
}
}, {
 "type":
 "schnitzler-briefe",
 "color":
 "#A63437",
 "filename":
 "L01887",
 "caption":
 "Briefe mit Autorinnen und Autoren",
 "idno":
 "https://schnitzler-briefe.acdh.oeaw.ac.at/L01887.html",
 "head":
 "Albert Ehrenstein an Arthur Schnitzler, 22. 11. 1909",
 "desc":
{"listPerson":
  [
{
 "persName":
 "Albert Ehrenstein",
 "ref":
 "pmb11230"},
 {
 "persName":
 "Alfred Polgar",
 "ref":
 "pmb2989"},
 {
 "persName":
 "Oskar Bie",
 "ref":
 "pmb2914"},
 {
 "persName":
 "Samuel Fischer",
 "ref":
 "pmb11324"}],
 "listBibl":
  [
 {
 "title":
 "Die neue Rundschau",
 "ref":
 "pmb36156"}
 ,  {
 "title":
 "Saccumum",
 "ref":
 "pmb33486"}
 ,  {
 "title":
 "Mitgefühl",
 "ref":
 "pmb33488"}
 ,  {
 "title":
 "Die alte Geschichte",
 "ref":
 "pmb33490"}
 ,  {
 "title":
 "Tubutsch",
 "ref":
 "pmb33452"}
 ,  {
 "title":
 "Tod des Zehir eddin Muhammed Baber",
 "ref":
 "pmb33454"}
 ,  {
 "title":
 "Tai-Gin",
 "ref":
 "pmb33456"}
 ],
 "listPlace":
  [
 {
 "placeName":
 "Wien",
 "ref":
 "pmb50"}
 ,  {
 "placeName":
 "Ottakringerstraße",
 "ref":
 "pmb300"}
 ,  {
 "placeName":
 "Berlin",
 "ref":
 "pmb168"}
 ]
}
}, {
 "type":
 "schnitzler-orte",
 "color":
 "#045344",
 "caption":
 "Aufenthaltsorte",
 "head":
 "Wien",
 "desc":
{"listPlace":
  [
 {
 "placeName":
 "IX., Alsergrund",
 "ref":
 ""}
 ,  {
 "placeName":
 "XVIII., Währing",
 "ref":
 ""}
 ,  {
 "placeName":
 "I., Innere Stadt",
 "ref":
 ""}
 ]
}
}, {
 "type":
 "schnitzler-events",
 "color":
 "#9BC53D",
 "filename":
 "entity/209581/",
 "caption":
 "Ereignisse in der PMB",
 "idno":
 "https://pmb.acdh.oeaw.ac.at/entity/209581/",
 "head":
 "Aufführung von Carmen. Oper in vier Akten, 22.11.1909",
 "desc":
{"listBibl":
  [
 {
 "title":
 "Carmen. Oper in vier Akten",
 "ref":
 ""}
 ],
 "listPerson":
  [
{
 "persName":
 "Gemma Bellincioni",
 "ref":
 ""},
 {
 "persName":
 "Arthur Schnitzler",
 "ref":
 ""}],
 "listPlace":
  [
 {
 "placeName":
 "Volksoper Wien",
 "ref":
 ""}
 ]
}
}] 