[{
 "type":
 "schnitzler-tagebuch",
 "color":
 "#037a33",
 "filename":
 "entry__1909-01-24",
 "caption":
 "Tagebuch",
 "idno":
 "https://schnitzler-tagebuch.acdh.oeaw.ac.at/entry__1909-01-24.html",
 "head":
 "Tagebuch, 24. Januar 1909",
 "desc":
{"listPerson":
  [
{
 "persName":
 "Peter Altenberg",
 "ref":
 "person_13162"},
 {
 "persName":
 "Wolfgang Amadeus Mozart",
 "ref":
 "person_18282"},
 {
 "persName":
 "Helene Schnitzler",
 "ref":
 "person_19823"},
 {
 "persName":
 "Julius Schnitzler",
 "ref":
 "person_19827"},
 {
 "persName":
 "Louise Schnitzler",
 "ref":
 "person_19831"}],
 "listBibl":
  [
 {
 "title":
 "Der König",
 "ref":
 "pmb77799"}
 ,  {
 "title":
 "Der König",
 "ref":
 "pmb77802"}
 ,  {
 "title":
 "Klavierkonzert Nr. 20 d-Moll KV 466",
 "ref":
 "pmb77206"}
 ],
 "listPlace":
  [
 {
 "placeName":
 "Währing",
 "ref":
 "pmb90546"}
 ,  {
 "placeName":
 "Penzing",
 "ref":
 "pmb90913"}
 ,  {
 "placeName":
 "Semmering",
 "ref":
 "pmb91735"}
 ]
}
}, {
 "type":
 "schnitzler-briefe",
 "color":
 "#A63437",
 "filename":
 "L01826",
 "caption":
 "Briefe mit Autorinnen und Autoren",
 "idno":
 "https://schnitzler-briefe.acdh.oeaw.ac.at/L01826.html",
 "head":
 "Albert Ehrenstein an Arthur Schnitzler, 24. 1. 1909",
 "desc":
{"listPerson":
  [
{
 "persName":
 "Albert Ehrenstein",
 "ref":
 "pmb11230"},
 {
 "persName":
 "Hugo von Hofmannsthal",
 "ref":
 "pmb11740"},
 {
 "persName":
 "Camill Hoffmann",
 "ref":
 "pmb11727"}],
 "listBibl":
  [
 {
 "title":
 "Tai-Gin",
 "ref":
 "pmb33456"}
 ,  {
 "title":
 "Manche freilich",
 "ref":
 "pmb33460"}
 ,  {
 "title":
 "Die Zeit",
 "ref":
 "pmb35935"}
 ],
 "listOrg":
  [
 {
 "orgName":
 "Neue Freie Presse",
 "ref":
 "pmb29351"}
 ,  {
 "orgName":
 "Erdgeist",
 "ref":
 "pmb29633"}
 ],
 "listPlace":
  [
 {
 "placeName":
 "Wien",
 "ref":
 "pmb50"}
 ,  {
 "placeName":
 "Ottakringerstraße",
 "ref":
 "pmb300"}
 ]
}
}, {
 "type":
 "URL",
 "subtype":
 "wienerschnitzler",
 "head":
 "Wien",
 "desc":
{"listPlace":
  [
 {
 "placeName":
 "XVII., Hernals",
 "ref":
 ""}
 ,  {
 "placeName":
 "XIV., Penzing",
 "ref":
 ""}
 ,  {
 "placeName":
 "IX., Alsergrund",
 "ref":
 ""}
 ,  {
 "placeName":
 "XVIII., Währing",
 "ref":
 ""}
 ]
}
}, {
 "type":
 "schnitzler-events",
 "color":
 "#9BC53D",
 "filename":
 "entity/209545/",
 "caption":
 "Ereignisse in der PMB",
 "idno":
 "https://pmb.acdh.oeaw.ac.at/entity/209545/",
 "head":
 "Aufführung von Der König, 24.1.1909",
 "desc":
{"listOrg":
  [
 {
 "orgName":
 "Neue Wiener Bühne",
 "ref":
 ""}
 ],
 "listBibl":
  [
 {
 "title":
 "Der König",
 "ref":
 ""}
 ],
 "listPerson":
  [
{
 "persName":
 "Arthur Schnitzler",
 "ref":
 ""}],
 "listPlace":
  [
 {
 "placeName":
 "Neue Wiener Bühne",
 "ref":
 ""}
 ]
}
}] 