[{
 "type":
 "schnitzler-tagebuch",
 "color":
 "#037a33",
 "filename":
 "entry__1909-07-06",
 "caption":
 "Tagebuch",
 "idno":
 "https://schnitzler-tagebuch.acdh.oeaw.ac.at/entry__1909-07-06.html",
 "head":
 "Tagebuch, 6. Juli 1909",
 "desc":
{"listPerson":
  [
{
 "persName":
 "Otto Brahm",
 "ref":
 "person_13913"},
 {
 "persName":
 "Victor Édouard Cadol",
 "ref":
 "person_14104"},
 {
 "persName":
 "Friedrich von Gentz",
 "ref":
 "person_15391"},
 {
 "persName":
 "Eugen Guglia",
 "ref":
 "person_15739"},
 {
 "persName":
 "Gisela Hajek",
 "ref":
 "person_15854"},
 {
 "persName":
 "Heinrich Schnitzler",
 "ref":
 "person_19822"},
 {
 "persName":
 "Hermann Bahr",
 "ref":
 "person_13374"}],
 "listBibl":
  [
 {
 "title":
 "Komtesse Mizzi oder Der Familientag",
 "ref":
 "pmb29931"}
 ,  {
 "title":
 "Liebelei. Schauspiel in drei Akten",
 "ref":
 "pmb29917"}
 ,  {
 "title":
 "Der junge Medardus. Dramatische Historie in einem Vorspiel und fünf Aufzügen",
 "ref":
 "pmb29937"}
 ,  {
 "title":
 "Das Konzert. Lustspiel in drei Akten",
 "ref":
 "pmb29933"}
 ,  {
 "title":
 "Une amourette",
 "ref":
 "pmb30251"}
 ,  {
 "title":
 "Tagebücher",
 "ref":
 "pmb30253"}
 ,  {
 "title":
 "Friedrich von Gentz",
 "ref":
 "pmb30249"}
 ],
 "listPlace":
  [
 {
 "placeName":
 "Edlach",
 "ref":
 "pmb470"}
 ,  {
 "placeName":
 "Paris",
 "ref":
 "pmb182"}
 ]
}
}, {
 "type":
 "schnitzler-briefe",
 "color":
 "#A63437",
 "filename":
 "L01853",
 "caption":
 "Briefe mit Autorinnen und Autoren",
 "idno":
 "https://schnitzler-briefe.acdh.oeaw.ac.at/L01853.html",
 "head":
 "Arthur Schnitzler, Olga Schnitzler an Richard Beer-Hofmann, 6. 7. 1909",
 "desc":
{"listPerson":
  [
{
 "persName":
 "Olga Schnitzler",
 "ref":
 "pmb2173"},
 {
 "persName":
 "Richard Beer-Hofmann",
 "ref":
 "pmb10863"},
 {
 "persName":
 "Heinrich Schnitzler",
 "ref":
 "pmb12692"},
 {
 "persName":
 "Paula Beer-Hofmann",
 "ref":
 "pmb10860"}],
 "listPlace":
  [
 {
 "placeName":
 "Edlach",
 "ref":
 "pmb470"}
 ,  {
 "placeName":
 "Pichl am See",
 "ref":
 "pmb41102"}
 ,  {
 "placeName":
 "Hotel Pichl-Auhof",
 "ref":
 "pmb51987"}
 ,  {
 "placeName":
 "Schneeberg",
 "ref":
 "pmb27068"}
 ,  {
 "placeName":
 "Wien",
 "ref":
 "pmb50"}
 ]
}
}, {
 "type":
 "URL",
 "subtype":
 "wienerschnitzler",
 "head":
 "Edlach",
 "desc":
{"listPlace":
  [
 {
 "placeName":
 "Hotel Edlacherhof",
 "ref":
 ""}
 ]
}
}, {
 "type":
 "URL",
 "subtype":
 "wienerschnitzler",
 "head":
 "Wien",
 "desc":
{"listPlace":
  [
 {
 "placeName":
 "XIX., Döbling",
 "ref":
 ""}
 ,  {
 "placeName":
 "X., Favoriten",
 "ref":
 ""}
 ,  {
 "placeName":
 "XVIII., Währing",
 "ref":
 ""}
 ]
}
}, {
 "type":
 "schnitzler-bahr",
 "color":
 "#639FF9",
 "filename":
 "D041049",
 "caption":
 "Schnitzler/Bahr",
 "idno":
 "https://schnitzler-bahr.acdh.oeaw.ac.at/D041049.html",
 "head":
 "Tagebuch von Schnitzler, 6. 7. 1909",
 "desc":
{"listPerson":
  [
{
 "persName":
 "Hermann Bahr",
 "ref":
 "pmb10815"},
 {
 "persName":
 "Heinrich Schnitzler",
 "ref":
 "pmb12692"},
 {
 "persName":
 "Gisela Hajek",
 "ref":
 "pmb2461"},
 {
 "persName":
 "Otto Brahm",
 "ref":
 "pmb10986"},
 {
 "persName":
 "Olga Schnitzler",
 "ref":
 "pmb2173"},
 {
 "persName":
 "Eugen Guglia",
 "ref":
 "pmb11545"},
 {
 "persName":
 "Friedrich von Gentz",
 "ref":
 "pmb11416"},
 {
 "persName":
 "Victor Édouard Cadol",
 "ref":
 "pmb2560"}],
 "listBibl":
  [
 {
 "title":
 "Komtesse Mizzi oder Der Familientag",
 "ref":
 "pmb29931"}
 ,  {
 "title":
 "Das Konzert. Lustspiel in drei Akten",
 "ref":
 "pmb29933"}
 ,  {
 "title":
 "Der junge Medardus. Dramatische Historie in einem Vorspiel und fünf Aufzügen",
 "ref":
 "pmb29937"}
 ,  {
 "title":
 "Friedrich von Gentz",
 "ref":
 "pmb30249"}
 ,  {
 "title":
 "Tagebücher",
 "ref":
 "pmb30253"}
 ,  {
 "title":
 "Une amourette",
 "ref":
 "pmb30251"}
 ,  {
 "title":
 "Liebelei. Schauspiel in drei Akten",
 "ref":
 "pmb29917"}
 ],
 "listPlace":
  [
 {
 "placeName":
 "Edlach",
 "ref":
 "pmb470"}
 ,  {
 "placeName":
 "Paris",
 "ref":
 "pmb182"}
 ]
}
}, {
 "type":
 "schnitzler-events",
 "color":
 "#9BC53D",
 "filename":
 "entity/248810/",
 "caption":
 "Ereignisse in der PMB",
 "idno":
 "https://pmb.acdh.oeaw.ac.at/entity/248810/",
 "head":
 "Private Lesung von Der junge Medardus, 6.7.1909",
 "desc":
{"listBibl":
  [
 {
 "title":
 "Der junge Medardus. Dramatische Historie in einem Vorspiel und fünf Aufzügen",
 "ref":
 ""}
 ],
 "listPerson":
  [
{
 "persName":
 "Arthur Schnitzler",
 "ref":
 ""},
 {
 "persName":
 "Olga Schnitzler",
 "ref":
 ""}],
 "listPlace":
  [
 {
 "placeName":
 "Hotel Edlacherhof",
 "ref":
 ""}
 ]
}
}] 