[{
 "type":
 "schnitzler-tagebuch",
 "color":
 "#037a33",
 "filename":
 "entry__1909-06-11",
 "caption":
 "Tagebuch",
 "idno":
 "https://schnitzler-tagebuch.acdh.oeaw.ac.at/entry__1909-06-11.html",
 "head":
 "Tagebuch, 11. Juni 1909",
 "desc":
{"listPerson":
  [
{
 "persName":
 "Albert Bassermann",
 "ref":
 "person_13457"},
 {
 "persName":
 "Richard Beer-Hofmann",
 "ref":
 "person_13551"},
 {
 "persName":
 "Paul Marx",
 "ref":
 "person_17958"},
 {
 "persName":
 "Max Reinhardt",
 "ref":
 "person_19154"},
 {
 "persName":
 "Felix Salten",
 "ref":
 "person_19542"},
 {
 "persName":
 "Julie Wassermann",
 "ref":
 "person_21109"},
 {
 "persName":
 "Prager",
 "ref":
 "person_18945"},
 {
 "persName":
 "Jakob Wassermann",
 "ref":
 "person_21107"},
 {
 "persName":
 "Paula Beer-Hofmann",
 "ref":
 "person_13550"}],
 "listBibl":
  [
 {
 "title":
 "Das weite Land. Tragikomödie in fünf Akten",
 "ref":
 "pmb30207"}
 ,  {
 "title":
 "Der Ruf des Lebens. Schauspiel in drei Akten",
 "ref":
 "pmb29905"}
 ,  {
 "title":
 "Wenn wir Toten erwachen",
 "ref":
 "pmb31403"}
 ],
 "listPlace":
  [
 {
 "placeName":
 "Meissl &amp; Schadn",
 "ref":
 "pmb96"}
 ]
}
}, {
 "type":
 "schnitzler-briefe",
 "color":
 "#A63437",
 "filename":
 "L01843",
 "caption":
 "Briefe mit Autorinnen und Autoren",
 "idno":
 "https://schnitzler-briefe.acdh.oeaw.ac.at/L01843.html",
 "head":
 "Arthur Schnitzler an Richard Beer-Hofmann, 11. 6. 1909",
 "desc":
{"listPerson":
  [
{
 "persName":
 "Richard Beer-Hofmann",
 "ref":
 "pmb10863"}],
 "listPlace":
  [
 {
 "placeName":
 "Wien",
 "ref":
 "pmb50"}
 ,  {
 "placeName":
 "Edmund-Weiß-Gasse",
 "ref":
 "pmb133"}
 ]
}
}, {
 "type":
 "schnitzler-briefe",
 "color":
 "#A63437",
 "filename":
 "L01844",
 "caption":
 "Briefe mit Autorinnen und Autoren",
 "idno":
 "https://schnitzler-briefe.acdh.oeaw.ac.at/L01844.html",
 "head":
 "Hugo von Hofmannsthal an Arthur Schnitzler, [11. 6. 1909]",
 "desc":
{"listPerson":
  [
{
 "persName":
 "Hugo von Hofmannsthal",
 "ref":
 "pmb11740"},
 {
 "persName":
 "Olga Schnitzler",
 "ref":
 "pmb2173"}],
 "listPlace":
  [
 {
 "placeName":
 "München",
 "ref":
 "pmb45258"}
 ,  {
 "placeName":
 "Wien",
 "ref":
 "pmb50"}
 ,  {
 "placeName":
 "Hotel Vier Jahreszeiten",
 "ref":
 "pmb485"}
 ,  {
 "placeName":
 "Bayern",
 "ref":
 "pmb314"}
 ,  {
 "placeName":
 "Lech",
 "ref":
 "pmb40949"}
 ,  {
 "placeName":
 "Augsburg",
 "ref":
 "pmb868"}
 ,  {
 "placeName":
 "Villa Cantacuzène",
 "ref":
 "pmb40954"}
 ]
}
}, {
 "type":
 "wienerschnitzler",
 "color":
 "#ECDA98",
 "caption":
 "Wiener Schnitzler",
 "head":
 "Wien",
 "desc":
{"listPlace":
  [
 {
 "placeName":
 "I., Innere Stadt",
 "ref":
 ""}
 ,  {
 "placeName":
 "IV., Wieden",
 "ref":
 ""}
 ,  {
 "placeName":
 "XVIII., Währing",
 "ref":
 ""}
 ]
}
}, {
 "type":
 "schnitzler-events",
 "color":
 "#9BC53D",
 "filename":
 "entity/209568/",
 "caption":
 "Ereignisse in der PMB",
 "idno":
 "https://pmb.acdh.oeaw.ac.at/entity/209568/",
 "head":
 "Aufführung von Wenn wir Toten erwachen, 11.6.1909",
 "desc":
{"listOrg":
  [
 {
 "orgName":
 "Lessing-Theater",
 "ref":
 ""}
 ],
 "listBibl":
  [
 {
 "title":
 "Wenn wir Toten erwachen. Ein dramatischer Epilog",
 "ref":
 ""}
 ],
 "listPerson":
  [
{
 "persName":
 "Arthur Schnitzler",
 "ref":
 ""}],
 "listPlace":
  [
 {
 "placeName":
 "Johann-Strauß-Theater",
 "ref":
 ""}
 ]
}
}, {
 "type":
 "schnitzler-cmif",
 "subtype":
 "#ya489e21-54d5-40de-a56d-f4548e894428",
 "color":
 "#654321",
 "caption":
 "Gedruckte Briefwechsel",
 "head":
 "Otto Brahm an Arthur Schnitzler, 11.6.1909",
 "source":
 "Der Briefwechsel Arthur Schnitzler – Otto Brahm. Vollständige Ausgabe. Hg., eingel. und erl. von Oskar Seidlin. Tübingen: Niemeyer, 1975."
}, {
 "type":
 "kalliope-verbund",
 "color":
 "#003574",
 "caption":
 "Kalliope Verbundkatalog",
 "idno":
 "http://kalliope-verbund.info/DE-2498-HS00043840",
 "head":
 "Tiltoni, Silvio an Schnitzler, Arthur [Briefe]",
 "text":
 "2 Bl."
}] 