[{
 "type":
 "schnitzler-tagebuch",
 "color":
 "#037a33",
 "filename":
 "entry__1909-08-23",
 "caption":
 "Tagebuch",
 "idno":
 "https://schnitzler-tagebuch.acdh.oeaw.ac.at/entry__1909-08-23.html",
 "head":
 "Tagebuch, 23. August 1909",
 "desc":
{"listPerson":
  [
{
 "persName":
 "Arthur Foges",
 "ref":
 "person_15066"},
 {
 "persName":
 "Eduard von Keyserling",
 "ref":
 "person_16830"}],
 "listBibl":
  [
 {
 "title":
 "Beate und Mareile",
 "ref":
 "pmb78906"}
 ]
}
}, {
 "type":
 "schnitzler-briefe",
 "color":
 "#A63437",
 "filename":
 "L03506",
 "caption":
 "Briefe mit Autorinnen und Autoren",
 "idno":
 "https://schnitzler-briefe.acdh.oeaw.ac.at/L03506.html",
 "head":
 "Felix Salten an Arthur Schnitzler, 23. 8. 1909",
 "desc":
{"listPerson":
  [
{
 "persName":
 "Heinrich Schnitzler",
 "ref":
 "pmb12692"},
 {
 "persName":
 "Felix Salten",
 "ref":
 "pmb2167"},
 {
 "persName":
 "Olga Schnitzler",
 "ref":
 "pmb2173"},
 {
 "persName":
 "Lili Cappellini",
 "ref":
 "pmb2238"},
 {
 "persName":
 "Anna Katharina Rehmann",
 "ref":
 "pmb23915"},
 {
 "persName":
 "Ottilie Salten",
 "ref":
 "pmb23918"},
 {
 "persName":
 "Paul Salten",
 "ref":
 "pmb2922"}],
 "listPlace":
  [
 {
 "placeName":
 "Hotel de l’Europe [Bregenz]",
 "ref":
 "pmb147843"}
 ,  {
 "placeName":
 "Salzburg",
 "ref":
 "pmb30"}
 ,  {
 "placeName":
 "Bregenz",
 "ref":
 "pmb40321"}
 ,  {
 "placeName":
 "Kaltenleutgeben",
 "ref":
 "pmb44102"}
 ,  {
 "placeName":
 "München",
 "ref":
 "pmb45258"}
 ,  {
 "placeName":
 "Wien",
 "ref":
 "pmb50"}
 ,  {
 "placeName":
 "Innsbruck",
 "ref":
 "pmb867"}
 ,  {
 "placeName":
 "Gütsch",
 "ref":
 "pmb90811"}
 ]
}
}, {
 "type":
 "wienerschnitzler",
 "color":
 "#6F5106",
 "caption":
 "Wiener Schnitzler",
 "idno":
 "https://wienerschnitzler.org/tag.html#1909-08-23",
 "head":
 "Wien",
 "desc":
{"listPlace":
  [
 {
 "placeName":
 "XVIII., Währing",
 "ref":
 ""}
 ,  {
 "placeName":
 "I., Innere Stadt",
 "ref":
 ""}
 ]
}
}, {
 "type":
 "kalliope-verbund",
 "color":
 "#003574",
 "caption":
 "Kalliope Verbundkatalog",
 "idno":
 "http://kalliope-verbund.info/DE-2498-HS00032875",
 "head":
 "Mlle. Camilla Dalberg &lt;New York, NY&gt; an S.-Fischer-Verlag &lt;Berlin&gt; [Briefe]",
 "text":
 "2 Bl.",
 "desc":
{"listPerson":
  [
{
 "persName":
 "S.-Fischer-Verlag &lt;Berlin&gt; (1886-1942)",
 "ref":
 "http://d-nb.info/gnd/35741-8"}]
}
}] 