[{
 "type":
 "schnitzler-tagebuch",
 "color":
 "#037a33",
 "filename":
 "entry__1909-02-12",
 "caption":
 "Tagebuch",
 "idno":
 "https://schnitzler-tagebuch.acdh.oeaw.ac.at/entry__1909-02-12.html",
 "head":
 "Tagebuch, 12. Februar 1909",
 "desc":
{"listPerson":
  [
{
 "persName":
 "Raoul Auernheimer",
 "ref":
 "person_13305"},
 {
 "persName":
 "Julius Bauer",
 "ref":
 "person_13471"},
 {
 "persName":
 "Vincenz Chiavacci",
 "ref":
 "person_14195"},
 {
 "persName":
 "Albert Ehrenstein",
 "ref":
 "person_14643"},
 {
 "persName":
 "Moritz Rosenthal",
 "ref":
 "person_19394"},
 {
 "persName":
 "Louise Schnitzler",
 "ref":
 "person_19831"},
 {
 "persName":
 "Karl Schönherr",
 "ref":
 "person_19850"},
 {
 "persName":
 "Robert Schumann",
 "ref":
 "person_19942"},
 {
 "persName":
 "Siegfried Trebitsch",
 "ref":
 "person_20796"},
 {
 "persName":
 "Joseph Unger",
 "ref":
 "person_20881"},
 {
 "persName":
 "Adolf Weisse",
 "ref":
 "person_21211"},
 {
 "persName":
 "Adalbert Franz Seligmann",
 "ref":
 "person_20046"},
 {
 "persName":
 "Hugo Ganz",
 "ref":
 "person_15345"}],
 "listBibl":
  [
 {
 "title":
 "Das weite Land. Tragikomödie in fünf Akten",
 "ref":
 "pmb30207"}
 ,  {
 "title":
 "Der Schleier der Beatrice. Schauspiel in fünf Akten",
 "ref":
 "pmb29857"}
 ,  {
 "title":
 "Das Königreich",
 "ref":
 "pmb32620"}
 ],
 "listPlace":
  [
 {
 "placeName":
 "Messina",
 "ref":
 "pmb44129"}
 ]
}
}, {
 "type":
 "schnitzler-briefe",
 "color":
 "#A63437",
 "filename":
 "L01829",
 "caption":
 "Briefe mit Autorinnen und Autoren",
 "idno":
 "https://schnitzler-briefe.acdh.oeaw.ac.at/L01829.html",
 "head":
 "Arthur Schnitzler an Adalbert Seligmann, 12. 2. 1909",
 "desc":
{"listPerson":
  [
{
 "persName":
 "Adalbert Franz Seligmann",
 "ref":
 "pmb12769"},
 {
 "persName":
 "Paul Brann",
 "ref":
 "pmb10998"}],
 "listPlace":
  [
 {
 "placeName":
 "Wien",
 "ref":
 "pmb50"}
 ,  {
 "placeName":
 "IX., Alsergrund",
 "ref":
 "pmb59"}
 ,  {
 "placeName":
 "Edmund-Weiß-Gasse",
 "ref":
 "pmb133"}
 ,  {
 "placeName":
 "Schwarzspanierstraße",
 "ref":
 "pmb50603"}
 ,  {
 "placeName":
 "Gedonstraße",
 "ref":
 "pmb50607"}
 ]
}
}, {
 "type":
 "URL",
 "subtype":
 "wienerschnitzler",
 "head":
 "Wien",
 "desc":
{"listPlace":
  [
 {
 "placeName":
 "VII., Neubau",
 "ref":
 ""}
 ,  {
 "placeName":
 "I., Innere Stadt",
 "ref":
 ""}
 ,  {
 "placeName":
 "XVIII., Währing",
 "ref":
 ""}
 ]
}
}, {
 "type":
 "schnitzler-events",
 "color":
 "#9BC53D",
 "filename":
 "entity/209549/",
 "caption":
 "Ereignisse in der PMB",
 "idno":
 "https://pmb.acdh.oeaw.ac.at/entity/209549/",
 "head":
 "Klavierkonzert Moriz Rosenthal, 12.2.1909",
 "desc":
{"listPerson":
  [
{
 "persName":
 "Moriz Rosenthal",
 "ref":
 ""},
 {
 "persName":
 "Arthur Schnitzler",
 "ref":
 ""}],
 "listPlace":
  [
 {
 "placeName":
 "Bösendorfer-Saal",
 "ref":
 ""}
 ]
}
}, {
 "type":
 "schnitzler-events",
 "color":
 "#9BC53D",
 "filename":
 "entity/209548/",
 "caption":
 "Ereignisse in der PMB",
 "idno":
 "https://pmb.acdh.oeaw.ac.at/entity/209548/",
 "head":
 "Generalprobe von Das Königreich, 12.2.1909",
 "desc":
{"listOrg":
  [
 {
 "orgName":
 "Volkstheater",
 "ref":
 ""}
 ],
 "listBibl":
  [
 {
 "title":
 "Das Königreich",
 "ref":
 ""}
 ],
 "listPerson":
  [
{
 "persName":
 "Arthur Schnitzler",
 "ref":
 ""}],
 "listPlace":
  [
 {
 "placeName":
 "Volkstheater",
 "ref":
 ""}
 ]
}
}] 