{
 "date":
 {
 "when-iso":
 "1909-01-26",
 "written":
 "Dienstag, 26. Januar 1909"
},
"listEvent":
 [{
 "type":
 "schnitzler-orte",
 "idno":
 "https://pmb.acdh.oeaw.ac.at/entity/91735/",
 "head":
 "Semmering"
}, {
 "type":
 "schnitzler-orte",
 "idno":
 "https://pmb.acdh.oeaw.ac.at/entity/413/",
 "head":
 "Südbahnhotel"
}, {
 "type":
 "schnitzler-briefe",
 "idno":
 "https://schnitzler-briefe.acdh.oeaw.ac.at/L01827.html",
 "head":
 "Arthur Schnitzler an Richard Beer-Hofmann, 26. 1. 1909",
 "desc":
{"listPerson":
  [
{
 "persName":
 "Richard Beer-Hofmann",
 "ref":
 "pmb10863"}],
 "listPlace":
  [
 {
 "placeName":
 "Semmering",
 "ref":
 "pmb189"}
 ,  {
 "placeName":
 "Wien",
 "ref":
 "pmb50"}
 ,  {
 "placeName":
 "XVIII., Währing",
 "ref":
 "pmb68"}
 ,  {
 "placeName":
 "Hasenauerstraße",
 "ref":
 "pmb383"}
 ,  {
 "placeName":
 "Südbahnhotel",
 "ref":
 "pmb413"}
 ]}

}, {
 "type":
 "schnitzler-briefe",
 "idno":
 "https://schnitzler-briefe.acdh.oeaw.ac.at/L01828.html",
 "head":
 "Arthur Schnitzler an Albert Ehrenstein, 26. 1. 1909",
 "desc":
{"listPerson":
  [
{
 "persName":
 "Albert Ehrenstein",
 "ref":
 "pmb11230"}],
 "listPlace":
  [
 {
 "placeName":
 "Semmering",
 "ref":
 "pmb189"}
 ,  {
 "placeName":
 "Wien",
 "ref":
 "pmb50"}
 ,  {
 "placeName":
 "XIV., Penzing",
 "ref":
 "pmb64"}
 ,  {
 "placeName":
 "Ottakringerstraße",
 "ref":
 "pmb300"}
 ,  {
 "placeName":
 "Südbahnhotel",
 "ref":
 "pmb413"}
 ]}

}, {
 "type":
 "schnitzler-tagebuch",
 "idno":
 "https://schnitzler-tagebuch.acdh.oeaw.ac.at/entry__1909-01-26.html",
 "head":
 "Tagebuch, 26. Januar 1909",
 "desc":
{"listPerson":
  [
{
 "persName":
 "Paula Schmidl",
 "ref":
 "person_19756"},
 {
 "persName":
 "Johanna Schmidl",
 "ref":
 "person_16852"}],
 "listBibl":
  [
 {
 "title":
 "Fink und Fliederbusch. Komödie in drei Akten",
 "ref":
 "pmb30881"}
 ,  {
 "title":
 "Das weite Land. Tragikomödie in fünf Akten",
 "ref":
 "pmb30207"}
 ],
 "listPlace":
  [
 {
 "placeName":
 "Steiermark",
 "ref":
 "pmb17"}
 ]}

}] 
}