[{
 "type":
 "schnitzler-tagebuch",
 "color":
 "#037a33",
 "filename":
 "entry__1910-05-21",
 "caption":
 "Tagebuch",
 "idno":
 "https://schnitzler-tagebuch.acdh.oeaw.ac.at/entry__1910-05-21.html",
 "head":
 "Tagebuch, 21. Mai 1910",
 "desc":
{"listPerson":
  [
{
 "persName":
 "Josef Kainz",
 "ref":
 "person_16646"}],
 "listPlace":
  [
 {
 "placeName":
 "Luzern",
 "ref":
 "pmb967"}
 ,  {
 "placeName":
 "Brunnen",
 "ref":
 "pmb53632"}
 ,  {
 "placeName":
 "Axenstein",
 "ref":
 "pmb90290"}
 ,  {
 "placeName":
 "Flüelen",
 "ref":
 "pmb53229"}
 ]
}
}, {
 "type":
 "schnitzler-briefe",
 "color":
 "#A63437",
 "filename":
 "L02559",
 "caption":
 "Briefe mit Autorinnen und Autoren",
 "idno":
 "https://schnitzler-briefe.acdh.oeaw.ac.at/L02559.html",
 "head":
 "Olga Schnitzler, Arthur Schnitzler an Richard Beer-Hofmann, Paula Beer-Hofmann, 21. 5. 1910",
 "desc":
{"listPerson":
  [
{
 "persName":
 "Olga Schnitzler",
 "ref":
 "pmb2173"},
 {
 "persName":
 "Arthur Schnitzler",
 "ref":
 "pmb2121"},
 {
 "persName":
 "Richard Beer-Hofmann",
 "ref":
 "pmb10863"},
 {
 "persName":
 "Paula Beer-Hofmann",
 "ref":
 "pmb10860"},
 {
 "persName":
 "Olga Schnitzler",
 "ref":
 "pmb2173"},
 {
 "persName":
 "Richard Beer-Hofmann",
 "ref":
 "pmb10863"},
 {
 "persName":
 "Paula Beer-Hofmann",
 "ref":
 "pmb10860"}],
 "listPlace":
  [
 {
 "placeName":
 "Morschach",
 "ref":
 "pmb49170"}
 ,  {
 "placeName":
 "Wien",
 "ref":
 "pmb50"}
 ,  {
 "placeName":
 "XVIII., Währing",
 "ref":
 "pmb68"}
 ,  {
 "placeName":
 "Hasenauerstraße 59",
 "ref":
 "pmb235251"}
 ,  {
 "placeName":
 "Axenstein",
 "ref":
 "pmb53227"}
 ,  {
 "placeName":
 "Pilatus",
 "ref":
 "pmb44600"}
 ,  {
 "placeName":
 "Hotel Axenstein",
 "ref":
 "pmb53636"}
 ,  {
 "placeName":
 "Flüelen",
 "ref":
 "pmb53229"}
 ,  {
 "placeName":
 "Axenstraße",
 "ref":
 "pmb53630"}
 ]
}
}, {
 "type":
 "wienerschnitzler",
 "color":
 "#6F5106",
 "caption":
 "Wiener Schnitzler",
 "idno":
 "https://wienerschnitzler.org/tag.html#1910-05-21",
 "head":
 "Luzern",
 "desc":
{"listPlace":
  [
 {
 "placeName":
 "Hotel St. Gotthard Luzern",
 "ref":
 ""}
 ]
}
}, {
 "type":
 "wienerschnitzler",
 "color":
 "#6F5106",
 "caption":
 "Wiener Schnitzler",
 "idno":
 "https://wienerschnitzler.org/tag.html#1910-05-21",
 "head":
 "Brunnen"
}, {
 "type":
 "wienerschnitzler",
 "color":
 "#6F5106",
 "caption":
 "Wiener Schnitzler",
 "idno":
 "https://wienerschnitzler.org/tag.html#1910-05-21",
 "head":
 "Morschach",
 "desc":
{"listPlace":
  [
 {
 "placeName":
 "Palace Hotel Axenfels",
 "ref":
 ""}
 ,  {
 "placeName":
 "Hotel Axenstein",
 "ref":
 ""}
 ]
}
}, {
 "type":
 "wienerschnitzler",
 "color":
 "#6F5106",
 "caption":
 "Wiener Schnitzler",
 "idno":
 "https://wienerschnitzler.org/tag.html#1910-05-21",
 "head":
 "Flüelen"
}, {
 "type":
 "wienerschnitzler",
 "color":
 "#6F5106",
 "caption":
 "Wiener Schnitzler",
 "idno":
 "https://wienerschnitzler.org/tag.html#1910-05-21",
 "head":
 "Vierwaldstättersee"
}] 