[{
 "type":
 "schnitzler-orte",
 "idno":
 "https://pmb.acdh.oeaw.ac.at/entity/916/",
 "head":
 "Interlaken"
}, {
 "type":
 "schnitzler-briefe",
 "idno":
 "https://schnitzler-briefe.acdh.oeaw.ac.at/L01934.html",
 "head":
 "Arthur Schnitzler, Olga Schnitzler an Richard Beer-Hofmann, 25. 5. 1910",
 "desc":
{"listPerson":
  [
{
 "persName":
 "Olga Schnitzler",
 "ref":
 "pmb2173"},
 {
 "persName":
 "Richard Beer-Hofmann",
 "ref":
 "pmb10863"}],
 "listPlace":
  [
 {
 "placeName":
 "Interlaken",
 "ref":
 "pmb916"}
 ,  {
 "placeName":
 "Wien",
 "ref":
 "pmb50"}
 ,  {
 "placeName":
 "XVIII., Währing",
 "ref":
 "pmb68"}
 ,  {
 "placeName":
 "Hasenauerstraße",
 "ref":
 "pmb383"}
 ,  {
 "placeName":
 "Höheweg",
 "ref":
 "pmb52047"}
 ,  {
 "placeName":
 "Jungfrau",
 "ref":
 "pmb52049"}
 ,  {
 "placeName":
 "Territet",
 "ref":
 "pmb52051"}
 ]}

}, {
 "type":
 "schnitzler-cmif",
 "subtype":
 "#asbw_4ed2e411-8d76-435f-aea0-faf299e96d86",
 "head":
 "Erhalt von Zinaida Vengerova an Arthur Schnitzler, 23. 5. 1910",
 "desc":
{"listPerson":
  [
{
 "persName":
 "Vengerova, Zinaida",
 "ref":
 ""}],
 "bibl":
 "Die Korrespondenz von Arthur Schnitzler mit Isabella Vengerova und Zinaida Vengerova. Herausgegeben von Konstantin Asadowski und Martin Anton Müller. In: Hofmannsthal-Jahrbuch zur europäischen Moderne, Bd. 30 (2022), S. 7–91."}

}, {
 "type":
 "schnitzler-tagebuch",
 "idno":
 "https://schnitzler-tagebuch.acdh.oeaw.ac.at/entry__1910-05-25.html",
 "head":
 "Tagebuch, 25. Mai 1910",
 "desc":
{"listBibl":
  [
 {
 "title":
 "Das weite Land. Tragikomödie in fünf Akten",
 "ref":
 "pmb30207"}
 ],
 "listPlace":
  [
 {
 "placeName":
 "Interlaken",
 "ref":
 "pmb916"}
 ,  {
 "placeName":
 "Harderberg",
 "ref":
 "pmb92272"}
 ]}

}] 