[{
 "type":
 "schnitzler-tagebuch",
 "color":
 "#037a33",
 "filename":
 "entry__1910-03-06",
 "caption":
 "Tagebuch",
 "idno":
 "https://schnitzler-tagebuch.acdh.oeaw.ac.at/entry__1910-03-06.html",
 "head":
 "Tagebuch, 6. März 1910",
 "desc":
{"listPerson":
  [
{
 "persName":
 "Anton Anton",
 "ref":
 "person_13231"},
 {
 "persName":
 "Clemens Khan Kolischer",
 "ref":
 "person_17007"},
 {
 "persName":
 "Felix Salten",
 "ref":
 "person_19542"},
 {
 "persName":
 "Oscar Straus",
 "ref":
 "person_20490"},
 {
 "persName":
 "Antonie Trebitsch",
 "ref":
 "person_20793"},
 {
 "persName":
 "Siegfried Trebitsch",
 "ref":
 "person_20796"},
 {
 "persName":
 "Jakob Wassermann",
 "ref":
 "person_21107"},
 {
 "persName":
 "Samuel Fischer",
 "ref":
 "person_15009"}],
 "listBibl":
  [
 {
 "title":
 "Frau Beate und ihr Sohn. Novelle",
 "ref":
 "pmb32133"}
 ,  {
 "title":
 "Die letzten Masken",
 "ref":
 "pmb29877"}
 ],
 "listPlace":
  [
 {
 "placeName":
 "Dornbacher Park",
 "ref":
 "pmb176"}
 ,  {
 "placeName":
 "Pötzleinsdorf",
 "ref":
 "pmb169"}
 ,  {
 "placeName":
 "Olomouc",
 "ref":
 "pmb44176"}
 ,  {
 "placeName":
 "XIII., Hietzing",
 "ref":
 "pmb63"}
 ]
}
}, {
 "type":
 "schnitzler-briefe",
 "color":
 "#A63437",
 "filename":
 "L01916",
 "caption":
 "Briefe mit Autorinnen und Autoren",
 "idno":
 "https://schnitzler-briefe.acdh.oeaw.ac.at/L01916.html",
 "head":
 "Richard Beer-Hofmann an Arthur Schnitzler, 6. 3. 1910",
 "desc":
{"listPerson":
  [
{
 "persName":
 "Richard Beer-Hofmann",
 "ref":
 "pmb10863"},
 {
 "persName":
 "Siegfried Trebitsch",
 "ref":
 "pmb12968"},
 {
 "persName":
 "Alexander Barjanski",
 "ref":
 "pmb13742"},
 {
 "persName":
 "Hans Bernhard Schlesinger",
 "ref":
 "pmb24239"}],
 "listPlace":
  [
 {
 "placeName":
 "Wien",
 "ref":
 "pmb50"}
 ]
}
}, {
 "type":
 "schnitzler-briefe",
 "color":
 "#A63437",
 "filename":
 "L01917",
 "caption":
 "Briefe mit Autorinnen und Autoren",
 "idno":
 "https://schnitzler-briefe.acdh.oeaw.ac.at/L01917.html",
 "head":
 "Arthur Schnitzler an Richard Beer-Hofmann, 6. 3. 1910",
 "desc":
{"listPerson":
  [
{
 "persName":
 "Richard Beer-Hofmann",
 "ref":
 "pmb10863"},
 {
 "persName":
 "Siegfried Trebitsch",
 "ref":
 "pmb12968"},
 {
 "persName":
 "Alexander Barjanski",
 "ref":
 "pmb13742"},
 {
 "persName":
 "Hans Bernhard Schlesinger",
 "ref":
 "pmb24239"}],
 "listPlace":
  [
 {
 "placeName":
 "Edmund-Weiß-Gasse 7",
 "ref":
 "pmb168940"}
 ,  {
 "placeName":
 "Wien",
 "ref":
 "pmb50"}
 ]
}
}, {
 "type":
 "wienerschnitzler",
 "color":
 "#ECDA98",
 "caption":
 "Wiener Schnitzler",
 "idno":
 "https://wienerschnitzler.org/tag.html#1910-03-06",
 "head":
 "Wien",
 "desc":
{"listPlace":
  [
 {
 "placeName":
 "XVII., Hernals",
 "ref":
 ""}
 ,  {
 "placeName":
 "XVIII., Währing",
 "ref":
 ""}
 ,  {
 "placeName":
 "XIII., Hietzing",
 "ref":
 ""}
 ]
}
}, {
 "type":
 "schnitzler-mikrofilme-daten",
 "color":
 "#6e7b8b",
 "filename":
 "1428603_0313",
 "caption":
 "Mikroverfilmung des Nachlasses",
 "idno":
 "https://schnitzler-mikrofilme.acdh.oeaw.ac.at/1428603_0313.html",
 "head":
 "Mappe A136",
 "text":
 "Datumsangabe auf Blatt von Frau Beate und ihr Sohn"
}] 