[{
 "type":
 "schnitzler-tagebuch",
 "color":
 "#037a33",
 "filename":
 "entry__1910-07-28",
 "caption":
 "Tagebuch",
 "idno":
 "https://schnitzler-tagebuch.acdh.oeaw.ac.at/entry__1910-07-28.html",
 "head":
 "Tagebuch, 28. Juli 1910",
 "desc":
{"listPlace":
  [
 {
 "placeName":
 "Sonnwendstein",
 "ref":
 "pmb91776"}
 ,  {
 "placeName":
 "Trattenbach",
 "ref":
 "pmb91922"}
 ,  {
 "placeName":
 "Kirchberg am Wechsel",
 "ref":
 "pmb40892"}
 ,  {
 "placeName":
 "Feistritz am Wechsel",
 "ref":
 "pmb90615"}
 ,  {
 "placeName":
 "Aspang Markt",
 "ref":
 "pmb90268"}
 ,  {
 "placeName":
 "Mönichkirchen",
 "ref":
 "pmb91274"}
 ]
}
}, {
 "type":
 "URL",
 "subtype":
 "wienerschnitzler",
 "head":
 "Semmering",
 "desc":
{"listPlace":
  [
 {
 "placeName":
 "Südbahnhotel [Semmering]",
 "ref":
 ""}
 ]
}
}, {
 "type":
 "URL",
 "subtype":
 "wienerschnitzler",
 "head":
 "Kirchberg am Wechsel",
 "desc":
{"listPlace":
  [
 {
 "placeName":
 "Gasthaus zur 1000-jährigen Linde",
 "ref":
 ""}
 ]
}
}, {
 "type":
 "URL",
 "subtype":
 "wienerschnitzler",
 "head":
 "Sonnwendstein"
}, {
 "type":
 "URL",
 "subtype":
 "wienerschnitzler",
 "head":
 "Trattenbach"
}, {
 "type":
 "URL",
 "subtype":
 "wienerschnitzler",
 "head":
 "Aspang-Markt",
 "desc":
{"listPlace":
  [
 {
 "placeName":
 "Hotel Goldener Hirsch",
 "ref":
 ""}
 ]
}
}, {
 "type":
 "URL",
 "subtype":
 "wienerschnitzler",
 "head":
 "Mönichkirchen [Niederösterreich]"
}, {
 "type":
 "URL",
 "subtype":
 "wienerschnitzler",
 "head":
 "Feistritz am Wechsel"
}] 