[{
 "type":
 "schnitzler-tagebuch",
 "color":
 "#037a33",
 "filename":
 "entry__1910-09-16",
 "caption":
 "Tagebuch",
 "idno":
 "https://schnitzler-tagebuch.acdh.oeaw.ac.at/entry__1910-09-16.html",
 "head":
 "Tagebuch, 16. September 1910",
 "desc":
{"listPerson":
  [
{
 "persName":
 "Paul Jensen",
 "ref":
 "person_16539"},
 {
 "persName":
 "Franz Neumann",
 "ref":
 "person_18416"},
 {
 "persName":
 "Willy Strecker",
 "ref":
 "person_20517"},
 {
 "persName":
 "Arthur Bauer",
 "ref":
 "person_13465"},
 {
 "persName":
 "Ludwig Strecker",
 "ref":
 "person_20515"},
 {
 "persName":
 "Ludwig Strecker",
 "ref":
 "person_20516"}],
 "listBibl":
  [
 {
 "title":
 "Liebelei. Schauspiel in drei Akten",
 "ref":
 "pmb29917"}
 ,  {
 "title":
 "Liebelei. Oper in drei Akten",
 "ref":
 "pmb31311"}
 ],
 "listPlace":
  [
 {
 "placeName":
 "Dresden",
 "ref":
 "pmb90550"}
 ,  {
 "placeName":
 "Bad Homburg",
 "ref":
 "pmb54155"}
 ,  {
 "placeName":
 "Frankfurt am Main",
 "ref":
 "pmb146"}
 ]
}
}, {
 "type":
 "wienerschnitzler",
 "color":
 "#6F5106",
 "caption":
 "Wiener Schnitzler",
 "idno":
 "https://wienerschnitzler.org/tag.html#1910-09-16",
 "head":
 "Frankfurt am Main",
 "desc":
{"listPlace":
  [
 {
 "placeName":
 "Hotel Imperial [Frankfurt am Main]",
 "ref":
 ""}
 ,  {
 "placeName":
 "Frankfurter Oper",
 "ref":
 ""}
 ]
}
}, {
 "type":
 "wienerschnitzler",
 "color":
 "#6F5106",
 "caption":
 "Wiener Schnitzler",
 "idno":
 "https://wienerschnitzler.org/tag.html#1910-09-16",
 "head":
 "Bad Homburg von der HÃ¶he",
 "desc":
{"listPlace":
  [
 {
 "placeName":
 "Kastell Saalburg",
 "ref":
 ""}
 ,  {
 "placeName":
 "Kurpark Bad Homburg",
 "ref":
 ""}
 ]
}
}, {
 "type":
 "URL",
 "subtype":
 "pmb",
 "filename":
 "entity/250837/",
 "idno":
 "https://pmb.acdh.oeaw.ac.at/entity/250837/",
 "head":
 "Probe von Liebelei. Oper, 16.9.1910",
 "desc":
{"listOrg":
  [
 {
 "orgName":
 "Frankfurter Opernhaus",
 "ref":
 ""}
 ],
 "listBibl":
  [
 {
 "title":
 "Liebelei. Oper in drei Akten",
 "ref":
 ""}
 ],
 "listPerson":
  [
{
 "persName":
 "Arthur Schnitzler",
 "ref":
 ""}],
 "listPlace":
  [
 {
 "placeName":
 "Frankfurter Oper",
 "ref":
 ""}
 ]
}
}] 