{
 "date":
 {
 "when-iso":
 "1910-10-20",
 "written":
 "Donnerstag, 20. Oktober 1910"
},
"listEvent":
 [{
 "type":
 "schnitzler-orte",
 "idno":
 "https://pmb.acdh.oeaw.ac.at/entity/50/",
 "head":
 "Wien"
}, {
 "type":
 "schnitzler-briefe",
 "idno":
 "https://schnitzler-briefe.acdh.oeaw.ac.at/L01967.html",
 "head":
 "Arthur Schnitzler an Hermann Bahr, 20. 10. 1910",
 "desc":
{"listPerson":
  [
{
 "persName":
 "Hermann Bahr",
 "ref":
 "pmb10815"}],
 "listBibl":
  [
 {
 "title":
 "Der junge Medardus. Dramatische Historie in einem Vorspiel und fünf Aufzügen",
 "ref":
 "pmb29937"}
 ],
 "listPlace":
  [
 {
 "placeName":
 "Wien",
 "ref":
 "pmb50"}
 ,  {
 "placeName":
 "London",
 "ref":
 "pmb224"}
 ,  {
 "placeName":
 "Sternwartestraße",
 "ref":
 "pmb150"}
 ]}

}, {
 "type":
 "schnitzler-briefe",
 "idno":
 "https://schnitzler-briefe.acdh.oeaw.ac.at/L01968.html",
 "head":
 "Hugo von Hofmannsthal an Arthur Schnitzler, 20. 10. 1910",
 "desc":
{"listPerson":
  [
{
 "persName":
 "Hugo von Hofmannsthal",
 "ref":
 "pmb11740"},
 {
 "persName":
 "Josef Kainz",
 "ref":
 "pmb11851"},
 {
 "persName":
 "Karl Max Lichnowsky",
 "ref":
 "pmb39994"},
 {
 "persName":
 "Mechtilde Lichnowsky",
 "ref":
 "pmb38988"}],
 "listBibl":
  [
 {
 "title":
 "Das weite Land. Tragikomödie in fünf Akten",
 "ref":
 "pmb30207"}
 ,  {
 "title":
 "Der Thor und der Tod",
 "ref":
 "pmb30279"}
 ,  {
 "title":
 "Saul. Ein Tragödienfragment",
 "ref":
 "pmb39985"}
 ,  {
 "title":
 "Der Rosenkavalier",
 "ref":
 "pmb30341"}
 ,  {
 "title":
 "Die Weissagung",
 "ref":
 "pmb30683"}
 ],
 "listOrg":
  [
 {
 "orgName":
 "Burgtheater",
 "ref":
 "pmb36247"}
 ],
 "listPlace":
  [
 {
 "placeName":
 "Rodaun",
 "ref":
 "pmb173"}
 ,  {
 "placeName":
 "Wien",
 "ref":
 "pmb50"}
 ,  {
 "placeName":
 "Neubeuern",
 "ref":
 "pmb33996"}
 ,  {
 "placeName":
 "Hradec nad Moravicí",
 "ref":
 "pmb36534"}
 ]}

}, {
 "type":
 "schnitzler-tagebuch",
 "idno":
 "https://schnitzler-tagebuch.acdh.oeaw.ac.at/entry__1910-10-20.html",
 "head":
 "Tagebuch, 20. Oktober 1910",
 "desc":
{"listPerson":
  [
{
 "persName":
 "Moriz Benedikt",
 "ref":
 "person_13595"},
 {
 "persName":
 "Johannes Brahms",
 "ref":
 "person_13914"},
 {
 "persName":
 "Franz Neumann",
 "ref":
 "person_18416"},
 {
 "persName":
 "Louise Schnitzler",
 "ref":
 "person_19831"},
 {
 "persName":
 "Siegfried Trebitsch",
 "ref":
 "person_20796"},
 {
 "persName":
 "Hugo von Hofmannsthal",
 "ref":
 "person_16293"}],
 "listBibl":
  [
 {
 "title":
 "Das weite Land. Tragikomödie in fünf Akten",
 "ref":
 "pmb30207"}
 ,  {
 "title":
 "Liebelei. Oper in drei Akten",
 "ref":
 "pmb31311"}
 ,  {
 "title":
 "Das Tagebuch der Redegonda",
 "ref":
 "pmb30349"}
 ,  {
 "title":
 "Ein Muttersohn",
 "ref":
 "pmb77057"}
 ],
 "listPlace":
  [
 {
 "placeName":
 "Burgtheater",
 "ref":
 "pmb14"}
 ]}

}, {
 "type":
 "schnitzler-bahr",
 "idno":
 "https://schnitzler-bahr.acdh.oeaw.ac.at/L041119.html",
 "head":
 "Schnitzler an Bahr, 20. 10. 1910",
 "desc":
{"listPerson":
  [
{
 "persName":
 "Hermann Bahr",
 "ref":
 "pmb10815"}],
 "listBibl":
  [
 {
 "title":
 "Der junge Medardus. Dramatische Historie in einem Vorspiel und fünf Aufzügen",
 "ref":
 "pmb29937"}
 ],
 "listPlace":
  [
 {
 "placeName":
 "Wien",
 "ref":
 "pmb50"}
 ,  {
 "placeName":
 "London",
 "ref":
 "pmb224"}
 ,  {
 "placeName":
 "Sternwartestraße",
 "ref":
 "pmb150"}
 ]}

}] 
}