[{
 "type":
 "schnitzler-orte",
 "color":
 "#045344",
 "caption":
 "Aufenthaltsorte",
 "idno":
 "https://pmb.acdh.oeaw.ac.at/entity/667/",
 "head":
 "Garmisch-Partenkirchen"
}, {
 "type":
 "schnitzler-briefe",
 "color":
 "#A63437",
 "caption":
 "Briefe mit Autorinnen und Autoren",
 "idno":
 "https://schnitzler-briefe.acdh.oeaw.ac.at/L01954.html",
 "head":
 "Arthur Schnitzler, Olga Schnitzler an Richard Beer-Hofmann, 23. 8. 1910",
 "desc":
{"listPerson":
  [
{
 "persName":
 "Olga Schnitzler",
 "ref":
 "pmb2173"},
 {
 "persName":
 "Richard Beer-Hofmann",
 "ref":
 "pmb10863"},
 {
 "persName":
 "Elisabeth Steinrück",
 "ref":
 "pmb2315"}],
 "listBibl":
  [
 {
 "title":
 "Liebelei. Oper in drei Akten",
 "ref":
 "pmb31311"}
 ],
 "listPlace":
  [
 {
 "placeName":
 "Partenkirchen",
 "ref":
 "pmb2318"}
 ,  {
 "placeName":
 "Garmisch-Partenkirchen",
 "ref":
 "pmb667"}
 ,  {
 "placeName":
 "Bad Ischl",
 "ref":
 "pmb213"}
 ,  {
 "placeName":
 "Steinfeld",
 "ref":
 "pmb405"}
 ,  {
 "placeName":
 "St. Anton",
 "ref":
 "pmb52102"}
 ,  {
 "placeName":
 "Dreitorspitze",
 "ref":
 "pmb52104"}
 ,  {
 "placeName":
 "Frankfurt am Main",
 "ref":
 "pmb146"}
 ,  {
 "placeName":
 "Heidelberg",
 "ref":
 "pmb882"}
 ]
}
}, {
 "type":
 "schnitzler-tagebuch",
 "color":
 "#037a33",
 "caption":
 "Tagebuch",
 "idno":
 "https://schnitzler-tagebuch.acdh.oeaw.ac.at/entry__1910-08-23.html",
 "head":
 "Tagebuch, 23. August 1910",
 "desc":
{"listPerson":
  [
{
 "persName":
 "Henrik Ibsen",
 "ref":
 "person_16432"},
 {
 "persName":
 "Elisabeth Steinrück",
 "ref":
 "person_20386"},
 {
 "persName":
 "Albert Steinrück",
 "ref":
 "person_20383"},
 {
 "persName":
 "Alfred Karl Mayer",
 "ref":
 "person_18011"}],
 "listPlace":
  [
 {
 "placeName":
 "München",
 "ref":
 "pmb45258"}
 ,  {
 "placeName":
 "Saint Anton",
 "ref":
 "pmb91800"}
 ,  {
 "placeName":
 "Rissersee",
 "ref":
 "pmb92487"}
 ]
}
}] 