[{
 "type":
 "schnitzler-tagebuch",
 "color":
 "#037a33",
 "filename":
 "entry__1910-10-18",
 "caption":
 "Tagebuch",
 "idno":
 "https://schnitzler-tagebuch.acdh.oeaw.ac.at/entry__1910-10-18.html",
 "head":
 "Tagebuch, 18. Oktober 1910",
 "desc":
{"listPerson":
  [
{
 "persName":
 "Romain Rolland",
 "ref":
 "person_19333"},
 {
 "persName":
 "Karl Schönherr",
 "ref":
 "person_19850"}],
 "listBibl":
  [
 {
 "title":
 "Jean-Christophe",
 "ref":
 "pmb78079"}
 ,  {
 "title":
 "Glaube und Heimat. Die Tragödie eines Volkes",
 "ref":
 "pmb30855"}
 ],
 "listPlace":
  [
 {
 "placeName":
 "Maria Schutz",
 "ref":
 "pmb45277"}
 ,  {
 "placeName":
 "Semmering",
 "ref":
 "pmb91735"}
 ]
}
}, {
 "type":
 "schnitzler-briefe",
 "color":
 "#A63437",
 "filename":
 "L01966",
 "caption":
 "Briefe mit Autorinnen und Autoren",
 "idno":
 "https://schnitzler-briefe.acdh.oeaw.ac.at/L01966.html",
 "head":
 "Arthur Schnitzler, Olga Schnitzler an Richard Beer-Hofmann, 18. 10. 1910",
 "desc":
{"listPerson":
  [
{
 "persName":
 "Richard Beer-Hofmann",
 "ref":
 "pmb10863"},
 {
 "persName":
 "Max Reinhardt",
 "ref":
 "pmb12504"},
 {
 "persName":
 "Olga Schnitzler",
 "ref":
 "pmb2173"}],
 "listPlace":
  [
 {
 "placeName":
 "Semmering",
 "ref":
 "pmb189"}
 ,  {
 "placeName":
 "Hasenauerstraße 59",
 "ref":
 "pmb235251"}
 ,  {
 "placeName":
 "Rax",
 "ref":
 "pmb40884"}
 ,  {
 "placeName":
 "Wien",
 "ref":
 "pmb50"}
 ,  {
 "placeName":
 "Polleroswand",
 "ref":
 "pmb52108"}
 ,  {
 "placeName":
 "XVIII., Währing",
 "ref":
 "pmb68"}
 ]
}
}, {
 "type":
 "schnitzler-briefe",
 "color":
 "#A63437",
 "filename":
 "L03625",
 "caption":
 "Briefe mit Autorinnen und Autoren",
 "idno":
 "https://schnitzler-briefe.acdh.oeaw.ac.at/L03625.html",
 "head":
 "Stefan Zweig an Arthur Schnitzler, [zwischen 18. und
                  24. 10.? 1910]",
 "desc":
{"listPerson":
  [
{
 "persName":
 "Jakob Wassermann",
 "ref":
 "pmb13055"},
 {
 "persName":
 "Stefan Zweig",
 "ref":
 "pmb13212"},
 {
 "persName":
 "Olga Schnitzler",
 "ref":
 "pmb2173"}],
 "listBibl":
  [
 {
 "title":
 "Der junge Medardus. Dramatische Historie in einem Vorspiel und fünf Aufzügen",
 "ref":
 "pmb29937"}
 ,  {
 "title":
 "Das weite Land. Tragikomödie in fünf Akten",
 "ref":
 "pmb30207"}
 ],
 "listPlace":
  [
 {
 "placeName":
 "Burgtheater",
 "ref":
 "pmb14"}
 ,  {
 "placeName":
 "Semmering",
 "ref":
 "pmb189"}
 ,  {
 "placeName":
 "Kochgasse 8",
 "ref":
 "pmb249577"}
 ,  {
 "placeName":
 "Wien",
 "ref":
 "pmb50"}
 ]
}
}, {
 "type":
 "wienerschnitzler",
 "color":
 "#6F5106",
 "caption":
 "Wiener Schnitzler",
 "idno":
 "https://wienerschnitzler.org/tag.html#1910-10-18",
 "head":
 "Semmering",
 "desc":
{"listPlace":
  [
 {
 "placeName":
 "Südbahnhotel [Semmering]",
 "ref":
 ""}
 ,  {
 "placeName":
 "Talhofweg",
 "ref":
 ""}
 ]
}
}, {
 "type":
 "wienerschnitzler",
 "color":
 "#6F5106",
 "caption":
 "Wiener Schnitzler",
 "idno":
 "https://wienerschnitzler.org/tag.html#1910-10-18",
 "head":
 "Adlitzgraben"
}, {
 "type":
 "wienerschnitzler",
 "color":
 "#6F5106",
 "caption":
 "Wiener Schnitzler",
 "idno":
 "https://wienerschnitzler.org/tag.html#1910-10-18",
 "head":
 "Maria Schutz"
}, {
 "type":
 "schnitzler-cmif",
 "subtype":
 "#v02efeb3-b382-4ed8-a71f-1366a4647e76",
 "color":
 "#654321",
 "caption":
 "Gedruckte Briefwechsel",
 "head":
 "Raoul Auernheimer an Arthur Schnitzler, 18.10.1910",
 "source":
 "The Correspondence of Arthur Schnitzler and Raoul Auernheimer with Raoul Auernheimer’s Aphorism. Edited with introduction and notes by Donald G. Daviau and Jorun B. Johns. Chapel Hill: The University of North Carolina Press, 1972 (University of North Carolina Studies in the Germanic Languages and Literatures, 73)."
}, {
 "type":
 "kalliope-verbund",
 "color":
 "#003574",
 "caption":
 "Kalliope Verbundkatalog",
 "idno":
 "http://kalliope-verbund.info/DE-2498-HS00038502",
 "head":
 "Kunert, Otto A. an Schnitzler, Arthur [Briefe]",
 "text":
 "2 Bl."
}] 