[{
 "type":
 "schnitzler-tagebuch",
 "color":
 "#037a33",
 "filename":
 "entry__1910-05-22",
 "caption":
 "Tagebuch",
 "idno":
 "https://schnitzler-tagebuch.acdh.oeaw.ac.at/entry__1910-05-22.html",
 "head":
 "Tagebuch, 22. Mai 1910",
 "desc":
{"listPerson":
  [
{
 "persName":
 "Ludwig Bauer",
 "ref":
 "person_13473"}],
 "listBibl":
  [
 {
 "title":
 "François les Bas-Bleus",
 "ref":
 "pmb80168"}
 ],
 "listPlace":
  [
 {
 "placeName":
 "Luzern",
 "ref":
 "pmb967"}
 ,  {
 "placeName":
 "Bürgenstock",
 "ref":
 "pmb90418"}
 ]
}
}, {
 "type":
 "schnitzler-briefe",
 "color":
 "#A63437",
 "filename":
 "L01933",
 "caption":
 "Briefe mit Autorinnen und Autoren",
 "idno":
 "https://schnitzler-briefe.acdh.oeaw.ac.at/L01933.html",
 "head":
 "Arthur Schnitzler, Olga Schnitzler an Richard Beer-Hofmann, 22. 5. 1910",
 "desc":
{"listPerson":
  [
{
 "persName":
 "Olga Schnitzler",
 "ref":
 "pmb2173"},
 {
 "persName":
 "Richard Beer-Hofmann",
 "ref":
 "pmb10863"},
 {
 "persName":
 "Paula Beer-Hofmann",
 "ref":
 "pmb10860"}],
 "listPlace":
  [
 {
 "placeName":
 "Bürgenstock",
 "ref":
 "pmb52073"}
 ,  {
 "placeName":
 "Luzern",
 "ref":
 "pmb967"}
 ,  {
 "placeName":
 "Wien",
 "ref":
 "pmb50"}
 ,  {
 "placeName":
 "XVIII., Währing",
 "ref":
 "pmb68"}
 ,  {
 "placeName":
 "Hasenauerstraße",
 "ref":
 "pmb383"}
 ,  {
 "placeName":
 "Känzeli",
 "ref":
 "pmb52075"}
 ,  {
 "placeName":
 "Felsenweg",
 "ref":
 "pmb52081"}
 ,  {
 "placeName":
 "Rigi",
 "ref":
 "pmb674"}
 ,  {
 "placeName":
 "Vierwaldstättersee",
 "ref":
 "pmb39755"}
 ,  {
 "placeName":
 "Zürich",
 "ref":
 "pmb484"}
 ]
}
}, {
 "type":
 "schnitzler-orte",
 "color":
 "#045344",
 "filename":
 "entity/967/",
 "caption":
 "Aufenthaltsorte",
 "idno":
 "https://pmb.acdh.oeaw.ac.at/entity/967/",
 "head":
 "Luzern"
}, {
 "type":
 "schnitzler-orte",
 "color":
 "#045344",
 "filename":
 "entity/967/",
 "caption":
 "Aufenthaltsorte",
 "idno":
 "https://pmb.acdh.oeaw.ac.at/entity/967/",
 "head":
 "Luzern"
}, {
 "type":
 "kalliope-verbund",
 "color":
 "#003574",
 "caption":
 "Kalliope Verbundkatalog",
 "idno":
 "http://kalliope-verbund.info/DE-2498-HS01162190",
 "head":
 "Schnitzler, Arthur an Schnitzler, Heinrich [Briefe]",
 "text":
 "1 Karte",
 "desc":
{"listPerson":
  [
{
 "persName":
 "Olga (1882-1970) Schnitzler",
 "ref":
 "http://d-nb.info/gnd/116848723"},
 {
 "persName":
 "Heinrich (1902-1982) Schnitzler",
 "ref":
 "http://d-nb.info/gnd/116848510"}]
}
}] 