[{
 "type":
 "schnitzler-tagebuch",
 "color":
 "#037a33",
 "filename":
 "entry__1910-09-15",
 "caption":
 "Tagebuch",
 "idno":
 "https://schnitzler-tagebuch.acdh.oeaw.ac.at/entry__1910-09-15.html",
 "head":
 "Tagebuch, 15. September 1910",
 "desc":
{"listPlace":
  [
 {
 "placeName":
 "Heidelberg",
 "ref":
 "pmb882"}
 ,  {
 "placeName":
 "Frankfurt am Main",
 "ref":
 "pmb146"}
 ]
}
}, {
 "type":
 "URL",
 "subtype":
 "wienerschnitzler",
 "head":
 "Frankfurt am Main",
 "desc":
{"listPlace":
  [
 {
 "placeName":
 "Hotel Imperial [Frankfurt am Main]",
 "ref":
 ""}
 ,  {
 "placeName":
 "Frankfurt (Main) Hauptbahnhof",
 "ref":
 ""}
 ]
}
}, {
 "type":
 "URL",
 "subtype":
 "wienerschnitzler",
 "head":
 "Heidelberg",
 "desc":
{"listPlace":
  [
 {
 "placeName":
 "Hauptstraße [Heidelberg]",
 "ref":
 ""}
 ,  {
 "placeName":
 "Heidelberger Bergbahn",
 "ref":
 ""}
 ,  {
 "placeName":
 "Heidelberger Schloss",
 "ref":
 ""}
 ,  {
 "placeName":
 "Molkenkur Bergbahnhof",
 "ref":
 ""}
 ]
}
}, {
 "type":
 "URL",
 "subtype":
 "wienerschnitzler",
 "head":
 "Königstuhl",
 "desc":
{"listPlace":
  [
 {
 "placeName":
 "Heidelberger Bergbahn",
 "ref":
 ""}
 ]
}
}] 