[{
 "type":
 "schnitzler-tagebuch",
 "color":
 "#037a33",
 "filename":
 "entry__1910-07-17",
 "caption":
 "Tagebuch",
 "idno":
 "https://schnitzler-tagebuch.acdh.oeaw.ac.at/entry__1910-07-17.html",
 "head":
 "Tagebuch, 17. Juli 1910",
 "desc":
{"listPerson":
  [
{
 "persName":
 "Richard Beer-Hofmann",
 "ref":
 "person_13551"},
 {
 "persName":
 "Alfred von Berger",
 "ref":
 "person_13624"},
 {
 "persName":
 "Lili Schnitzler",
 "ref":
 "person_14130"},
 {
 "persName":
 "Karl Kraus",
 "ref":
 "person_17108"},
 {
 "persName":
 "Ernestine Lothar",
 "ref":
 "person_17693"},
 {
 "persName":
 "Rudolf Lothar",
 "ref":
 "person_17696"},
 {
 "persName":
 "Ferdinand Schmutzer",
 "ref":
 "person_19784"},
 {
 "persName":
 "Adolf von Sonnenthal",
 "ref":
 "person_20204"},
 {
 "persName":
 "Max von Gutmann",
 "ref":
 "person_15772"},
 {
 "persName":
 "Arthur Kaufmann",
 "ref":
 "person_16770"},
 {
 "persName":
 "Gustav Mahler",
 "ref":
 "person_17786"},
 {
 "persName":
 "Frieda Pollak",
 "ref":
 "person_18881"}],
 "listBibl":
  [
 {
 "title":
 "Das weite Land. Tragikomödie in fünf Akten",
 "ref":
 "pmb30207"}
 ,  {
 "title":
 "Im Vaterhaus",
 "ref":
 "pmb76860"}
 ,  {
 "title":
 "Die Fackel",
 "ref":
 "pmb41244"}
 ],
 "listPlace":
  [
 {
 "placeName":
 "Wien",
 "ref":
 "pmb50"}
 ,  {
 "placeName":
 "Virgl",
 "ref":
 "pmb92584"}
 ,  {
 "placeName":
 "Wilten",
 "ref":
 "pmb49502"}
 ,  {
 "placeName":
 "Gentzgasse",
 "ref":
 "pmb40694"}
 ,  {
 "placeName":
 "Lazaristengasse",
 "ref":
 "pmb40076"}
 ,  {
 "placeName":
 "Kahlenberg",
 "ref":
 "pmb574"}
 ,  {
 "placeName":
 "Türkenschanzpark",
 "ref":
 "pmb113"}
 ]
}
}, {
 "type":
 "wienerschnitzler",
 "color":
 "#ECDA98",
 "caption":
 "Wiener Schnitzler",
 "head":
 "Wien",
 "desc":
{"listPlace":
  [
 {
 "placeName":
 "XVIII., Währing",
 "ref":
 ""}
 ]
}
}, {
 "type":
 "schnitzler-traeume",
 "subtype":
 "#ISBN978-3-8353-1029-2",
 "color":
 "#1193CC",
 "caption":
 "Traumtagebuch",
 "head":
 "Traum vom 17. Juli 1910",
 "source":
 "Arthur Schnitzler: Träume. Das Traumtagebuch 1875–1931. Herausgegeben von Peter Michael Braunwarth und Leo A. Lensing. Göttingen: Wallstein 2012 (Bibliothek Janowitz, Bd. 20)"
}] 