[{
 "type":
 "schnitzler-tagebuch",
 "color":
 "#037a33",
 "filename":
 "entry__1910-07-10",
 "caption":
 "Tagebuch",
 "idno":
 "https://schnitzler-tagebuch.acdh.oeaw.ac.at/entry__1910-07-10.html",
 "head":
 "Tagebuch, 10. Juli 1910",
 "desc":
{"listPerson":
  [
{
 "persName":
 "Hans Altmann",
 "ref":
 "person_13171"},
 {
 "persName":
 "Paul Altmann",
 "ref":
 "person_13175"},
 {
 "persName":
 "Otto Brahm",
 "ref":
 "person_13913"},
 {
 "persName":
 "Josef Kainz",
 "ref":
 "person_16646"},
 {
 "persName":
 "Rudolf Lindau",
 "ref":
 "person_17559"},
 {
 "persName":
 "Heinrich Schnitzler",
 "ref":
 "person_19822"},
 {
 "persName":
 "Helene Schnitzler",
 "ref":
 "person_19823"},
 {
 "persName":
 "Julius Schnitzler",
 "ref":
 "person_19827"},
 {
 "persName":
 "Louise Schnitzler",
 "ref":
 "person_19831"},
 {
 "persName":
 "Anatole France",
 "ref":
 "person_15108"},
 {
 "persName":
 "Clara Jonas",
 "ref":
 "person_16572"}],
 "listBibl":
  [
 {
 "title":
 "Thaïs",
 "ref":
 "pmb78236"}
 ,  {
 "title":
 "Briefwechsel zwischen Goethe und Marianne von Willemer",
 "ref":
 "pmb76789"}
 ],
 "listPlace":
  [
 {
 "placeName":
 "Wien",
 "ref":
 "pmb50"}
 ]
}
}, {
 "type":
 "schnitzler-briefe",
 "color":
 "#A63437",
 "filename":
 "L01943",
 "caption":
 "Briefe mit Autorinnen und Autoren",
 "idno":
 "https://schnitzler-briefe.acdh.oeaw.ac.at/L01943.html",
 "head":
 "Franz Blei an Arthur Schnitzler, 10. 7. 1910",
 "desc":
{"listPerson":
  [
{
 "persName":
 "Franz Blei",
 "ref":
 "pmb10955"},
 {
 "persName":
 "Georg Müller",
 "ref":
 "pmb5601"},
 {
 "persName":
 "Hermann Bahr",
 "ref":
 "pmb10815"},
 {
 "persName":
 "Leopold von Andrian-Werburg",
 "ref":
 "pmb10765"}],
 "listBibl":
  [
 {
 "title":
 "Reigen. Zehn Dialoge",
 "ref":
 "pmb29855"}
 ,  {
 "title":
 "Die Mutter. Drama in drei Akten",
 "ref":
 "pmb30963"}
 ,  {
 "title":
 "Der Garten der Erkenntnis",
 "ref":
 "pmb30435"}
 ],
 "listPlace":
  [
 {
 "placeName":
 "Wien",
 "ref":
 "pmb50"}
 ,  {
 "placeName":
 "Forte dei Marmi",
 "ref":
 "pmb44248"}
 ,  {
 "placeName":
 "Casa Vignolo",
 "ref":
 "pmb1170"}
 ,  {
 "placeName":
 "Josephsplatz",
 "ref":
 "pmb1168"}
 ]
}
}, {
 "type":
 "wienerschnitzler",
 "color":
 "#ECDA98",
 "caption":
 "Wiener Schnitzler",
 "head":
 "Semmering",
 "desc":
{"listPlace":
  [
 {
 "placeName":
 "Südbahnhotel [Semmering]",
 "ref":
 ""}
 ,  {
 "placeName":
 "Kurhaus Semmering",
 "ref":
 ""}
 ,  {
 "placeName":
 "Hotel Erzherzog Johann",
 "ref":
 ""}
 ,  {
 "placeName":
 "Bahnhof Semmering",
 "ref":
 ""}
 ]
}
}, {
 "type":
 "wienerschnitzler",
 "color":
 "#ECDA98",
 "caption":
 "Wiener Schnitzler",
 "head":
 "Wien",
 "desc":
{"listPlace":
  [
 {
 "placeName":
 "X., Favoriten",
 "ref":
 ""}
 ,  {
 "placeName":
 "XVIII., Währing",
 "ref":
 ""}
 ]
}
}] 