[{
 "type":
 "schnitzler-tagebuch",
 "color":
 "#037a33",
 "filename":
 "entry__1910-06-26",
 "caption":
 "Tagebuch",
 "idno":
 "https://schnitzler-tagebuch.acdh.oeaw.ac.at/entry__1910-06-26.html",
 "head":
 "Tagebuch, 26. Juni 1910",
 "desc":
{"listPerson":
  [
{
 "persName":
 "Julius Bauer",
 "ref":
 "person_13471"},
 {
 "persName":
 "Alfred von Berger",
 "ref":
 "person_13624"},
 {
 "persName":
 "Hugo Heller",
 "ref":
 "person_16069"},
 {
 "persName":
 "Josef Kainz",
 "ref":
 "person_16646"},
 {
 "persName":
 "Ludwig Klinenberger",
 "ref":
 "person_16911"},
 {
 "persName":
 "Charles Gustavus Markbreiter",
 "ref":
 "person_17898"},
 {
 "persName":
 "Paul Marx",
 "ref":
 "person_17958"},
 {
 "persName":
 "Heinrich Schnitzler",
 "ref":
 "person_19822"}],
 "listBibl":
  [
 {
 "title":
 "Die Wildente",
 "ref":
 "pmb29971"}
 ],
 "listPlace":
  [
 {
 "placeName":
 "London",
 "ref":
 "pmb224"}
 ]
}
}, {
 "type":
 "schnitzler-briefe",
 "color":
 "#A63437",
 "filename":
 "L01939",
 "caption":
 "Briefe mit Autorinnen und Autoren",
 "idno":
 "https://schnitzler-briefe.acdh.oeaw.ac.at/L01939.html",
 "head":
 "Arthur Schnitzler an Richard Beer-Hofmann, 26. 6. 1910",
 "desc":
{"listPerson":
  [
{
 "persName":
 "Richard Beer-Hofmann",
 "ref":
 "pmb10863"}],
 "listBibl":
  [
 {
 "title":
 "Der junge Medardus. Dramatische Historie in einem Vorspiel und fünf Aufzügen",
 "ref":
 "pmb29937"}
 ],
 "listPlace":
  [
 {
 "placeName":
 "Burgtheater",
 "ref":
 "pmb14"}
 ,  {
 "placeName":
 "Hasenauerstraße 59",
 "ref":
 "pmb235251"}
 ,  {
 "placeName":
 "Wien",
 "ref":
 "pmb50"}
 ,  {
 "placeName":
 "XVIII., Währing",
 "ref":
 "pmb68"}
 ]
}
}, {
 "type":
 "wienerschnitzler",
 "color":
 "#ECDA98",
 "caption":
 "Wiener Schnitzler",
 "idno":
 "https://wienerschnitzler.org/tag.html#1910-06-26",
 "head":
 "Wien",
 "desc":
{"listPlace":
  [
 {
 "placeName":
 "II., Leopoldstadt",
 "ref":
 ""}
 ,  {
 "placeName":
 "IX., Alsergrund",
 "ref":
 ""}
 ,  {
 "placeName":
 "XVIII., Währing",
 "ref":
 ""}
 ]
}
}, {
 "type":
 "schnitzler-events",
 "color":
 "#9BC53D",
 "filename":
 "entity/250371/",
 "caption":
 "Ereignisse in der PMB",
 "idno":
 "https://pmb.acdh.oeaw.ac.at/entity/250371/",
 "head":
 "Ausstellungsbesuch Jagdausstellung, 26.6.1910",
 "desc":
{"listPerson":
  [
{
 "persName":
 "Arthur Schnitzler",
 "ref":
 ""},
 {
 "persName":
 "Heinrich Schnitzler",
 "ref":
 ""}],
 "listPlace":
  [
 {
 "placeName":
 "1. internationale Jagdausstellung 1910",
 "ref":
 ""}
 ]
}
}, {
 "type":
 "schnitzler-cmif",
 "subtype":
 "#asbw_4ed2e411-8d76-435f-aea0-faf299e96d86",
 "color":
 "#654321",
 "caption":
 "Gedruckte Briefwechsel",
 "head":
 "Arthur Schnitzler an Isabella Vengerova, 26. 6. 1910",
 "source":
 "Die Korrespondenz von Arthur Schnitzler mit Isabella Vengerova und Zinaida Vengerova. Herausgegeben von Konstantin Asadowski und Martin Anton Müller. In: Hofmannsthal-Jahrbuch zur europäischen Moderne, Bd. 30 (2022), S. 7–91."
}] 