[{
 "type":
 "schnitzler-tagebuch",
 "color":
 "#037a33",
 "filename":
 "entry__1910-07-13",
 "caption":
 "Tagebuch",
 "idno":
 "https://schnitzler-tagebuch.acdh.oeaw.ac.at/entry__1910-07-13.html",
 "head":
 "Tagebuch, 13. Juli 1910",
 "desc":
{"listPerson":
  [
{
 "persName":
 "Lili Schnitzler",
 "ref":
 "person_14130"},
 {
 "persName":
 "Gustav Schwarzkopf",
 "ref":
 "person_19986"}]
}
}, {
 "type":
 "schnitzler-briefe",
 "color":
 "#A63437",
 "filename":
 "L01947",
 "caption":
 "Briefe mit Autorinnen und Autoren",
 "idno":
 "https://schnitzler-briefe.acdh.oeaw.ac.at/L01947.html",
 "head":
 "Hugo von Hofmannsthal an Arthur Schnitzler, 13. 7. [1910]",
 "desc":
{"listPerson":
  [
{
 "persName":
 "Richard Beer-Hofmann",
 "ref":
 "pmb10863"},
 {
 "persName":
 "Hugo von Hofmannsthal",
 "ref":
 "pmb11740"},
 {
 "persName":
 "Heinrich Schnitzler",
 "ref":
 "pmb12692"},
 {
 "persName":
 "Louis Philipp Friedmann",
 "ref":
 "pmb16658"},
 {
 "persName":
 "Rose Friedmann",
 "ref":
 "pmb16670"},
 {
 "persName":
 "Olga Schnitzler",
 "ref":
 "pmb2173"},
 {
 "persName":
 "Lilly Schnitzler",
 "ref":
 "pmb3233"}],
 "listBibl":
  [
 {
 "title":
 "Der Rosenkavalier",
 "ref":
 "pmb30341"}
 ,  {
 "title":
 "Cristinas Heimreise. Komödie",
 "ref":
 "pmb41611"}
 ],
 "listPlace":
  [
 {
 "placeName":
 "Rodaun",
 "ref":
 "pmb173"}
 ,  {
 "placeName":
 "Lido",
 "ref":
 "pmb259"}
 ,  {
 "placeName":
 "Hofmannsthal-Schlössl",
 "ref":
 "pmb40297"}
 ,  {
 "placeName":
 "Canazei",
 "ref":
 "pmb40307"}
 ,  {
 "placeName":
 "Arlberg",
 "ref":
 "pmb40310"}
 ,  {
 "placeName":
 "Bad Aussee",
 "ref":
 "pmb415"}
 ,  {
 "placeName":
 "Tirol",
 "ref":
 "pmb423"}
 ,  {
 "placeName":
 "Welsberg-Taisten",
 "ref":
 "pmb428"}
 ,  {
 "placeName":
 "München",
 "ref":
 "pmb45258"}
 ,  {
 "placeName":
 "Grand Hotel Excelsior [Lido]",
 "ref":
 "pmb46831"}
 ,  {
 "placeName":
 "Wien",
 "ref":
 "pmb50"}
 ,  {
 "placeName":
 "Bodensee",
 "ref":
 "pmb668"}
 ]
}
}, {
 "type":
 "wienerschnitzler",
 "color":
 "#6F5106",
 "caption":
 "Wiener Schnitzler",
 "idno":
 "https://wienerschnitzler.org/tag.html#1910-07-13",
 "head":
 "Wien",
 "desc":
{"listPlace":
  [
 {
 "placeName":
 "XVIII., Währing",
 "ref":
 ""}
 ]
}
}] 