[{
 "type":
 "schnitzler-orte",
 "color":
 "#045344",
 "caption":
 "Aufenthaltsorte",
 "idno":
 "https://pmb.acdh.oeaw.ac.at/entity/52051/",
 "head":
 "Territet"
}{
 "type":
 "schnitzler-briefe",
 "color":
 "#A63437",
 "caption":
 "Briefe mit Autorinnen und Autoren",
 "idno":
 "https://schnitzler-briefe.acdh.oeaw.ac.at/L02558.html",
 "head":
 "Olga Schnitzler, Arthur Schnitzler an Richard Beer-Hofmann, Paula Beer-Hofmann, 27. 5. 1910",
 "desc":
{"listPerson":
  [
{
 "persName":
 "Olga Schnitzler",
 "ref":
 "pmb2173"},
 {
 "persName":
 "Richard Beer-Hofmann",
 "ref":
 "pmb10863"},
 {
 "persName":
 "Paula Beer-Hofmann",
 "ref":
 "pmb10860"}],
 "listPlace":
  [
 {
 "placeName":
 "Territet",
 "ref":
 "pmb52051"}
 ,  {
 "placeName":
 "Wien",
 "ref":
 "pmb50"}
 ,  {
 "placeName":
 "XVIII., Währing",
 "ref":
 "pmb68"}
 ,  {
 "placeName":
 "Hasenauerstraße",
 "ref":
 "pmb383"}
 ,  {
 "placeName":
 "Hôtel des Alpes-Grand Hôtel",
 "ref":
 "pmb53208"}
 ,  {
 "placeName":
 "Villars-sur-Ollon",
 "ref":
 "pmb53627"}
 ]
}
}{
 "type":
 "schnitzler-cmif",
 "subtype":
 "#y8d39a2f-76d4-4426-8799-986c8bf5bc60",
 "color":
 "#654321",
 "caption":
 "Gedruckte Briefwechsel",
 "head":
 "Samuel Fischer an Arthur Schnitzler, 27.5.1910",
 "desc":
{"listPerson":
  [
{
 "persName":
 "Fischer, Samuel",
 "ref":
 "https://d-nb.info/gnd/118691406"}],
 "bibl":
 "Samuel Fischer, Hedwig Fischer: Briefwechsel mit Autoren. S. Fischer Verlag, Frankfurt am Main: 1989. (nur Korrespondenz mit Arthur Schnitzler)"
}
}{
 "type":
 "schnitzler-cmif",
 "subtype":
 "#asbw_4ed2e411-8d76-435f-aea0-faf299e96d86",
 "color":
 "#654321",
 "caption":
 "Gedruckte Briefwechsel",
 "head":
 "Erhalt von Zinaida Vengerova an Arthur Schnitzler, 23. 5. 1910",
 "desc":
{"listPerson":
  [
{
 "persName":
 "Vengerova, Zinaida",
 "ref":
 ""}],
 "bibl":
 "Die Korrespondenz von Arthur Schnitzler mit Isabella Vengerova und Zinaida Vengerova. Herausgegeben von Konstantin Asadowski und Martin Anton Müller. In: Hofmannsthal-Jahrbuch zur europäischen Moderne, Bd. 30 (2022), S. 7–91."
}
}{
 "type":
 "schnitzler-cmif",
 "subtype":
 "#hbas_0a380dfe-61d4-4b9e-8641-01eba8e50777",
 "color":
 "#654321",
 "caption":
 "Gedruckte Briefwechsel",
 "head":
 "Samuel Fischer an Arthur Schnitzler, 27.5.1910",
 "desc":
{"listPerson":
  [
{
 "persName":
 "Fischer, Samuel",
 "ref":
 "https://d-nb.info/gnd/118691406"}],
 "bibl":
 "Hermann Bahr, Arthur Schnitzler. Briefwechsel, Aufzeichnungen, Dokumente 1891–1931. Herausgegeben von Kurt Ifkovits, Martin Anton Müller. Göttingen: Wallstein Verlag 2018"
}
}{
 "type":
 "schnitzler-tagebuch",
 "color":
 "#037a33",
 "caption":
 "Tagebuch",
 "idno":
 "https://schnitzler-tagebuch.acdh.oeaw.ac.at/entry__1910-05-27.html",
 "head":
 "Tagebuch, 27. Mai 1910",
 "desc":
{"listPlace":
  [
 {
 "placeName":
 "Territet",
 "ref":
 "pmb52051"}
 ,  {
 "placeName":
 "Villars-sur-Ollon",
 "ref":
 "pmb53627"}
 ,  {
 "placeName":
 "Montreux",
 "ref":
 "pmb91284"}
 ]
}
}{
 "type":
 "schnitzler-bahr",
 "color":
 "#F9BD63",
 "caption":
 "Schnitzler/Bahr",
 "idno":
 "https://schnitzler-bahr.acdh.oeaw.ac.at/L041564.html",
 "head":
 "S. Fischer an Schnitzler, 27. 5. 1910",
 "desc":
{"listPerson":
  [
{
 "persName":
 "Samuel Fischer",
 "ref":
 "pmb11324"},
 {
 "persName":
 "Karl Walser",
 "ref":
 "pmb13037"},
 {
 "persName":
 "Alfred Kerr",
 "ref":
 "pmb11910"},
 {
 "persName":
 "Hermann Bahr",
 "ref":
 "pmb10815"},
 {
 "persName":
 "Jonas Fraenkel",
 "ref":
 "pmb11352"},
 {
 "persName":
 "Julius Kapp",
 "ref":
 "pmb11877"}],
 "listBibl":
  [
 {
 "title":
 "Liebelei. Schauspiel in drei Akten",
 "ref":
 "pmb29917"}
 ,  {
 "title":
 "Der junge Medardus. Dramatische Historie in einem Vorspiel und fünf Aufzügen",
 "ref":
 "pmb29937"}
 ,  {
 "title":
 "Gesammelte Werke",
 "ref":
 "pmb30313"}
 ,  {
 "title":
 "Der Weg ins Freie. Roman",
 "ref":
 "pmb29923"}
 ,  {
 "title":
 "Arthur Schnitzler",
 "ref":
 "pmb32564"}
 ],
 "listPlace":
  [
 {
 "placeName":
 "Berlin",
 "ref":
 "pmb168"}
 ,  {
 "placeName":
 "Wien",
 "ref":
 "pmb50"}
 ,  {
 "placeName":
 "Bülowstraße",
 "ref":
 "pmb659"}
 ,  {
 "placeName":
 "XVIII., Währing",
 "ref":
 "pmb68"}
 ,  {
 "placeName":
 "Frankreich",
 "ref":
 "pmb166"}
 ,  {
 "placeName":
 "Österreich",
 "ref":
 "pmb41240"}
 ],
 "listOrg":
  [
 {
 "orgName":
 "S. Fischer Verlag",
 "ref":
 "pmb29639"}
 ]
}
}] 