[{
 "type":
 "schnitzler-tagebuch",
 "color":
 "#037a33",
 "filename":
 "entry__1910-11-20",
 "caption":
 "Tagebuch",
 "idno":
 "https://schnitzler-tagebuch.acdh.oeaw.ac.at/entry__1910-11-20.html",
 "head":
 "Tagebuch, 20. November 1910",
 "desc":
{"listPerson":
  [
{
 "persName":
 "Markus Hajek",
 "ref":
 "person_15855"},
 {
 "persName":
 "Efim Manassewitsch",
 "ref":
 "person_17803"},
 {
 "persName":
 "Margarethe Manassewitsch",
 "ref":
 "person_17804"},
 {
 "persName":
 "Alfred Mandl",
 "ref":
 "person_17815"},
 {
 "persName":
 "Irene Mandl",
 "ref":
 "person_17822"},
 {
 "persName":
 "Ludwig Mandl",
 "ref":
 "person_17825"}],
 "listPlace":
  [
 {
 "placeName":
 "Schafberg (St. Gilgen)",
 "ref":
 "pmb59367"}
 ,  {
 "placeName":
 "Neuwaldegg",
 "ref":
 "pmb170"}
 ,  {
 "placeName":
 "Penzing",
 "ref":
 "pmb90913"}
 ,  {
 "placeName":
 "Beethovengasse",
 "ref":
 "pmb92161"}
 ]
}
}, {
 "type":
 "wienerschnitzler",
 "color":
 "#ECDA98",
 "caption":
 "Wiener Schnitzler",
 "idno":
 "https://wienerschnitzler.org/tag.html#1910-11-20",
 "head":
 "Wien",
 "desc":
{"listPlace":
  [
 {
 "placeName":
 "XVII., Hernals",
 "ref":
 ""}
 ,  {
 "placeName":
 "XIV., Penzing",
 "ref":
 ""}
 ,  {
 "placeName":
 "IX., Alsergrund",
 "ref":
 ""}
 ,  {
 "placeName":
 "XVIII., Währing",
 "ref":
 ""}
 ]
}
}, {
 "type":
 "kalliope-verbund",
 "color":
 "#003574",
 "caption":
 "Kalliope Verbundkatalog",
 "idno":
 "http://kalliope-verbund.info/DE-2498-HS00032059",
 "head":
 "Bató, Ludwig an Schnitzler, Arthur [Briefe]",
 "text":
 "2 Bl."
}] 