[{
 "type":
 "schnitzler-tagebuch",
 "color":
 "#037a33",
 "filename":
 "entry__1911-04-13",
 "caption":
 "Tagebuch",
 "idno":
 "https://schnitzler-tagebuch.acdh.oeaw.ac.at/entry__1911-04-13.html",
 "head":
 "Tagebuch, 13. April 1911",
 "desc":
{"listPerson":
  [
{
 "persName":
 "Carl Rössler",
 "ref":
 "person_19326"},
 {
 "persName":
 "Elisabeth Steinrück",
 "ref":
 "person_20386"},
 {
 "persName":
 "Ludwig Thoma",
 "ref":
 "person_20716"},
 {
 "persName":
 "Rudolf Ergas",
 "ref":
 "person_14786"},
 {
 "persName":
 "Albert Steinrück",
 "ref":
 "person_20383"}],
 "listPlace":
  [
 {
 "placeName":
 "Garmisch-Partenkirchen",
 "ref":
 "pmb667"}
 ,  {
 "placeName":
 "München",
 "ref":
 "pmb45258"}
 ,  {
 "placeName":
 "Verona",
 "ref":
 "pmb44153"}
 ]
}
}, {
 "type":
 "schnitzler-briefe",
 "color":
 "#A63437",
 "filename":
 "L03998",
 "caption":
 "Briefe mit Autorinnen und Autoren",
 "idno":
 "https://schnitzler-briefe.acdh.oeaw.ac.at/L03998.html",
 "head":
 "Berta Zuckerkandl an Arthur Schnitzler, [7. oder 14. 4. 1911?]",
 "desc":
{"listPerson":
  [
{
 "persName":
 "Berta Zuckerkandl",
 "ref":
 "pmb2312"},
 {
 "persName":
 "Arthur Schnitzler",
 "ref":
 "pmb2121"},
 {
 "persName":
 "Berta Zuckerkandl",
 "ref":
 "pmb2312"},
 {
 "persName":
 "Sophie Clemenceau",
 "ref":
 "pmb15024"},
 {
 "persName":
 "Georges Clemenceau",
 "ref":
 "pmb4719"},
 {
 "persName":
 "Albert Clemenceau",
 "ref":
 "pmb299874"},
 {
 "persName":
 "André Antoine",
 "ref":
 "pmb2211"}],
 "listBibl":
  [
 {
 "title":
 "Der junge Medardus. Dramatische Historie in einem Vorspiel und fünf Aufzügen",
 "ref":
 "pmb29937"}
 ,  {
 "title":
 "Le Temps",
 "ref":
 "pmb58327"}
 ,  {
 "title":
 "Das weite Land. Tragikomödie in fünf Akten",
 "ref":
 "pmb30207"}
 ,  {
 "title":
 "Chronique théatrale. Le théatre di Vienne. Revue de l’ anné",
 "ref":
 "pmb299880"}
 ],
 "listPlace":
  [
 {
 "placeName":
 "Wien",
 "ref":
 "pmb50"}
 ,  {
 "placeName":
 "Menton",
 "ref":
 "pmb36456"}
 ,  {
 "placeName":
 "Frankreich",
 "ref":
 "pmb166"}
 ,  {
 "placeName":
 "Paris",
 "ref":
 "pmb182"}
 ,  {
 "placeName":
 "Nusswaldgasse 22",
 "ref":
 "pmb238485"}
 ],
 "listOrg":
  [
 {
 "orgName":
 "Théâtre Libre",
 "ref":
 "pmb88609"}
 ,  {
 "orgName":
 "Odéon",
 "ref":
 "pmb93494"}
 ]
}
}, {
 "type":
 "wienerschnitzler",
 "color":
 "#6F5106",
 "caption":
 "Wiener Schnitzler",
 "idno":
 "https://wienerschnitzler.org/tag.html#1911-04-13",
 "head":
 "Garmisch-Partenkirchen",
 "desc":
{"listPlace":
  [
 {
 "placeName":
 "Partenkirchen",
 "ref":
 ""}
 ]
}
}, {
 "type":
 "wienerschnitzler",
 "color":
 "#6F5106",
 "caption":
 "Wiener Schnitzler",
 "idno":
 "https://wienerschnitzler.org/tag.html#1911-04-13",
 "head":
 "München",
 "desc":
{"listPlace":
  [
 {
 "placeName":
 "Hauptbahnhof München",
 "ref":
 ""}
 ]
}
}, {
 "type":
 "wienerschnitzler",
 "color":
 "#6F5106",
 "caption":
 "Wiener Schnitzler",
 "idno":
 "https://wienerschnitzler.org/tag.html#1911-04-13",
 "head":
 "Verona"
}] 