[{
 "type":
 "schnitzler-tagebuch",
 "color":
 "#037a33",
 "filename":
 "entry__1911-10-30",
 "caption":
 "Tagebuch",
 "idno":
 "https://schnitzler-tagebuch.acdh.oeaw.ac.at/entry__1911-10-30.html",
 "head":
 "Tagebuch, 30. Oktober 1911",
 "desc":
{"listPerson":
  [
{
 "persName":
 "Paul Eger",
 "ref":
 "person_14626"},
 {
 "persName":
 "Marius Faber",
 "ref":
 "person_14848"},
 {
 "persName":
 "Adolf Kussmaul",
 "ref":
 "person_17220"},
 {
 "persName":
 "Jaroslav Kvapil",
 "ref":
 "person_17228"},
 {
 "persName":
 "Hermine Medelsky",
 "ref":
 "person_18034"},
 {
 "persName":
 "Hugo Salus",
 "ref":
 "person_19547"},
 {
 "persName":
 "Gustav Schmoranz",
 "ref":
 "person_19782"},
 {
 "persName":
 "Heinrich Teweles",
 "ref":
 "person_20682"},
 {
 "persName":
 "Hermann Bahr",
 "ref":
 "person_13374"}],
 "listBibl":
  [
 {
 "title":
 "Das weite Land. Tragikomödie in fünf Akten",
 "ref":
 "pmb30207"}
 ,  {
 "title":
 "Der junge Medardus. Dramatische Historie in einem Vorspiel und fünf Aufzügen",
 "ref":
 "pmb29937"}
 ,  {
 "title":
 "Jan Hus",
 "ref":
 "pmb30351"}
 ],
 "listPlace":
  [
 {
 "placeName":
 "Prag",
 "ref":
 "pmb652"}
 ,  {
 "placeName":
 "Berlin",
 "ref":
 "pmb168"}
 ]
}
}, {
 "type":
 "wienerschnitzler",
 "color":
 "#ECDA98",
 "caption":
 "Wiener Schnitzler",
 "head":
 "Prag",
 "desc":
{"listPlace":
  [
 {
 "placeName":
 "Palasthotel Prag",
 "ref":
 ""}
 ,  {
 "placeName":
 "Ständetheater",
 "ref":
 ""}
 ,  {
 "placeName":
 "Národní divadlo",
 "ref":
 ""}
 ,  {
 "placeName":
 "Hotel Blauer Stern",
 "ref":
 ""}
 ,  {
 "placeName":
 "Praha hlavní nádraží",
 "ref":
 ""}
 ]
}
}, {
 "type":
 "schnitzler-bahr",
 "color":
 "#639FF9",
 "filename":
 "L041402",
 "caption":
 "Schnitzler/Bahr",
 "idno":
 "https://schnitzler-bahr.acdh.oeaw.ac.at/L041402.html",
 "head":
 "Arthur an Olga Schnitzler, 30. 10. 1911",
 "desc":
{"listPerson":
  [
{
 "persName":
 "Olga Schnitzler",
 "ref":
 "pmb2173"},
 {
 "persName":
 "Heinrich Teweles",
 "ref":
 "pmb12932"},
 {
 "persName":
 "Hugo Salus",
 "ref":
 "pmb12611"},
 {
 "persName":
 "Otto Brahm",
 "ref":
 "pmb10986"},
 {
 "persName":
 "Hermann Bahr",
 "ref":
 "pmb10815"},
 {
 "persName":
 "Charlotte Bondy",
 "ref":
 "pmb14384"},
 {
 "persName":
 "Gustav Schmoranz",
 "ref":
 "pmb10729"},
 {
 "persName":
 "Jaroslav Kvapil",
 "ref":
 "pmb12011"},
 {
 "persName":
 "Alois Jirásek",
 "ref":
 "pmb2749"},
 {
 "persName":
 "Karl Schönherr",
 "ref":
 "pmb12749"},
 {
 "persName":
 "Olga Salus",
 "ref":
 "pmb27818"},
 {
 "persName":
 "Wolfgang Salus",
 "ref":
 "pmb28296"},
 {
 "persName":
 "Louise Engel",
 "ref":
 "pmb27821"}],
 "listBibl":
  [
 {
 "title":
 "Der junge Medardus. Dramatische Historie in einem Vorspiel und fünf Aufzügen",
 "ref":
 "pmb29937"}
 ,  {
 "title":
 "Jan Hus",
 "ref":
 "pmb30351"}
 ,  {
 "title":
 "Liebelei. Oper in drei Akten",
 "ref":
 "pmb31311"}
 ,  {
 "title":
 "Dichtung und Dichter der Zeit",
 "ref":
 "pmb30353"}
 ,  {
 "title":
 "Liebelei. Schauspiel in drei Akten",
 "ref":
 "pmb29917"}
 ],
 "listPlace":
  [
 {
 "placeName":
 "Prag",
 "ref":
 "pmb652"}
 ,  {
 "placeName":
 "Palasthotel Prag",
 "ref":
 "pmb90"}
 ,  {
 "placeName":
 "Neues Deutsches Theater",
 "ref":
 "pmb91"}
 ,  {
 "placeName":
 "Berlin",
 "ref":
 "pmb168"}
 ,  {
 "placeName":
 "Národní divadlo",
 "ref":
 "pmb92"}
 ,  {
 "placeName":
 "Tschechoslowakei",
 "ref":
 "pmb38444"}
 ,  {
 "placeName":
 "Čelakovského sady",
 "ref":
 "pmb474"}
 ,  {
 "placeName":
 "Česká Lípa",
 "ref":
 "pmb41285"}
 ]
}
}, {
 "type":
 "schnitzler-bahr",
 "color":
 "#639FF9",
 "filename":
 "D041074",
 "caption":
 "Schnitzler/Bahr",
 "idno":
 "https://schnitzler-bahr.acdh.oeaw.ac.at/D041074.html",
 "head":
 "Tagebuch von Schnitzler, 30. 10. 1911",
 "desc":
{"listPerson":
  [
{
 "persName":
 "Hermann Bahr",
 "ref":
 "pmb10815"},
 {
 "persName":
 "Heinrich Teweles",
 "ref":
 "pmb12932"},
 {
 "persName":
 "Gustav Schmoranz",
 "ref":
 "pmb10729"},
 {
 "persName":
 "Jaroslav Kvapil",
 "ref":
 "pmb12011"},
 {
 "persName":
 "Alois Jirásek",
 "ref":
 "pmb2749"},
 {
 "persName":
 "Hugo Salus",
 "ref":
 "pmb12611"},
 {
 "persName":
 "Olga Salus",
 "ref":
 "pmb27818"},
 {
 "persName":
 "Louise Engel",
 "ref":
 "pmb27821"},
 {
 "persName":
 "Olga Schnitzler",
 "ref":
 "pmb2173"},
 {
 "persName":
 "Marius Faber",
 "ref":
 "pmb16067"},
 {
 "persName":
 "Lotte Medelsky",
 "ref":
 "pmb2252"},
 {
 "persName":
 "Paul Eger",
 "ref":
 "pmb11227"}],
 "listBibl":
  [
 {
 "title":
 "Der junge Medardus. Dramatische Historie in einem Vorspiel und fünf Aufzügen",
 "ref":
 "pmb29937"}
 ,  {
 "title":
 "Das weite Land. Tragikomödie in fünf Akten",
 "ref":
 "pmb30207"}
 ,  {
 "title":
 "Jan Hus",
 "ref":
 "pmb30351"}
 ,  {
 "title":
 "Dichtung und Dichter der Zeit",
 "ref":
 "pmb30353"}
 ,  {
 "title":
 "Jugenderinnerungen eines alten Arztes",
 "ref":
 "pmb30355"}
 ],
 "listPlace":
  [
 {
 "placeName":
 "Prag",
 "ref":
 "pmb652"}
 ,  {
 "placeName":
 "Palasthotel Prag",
 "ref":
 "pmb90"}
 ,  {
 "placeName":
 "Berlin",
 "ref":
 "pmb168"}
 ,  {
 "placeName":
 "Neues Deutsches Theater",
 "ref":
 "pmb91"}
 ,  {
 "placeName":
 "Národní divadlo",
 "ref":
 "pmb92"}
 ,  {
 "placeName":
 "Hotel Blauer Stern",
 "ref":
 "pmb93"}
 ]
}
}, {
 "type":
 "schnitzler-events",
 "color":
 "#9BC53D",
 "filename":
 "entity/252537/",
 "caption":
 "Ereignisse in der PMB",
 "idno":
 "https://pmb.acdh.oeaw.ac.at/entity/252537/",
 "head":
 "Generalprobe von Jan Hus, 30.10.1911",
 "desc":
{"listBibl":
  [
 {
 "title":
 "Jan Hus",
 "ref":
 ""}
 ],
 "listPerson":
  [
{
 "persName":
 "Arthur Schnitzler",
 "ref":
 ""},
 {
 "persName":
 "Jaroslav Kvapil",
 "ref":
 ""}],
 "listPlace":
  [
 {
 "placeName":
 "Národní divadlo",
 "ref":
 ""}
 ]
}
}, {
 "type":
 "schnitzler-events",
 "color":
 "#9BC53D",
 "filename":
 "entity/88630/",
 "caption":
 "Ereignisse in der PMB",
 "idno":
 "https://pmb.acdh.oeaw.ac.at/entity/88630/",
 "head":
 "Aufführung von Das weite Land, 30.10.1911",
 "desc":
{"listBibl":
  [
 {
 "title":
 "Das weite Land. Tragikomödie in fünf Akten",
 "ref":
 ""}
 ],
 "listPerson":
  [
{
 "persName":
 "Arthur Schnitzler",
 "ref":
 ""},
 {
 "persName":
 "Marius Faber",
 "ref":
 ""}],
 "listPlace":
  [
 {
 "placeName":
 "Ständetheater",
 "ref":
 ""}
 ]
}
}, {
 "type":
 "schnitzler-cmif",
 "subtype":
 "#hbas_0a380dfe-61d4-4b9e-8641-01eba8e50777",
 "color":
 "#654321",
 "caption":
 "Gedruckte Briefwechsel",
 "head":
 "Arthur Schnitzler an Olga Schnitzler, 30.10.1911",
 "source":
 "Hermann Bahr, Arthur Schnitzler. Briefwechsel, Aufzeichnungen, Dokumente 1891–1931. Herausgegeben von Kurt Ifkovits, Martin Anton Müller. Göttingen: Wallstein Verlag 2018"
}, {
 "type":
 "schnitzler-cmif",
 "subtype":
 "#j7685005-64da-4e31-99b6-b4641aa1628c",
 "color":
 "#654321",
 "caption":
 "Gedruckte Briefwechsel",
 "head":
 "Arthur Schnitzler an Olga Schnitzler, 30. 10. 1911",
 "source":
 "Arthur Schnitzler: Briefe 1875–1912. Hrsg. v. Therese Nickl u. Heinrich Schnitzler. Frankfurt am Main: S. Fischer 1981."
}, {
 "type":
 "kalliope-verbund",
 "color":
 "#003574",
 "caption":
 "Kalliope Verbundkatalog",
 "idno":
 "http://kalliope-verbund.info/DE-2498-HS00043298",
 "head":
 "Simolin, Rudolf von an Schnitzler, Arthur [Briefe]",
 "text":
 "2 Bl."
}] 