[{
 "type":
 "schnitzler-tagebuch",
 "color":
 "#037a33",
 "filename":
 "entry__1911-11-07",
 "caption":
 "Tagebuch",
 "idno":
 "https://schnitzler-tagebuch.acdh.oeaw.ac.at/entry__1911-11-07.html",
 "head":
 "Tagebuch, 7. November 1911",
 "desc":
{"listPerson":
  [
{
 "persName":
 "Carl Hagemann",
 "ref":
 "person_15840"},
 {
 "persName":
 "Helene Koehne",
 "ref":
 "person_16959"},
 {
 "persName":
 "Eugenie May",
 "ref":
 "person_18004"},
 {
 "persName":
 "Max Montor",
 "ref":
 "person_18241"},
 {
 "persName":
 "Helene Schnitzler",
 "ref":
 "person_19823"},
 {
 "persName":
 "Julius Schnitzler",
 "ref":
 "person_19827"},
 {
 "persName":
 "Alexander Strakosch",
 "ref":
 "person_20467"},
 {
 "persName":
 "Elsa Valéry",
 "ref":
 "person_20908"},
 {
 "persName":
 "Carl Wagner",
 "ref":
 "person_21022"},
 {
 "persName":
 "Anton Lindner",
 "ref":
 "person_17573"}],
 "listBibl":
  [
 {
 "title":
 "Der Schleier der Beatrice. Schauspiel in fünf Akten",
 "ref":
 "pmb29857"}
 ],
 "listPlace":
  [
 {
 "placeName":
 "Wandsbek",
 "ref":
 "pmb64165"}
 ,  {
 "placeName":
 "Berlin",
 "ref":
 "pmb168"}
 ,  {
 "placeName":
 "Breslau",
 "ref":
 "pmb677"}
 ]
}
}, {
 "type":
 "schnitzler-briefe",
 "color":
 "#A63437",
 "filename":
 "L02043",
 "caption":
 "Briefe mit Autorinnen und Autoren",
 "idno":
 "https://schnitzler-briefe.acdh.oeaw.ac.at/L02043.html",
 "head":
 "Arthur Schnitzler, Olga Schnitzler an Richard Beer-Hofmann, 7. 11. 1911",
 "desc":
{"listPerson":
  [
{
 "persName":
 "Paula Beer-Hofmann",
 "ref":
 "pmb10860"},
 {
 "persName":
 "Richard Beer-Hofmann",
 "ref":
 "pmb10863"},
 {
 "persName":
 "Gabriel Beer-Hofmann",
 "ref":
 "pmb13923"},
 {
 "persName":
 "Olga Schnitzler",
 "ref":
 "pmb2173"},
 {
 "persName":
 "Naëmah Beer-Hofmann",
 "ref":
 "pmb2534"},
 {
 "persName":
 "Mirjam Beer-Hofmann",
 "ref":
 "pmb2668"}],
 "listPlace":
  [
 {
 "placeName":
 "Hasenauerstraße 59",
 "ref":
 "pmb235251"}
 ,  {
 "placeName":
 "Wien",
 "ref":
 "pmb50"}
 ,  {
 "placeName":
 "Hamburg",
 "ref":
 "pmb506"}
 ,  {
 "placeName":
 "Alster",
 "ref":
 "pmb52304"}
 ,  {
 "placeName":
 "XVIII., Währing",
 "ref":
 "pmb68"}
 ,  {
 "placeName":
 "Hotel Atlantic",
 "ref":
 "pmb774"}
 ]
}
}, {
 "type":
 "wienerschnitzler",
 "color":
 "#ECDA98",
 "caption":
 "Wiener Schnitzler",
 "idno":
 "https://wienerschnitzler.org/tag.html#1911-11-07",
 "head":
 "Hamburg",
 "desc":
{"listPlace":
  [
 {
 "placeName":
 "Hotel Atlantic",
 "ref":
 ""}
 ,  {
 "placeName":
 "Deutsches Schauspielhaus in Hamburg",
 "ref":
 ""}
 ,  {
 "placeName":
 "Wandsbek",
 "ref":
 ""}
 ]
}
}, {
 "type":
 "schnitzler-kultur",
 "color":
 "#6B4C5A",
 "filename":
 "pmb143981",
 "caption":
 "Kulturveranstaltungen",
 "idno":
 "https://schnitzler-kultur.acdh.oeaw.ac.at/pmb143981.html",
 "head":
 "Aufführung von Der Schleier der Beatrice,
                        7.11.1911",
 "desc":
{"listOrg":
  [
 {
 "orgName":
 "Deutsches Schauspielhaus in Hamburg",
 "ref":
 ""}
 ],
 "listBibl":
  [
 {
 "title":
 "Der Schleier der Beatrice. Schauspiel in fünf Akten",
 "ref":
 ""}
 ],
 "listPerson":
  [
{
 "persName":
 "Arthur Schnitzler",
 "ref":
 ""},
 {
 "persName":
 "Olga Schnitzler",
 "ref":
 ""},
 {
 "persName":
 "Julius Schnitzler",
 "ref":
 ""},
 {
 "persName":
 "Helene Schnitzler",
 "ref":
 ""},
 {
 "persName":
 "Max Montor",
 "ref":
 ""},
 {
 "persName":
 "Elsa Valéry",
 "ref":
 ""}],
 "listPlace":
  [
 {
 "placeName":
 "Deutsches Schauspielhaus in Hamburg",
 "ref":
 ""}
 ]
}
}] 