[{
 "type":
 "schnitzler-tagebuch",
 "color":
 "#037a33",
 "filename":
 "entry__1911-05-27",
 "caption":
 "Tagebuch",
 "idno":
 "https://schnitzler-tagebuch.acdh.oeaw.ac.at/entry__1911-05-27.html",
 "head":
 "Tagebuch, 27. Mai 1911",
 "desc":
{"listPerson":
  [
{
 "persName":
 "Stefanie Bachrach",
 "ref":
 "person_13359"},
 {
 "persName":
 "Paul Eger",
 "ref":
 "person_14626"},
 {
 "persName":
 "Willi Handl",
 "ref":
 "person_15898"},
 {
 "persName":
 "Klaus Pringsheim",
 "ref":
 "person_18968"},
 {
 "persName":
 "Heinrich Teweles",
 "ref":
 "person_20682"},
 {
 "persName":
 "Alice Ziegler",
 "ref":
 "person_21547"},
 {
 "persName":
 "Rudolf Holzer",
 "ref":
 "person_16339"},
 {
 "persName":
 "Ernst Ziegler",
 "ref":
 "person_21548"}],
 "listBibl":
  [
 {
 "title":
 "Der junge Medardus. Dramatische Historie in einem Vorspiel und fünf Aufzügen",
 "ref":
 "pmb29937"}
 ,  {
 "title":
 "Der Mörder. Novelle",
 "ref":
 "pmb33754"}
 ],
 "listPlace":
  [
 {
 "placeName":
 "Prag",
 "ref":
 "pmb652"}
 ]
}
}, {
 "type":
 "wienerschnitzler",
 "color":
 "#6F5106",
 "caption":
 "Wiener Schnitzler",
 "idno":
 "https://wienerschnitzler.org/tag.html#1911-05-27",
 "head":
 "Prag",
 "desc":
{"listPlace":
  [
 {
 "placeName":
 "Palasthotel Prag",
 "ref":
 ""}
 ,  {
 "placeName":
 "Ständetheater",
 "ref":
 ""}
 ,  {
 "placeName":
 "Hradčany",
 "ref":
 ""}
 ,  {
 "placeName":
 "Stromovka",
 "ref":
 ""}
 ,  {
 "placeName":
 "Strahov",
 "ref":
 ""}
 ,  {
 "placeName":
 "Altneu-Synagogue",
 "ref":
 ""}
 ,  {
 "placeName":
 "Hotel Blauer Stern",
 "ref":
 ""}
 ]
}
}, {
 "type":
 "schnitzler-kultur",
 "color":
 "#6B4C5A",
 "filename":
 "pmb186278",
 "caption":
 "Kulturveranstaltungen",
 "idno":
 "https://schnitzler-kultur.acdh.oeaw.ac.at/pmb186278.html",
 "head":
 "Premiere von Der junge Medardus, 27.5.1911",
 "desc":
{"listBibl":
  [
 {
 "title":
 "Der junge Medardus. Dramatische Historie in einem Vorspiel und fünf Aufzügen",
 "ref":
 ""}
 ],
 "listPerson":
  [
{
 "persName":
 "Ferdinand Onno",
 "ref":
 ""},
 {
 "persName":
 "Tilla Durieux",
 "ref":
 ""},
 {
 "persName":
 "Alice Hétsey-Holzer",
 "ref":
 ""},
 {
 "persName":
 "Max Schütz",
 "ref":
 ""},
 {
 "persName":
 "Arthur Schnitzler",
 "ref":
 ""},
 {
 "persName":
 "Stefanie Bachrach",
 "ref":
 ""}],
 "listPlace":
  [
 {
 "placeName":
 "Ständetheater",
 "ref":
 ""}
 ]
}
}] 