[{
 "type":
 "schnitzler-tagebuch",
 "color":
 "#037a33",
 "filename":
 "entry__1911-07-30",
 "caption":
 "Tagebuch",
 "idno":
 "https://schnitzler-tagebuch.acdh.oeaw.ac.at/entry__1911-07-30.html",
 "head":
 "Tagebuch, 30. Juli 1911",
 "desc":
{"listPerson":
  [
{
 "persName":
 "Alfred von Berger",
 "ref":
 "person_13624"},
 {
 "persName":
 "Richard Weiskirchner",
 "ref":
 "person_21184"},
 {
 "persName":
 "Felix von Weingartner",
 "ref":
 "person_21172"},
 {
 "persName":
 "Rudolf Winternitz",
 "ref":
 "person_21385"},
 {
 "persName":
 "Hans Gregor",
 "ref":
 "person_15637"},
 {
 "persName":
 "Lucille Marcel",
 "ref":
 "person_17856"}],
 "listPlace":
  [
 {
 "placeName":
 "Salzburg",
 "ref":
 "pmb30"}
 ,  {
 "placeName":
 "Innsbruck",
 "ref":
 "pmb867"}
 ,  {
 "placeName":
 "Fulpmes",
 "ref":
 "pmb90671"}
 ]
}
}, {
 "type":
 "URL",
 "subtype":
 "wienerschnitzler",
 "head":
 "Salzburg",
 "desc":
{"listPlace":
  [
 {
 "placeName":
 "Grand Hotel de L’Europe, G. Jung",
 "ref":
 ""}
 ,  {
 "placeName":
 "Hauptbahnhof Salzburg",
 "ref":
 ""}
 ]
}
}, {
 "type":
 "URL",
 "subtype":
 "wienerschnitzler",
 "head":
 "Innsbruck",
 "desc":
{"listPlace":
  [
 {
 "placeName":
 "Hotel zur Sonne [Innsbruck]",
 "ref":
 ""}
 ,  {
 "placeName":
 "Innsbruck Hauptbahnhof",
 "ref":
 ""}
 ,  {
 "placeName":
 "Stubaitalbahn",
 "ref":
 ""}
 ,  {
 "placeName":
 "Hungerburg",
 "ref":
 ""}
 ,  {
 "placeName":
 "Innsbrucker Riesenrundgemälde",
 "ref":
 ""}
 ]
}
}, {
 "type":
 "URL",
 "subtype":
 "wienerschnitzler",
 "head":
 "Fulpmes",
 "desc":
{"listPlace":
  [
 {
 "placeName":
 "Stubaitalbahn",
 "ref":
 ""}
 ]
}
}] 