[{
 "type":
 "schnitzler-tagebuch",
 "color":
 "#037a33",
 "filename":
 "entry__1911-04-04",
 "caption":
 "Tagebuch",
 "idno":
 "https://schnitzler-tagebuch.acdh.oeaw.ac.at/entry__1911-04-04.html",
 "head":
 "Tagebuch, 4. April 1911",
 "desc":
{"listPerson":
  [
{
 "persName":
 "Franz Steiner",
 "ref":
 "person_20372"},
 {
 "persName":
 "Richard Strauss",
 "ref":
 "person_20509"}],
 "listBibl":
  [
 {
 "title":
 "Doktor Gräsler, Badearzt",
 "ref":
 "pmb30201"}
 ],
 "listPlace":
  [
 {
 "placeName":
 "Italian Riviera",
 "ref":
 "pmb90942"}
 ]
}
}, {
 "type":
 "schnitzler-briefe",
 "color":
 "#A63437",
 "filename":
 "L03631",
 "caption":
 "Briefe mit Autorinnen und Autoren",
 "idno":
 "https://schnitzler-briefe.acdh.oeaw.ac.at/L03631.html",
 "head":
 "Stefan Zweig an Arthur Schnitzler, [4.] 4. 1911",
 "desc":
{"listPerson":
  [
{
 "persName":
 "Stefan Zweig",
 "ref":
 "pmb13212"},
 {
 "persName":
 "Arthur Schnitzler",
 "ref":
 "pmb2121"},
 {
 "persName":
 "Stefan Zweig",
 "ref":
 "pmb13212"},
 {
 "persName":
 "Olga Schnitzler",
 "ref":
 "pmb2173"}],
 "listPlace":
  [
 {
 "placeName":
 "Havanna",
 "ref":
 "pmb39944"}
 ,  {
 "placeName":
 "Wien",
 "ref":
 "pmb50"}
 ,  {
 "placeName":
 "Österreich",
 "ref":
 "pmb41240"}
 ,  {
 "placeName":
 "Sternwartestraße 71",
 "ref":
 "pmb168815"}
 ,  {
 "placeName":
 "Castillo de la Real Fuerza",
 "ref":
 "pmb293943"}
 ,  {
 "placeName":
 "Amerika",
 "ref":
 "pmb175"}
 ,  {
 "placeName":
 "New York City",
 "ref":
 "pmb44053"}
 ,  {
 "placeName":
 "Nordamerika",
 "ref":
 "pmb91362"}
 ,  {
 "placeName":
 "Chicago",
 "ref":
 "pmb880"}
 ,  {
 "placeName":
 "Kanada",
 "ref":
 "pmb45794"}
 ,  {
 "placeName":
 "Bermuda",
 "ref":
 "pmb46765"}
 ,  {
 "placeName":
 "Cuba",
 "ref":
 "pmb39943"}
 ,  {
 "placeName":
 "Südamerika",
 "ref":
 "pmb57051"}
 ]
}
}, {
 "type":
 "wienerschnitzler",
 "color":
 "#6F5106",
 "caption":
 "Wiener Schnitzler",
 "idno":
 "https://wienerschnitzler.org/tag.html#1911-04-04",
 "head":
 "Wien",
 "desc":
{"listPlace":
  [
 {
 "placeName":
 "XVIII., Währing",
 "ref":
 ""}
 ,  {
 "placeName":
 "I., Innere Stadt",
 "ref":
 ""}
 ]
}
}, {
 "type":
 "URL",
 "subtype":
 "pmb",
 "filename":
 "entity/297915/",
 "idno":
 "https://pmb.acdh.oeaw.ac.at/entity/297915/",
 "head":
 "Besuch des Kaiserpanoramas [Wien, Schubertring 4], 4.4.1911",
 "desc":
{"listPerson":
  [
{
 "persName":
 "Arthur Schnitzler",
 "ref":
 ""}],
 "listPlace":
  [
 {
 "placeName":
 "Kaiserpanorama [Wien, Schubertring 4]",
 "ref":
 ""}
 ]
}
}, {
 "type":
 "URL",
 "subtype":
 "pmb",
 "filename":
 "entity/209604/",
 "idno":
 "https://pmb.acdh.oeaw.ac.at/entity/209604/",
 "head":
 "Gesangskonzert von Franz Steiner, 4.4.1911",
 "desc":
{"listPerson":
  [
{
 "persName":
 "Franz Steiner",
 "ref":
 ""},
 {
 "persName":
 "Richard Strauss",
 "ref":
 ""},
 {
 "persName":
 "Arthur Schnitzler",
 "ref":
 ""}],
 "listPlace":
  [
 {
 "placeName":
 "Bösendorfer-Saal",
 "ref":
 ""}
 ]
}
}] 