[{
 "type":
 "schnitzler-tagebuch",
 "color":
 "#037a33",
 "filename":
 "entry__1911-07-24",
 "caption":
 "Tagebuch",
 "idno":
 "https://schnitzler-tagebuch.acdh.oeaw.ac.at/entry__1911-07-24.html",
 "head":
 "Tagebuch, 24. Juli 1911",
 "desc":
{"listPerson":
  [
{
 "persName":
 "Duren",
 "ref":
 "person_14566"},
 {
 "persName":
 "Heinrich Sikora",
 "ref":
 "person_20098"},
 {
 "persName":
 "Anna Sikora",
 "ref":
 "person_20523"}],
 "listPlace":
  [
 {
 "placeName":
 "Salzburg",
 "ref":
 "pmb30"}
 ,  {
 "placeName":
 "Berchtesgaden",
 "ref":
 "pmb797"}
 ,  {
 "placeName":
 "Obersalzberg",
 "ref":
 "pmb91375"}
 ,  {
 "placeName":
 "St. Gilgen",
 "ref":
 "pmb33"}
 ,  {
 "placeName":
 "Plomberg",
 "ref":
 "pmb91494"}
 ,  {
 "placeName":
 "Kassel",
 "ref":
 "pmb39640"}
 ,  {
 "placeName":
 "Pass Lueg",
 "ref":
 "pmb91173"}
 ]
}
}, {
 "type":
 "wienerschnitzler",
 "color":
 "#ECDA98",
 "caption":
 "Wiener Schnitzler",
 "idno":
 "https://wienerschnitzler.org/tag.html#1911-07-24",
 "head":
 "Salzburg",
 "desc":
{"listPlace":
  [
 {
 "placeName":
 "Hauptbahnhof Salzburg",
 "ref":
 ""}
 ]
}
}, {
 "type":
 "wienerschnitzler",
 "color":
 "#ECDA98",
 "caption":
 "Wiener Schnitzler",
 "idno":
 "https://wienerschnitzler.org/tag.html#1911-07-24",
 "head":
 "St. Gilgen",
 "desc":
{"listPlace":
  [
 {
 "placeName":
 "Lueg",
 "ref":
 ""}
 ,  {
 "placeName":
 "Seehotel Hans Pichler",
 "ref":
 ""}
 ]
}
}, {
 "type":
 "wienerschnitzler",
 "color":
 "#ECDA98",
 "caption":
 "Wiener Schnitzler",
 "idno":
 "https://wienerschnitzler.org/tag.html#1911-07-24",
 "head":
 "Plomberg"
}, {
 "type":
 "wienerschnitzler",
 "color":
 "#ECDA98",
 "caption":
 "Wiener Schnitzler",
 "idno":
 "https://wienerschnitzler.org/tag.html#1911-07-24",
 "head":
 "Obersalzberg",
 "desc":
{"listPlace":
  [
 {
 "placeName":
 "Hotel Antenberg",
 "ref":
 ""}
 ]
}
}, {
 "type":
 "schnitzler-mikrofilme-daten",
 "color":
 "#6e7b8b",
 "filename":
 "1589058_0235",
 "caption":
 "Mikroverfilmung des Nachlasses",
 "idno":
 "https://schnitzler-mikrofilme.acdh.oeaw.ac.at/1589058_0235.html",
 "head":
 "Mappe A20",
 "text":
 "Datierte Abschrift aus einer Zeitung in Kritik und Antikritik"
}] 