[{
 "type":
 "schnitzler-tagebuch",
 "color":
 "#037a33",
 "filename":
 "entry__1911-04-11",
 "caption":
 "Tagebuch",
 "idno":
 "https://schnitzler-tagebuch.acdh.oeaw.ac.at/entry__1911-04-11.html",
 "head":
 "Tagebuch, 11. April 1911",
 "desc":
{"listPerson":
  [
{
 "persName":
 "Julian Marcuse",
 "ref":
 "person_17863"},
 {
 "persName":
 "Heinrich von Schullern",
 "ref":
 "person_19931"},
 {
 "persName":
 "Elisabeth Steinrück",
 "ref":
 "person_20386"},
 {
 "persName":
 "Albert Steinrück",
 "ref":
 "person_20383"}],
 "listBibl":
  [
 {
 "title":
 "Ärzte",
 "ref":
 "pmb81286"}
 ],
 "listPlace":
  [
 {
 "placeName":
 "Garmisch-Partenkirchen",
 "ref":
 "pmb667"}
 ]
}
}, {
 "type":
 "schnitzler-briefe",
 "color":
 "#A63437",
 "filename":
 "L03998",
 "caption":
 "Briefe mit Autorinnen und Autoren",
 "idno":
 "https://schnitzler-briefe.acdh.oeaw.ac.at/L03998.html",
 "head":
 "Berta Zuckerkandl an Arthur Schnitzler, [7. oder 14. 4. 1911?]",
 "desc":
{"listPerson":
  [
{
 "persName":
 "Berta Zuckerkandl",
 "ref":
 "pmb2312"},
 {
 "persName":
 "Arthur Schnitzler",
 "ref":
 "pmb2121"},
 {
 "persName":
 "Berta Zuckerkandl",
 "ref":
 "pmb2312"},
 {
 "persName":
 "Sophie Clemenceau",
 "ref":
 "pmb15024"},
 {
 "persName":
 "Georges Clemenceau",
 "ref":
 "pmb4719"},
 {
 "persName":
 "Albert Clemenceau",
 "ref":
 "pmb299874"},
 {
 "persName":
 "André Antoine",
 "ref":
 "pmb2211"}],
 "listBibl":
  [
 {
 "title":
 "Der junge Medardus. Dramatische Historie in einem Vorspiel und fünf Aufzügen",
 "ref":
 "pmb29937"}
 ,  {
 "title":
 "Le Temps",
 "ref":
 "pmb58327"}
 ,  {
 "title":
 "Das weite Land. Tragikomödie in fünf Akten",
 "ref":
 "pmb30207"}
 ,  {
 "title":
 "Chronique théatrale. Le théatre di Vienne. Revue de l’ anné",
 "ref":
 "pmb299880"}
 ],
 "listPlace":
  [
 {
 "placeName":
 "Wien",
 "ref":
 "pmb50"}
 ,  {
 "placeName":
 "Menton",
 "ref":
 "pmb36456"}
 ,  {
 "placeName":
 "Frankreich",
 "ref":
 "pmb166"}
 ,  {
 "placeName":
 "Paris",
 "ref":
 "pmb182"}
 ,  {
 "placeName":
 "Nusswaldgasse 22",
 "ref":
 "pmb238485"}
 ],
 "listOrg":
  [
 {
 "orgName":
 "Théâtre Libre",
 "ref":
 "pmb88609"}
 ,  {
 "orgName":
 "Odéon",
 "ref":
 "pmb93494"}
 ]
}
}, {
 "type":
 "schnitzler-briefe",
 "color":
 "#A63437",
 "filename":
 "L02016",
 "caption":
 "Briefe mit Autorinnen und Autoren",
 "idno":
 "https://schnitzler-briefe.acdh.oeaw.ac.at/L02016.html",
 "head":
 "Georg Brandes an Arthur Schnitzler, 11. 4. 1911",
 "desc":
{"listPerson":
  [
{
 "persName":
 "Georg Brandes",
 "ref":
 "pmb10992"},
 {
 "persName":
 "Arthur Schnitzler",
 "ref":
 "pmb2121"},
 {
 "persName":
 "Georg Brandes",
 "ref":
 "pmb10992"},
 {
 "persName":
 "Ernst von Dohnányi",
 "ref":
 "pmb11165"}],
 "listBibl":
  [
 {
 "title":
 "Det kgl. Teater [Der Schleier der Pierrette]",
 "ref":
 "pmb33360"}
 ,  {
 "title":
 "Der Schleier der Pierrette. Pantomime in drei Bildern",
 "ref":
 "pmb30215"}
 ,  {
 "title":
 "Før og nu. To tragiske Skaebner",
 "ref":
 "pmb33358"}
 ],
 "listPlace":
  [
 {
 "placeName":
 "Kopenhagen",
 "ref":
 "pmb36300"}
 ,  {
 "placeName":
 "Menton",
 "ref":
 "pmb36456"}
 ,  {
 "placeName":
 "Sternwartestraße 71",
 "ref":
 "pmb168815"}
 ,  {
 "placeName":
 "XVIII., Währing",
 "ref":
 "pmb68"}
 ,  {
 "placeName":
 "Havnegade",
 "ref":
 "pmb1111"}
 ,  {
 "placeName":
 "Deutschland",
 "ref":
 "pmb151"}
 ,  {
 "placeName":
 "Dänemark",
 "ref":
 "pmb43570"}
 ,  {
 "placeName":
 "Hôtel Lutetia",
 "ref":
 "pmb1095"}
 ,  {
 "placeName":
 "Boulevard Raspail",
 "ref":
 "pmb1094"}
 ]
}
}, {
 "type":
 "wienerschnitzler",
 "color":
 "#6F5106",
 "caption":
 "Wiener Schnitzler",
 "idno":
 "https://wienerschnitzler.org/tag.html#1911-04-11",
 "head":
 "Garmisch-Partenkirchen",
 "desc":
{"listPlace":
  [
 {
 "placeName":
 "Partenkirchen",
 "ref":
 ""}
 ]
}
}, {
 "type":
 "wienerschnitzler",
 "color":
 "#6F5106",
 "caption":
 "Wiener Schnitzler",
 "idno":
 "https://wienerschnitzler.org/tag.html#1911-04-11",
 "head":
 "München",
 "desc":
{"listPlace":
  [
 {
 "placeName":
 "Hauptbahnhof München",
 "ref":
 ""}
 ]
}
}, {
 "type":
 "schnitzler-cmif",
 "subtype":
 "#ya489e21-54d5-40de-a56d-f4548e894428",
 "color":
 "#654321",
 "caption":
 "Gedruckte Briefwechsel",
 "head":
 "Otto Brahm an Arthur Schnitzler, 11.4.1911",
 "source":
 "Der Briefwechsel Arthur Schnitzler – Otto Brahm. Vollständige Ausgabe. Hg., eingel. und erl. von Oskar Seidlin. Tübingen: Niemeyer, 1975."
}] 