[{
 "type":
 "schnitzler-tagebuch",
 "color":
 "#037a33",
 "filename":
 "entry__1911-07-06",
 "caption":
 "Tagebuch",
 "idno":
 "https://schnitzler-tagebuch.acdh.oeaw.ac.at/entry__1911-07-06.html",
 "head":
 "Tagebuch, 6. Juli 1911",
 "desc":
{"listPerson":
  [
{
 "persName":
 "Eugenie Bachrach",
 "ref":
 "person_13355"},
 {
 "persName":
 "Stefanie Bachrach",
 "ref":
 "person_13359"},
 {
 "persName":
 "Karl Kraus",
 "ref":
 "person_17108"},
 {
 "persName":
 "Paul Marx",
 "ref":
 "person_17958"},
 {
 "persName":
 "Jacob Pollak",
 "ref":
 "person_18884"},
 {
 "persName":
 "Werner Sombart",
 "ref":
 "person_20192"},
 {
 "persName":
 "Salomon Reinach",
 "ref":
 "person_19142"}],
 "listBibl":
  [
 {
 "title":
 "Heine und die Folgen",
 "ref":
 "pmb52745"}
 ,  {
 "title":
 "Orpheus. Allgemeine Geschichte der Religionen",
 "ref":
 "pmb81164"}
 ,  {
 "title":
 "Die Juden und das Wirtschaftsleben",
 "ref":
 "pmb78337"}
 ],
 "listPlace":
  [
 {
 "placeName":
 "Türkenschanzpark",
 "ref":
 "pmb113"}
 ]
}
}, {
 "type":
 "schnitzler-briefe",
 "color":
 "#A63437",
 "filename":
 "L03632",
 "caption":
 "Briefe mit Autorinnen und Autoren",
 "idno":
 "https://schnitzler-briefe.acdh.oeaw.ac.at/L03632.html",
 "head":
 "Stefan Zweig an Arthur Schnitzler, 6. 7. 1911",
 "desc":
{"listPerson":
  [
{
 "persName":
 "Stefan Zweig",
 "ref":
 "pmb13212"},
 {
 "persName":
 "Olga Schnitzler",
 "ref":
 "pmb2173"}],
 "listPlace":
  [
 {
 "placeName":
 "Sternwartestraße 71",
 "ref":
 "pmb168815"}
 ,  {
 "placeName":
 "Semmering",
 "ref":
 "pmb189"}
 ,  {
 "placeName":
 "Schneeberg",
 "ref":
 "pmb27068"}
 ,  {
 "placeName":
 "Kaiser-Franz-Joseph-Promenade",
 "ref":
 "pmb293967"}
 ,  {
 "placeName":
 "Wien",
 "ref":
 "pmb50"}
 ,  {
 "placeName":
 "Fischerhütte",
 "ref":
 "pmb50925"}
 ,  {
 "placeName":
 "Klosterwappen",
 "ref":
 "pmb50928"}
 ,  {
 "placeName":
 "Währinger Cottage",
 "ref":
 "pmb533"}
 ,  {
 "placeName":
 "Hochschneeberg",
 "ref":
 "pmb5836"}
 ,  {
 "placeName":
 "Kaiserstein",
 "ref":
 "pmb90977"}
 ]
}
}, {
 "type":
 "wienerschnitzler",
 "color":
 "#ECDA98",
 "caption":
 "Wiener Schnitzler",
 "idno":
 "https://wienerschnitzler.org/tag.html#1911-07-06",
 "head":
 "Wien",
 "desc":
{"listPlace":
  [
 {
 "placeName":
 "XVIII., Währing",
 "ref":
 ""}
 ]
}
}, {
 "type":
 "schnitzler-cmif",
 "subtype":
 "#d43bae78-6be4-4898-b4e5-86e3d9bc9f34",
 "color":
 "#654321",
 "caption":
 "Gedruckte Briefwechsel",
 "head":
 "Stefan Zweig an Arthur Schnitzler, 6.7.1911",
 "source":
 "Stefan Zweig: Briefwechsel mit Hermann Bahr, Sigmund Freud, Rainer Maria Rilke und Arthur Schnitzler. Hgg. Jeffrey B. Berlin, Hans-Ulrich Lindken und Donald A. Prater. Berlin: S. Fischer 1987. (Nur Briefe an Bahr und Schnitzler erfasst)"
}] 