[{
 "type":
 "schnitzler-tagebuch",
 "color":
 "#037a33",
 "filename":
 "entry__1911-10-01",
 "caption":
 "Tagebuch",
 "idno":
 "https://schnitzler-tagebuch.acdh.oeaw.ac.at/entry__1911-10-01.html",
 "head":
 "Tagebuch, 1. Oktober 1911",
 "desc":
{"listPerson":
  [
{
 "persName":
 "Peter Altenberg",
 "ref":
 "person_13162"},
 {
 "persName":
 "Stefanie Bachrach",
 "ref":
 "person_13359"},
 {
 "persName":
 "Alfred von Berger",
 "ref":
 "person_13624"},
 {
 "persName":
 "Franz Joseph I. von Österreich-Ungarn",
 "ref":
 "person_15150"},
 {
 "persName":
 "Carl Kraus",
 "ref":
 "person_17105"},
 {
 "persName":
 "Richard Rosenbaum",
 "ref":
 "person_19364"},
 {
 "persName":
 "Karl Rostler",
 "ref":
 "person_19410"},
 {
 "persName":
 "Katharina Schratt",
 "ref":
 "person_19877"},
 {
 "persName":
 "Hugo Thimig",
 "ref":
 "person_20714"},
 {
 "persName":
 "Adolf Loos",
 "ref":
 "person_17676"}],
 "listBibl":
  [
 {
 "title":
 "Das weite Land. Tragikomödie in fünf Akten",
 "ref":
 "pmb30207"}
 ],
 "listPlace":
  [
 {
 "placeName":
 "Semmering",
 "ref":
 "pmb91735"}
 ,  {
 "placeName":
 "Michaelerplatz",
 "ref":
 "pmb91241"}
 ,  {
 "placeName":
 "Hamburg",
 "ref":
 "pmb506"}
 ]
}
}, {
 "type":
 "schnitzler-briefe",
 "color":
 "#A63437",
 "filename":
 "L03541",
 "caption":
 "Briefe mit Autorinnen und Autoren",
 "idno":
 "https://schnitzler-briefe.acdh.oeaw.ac.at/L03541.html",
 "head":
 "Eva Marie Goldmann an Arthur Schnitzler, 1. 10. 1911",
 "desc":
{"listPerson":
  [
{
 "persName":
 "Paul Goldmann",
 "ref":
 "pmb11485"},
 {
 "persName":
 "Eva Marie Goldmann",
 "ref":
 "pmb17164"},
 {
 "persName":
 "Olga Schnitzler",
 "ref":
 "pmb2173"}],
 "listBibl":
  [
 {
 "title":
 "Das weite Land. Tragikomödie in fünf Akten",
 "ref":
 "pmb30207"}
 ,  {
 "title":
 "Tagebuch",
 "ref":
 "pmb33243"}
 ],
 "listOrg":
  [
 {
 "orgName":
 "Lessing-Theater",
 "ref":
 "pmb35053"}
 ,  {
 "orgName":
 "Burgtheater",
 "ref":
 "pmb36247"}
 ],
 "listPlace":
  [
 {
 "placeName":
 "Berlin",
 "ref":
 "pmb168"}
 ,  {
 "placeName":
 "Wien",
 "ref":
 "pmb50"}
 ,  {
 "placeName":
 "Schöneberger Ufer",
 "ref":
 "pmb57358"}
 ,  {
 "placeName":
 "Stauffenbergstraße",
 "ref":
 "pmb63858"}
 ]
}
}, {
 "type":
 "wienerschnitzler",
 "color":
 "#6F5106",
 "caption":
 "Wiener Schnitzler",
 "idno":
 "https://wienerschnitzler.org/tag.html#1911-10-01",
 "head":
 "Semmering",
 "desc":
{"listPlace":
  [
 {
 "placeName":
 "Bahnhof Semmering",
 "ref":
 ""}
 ,  {
 "placeName":
 "Kurhaus Semmering",
 "ref":
 ""}
 ]
}
}, {
 "type":
 "wienerschnitzler",
 "color":
 "#6F5106",
 "caption":
 "Wiener Schnitzler",
 "idno":
 "https://wienerschnitzler.org/tag.html#1911-10-01",
 "head":
 "Wien",
 "desc":
{"listPlace":
  [
 {
 "placeName":
 "X., Favoriten",
 "ref":
 ""}
 ,  {
 "placeName":
 "XVIII., Währing",
 "ref":
 ""}
 ]
}
}, {
 "type":
 "schnitzler-interviews",
 "color":
 "#3D5A80",
 "filename":
 "M173",
 "caption":
 "Interviews, Meinungen, Proteste",
 "idno":
 "https://schnitzler-interviews.acdh.oeaw.ac.at/M173.html",
 "head":
 "Briefe an Adolf Sonnenthal, [Oktober 1911]",
 "desc":
{"listPerson":
  [
{
 "persName":
 "Max Foges",
 "ref":
 "pmb16381"},
 {
 "persName":
 "Adolf von Sonnenthal",
 "ref":
 "pmb12809"},
 {
 "persName":
 "Johann Schnitzler",
 "ref":
 "pmb12695"},
 {
 "persName":
 "Ludwig Fulda",
 "ref":
 "pmb11391"},
 {
 "persName":
 "Adolf von Wilbrandt",
 "ref":
 "pmb5208"}],
 "listBibl":
  [
 {
 "title":
 "Anatol",
 "ref":
 "pmb29935"}
 ,  {
 "title":
 "Jugend in Wien",
 "ref":
 "pmb33838"}
 ,  {
 "title":
 "Die Sklavin. Schauspiel in vier Aufzügen",
 "ref":
 "pmb31957"}
 ,  {
 "title":
 "Der Talisman. Dramatisches Märchen",
 "ref":
 "pmb31861"}
 ,  {
 "title":
 "Der Meister von Palmyra. Dramatische Dichtung in fünf Aufzügen",
 "ref":
 "pmb63181"}
 ,  {
 "title":
 "Der grüne Kakadu. Groteske in einem Akt",
 "ref":
 "pmb29843"}
 ,  {
 "title":
 "Briefe von Adolf Sonnenthal",
 "ref":
 "pmb63177"}
 ,  {
 "title":
 "Pester Lloyd",
 "ref":
 "pmb52212"}
 ,  {
 "title":
 "Neues Wiener Journal",
 "ref":
 "pmb36376"}
 ],
 "listPlace":
  [
 {
 "placeName":
 "Wien",
 "ref":
 "pmb50"}
 ,  {
 "placeName":
 "Berlin",
 "ref":
 "pmb168"}
 ]
}
}] 