[{
 "type":
 "schnitzler-tagebuch",
 "color":
 "#037a33",
 "filename":
 "entry__1911-11-09",
 "caption":
 "Tagebuch",
 "idno":
 "https://schnitzler-tagebuch.acdh.oeaw.ac.at/entry__1911-11-09.html",
 "head":
 "Tagebuch, 9. November 1911",
 "desc":
{"listPlace":
  [
 {
 "placeName":
 "Lübeck",
 "ref":
 "pmb884"}
 ,  {
 "placeName":
 "Travemünde",
 "ref":
 "pmb49115"}
 ]
}
}, {
 "type":
 "schnitzler-briefe",
 "color":
 "#A63437",
 "filename":
 "L03789",
 "caption":
 "Briefe mit Autorinnen und Autoren",
 "idno":
 "https://schnitzler-briefe.acdh.oeaw.ac.at/L03789.html",
 "head":
 "Arthur Schnitzler an Stefan Zweig, 9. 11. 1911",
 "desc":
{"listPerson":
  [
{
 "persName":
 "Stefan Zweig",
 "ref":
 "pmb13212"},
 {
 "persName":
 "Paul Morisse",
 "ref":
 "pmb156849"},
 {
 "persName":
 "Maurice Rémon",
 "ref":
 "pmb23787"}],
 "listBibl":
  [
 {
 "title":
 "La femme au poignard",
 "ref":
 "pmb46129"}
 ,  {
 "title":
 "Les Morts se taisent",
 "ref":
 "pmb296453"}
 ,  {
 "title":
 "Jour de gloire",
 "ref":
 "pmb296467"}
 ],
 "listPlace":
  [
 {
 "placeName":
 "Hamburg",
 "ref":
 "pmb506"}
 ,  {
 "placeName":
 "Wien",
 "ref":
 "pmb50"}
 ,  {
 "placeName":
 "VIII., Josefstadt",
 "ref":
 "pmb58"}
 ,  {
 "placeName":
 "Kochgasse 8",
 "ref":
 "pmb249577"}
 ,  {
 "placeName":
 "Hotel Atlantic",
 "ref":
 "pmb774"}
 ,  {
 "placeName":
 "Restaurant Pfordte im Hotel Atlantic",
 "ref":
 "pmb263991"}
 ,  {
 "placeName":
 "Meran",
 "ref":
 "pmb43520"}
 ]
}
}, {
 "type":
 "wienerschnitzler",
 "color":
 "#ECDA98",
 "caption":
 "Wiener Schnitzler",
 "idno":
 "https://wienerschnitzler.org/tag.html#1911-11-09",
 "head":
 "Hamburg",
 "desc":
{"listPlace":
  [
 {
 "placeName":
 "Hotel Atlantic",
 "ref":
 ""}
 ]
}
}, {
 "type":
 "wienerschnitzler",
 "color":
 "#ECDA98",
 "caption":
 "Wiener Schnitzler",
 "idno":
 "https://wienerschnitzler.org/tag.html#1911-11-09",
 "head":
 "Lübeck",
 "desc":
{"listPlace":
  [
 {
 "placeName":
 "Ratskeller zu Lübeck",
 "ref":
 ""}
 ]
}
}, {
 "type":
 "wienerschnitzler",
 "color":
 "#ECDA98",
 "caption":
 "Wiener Schnitzler",
 "idno":
 "https://wienerschnitzler.org/tag.html#1911-11-09",
 "head":
 "Travemünde",
 "desc":
{"listPlace":
  [
 {
 "placeName":
 "Strand-Hotel [Travemünde]",
 "ref":
 ""}
 ]
}
}] 