[{
 "type":
 "schnitzler-tagebuch",
 "color":
 "#037a33",
 "filename":
 "entry__1911-06-05",
 "caption":
 "Tagebuch",
 "idno":
 "https://schnitzler-tagebuch.acdh.oeaw.ac.at/entry__1911-06-05.html",
 "head":
 "Tagebuch, 5. Juni 1911",
 "desc":
{"listPerson":
  [
{
 "persName":
 "Raoul Auernheimer",
 "ref":
 "person_13305"},
 {
 "persName":
 "Eugenie Bachrach",
 "ref":
 "person_13355"},
 {
 "persName":
 "Richard Beer-Hofmann",
 "ref":
 "person_13551"},
 {
 "persName":
 "Julius Bachrach",
 "ref":
 "person_13357"},
 {
 "persName":
 "Jakob Wassermann",
 "ref":
 "person_21107"},
 {
 "persName":
 "Paula Beer-Hofmann",
 "ref":
 "person_13550"}],
 "listBibl":
  [
 {
 "title":
 "Doktor Gräsler, Badearzt",
 "ref":
 "pmb30201"}
 ,  {
 "title":
 "Der Mörder. Novelle",
 "ref":
 "pmb33754"}
 ],
 "listPlace":
  [
 {
 "placeName":
 "Gersthof",
 "ref":
 "pmb90705"}
 ,  {
 "placeName":
 "Schafberg (St. Gilgen)",
 "ref":
 "pmb59367"}
 ,  {
 "placeName":
 "Pötzleinsdorf",
 "ref":
 "pmb169"}
 ]
}
}, {
 "type":
 "schnitzler-briefe",
 "color":
 "#A63437",
 "filename":
 "L03634",
 "caption":
 "Briefe mit Autorinnen und Autoren",
 "idno":
 "https://schnitzler-briefe.acdh.oeaw.ac.at/L03634.html",
 "head":
 "Stefan Zweig an Arthur Schnitzler, [zwischen 5. und
                  12. 6. 1911?]",
 "desc":
{"listPerson":
  [
{
 "persName":
 "Stefan Zweig",
 "ref":
 "pmb13212"},
 {
 "persName":
 "Arthur Schnitzler",
 "ref":
 "pmb2121"},
 {
 "persName":
 "Stefan Zweig",
 "ref":
 "pmb13212"},
 {
 "persName":
 "Olga Schnitzler",
 "ref":
 "pmb2173"}],
 "listPlace":
  [
 {
 "placeName":
 "Wien",
 "ref":
 "pmb50"}
 ,  {
 "placeName":
 "Währinger Cottage",
 "ref":
 "pmb533"}
 ,  {
 "placeName":
 "Sternwartestraße 71",
 "ref":
 "pmb168815"}
 ,  {
 "placeName":
 "Kochgasse 8",
 "ref":
 "pmb249577"}
 ,  {
 "placeName":
 "Amerika",
 "ref":
 "pmb175"}
 ,  {
 "placeName":
 "New York City",
 "ref":
 "pmb44053"}
 ,  {
 "placeName":
 "Nordamerika",
 "ref":
 "pmb91362"}
 ,  {
 "placeName":
 "Chicago",
 "ref":
 "pmb880"}
 ,  {
 "placeName":
 "Kanada",
 "ref":
 "pmb45794"}
 ,  {
 "placeName":
 "Bermuda",
 "ref":
 "pmb46765"}
 ,  {
 "placeName":
 "Kuba",
 "ref":
 "pmb39943"}
 ,  {
 "placeName":
 "Südamerika",
 "ref":
 "pmb57051"}
 ,  {
 "placeName":
 "Restauration Türkenschanz-Park",
 "ref":
 "pmb74"}
 ]
}
}, {
 "type":
 "wienerschnitzler",
 "color":
 "#6F5106",
 "caption":
 "Wiener Schnitzler",
 "idno":
 "https://wienerschnitzler.org/tag.html#1911-06-05",
 "head":
 "Wien",
 "desc":
{"listPlace":
  [
 {
 "placeName":
 "XVII., Hernals",
 "ref":
 ""}
 ,  {
 "placeName":
 "XVIII., Währing",
 "ref":
 ""}
 ]
}
}] 