[{
 "type":
 "schnitzler-tagebuch",
 "color":
 "#037a33",
 "filename":
 "entry__1911-06-29",
 "caption":
 "Tagebuch",
 "idno":
 "https://schnitzler-tagebuch.acdh.oeaw.ac.at/entry__1911-06-29.html",
 "head":
 "Tagebuch, 29. Juni 1911",
 "desc":
{"listPerson":
  [
{
 "persName":
 "Stefanie Bachrach",
 "ref":
 "person_13359"},
 {
 "persName":
 "Otto Brahm",
 "ref":
 "person_13913"},
 {
 "persName":
 "Rudolf Maria Holzapfel",
 "ref":
 "person_16337"},
 {
 "persName":
 "August Werthner",
 "ref":
 "person_21269"},
 {
 "persName":
 "Clara Jonas",
 "ref":
 "person_16572"},
 {
 "persName":
 "Jakob Wassermann",
 "ref":
 "person_21107"}],
 "listPlace":
  [
 {
 "placeName":
 "Prein an der Rax",
 "ref":
 "pmb49072"}
 ,  {
 "placeName":
 "Payerbach",
 "ref":
 "pmb948"}
 ,  {
 "placeName":
 "Semmering",
 "ref":
 "pmb91735"}
 ]
}
}, {
 "type":
 "URL",
 "subtype":
 "wienerschnitzler",
 "head":
 "Semmering",
 "desc":
{"listPlace":
  [
 {
 "placeName":
 "SÃ¼dbahnhotel [Semmering]",
 "ref":
 ""}
 ,  {
 "placeName":
 "Bahnhof Semmering",
 "ref":
 ""}
 ,  {
 "placeName":
 "Kurhaus Semmering",
 "ref":
 ""}
 ]
}
}, {
 "type":
 "URL",
 "subtype":
 "wienerschnitzler",
 "head":
 "Prein an der Rax",
 "desc":
{"listPlace":
  [
 {
 "placeName":
 "Alpengasthof Oberer-Eggl",
 "ref":
 ""}
 ]
}
}, {
 "type":
 "URL",
 "subtype":
 "wienerschnitzler",
 "head":
 "Reichenau an der Rax",
 "desc":
{"listPlace":
  [
 {
 "placeName":
 "Thalhof",
 "ref":
 ""}
 ]
}
}, {
 "type":
 "URL",
 "subtype":
 "wienerschnitzler",
 "head":
 "Payerbach",
 "desc":
{"listPlace":
  [
 {
 "placeName":
 "Bahnhof Payerbach-Reichenau",
 "ref":
 ""}
 ]
}
}] 