[{
 "type":
 "schnitzler-tagebuch",
 "color":
 "#037a33",
 "filename":
 "entry__1911-11-06",
 "caption":
 "Tagebuch",
 "idno":
 "https://schnitzler-tagebuch.acdh.oeaw.ac.at/entry__1911-11-06.html",
 "head":
 "Tagebuch, 6. November 1911",
 "desc":
{"listPerson":
  [
{
 "persName":
 "Richard Dehmel",
 "ref":
 "person_14383"},
 {
 "persName":
 "Franziska Ellmenreich",
 "ref":
 "person_14726"},
 {
 "persName":
 "Marie Elsinger",
 "ref":
 "person_14734"},
 {
 "persName":
 "Richard Huldschiner",
 "ref":
 "person_16414"},
 {
 "persName":
 "Robert Nhil",
 "ref":
 "person_18438"},
 {
 "persName":
 "Helene Schnitzler",
 "ref":
 "person_19823"},
 {
 "persName":
 "Julius Schnitzler",
 "ref":
 "person_19827"},
 {
 "persName":
 "Hugo Lederer",
 "ref":
 "person_17391"}],
 "listBibl":
  [
 {
 "title":
 "Das weite Land. Tragikomödie in fünf Akten",
 "ref":
 "pmb30207"}
 ,  {
 "title":
 "Der Schleier der Beatrice. Schauspiel in fünf Akten",
 "ref":
 "pmb29857"}
 ],
 "listPlace":
  [
 {
 "placeName":
 "Hamburg",
 "ref":
 "pmb506"}
 ,  {
 "placeName":
 "Alster",
 "ref":
 "pmb90227"}
 ]
}
}, {
 "type":
 "schnitzler-briefe",
 "color":
 "#A63437",
 "filename":
 "L03630",
 "caption":
 "Briefe mit Autorinnen und Autoren",
 "idno":
 "https://schnitzler-briefe.acdh.oeaw.ac.at/L03630.html",
 "head":
 "Stefan Zweig an Arthur Schnitzler, 6. [11.?] 1911",
 "desc":
{"listPerson":
  [
{
 "persName":
 "Stefan Zweig",
 "ref":
 "pmb13212"},
 {
 "persName":
 "Arthur Schnitzler",
 "ref":
 "pmb2121"},
 {
 "persName":
 "Stefan Zweig",
 "ref":
 "pmb13212"},
 {
 "persName":
 "Paul Morisse",
 "ref":
 "pmb156849"},
 {
 "persName":
 "Samuel Fischer",
 "ref":
 "pmb11324"},
 {
 "persName":
 "André Antoine",
 "ref":
 "pmb2211"},
 {
 "persName":
 "Maurice Rémon",
 "ref":
 "pmb23787"},
 {
 "persName":
 "Henriette Charasson",
 "ref":
 "pmb295148"},
 {
 "persName":
 "Olga Schnitzler",
 "ref":
 "pmb2173"}],
 "listBibl":
  [
 {
 "title":
 "Das weite Land. Tragikomödie in fünf Akten",
 "ref":
 "pmb30207"}
 ,  {
 "title":
 "Das Haus am Meer. Ein Schauspiel in zwei Teilen (drei Aufzügen)",
 "ref":
 "pmb76765"}
 ,  {
 "title":
 "Le Pays Inconnu",
 "ref":
 "pmb168435"}
 ],
 "listPlace":
  [
 {
 "placeName":
 "VIII., Josefstadt",
 "ref":
 "pmb58"}
 ,  {
 "placeName":
 "Wien",
 "ref":
 "pmb50"}
 ,  {
 "placeName":
 "Hamburg",
 "ref":
 "pmb506"}
 ,  {
 "placeName":
 "Währinger Cottage",
 "ref":
 "pmb533"}
 ,  {
 "placeName":
 "Sternwartestraße 71",
 "ref":
 "pmb168815"}
 ,  {
 "placeName":
 "Justizpalast Wien",
 "ref":
 "pmb57356"}
 ,  {
 "placeName":
 "Meran",
 "ref":
 "pmb43520"}
 ]
}
}, {
 "type":
 "wienerschnitzler",
 "color":
 "#6F5106",
 "caption":
 "Wiener Schnitzler",
 "idno":
 "https://wienerschnitzler.org/tag.html#1911-11-06",
 "head":
 "Hamburg",
 "desc":
{"listPlace":
  [
 {
 "placeName":
 "Hotel Atlantic",
 "ref":
 ""}
 ,  {
 "placeName":
 "Deutsches Schauspielhaus in Hamburg",
 "ref":
 ""}
 ,  {
 "placeName":
 "Bismarck-Denkmal",
 "ref":
 ""}
 ,  {
 "placeName":
 "Hauptbahnhof Hamburg",
 "ref":
 ""}
 ]
}
}, {
 "type":
 "URL",
 "subtype":
 "schnitzler-kultur",
 "filename":
 "pmb209615",
 "idno":
 "https://schnitzler-kultur.acdh.oeaw.ac.at/pmb209615.html",
 "head":
 "Aufführung von Das weite Land, 6.11.1911",
 "desc":
{"listBibl":
  [
 {
 "title":
 "Das weite Land. Tragikomödie in fünf Akten",
 "ref":
 ""}
 ],
 "listPerson":
  [
{
 "persName":
 "Arthur Schnitzler",
 "ref":
 ""}],
 "listPlace":
  [
 {
 "placeName":
 "Deutsches Schauspielhaus in Hamburg",
 "ref":
 ""}
 ]
}
}, {
 "type":
 "kalliope-verbund",
 "color":
 "#003574",
 "caption":
 "Kalliope Verbundkatalog",
 "idno":
 "http://kalliope-verbund.info/DE-2498-HS00074233",
 "head":
 "Schreyer, Lothar an Schnitzler, Arthur [Briefe]",
 "text":
 "1 Bl.",
 "desc":
{"listPerson":
  [
{
 "persName":
 "Lothar (1886-1966) Schreyer",
 "ref":
 "http://d-nb.info/gnd/118980351"}]
}
}] 