[{
 "type":
 "schnitzler-tagebuch",
 "color":
 "#037a33",
 "filename":
 "entry__1911-06-06",
 "caption":
 "Tagebuch",
 "idno":
 "https://schnitzler-tagebuch.acdh.oeaw.ac.at/entry__1911-06-06.html",
 "head":
 "Tagebuch, 6. Juni 1911",
 "desc":
{"listPerson":
  [
{
 "persName":
 "Richard Beer-Hofmann",
 "ref":
 "person_13551"},
 {
 "persName":
 "Alfred von Berger",
 "ref":
 "person_13624"},
 {
 "persName":
 "Otto Brahm",
 "ref":
 "person_13913"},
 {
 "persName":
 "Willi Handl",
 "ref":
 "person_15898"},
 {
 "persName":
 "Franz Höbling",
 "ref":
 "person_16250"},
 {
 "persName":
 "Emil Lessing",
 "ref":
 "person_17473"},
 {
 "persName":
 "Paul Marx",
 "ref":
 "person_17958"},
 {
 "persName":
 "Emanuel Reicher",
 "ref":
 "person_19126"},
 {
 "persName":
 "Richard Rosenbaum",
 "ref":
 "person_19364"},
 {
 "persName":
 "Paula Schmidl",
 "ref":
 "person_19756"},
 {
 "persName":
 "Louise Schnitzler",
 "ref":
 "person_19831"},
 {
 "persName":
 "Otto Tressler",
 "ref":
 "person_20803"},
 {
 "persName":
 "Leo Van-Jung",
 "ref":
 "person_20925"},
 {
 "persName":
 "Isabella Vengerova",
 "ref":
 "person_21231"},
 {
 "persName":
 "Paula Beer-Hofmann",
 "ref":
 "person_13550"},
 {
 "persName":
 "Samuel Fischer",
 "ref":
 "person_15009"},
 {
 "persName":
 "Arthur Kaufmann",
 "ref":
 "person_16770"}],
 "listBibl":
  [
 {
 "title":
 "Das weite Land. Tragikomödie in fünf Akten",
 "ref":
 "pmb30207"}
 ],
 "listPlace":
  [
 {
 "placeName":
 "Prag",
 "ref":
 "pmb652"}
 ,  {
 "placeName":
 "Rudniker",
 "ref":
 "pmb92497"}
 ,  {
 "placeName":
 "Türkenschanzpark",
 "ref":
 "pmb113"}
 ]
}
}, {
 "type":
 "schnitzler-briefe",
 "color":
 "#A63437",
 "filename":
 "L03634",
 "caption":
 "Briefe mit Autorinnen und Autoren",
 "idno":
 "https://schnitzler-briefe.acdh.oeaw.ac.at/L03634.html",
 "head":
 "Stefan Zweig an Arthur Schnitzler, [zwischen 5. und
                  12. 6. 1911?]",
 "desc":
{"listPerson":
  [
{
 "persName":
 "Stefan Zweig",
 "ref":
 "pmb13212"},
 {
 "persName":
 "Arthur Schnitzler",
 "ref":
 "pmb2121"},
 {
 "persName":
 "Stefan Zweig",
 "ref":
 "pmb13212"},
 {
 "persName":
 "Olga Schnitzler",
 "ref":
 "pmb2173"}],
 "listPlace":
  [
 {
 "placeName":
 "Wien",
 "ref":
 "pmb50"}
 ,  {
 "placeName":
 "Währinger Cottage",
 "ref":
 "pmb533"}
 ,  {
 "placeName":
 "Sternwartestraße 71",
 "ref":
 "pmb168815"}
 ,  {
 "placeName":
 "Kochgasse 8",
 "ref":
 "pmb249577"}
 ,  {
 "placeName":
 "Amerika",
 "ref":
 "pmb175"}
 ,  {
 "placeName":
 "New York City",
 "ref":
 "pmb44053"}
 ,  {
 "placeName":
 "Nordamerika",
 "ref":
 "pmb91362"}
 ,  {
 "placeName":
 "Chicago",
 "ref":
 "pmb880"}
 ,  {
 "placeName":
 "Kanada",
 "ref":
 "pmb45794"}
 ,  {
 "placeName":
 "Bermuda",
 "ref":
 "pmb46765"}
 ,  {
 "placeName":
 "Kuba",
 "ref":
 "pmb39943"}
 ,  {
 "placeName":
 "Südamerika",
 "ref":
 "pmb57051"}
 ,  {
 "placeName":
 "Restauration Türkenschanz-Park",
 "ref":
 "pmb74"}
 ]
}
}, {
 "type":
 "wienerschnitzler",
 "color":
 "#6F5106",
 "caption":
 "Wiener Schnitzler",
 "idno":
 "https://wienerschnitzler.org/tag.html#1911-06-06",
 "head":
 "Wien",
 "desc":
{"listPlace":
  [
 {
 "placeName":
 "IX., Alsergrund",
 "ref":
 ""}
 ,  {
 "placeName":
 "XVIII., Währing",
 "ref":
 ""}
 ,  {
 "placeName":
 "I., Innere Stadt",
 "ref":
 ""}
 ,  {
 "placeName":
 "VI., Mariahilf",
 "ref":
 ""}
 ]
}
}, {
 "type":
 "schnitzler-cmif",
 "subtype":
 "#s364f351-b14a-4d77-b480-295e58878c66",
 "color":
 "#654321",
 "caption":
 "Gedruckte Briefwechsel",
 "head":
 "Arthur Schnitzler an Samuel Fischer, 6.6.1911",
 "source":
 "Hans Peter Buohler: Arthur Schnitzlers »Medardus Affairen« Teil 1: Korrespondenzen. In: Hofmannsthal-Jahrbuch ⋅ Zur europäischen Moderne, Jg. 19 (2011), S. 79–215."
}, {
 "type":
 "schnitzler-cmif",
 "subtype":
 "#ya489e21-54d5-40de-a56d-f4548e894428",
 "color":
 "#654321",
 "caption":
 "Gedruckte Briefwechsel",
 "head":
 "Otto Brahm an Arthur Schnitzler, 6.6.1911",
 "source":
 "Der Briefwechsel Arthur Schnitzler – Otto Brahm. Vollständige Ausgabe. Hg., eingel. und erl. von Oskar Seidlin. Tübingen: Niemeyer, 1975."
}, {
 "type":
 "kalliope-verbund",
 "color":
 "#003574",
 "caption":
 "Kalliope Verbundkatalog",
 "idno":
 "http://kalliope-verbund.info/DE-2498-HS00045729",
 "head":
 "Schnitzler, Arthur an Hajek, ... [Briefe]",
 "text":
 "1 Bl.Durchschl."
}, {
 "type":
 "kalliope-verbund",
 "color":
 "#003574",
 "caption":
 "Kalliope Verbundkatalog",
 "idno":
 "http://kalliope-verbund.info/DE-2498-HS00033780",
 "head":
 "Erl, Dora an Schnitzler, Arthur [Briefe]",
 "text":
 "1 Br., 1 Kte 2 Bl."
}] 