[{
 "type":
 "schnitzler-tagebuch",
 "color":
 "#037a33",
 "filename":
 "entry__1911-08-06",
 "caption":
 "Tagebuch",
 "idno":
 "https://schnitzler-tagebuch.acdh.oeaw.ac.at/entry__1911-08-06.html",
 "head":
 "Tagebuch, 6. August 1911",
 "desc":
{"listPerson":
  [
{
 "persName":
 "Hugo Salus",
 "ref":
 "person_19547"}],
 "listBibl":
  [
 {
 "title":
 "Frau Beate und ihr Sohn. Novelle",
 "ref":
 "pmb32133"}
 ],
 "listPlace":
  [
 {
 "placeName":
 "Pinkenkogel",
 "ref":
 "pmb91482"}
 ]
}
}, {
 "type":
 "schnitzler-orte",
 "color":
 "#045344",
 "caption":
 "Aufenthaltsorte",
 "head":
 "Semmering",
 "desc":
{"listPlace":
  [
 {
 "placeName":
 "Waldhof, Dependance des Südbahnhotels Semmering",
 "ref":
 ""}
 ]
}
}, {
 "type":
 "schnitzler-orte",
 "color":
 "#045344",
 "caption":
 "Aufenthaltsorte",
 "head":
 "Pinkenkogel"
}, {
 "type":
 "schnitzler-interviews",
 "color":
 "#3D5A80",
 "filename":
 "M020",
 "caption":
 "Interviews, Meinungen, Proteste",
 "idno":
 "https://schnitzler-interviews.acdh.oeaw.ac.at/M020.html",
 "head":
 "Alfred von Berger: Jugend von heute und ehemals, 6. 8. 1911",
 "desc":
{"listPerson":
  [
{
 "persName":
 "Alfred von Berger",
 "ref":
 "pmb10883"},
 {
 "persName":
 "Hugo Mareta",
 "ref":
 "pmb5169"},
 {
 "persName":
 "Johann Wolfgang von Goethe",
 "ref":
 "pmb11461"},
 {
 "persName":
 "Johann Nepomuk Berger",
 "ref":
 "pmb5165"},
 {
 "persName":
 "Heinrich Schnitzler",
 "ref":
 "pmb12692"},
 {
 "persName":
 "Johann Schnitzler",
 "ref":
 "pmb12695"}],
 "listBibl":
  [
 {
 "title":
 "Aus meinem Leben. Dichtung und Wahrheit",
 "ref":
 "pmb31783"}
 ,  {
 "title":
 "Kennst du das Land, wo die Zitronen blühn",
 "ref":
 "pmb32965"}
 ,  {
 "title":
 "Jugend von heute und ehemals",
 "ref":
 "pmb32963"}
 ,  {
 "title":
 "Neue Freie Presse",
 "ref":
 "pmb36374"}
 ],
 "listPlace":
  [
 {
 "placeName":
 "Wien",
 "ref":
 "pmb50"}
 ,  {
 "placeName":
 "Prater",
 "ref":
 "pmb8"}
 ,  {
 "placeName":
 "XIX., Döbling",
 "ref":
 "pmb69"}
 ,  {
 "placeName":
 "Dornbach",
 "ref":
 "pmb499"}
 ,  {
 "placeName":
 "IV., Wieden",
 "ref":
 "pmb54"}
 ,  {
 "placeName":
 "Kahlenberg",
 "ref":
 "pmb574"}
 ,  {
 "placeName":
 "Wienerwald",
 "ref":
 "pmb40876"}
 ,  {
 "placeName":
 "Wolfgangsee",
 "ref":
 "pmb40874"}
 ,  {
 "placeName":
 "Ferienhort Ried",
 "ref":
 "pmb1032"}
 ,  {
 "placeName":
 "Frauenstein",
 "ref":
 "pmb1033"}
 ,  {
 "placeName":
 "Falkenstein",
 "ref":
 "pmb59382"}
 ,  {
 "placeName":
 "Schafberg (St. Gilgen)",
 "ref":
 "pmb59367"}
 ,  {
 "placeName":
 "Zwölferhorn",
 "ref":
 "pmb59384"}
 ,  {
 "placeName":
 "Salzkammergut",
 "ref":
 "pmb429"}
 ,  {
 "placeName":
 "Bad Ischl",
 "ref":
 "pmb213"}
 ,  {
 "placeName":
 "Schottengymnasium",
 "ref":
 "pmb557"}
 ,  {
 "placeName":
 "Italien",
 "ref":
 "pmb40306"}
 ],
 "listOrg":
  [
 {
 "orgName":
 "Weltausstellung 1873",
 "ref":
 "pmb63444"}
 ]
}
}] 