[{
 "type":
 "schnitzler-tagebuch",
 "color":
 "#037a33",
 "filename":
 "entry__1911-04-21",
 "caption":
 "Tagebuch",
 "idno":
 "https://schnitzler-tagebuch.acdh.oeaw.ac.at/entry__1911-04-21.html",
 "head":
 "Tagebuch, 21. April 1911",
 "desc":
{"listPerson":
  [
{
 "persName":
 "Léon Xanrof",
 "ref":
 "person_21493"}],
 "listBibl":
  [
 {
 "title":
 "C'est pour rire",
 "ref":
 "pmb79541"}
 ],
 "listPlace":
  [
 {
 "placeName":
 "Menton",
 "ref":
 "pmb36456"}
 ,  {
 "placeName":
 "Monaco",
 "ref":
 "pmb91267"}
 ,  {
 "placeName":
 "Nizza",
 "ref":
 "pmb926"}
 ,  {
 "placeName":
 "La Californie",
 "ref":
 "pmb90430"}
 ,  {
 "placeName":
 "Cannes",
 "ref":
 "pmb56147"}
 ,  {
 "placeName":
 "Antibes",
 "ref":
 "pmb88767"}
 ]
}
}, {
 "type":
 "URL",
 "subtype":
 "wienerschnitzler",
 "head":
 "Menton",
 "desc":
{"listPlace":
  [
 {
 "placeName":
 "Grand Hôtel National [Menton]",
 "ref":
 ""}
 ]
}
}, {
 "type":
 "URL",
 "subtype":
 "wienerschnitzler",
 "head":
 "Nizza",
 "desc":
{"listPlace":
  [
 {
 "placeName":
 "La Californie",
 "ref":
 ""}
 ]
}
}, {
 "type":
 "URL",
 "subtype":
 "wienerschnitzler",
 "head":
 "Antibes",
 "desc":
{"listPlace":
  [
 {
 "placeName":
 "Villa Eilenroc",
 "ref":
 ""}
 ]
}
}, {
 "type":
 "URL",
 "subtype":
 "wienerschnitzler",
 "head":
 "Monaco"
}, {
 "type":
 "URL",
 "subtype":
 "wienerschnitzler",
 "head":
 "Cannes",
 "desc":
{"listPlace":
  [
 {
 "placeName":
 "Hotel Le Californie",
 "ref":
 ""}
 ]
}
}] 