[{
 "type":
 "schnitzler-tagebuch",
 "color":
 "#037a33",
 "filename":
 "entry__1911-04-15",
 "caption":
 "Tagebuch",
 "idno":
 "https://schnitzler-tagebuch.acdh.oeaw.ac.at/entry__1911-04-15.html",
 "head":
 "Tagebuch, 15. April 1911",
 "desc":
{"listPerson":
  [
{
 "persName":
 "Eugenie Bachrach",
 "ref":
 "person_13355"},
 {
 "persName":
 "Stefanie Bachrach",
 "ref":
 "person_13359"},
 {
 "persName":
 "Marianne Giustiniani",
 "ref":
 "person_21600"}],
 "listPlace":
  [
 {
 "placeName":
 "Genua",
 "ref":
 "pmb994"}
 ,  {
 "placeName":
 "Nervi",
 "ref":
 "pmb49714"}
 ,  {
 "placeName":
 "Rapallo",
 "ref":
 "pmb91564"}
 ,  {
 "placeName":
 "Santa Margherita Ligure",
 "ref":
 "pmb56264"}
 ,  {
 "placeName":
 "Portofino",
 "ref":
 "pmb44269"}
 ]
}
}, {
 "type":
 "wienerschnitzler",
 "color":
 "#ECDA98",
 "caption":
 "Wiener Schnitzler",
 "head":
 "Genua",
 "desc":
{"listPlace":
  [
 {
 "placeName":
 "Grand Hotel Miramare",
 "ref":
 ""}
 ,  {
 "placeName":
 "Nervi",
 "ref":
 ""}
 ]
}
}, {
 "type":
 "wienerschnitzler",
 "color":
 "#ECDA98",
 "caption":
 "Wiener Schnitzler",
 "head":
 "Rapallo"
}, {
 "type":
 "wienerschnitzler",
 "color":
 "#ECDA98",
 "caption":
 "Wiener Schnitzler",
 "head":
 "Portofino"
}, {
 "type":
 "wienerschnitzler",
 "color":
 "#ECDA98",
 "caption":
 "Wiener Schnitzler",
 "head":
 "Monte di Portofino",
 "desc":
{"listPlace":
  [
 {
 "placeName":
 "Hotel Portofino Kulm",
 "ref":
 ""}
 ,  {
 "placeName":
 "Semaforo Vecchio",
 "ref":
 ""}
 ]
}
}, {
 "type":
 "wienerschnitzler",
 "color":
 "#ECDA98",
 "caption":
 "Wiener Schnitzler",
 "head":
 "Santa Margherita Ligure"
}] 