[{
 "type":
 "schnitzler-tagebuch",
 "color":
 "#037a33",
 "filename":
 "entry__1911-04-18",
 "caption":
 "Tagebuch",
 "idno":
 "https://schnitzler-tagebuch.acdh.oeaw.ac.at/entry__1911-04-18.html",
 "head":
 "Tagebuch, 18. April 1911",
 "desc":
{"listPlace":
  [
 {
 "placeName":
 "Menton",
 "ref":
 "pmb36456"}
 ,  {
 "placeName":
 "Monte Carlo",
 "ref":
 "pmb5862"}
 ,  {
 "placeName":
 "La Turbie",
 "ref":
 "pmb91961"}
 ]
}
}, {
 "type":
 "schnitzler-briefe",
 "color":
 "#A63437",
 "filename":
 "L03981",
 "caption":
 "Briefe mit Autorinnen und Autoren",
 "idno":
 "https://schnitzler-briefe.acdh.oeaw.ac.at/L03981.html",
 "head":
 "Arthur Schnitzler an Berta Zuckerkandl, 18. 4. 1911",
 "desc":
{"listPerson":
  [
{
 "persName":
 "Arthur Schnitzler",
 "ref":
 "pmb2121"},
 {
 "persName":
 "Berta Zuckerkandl",
 "ref":
 "pmb2312"},
 {
 "persName":
 "Berta Zuckerkandl",
 "ref":
 "pmb2312"},
 {
 "persName":
 "André Antoine",
 "ref":
 "pmb2211"},
 {
 "persName":
 "Maurice Rémon",
 "ref":
 "pmb23787"},
 {
 "persName":
 "Noémi Valentin",
 "ref":
 "pmb46140"},
 {
 "persName":
 "Aurélien-Marie Lugné-Poe",
 "ref":
 "pmb3690"},
 {
 "persName":
 "Suzanne Desprès",
 "ref":
 "pmb3659"},
 {
 "persName":
 "Maurice Vaucaire",
 "ref":
 "pmb26414"},
 {
 "persName":
 "Stephan Epstein",
 "ref":
 "pmb2199"},
 {
 "persName":
 "Émile Lutz",
 "ref":
 "pmb2206"}],
 "listBibl":
  [
 {
 "title":
 "Der junge Medardus. Dramatische Historie in einem Vorspiel und fünf Aufzügen",
 "ref":
 "pmb29937"}
 ,  {
 "title":
 "Die Gefährtin. Schauspiel in einem Akt",
 "ref":
 "pmb29845"}
 ,  {
 "title":
 "Der grüne Kakadu. Groteske in einem Akt",
 "ref":
 "pmb29843"}
 ,  {
 "title":
 "Lebendige Stunden. Vier Einakter",
 "ref":
 "pmb29863"}
 ,  {
 "title":
 "Liebelei. Schauspiel in drei Akten",
 "ref":
 "pmb29917"}
 ,  {
 "title":
 "Das weite Land. Tragikomödie in fünf Akten",
 "ref":
 "pmb30207"}
 ,  {
 "title":
 "La Compagne. Comédie en une acte",
 "ref":
 "pmb59837"}
 ,  {
 "title":
 "Au Perroquet Vert",
 "ref":
 "pmb58367"}
 ,  {
 "title":
 "La femme au poignard",
 "ref":
 "pmb46129"}
 ,  {
 "title":
 "La Revue de Paris",
 "ref":
 "pmb296458"}
 ,  {
 "title":
 "Les Derniers masques. Comédie en un act",
 "ref":
 "pmb299697"}
 ,  {
 "title":
 "La Revue politique et littéraire",
 "ref":
 "pmb296465"}
 ,  {
 "title":
 "Littérature. Comédi en en act",
 "ref":
 "pmb299869"}
 ,  {
 "title":
 "Tagebuch",
 "ref":
 "pmb33243"}
 ],
 "listPlace":
  [
 {
 "placeName":
 "Menton",
 "ref":
 "pmb36456"}
 ,  {
 "placeName":
 "Wien",
 "ref":
 "pmb50"}
 ,  {
 "placeName":
 "Grand Hôtel National [Menton]",
 "ref":
 "pmb251927"}
 ,  {
 "placeName":
 "Frankreich",
 "ref":
 "pmb166"}
 ,  {
 "placeName":
 "England",
 "ref":
 "pmb254"}
 ,  {
 "placeName":
 "Théâtre Antoine-Simone Berriau",
 "ref":
 "pmb610"}
 ,  {
 "placeName":
 "München",
 "ref":
 "pmb45258"}
 ,  {
 "placeName":
 "Garmisch-Partenkirchen",
 "ref":
 "pmb667"}
 ,  {
 "placeName":
 "Ligurien",
 "ref":
 "pmb43180"}
 ,  {
 "placeName":
 "Monte Carlo",
 "ref":
 "pmb5862"}
 ,  {
 "placeName":
 "Nizza",
 "ref":
 "pmb926"}
 ],
 "listOrg":
  [
 {
 "orgName":
 "Théâtre Antoine",
 "ref":
 "pmb88613"}
 ]
}
}, {
 "type":
 "wienerschnitzler",
 "color":
 "#6F5106",
 "caption":
 "Wiener Schnitzler",
 "idno":
 "https://wienerschnitzler.org/tag.html#1911-04-18",
 "head":
 "Menton",
 "desc":
{"listPlace":
  [
 {
 "placeName":
 "Grand Hôtel National [Menton]",
 "ref":
 ""}
 ]
}
}, {
 "type":
 "wienerschnitzler",
 "color":
 "#6F5106",
 "caption":
 "Wiener Schnitzler",
 "idno":
 "https://wienerschnitzler.org/tag.html#1911-04-18",
 "head":
 "Monte Carlo"
}, {
 "type":
 "wienerschnitzler",
 "color":
 "#6F5106",
 "caption":
 "Wiener Schnitzler",
 "idno":
 "https://wienerschnitzler.org/tag.html#1911-04-18",
 "head":
 "La Turbie"
}] 