[{
 "type":
 "schnitzler-tagebuch",
 "color":
 "#037a33",
 "filename":
 "entry__1911-06-11",
 "caption":
 "Tagebuch",
 "idno":
 "https://schnitzler-tagebuch.acdh.oeaw.ac.at/entry__1911-06-11.html",
 "head":
 "Tagebuch, 11. Juni 1911",
 "desc":
{"listPerson":
  [
{
 "persName":
 "Lili Schnitzler",
 "ref":
 "person_14130"},
 {
 "persName":
 "Marcellin Marbot",
 "ref":
 "person_17851"},
 {
 "persName":
 "Paul Marx",
 "ref":
 "person_17958"},
 {
 "persName":
 "Felix Salten",
 "ref":
 "person_19542"},
 {
 "persName":
 "Heinrich Schnitzler",
 "ref":
 "person_19822"},
 {
 "persName":
 "Helene Schnitzler",
 "ref":
 "person_19823"},
 {
 "persName":
 "Julius Schnitzler",
 "ref":
 "person_19827"},
 {
 "persName":
 "Gustav Schwarzkopf",
 "ref":
 "person_19986"},
 {
 "persName":
 "Marianne Giustiniani",
 "ref":
 "person_21600"}],
 "listPlace":
  [
 {
 "placeName":
 "Penzing",
 "ref":
 "pmb90913"}
 ,  {
 "placeName":
 "Paris",
 "ref":
 "pmb182"}
 ]
}
}, {
 "type":
 "schnitzler-briefe",
 "color":
 "#A63437",
 "filename":
 "L03634",
 "caption":
 "Briefe mit Autorinnen und Autoren",
 "idno":
 "https://schnitzler-briefe.acdh.oeaw.ac.at/L03634.html",
 "head":
 "Stefan Zweig an Arthur Schnitzler, [zwischen 5. und
                  12. 6. 1911?]",
 "desc":
{"listPerson":
  [
{
 "persName":
 "Stefan Zweig",
 "ref":
 "pmb13212"},
 {
 "persName":
 "Arthur Schnitzler",
 "ref":
 "pmb2121"},
 {
 "persName":
 "Stefan Zweig",
 "ref":
 "pmb13212"},
 {
 "persName":
 "Olga Schnitzler",
 "ref":
 "pmb2173"}],
 "listPlace":
  [
 {
 "placeName":
 "Wien",
 "ref":
 "pmb50"}
 ,  {
 "placeName":
 "Währinger Cottage",
 "ref":
 "pmb533"}
 ,  {
 "placeName":
 "Sternwartestraße 71",
 "ref":
 "pmb168815"}
 ,  {
 "placeName":
 "Kochgasse 8",
 "ref":
 "pmb249577"}
 ,  {
 "placeName":
 "Amerika",
 "ref":
 "pmb175"}
 ,  {
 "placeName":
 "New York City",
 "ref":
 "pmb44053"}
 ,  {
 "placeName":
 "Nordamerika",
 "ref":
 "pmb91362"}
 ,  {
 "placeName":
 "Chicago",
 "ref":
 "pmb880"}
 ,  {
 "placeName":
 "Kanada",
 "ref":
 "pmb45794"}
 ,  {
 "placeName":
 "Bermuda",
 "ref":
 "pmb46765"}
 ,  {
 "placeName":
 "Cuba",
 "ref":
 "pmb39943"}
 ,  {
 "placeName":
 "Südamerika",
 "ref":
 "pmb57051"}
 ,  {
 "placeName":
 "Restauration Türkenschanz-Park",
 "ref":
 "pmb74"}
 ]
}
}, {
 "type":
 "wienerschnitzler",
 "color":
 "#6F5106",
 "caption":
 "Wiener Schnitzler",
 "idno":
 "https://wienerschnitzler.org/tag.html#1911-06-11",
 "head":
 "Wien",
 "desc":
{"listPlace":
  [
 {
 "placeName":
 "XIX., Döbling",
 "ref":
 ""}
 ,  {
 "placeName":
 "XIV., Penzing",
 "ref":
 ""}
 ,  {
 "placeName":
 "XVII., Hernals",
 "ref":
 ""}
 ,  {
 "placeName":
 "XVI., Ottakring",
 "ref":
 ""}
 ,  {
 "placeName":
 "XVIII., Währing",
 "ref":
 ""}
 ]
}
}, {
 "type":
 "schnitzler-mikrofilme-daten",
 "color":
 "#6e7b8b",
 "filename":
 "1428195_0004",
 "caption":
 "Mikroverfilmung des Nachlasses",
 "idno":
 "https://schnitzler-mikrofilme.acdh.oeaw.ac.at/1428195_0004.html",
 "head":
 "Mappe A94",
 "text":
 "Datumsangabe auf Blatt von Der junge Medardus: »DER JUNGE MERDARDUS«"
}] 