[{
 "type":
 "Arthur-Schnitzler-digital",
 "color":
 "#801e23",
 "caption":
 "Arthur Schnitzler digital (Werke 1905–1931)",
 "idno":
 "https://www.schnitzler-edition.net/Dokumentarisch/Dokumentklasse/GRA_SH3'_0001",
 "head":
 "Doktor Gräsler, Badearzt, hsl. Skizze 3, 28.01.1911 – 03.02.1911 (unsicher)"
}, {
 "type":
 "Arthur-Schnitzler-digital",
 "color":
 "#801e23",
 "caption":
 "Arthur Schnitzler digital (Werke 1905–1931)",
 "idno":
 "https://www.schnitzler-edition.net/Dokumentarisch/Dokumentklasse/GRA_T1_0001",
 "head":
 "Doktor Gräsler, Badearzt, msl. Werkniederschrift 1, 31.01.1911 – 03.02.1911 (unsicher)"
}, {
 "type":
 "schnitzler-tagebuch",
 "color":
 "#037a33",
 "filename":
 "entry__1911-02-01",
 "caption":
 "Tagebuch",
 "idno":
 "https://schnitzler-tagebuch.acdh.oeaw.ac.at/entry__1911-02-01.html",
 "head":
 "Tagebuch, 1. Februar 1911",
 "desc":
{"listPerson":
  [
{
 "persName":
 "Paul Goldmann",
 "ref":
 "person_15529"},
 {
 "persName":
 "Victor Klemperer",
 "ref":
 "person_16903"},
 {
 "persName":
 "Moriz Károlyi",
 "ref":
 "person_16735"}],
 "listBibl":
  [
 {
 "title":
 "Paracelsus. Versspiel in einem Akt",
 "ref":
 "pmb30403"}
 ]
}
}, {
 "type":
 "schnitzler-briefe",
 "color":
 "#A63437",
 "filename":
 "L03521",
 "caption":
 "Briefe mit Autorinnen und Autoren",
 "idno":
 "https://schnitzler-briefe.acdh.oeaw.ac.at/L03521.html",
 "head":
 "Arthur Schnitzler an Paul Goldmann, 1. 2. 1911",
 "desc":
{"listPerson":
  [
{
 "persName":
 "Paul Goldmann",
 "ref":
 "pmb11485"},
 {
 "persName":
 "Otto Brahm",
 "ref":
 "pmb10986"},
 {
 "persName":
 "Gustaf Linden",
 "ref":
 "pmb20474"},
 {
 "persName":
 "Christopher Horne",
 "ref":
 "pmb167728"},
 {
 "persName":
 "Cesare Levi",
 "ref":
 "pmb2242"},
 {
 "persName":
 "Jules Claretie",
 "ref":
 "pmb2500"},
 {
 "persName":
 "Ugo Piperno",
 "ref":
 "pmb167722"},
 {
 "persName":
 "Louise Schnitzler",
 "ref":
 "pmb12701"},
 {
 "persName":
 "Gerhart Hauptmann",
 "ref":
 "pmb11617"}],
 "listBibl":
  [
 {
 "title":
 "Der Schleier der Beatrice. Schauspiel in fünf Akten",
 "ref":
 "pmb29857"}
 ,  {
 "title":
 "Berliner Theater. (»Der Schleier der Beatrice« von Arthur Schnitzler.)",
 "ref":
 "pmb144087"}
 ,  {
 "title":
 "Lebendige Stunden. Vier Einakter",
 "ref":
 "pmb29863"}
 ,  {
 "title":
 "Literatur",
 "ref":
 "pmb29869"}
 ,  {
 "title":
 "Die letzten Masken",
 "ref":
 "pmb29877"}
 ,  {
 "title":
 "Lebendige Stunden",
 "ref":
 "pmb29957"}
 ,  {
 "title":
 "Die Frau mit dem Dolche",
 "ref":
 "pmb29865"}
 ,  {
 "title":
 "Neue Freie Presse",
 "ref":
 "pmb36374"}
 ,  {
 "title":
 "Berliner Theater. (»Lebendige Stunden« von Arthur Schnitzler.)",
 "ref":
 "pmb144122"}
 ,  {
 "title":
 "Liebelei. Schauspiel in drei Akten",
 "ref":
 "pmb29917"}
 ,  {
 "title":
 "Comtesse Mizzi [schwedisch]",
 "ref":
 "pmb147878"}
 ,  {
 "title":
 "Komtesse Mizzi oder: Der Familientag",
 "ref":
 "pmb29931"}
 ,  {
 "title":
 "Damen med dolken",
 "ref":
 "pmb147869"}
 ,  {
 "title":
 "Den gröna papegojan",
 "ref":
 "pmb147873"}
 ,  {
 "title":
 "Der grüne Kakadu. Groteske in einem Akt",
 "ref":
 "pmb29843"}
 ,  {
 "title":
 "In the Hospital",
 "ref":
 "pmb89679"}
 ,  {
 "title":
 "Le ultime maschere. Drama in un atto",
 "ref":
 "pmb147900"}
 ,  {
 "title":
 "Cena d’addio",
 "ref":
 "pmb167711"}
 ,  {
 "title":
 "Abschiedssouper",
 "ref":
 "pmb30005"}
 ,  {
 "title":
 "Monsignore in vacanza. Commedia in un atto",
 "ref":
 "pmb167720"}
 ,  {
 "title":
 "Aus dem dramatischen Irrgarten. Polemische Aufsätze über Berliner Theateraufführungen",
 "ref":
 "pmb147664"}
 ,  {
 "title":
 "Vom Rückgang der deutschen Bühne. Polemische Aufsätze über Berliner Theater-Aufführungen",
 "ref":
 "pmb147668"}
 ,  {
 "title":
 "Literatenstücke und Ausstattungsregie. Polemische Aufsätze über Berliner Theater-Aufführungen",
 "ref":
 "pmb147672"}
 ,  {
 "title":
 "»Michael Kramer.«",
 "ref":
 "pmb142613"}
 ,  {
 "title":
 "Ein Sommer in China. Reisebilder",
 "ref":
 "pmb33346"}
 ],
 "listOrg":
  [
 {
 "orgName":
 "Frankfurter Zeitung",
 "ref":
 "pmb29442"}
 ],
 "listPlace":
  [
 {
 "placeName":
 "Wien",
 "ref":
 "pmb50"}
 ,  {
 "placeName":
 "Berlin",
 "ref":
 "pmb168"}
 ,  {
 "placeName":
 "Welsberg-Taisten",
 "ref":
 "pmb428"}
 ,  {
 "placeName":
 "Deutsches Theater Berlin",
 "ref":
 "pmb3"}
 ,  {
 "placeName":
 "Residenztheater München",
 "ref":
 "pmb635"}
 ,  {
 "placeName":
 "Münchner Schauspielhaus",
 "ref":
 "pmb11"}
 ,  {
 "placeName":
 "München",
 "ref":
 "pmb45258"}
 ,  {
 "placeName":
 "Schweden",
 "ref":
 "pmb44335"}
 ,  {
 "placeName":
 "Kungliga Dramatiska Teatern",
 "ref":
 "pmb147893"}
 ,  {
 "placeName":
 "England",
 "ref":
 "pmb254"}
 ,  {
 "placeName":
 "London",
 "ref":
 "pmb224"}
 ,  {
 "placeName":
 "Royal Court Theatre",
 "ref":
 "pmb147907"}
 ,  {
 "placeName":
 "Italien",
 "ref":
 "pmb40306"}
 ,  {
 "placeName":
 "Teatro Alfieri",
 "ref":
 "pmb41219"}
 ,  {
 "placeName":
 "Turin",
 "ref":
 "pmb917"}
 ,  {
 "placeName":
 "Frankgasse",
 "ref":
 "pmb397"}
 ,  {
 "placeName":
 "Asien",
 "ref":
 "pmb1019"}
 ]
}
}, {
 "type":
 "schnitzler-orte",
 "color":
 "#045344",
 "filename":
 "entity/50/",
 "caption":
 "Aufenthaltsorte",
 "idno":
 "https://pmb.acdh.oeaw.ac.at/entity/50/",
 "head":
 "Wien"
}, {
 "type":
 "schnitzler-mikrofilme-daten",
 "color":
 "#6e7b8b",
 "filename":
 "1589058_0127",
 "caption":
 "Mikroverfilmung des Nachlasses",
 "idno":
 "https://schnitzler-mikrofilme.acdh.oeaw.ac.at/1589058_0127.html",
 "head":
 "Mappe A20",
 "text":
 "»Hauptmann [?] Lieber Freund,…«"
}] 