[{
 "type":
 "schnitzler-tagebuch",
 "color":
 "#037a33",
 "filename":
 "entry__1912-04-03",
 "caption":
 "Tagebuch",
 "idno":
 "https://schnitzler-tagebuch.acdh.oeaw.ac.at/entry__1912-04-03.html",
 "head":
 "Tagebuch, 3. April 1912",
 "desc":
{"listPerson":
  [
{
 "persName":
 "Viktor Schwanneke",
 "ref":
 "person_19953"},
 {
 "persName":
 "Elisabeth Steinrück",
 "ref":
 "person_20386"},
 {
 "persName":
 "Bernhard von Jacobi",
 "ref":
 "person_16465"},
 {
 "persName":
 "Albert Steinrück",
 "ref":
 "person_20383"}],
 "listBibl":
  [
 {
 "title":
 "Professor Bernhardi. Komödie in fünf Akten",
 "ref":
 "pmb30203"}
 ],
 "listPlace":
  [
 {
 "placeName":
 "Salzach",
 "ref":
 "pmb91647"}
 ]
}
}, {
 "type":
 "schnitzler-briefe",
 "color":
 "#A63437",
 "filename":
 "L02058",
 "caption":
 "Briefe mit Autorinnen und Autoren",
 "idno":
 "https://schnitzler-briefe.acdh.oeaw.ac.at/L02058.html",
 "head":
 "Arthur Schnitzler, Olga Schnitzler, Elisabeth Steinrück an Richard Beer-Hofmann, 3. 4. 1912",
 "desc":
{"listPerson":
  [
{
 "persName":
 "Olga Schnitzler",
 "ref":
 "pmb2173"},
 {
 "persName":
 "Elisabeth Steinrück",
 "ref":
 "pmb2315"},
 {
 "persName":
 "Richard Beer-Hofmann",
 "ref":
 "pmb10863"},
 {
 "persName":
 "Franz Irresberger",
 "ref":
 "pmb28739"},
 {
 "persName":
 "Paula Beer-Hofmann",
 "ref":
 "pmb10860"}],
 "listPlace":
  [
 {
 "placeName":
 "Salzburg",
 "ref":
 "pmb30"}
 ,  {
 "placeName":
 "Wien",
 "ref":
 "pmb50"}
 ,  {
 "placeName":
 "XVIII., Währing",
 "ref":
 "pmb68"}
 ,  {
 "placeName":
 "Hasenauerstraße",
 "ref":
 "pmb383"}
 ,  {
 "placeName":
 "Österreichischer Hof",
 "ref":
 "pmb230"}
 ]
}
}, {
 "type":
 "wienerschnitzler",
 "color":
 "#ECDA98",
 "caption":
 "Wiener Schnitzler",
 "idno":
 "https://wienerschnitzler.org/tag.html#1912-04-03",
 "head":
 "Salzburg",
 "desc":
{"listPlace":
  [
 {
 "placeName":
 "Österreichischer Hof",
 "ref":
 ""}
 ,  {
 "placeName":
 "Salzach [Stadtgebiet Salzburg]",
 "ref":
 ""}
 ,  {
 "placeName":
 "Hotel Mirabell",
 "ref":
 ""}
 ]
}
}, {
 "type":
 "schnitzler-events",
 "color":
 "#9BC53D",
 "filename":
 "entity/210466/",
 "caption":
 "Ereignisse in der PMB",
 "idno":
 "https://pmb.acdh.oeaw.ac.at/entity/210466/",
 "head":
 "Filmvorführung von Glückstaumel, Indianerstolz, Der Tag im Film, Die Besteigung des Berges Ingrar-Nielsen, Eine Tartarenhochzeit in Mezö-Kövesd, Das Zirkuskind, Der kleine Irrwisch, Moritz’s Jugendliebe, Der alte Geck, 3.4.1912",
 "desc":
{"listPerson":
  [
{
 "persName":
 "Arthur Schnitzler",
 "ref":
 ""}],
 "listPlace":
  [
 {
 "placeName":
 "Salzburg",
 "ref":
 ""}
 ,  {
 "placeName":
 "Lifka’s Grand Théatre électrique",
 "ref":
 ""}
 ]
}
}, {
 "type":
 "schnitzler-cmif",
 "subtype":
 "#asbw_4ed2e411-8d76-435f-aea0-faf299e96d86",
 "color":
 "#654321",
 "caption":
 "Gedruckte Briefwechsel",
 "head":
 "Erhalt von Isabella Vengerova an Arthur Schnitzler, 2. 4. 1912",
 "source":
 "Die Korrespondenz von Arthur Schnitzler mit Isabella Vengerova und Zinaida Vengerova. Herausgegeben von Konstantin Asadowski und Martin Anton Müller. In: Hofmannsthal-Jahrbuch zur europäischen Moderne, Bd. 30 (2022), S. 7–91."
}, {
 "type":
 "schnitzler-kino-buch",
 "subtype":
 "#ISBN978-3205787464",
 "color":
 "#B43C9C",
 "caption":
 "Kino",
 "head":
 "Schnitzler geht ins Kino in Salzburg, 3. April 1912",
 "source":
 "»A. ist manchmal wie ein kleines Kind«. Clara Katharina Pollaczek und Arthur Schnitzler gehen ins Kino. Herausgegeben von Stephan Kurz und Michael Rohrwasser unter Mitarbeit von Daniel Schopper. Wien, Köln, Weimar: Böhlau Verlag 2012."
}] 