[{
 "type":
 "schnitzler-tagebuch",
 "color":
 "#037a33",
 "filename":
 "entry__1912-11-29",
 "caption":
 "Tagebuch",
 "idno":
 "https://schnitzler-tagebuch.acdh.oeaw.ac.at/entry__1912-11-29.html",
 "head":
 "Tagebuch, 29. November 1912",
 "desc":
{"listPerson":
  [
{
 "persName":
 "Otto Brahm",
 "ref":
 "person_13913"},
 {
 "persName":
 "Lili Deutsch",
 "ref":
 "person_14428"},
 {
 "persName":
 "Fritz Engel",
 "ref":
 "person_14753"},
 {
 "persName":
 "Gerhart Hauptmann",
 "ref":
 "person_15980"},
 {
 "persName":
 "Johan Messchaert",
 "ref":
 "person_18094"},
 {
 "persName":
 "Helene Schnitzler",
 "ref":
 "person_19823"},
 {
 "persName":
 "Julius Schnitzler",
 "ref":
 "person_19827"},
 {
 "persName":
 "Louise Wolff",
 "ref":
 "person_21447"},
 {
 "persName":
 "Victor Barnowsky",
 "ref":
 "person_13428"},
 {
 "persName":
 "Clara Jonas",
 "ref":
 "person_16572"},
 {
 "persName":
 "Leo Blech",
 "ref":
 "person_13773"},
 {
 "persName":
 "Paul Jonas",
 "ref":
 "person_16574"}],
 "listPlace":
  [
 {
 "placeName":
 "Berlin",
 "ref":
 "pmb168"}
 ,  {
 "placeName":
 "Tiergarten",
 "ref":
 "pmb91893"}
 ]
}
}, {
 "type":
 "schnitzler-briefe",
 "color":
 "#A63437",
 "filename":
 "L02104",
 "caption":
 "Briefe mit Autorinnen und Autoren",
 "idno":
 "https://schnitzler-briefe.acdh.oeaw.ac.at/L02104.html",
 "head":
 "Richard Beer-Hofmann, Paula Beer-Hofmann an Arthur Schnitzler, 29. 11. 1912",
 "desc":
{"listPerson":
  [
{
 "persName":
 "Paula Beer-Hofmann",
 "ref":
 "pmb10860"},
 {
 "persName":
 "Richard Beer-Hofmann",
 "ref":
 "pmb10863"}],
 "listBibl":
  [
 {
 "title":
 "Professor Bernhardi. Komödie in fünf Akten",
 "ref":
 "pmb30203"}
 ],
 "listPlace":
  [
 {
 "placeName":
 "Berlin",
 "ref":
 "pmb168"}
 ,  {
 "placeName":
 "Kleines Theater",
 "ref":
 "pmb208"}
 ,  {
 "placeName":
 "Wien",
 "ref":
 "pmb50"}
 ]
}
}, {
 "type":
 "schnitzler-briefe",
 "color":
 "#A63437",
 "filename":
 "L02105",
 "caption":
 "Briefe mit Autorinnen und Autoren",
 "idno":
 "https://schnitzler-briefe.acdh.oeaw.ac.at/L02105.html",
 "head":
 "Hugo von Hofmannsthal an Arthur Schnitzler, [29. 11. 1912]",
 "desc":
{"listPerson":
  [
{
 "persName":
 "Otto Brahm",
 "ref":
 "pmb10986"},
 {
 "persName":
 "Hugo von Hofmannsthal",
 "ref":
 "pmb11740"},
 {
 "persName":
 "Gustav Geier",
 "ref":
 "pmb45332"}],
 "listPlace":
  [
 {
 "placeName":
 "Hotel Adlon",
 "ref":
 "pmb1090"}
 ,  {
 "placeName":
 "Berlin",
 "ref":
 "pmb168"}
 ,  {
 "placeName":
 "Hotel Esplanade [Berlin]",
 "ref":
 "pmb245"}
 ,  {
 "placeName":
 "Wien",
 "ref":
 "pmb50"}
 ]
}
}, {
 "type":
 "schnitzler-briefe",
 "color":
 "#A63437",
 "filename":
 "L02570",
 "caption":
 "Briefe mit Autorinnen und Autoren",
 "idno":
 "https://schnitzler-briefe.acdh.oeaw.ac.at/L02570.html",
 "head":
 "Therese Rie an Arthur Schnitzler, 29. 11. 1912",
 "desc":
{"listPerson":
  [
{
 "persName":
 "Johann Wolfgang von Goethe",
 "ref":
 "pmb11461"},
 {
 "persName":
 "Ferdinand Onno",
 "ref":
 "pmb12378"},
 {
 "persName":
 "Johann Schnitzler",
 "ref":
 "pmb12695"},
 {
 "persName":
 "Therese Rie",
 "ref":
 "pmb4836"},
 {
 "persName":
 "Maximilian Herz",
 "ref":
 "pmb56051"},
 {
 "persName":
 "Julius von Hochenegg",
 "ref":
 "pmb7882"}],
 "listBibl":
  [
 {
 "title":
 "Professor Bernhardi. Komödie in fünf Akten",
 "ref":
 "pmb30203"}
 ,  {
 "title":
 "An den Mond",
 "ref":
 "pmb56049"}
 ],
 "listOrg":
  [
 {
 "orgName":
 "Allgemeine Poliklinik",
 "ref":
 "pmb41367"}
 ],
 "listPlace":
  [
 {
 "placeName":
 "Berlin",
 "ref":
 "pmb168"}
 ,  {
 "placeName":
 "Wien",
 "ref":
 "pmb50"}
 ]
}
}, {
 "type":
 "wienerschnitzler",
 "color":
 "#ECDA98",
 "caption":
 "Wiener Schnitzler",
 "idno":
 "https://wienerschnitzler.org/tag.html#1912-11-29",
 "head":
 "Berlin",
 "desc":
{"listPlace":
  [
 {
 "placeName":
 "Hotel Adlon",
 "ref":
 ""}
 ,  {
 "placeName":
 "Hotel Kaiserhof [Berlin]",
 "ref":
 ""}
 ,  {
 "placeName":
 "Tiergarten",
 "ref":
 ""}
 ,  {
 "placeName":
 "Bismarckstraße 107",
 "ref":
 ""}
 ,  {
 "placeName":
 "Hotel Esplanade [Berlin]",
 "ref":
 ""}
 ,  {
 "placeName":
 "Kleines Theater",
 "ref":
 ""}
 ]
}
}, {
 "type":
 "schnitzler-cmif",
 "subtype":
 "#asbw_4ed2e411-8d76-435f-aea0-faf299e96d86",
 "color":
 "#654321",
 "caption":
 "Gedruckte Briefwechsel",
 "head":
 "Arthur Schnitzler an Zinaida Vengerova, 29. 11. 1912",
 "source":
 "Die Korrespondenz von Arthur Schnitzler mit Isabella Vengerova und Zinaida Vengerova. Herausgegeben von Konstantin Asadowski und Martin Anton Müller. In: Hofmannsthal-Jahrbuch zur europäischen Moderne, Bd. 30 (2022), S. 7–91."
}, {
 "type":
 "kalliope-verbund",
 "color":
 "#003574",
 "caption":
 "Kalliope Verbundkatalog",
 "idno":
 "http://kalliope-verbund.info/DE-2498-HS00036016",
 "head":
 "Halek, Richard an Schnitzler, Arthur [Briefe]",
 "text":
 "2 Bl."
}, {
 "type":
 "kalliope-verbund",
 "color":
 "#003574",
 "caption":
 "Kalliope Verbundkatalog",
 "idno":
 "http://kalliope-verbund.info/DE-2498-HS00033222",
 "head":
 "Dülberg, Franz an Schnitzler, Arthur [Briefe]",
 "text":
 "1 Bl.Vis.kte",
 "desc":
{"listPerson":
  [
{
 "persName":
 "Franz (1873-1934) Dülberg",
 "ref":
 "http://d-nb.info/gnd/116235470"}]
}
}, {
 "type":
 "kalliope-verbund",
 "color":
 "#003574",
 "caption":
 "Kalliope Verbundkatalog",
 "idno":
 "http://kalliope-verbund.info/DE-2498-HS00076083",
 "head":
 "Ricordi, G. an Schnitzler, Arthur [Briefe]",
 "text":
 "1 Bl."
}] 