[{
 "type":
 "schnitzler-tagebuch",
 "color":
 "#037a33",
 "filename":
 "entry__1912-08-05",
 "caption":
 "Tagebuch",
 "idno":
 "https://schnitzler-tagebuch.acdh.oeaw.ac.at/entry__1912-08-05.html",
 "head":
 "Tagebuch, 5. August 1912",
 "desc":
{"listPerson":
  [
{
 "persName":
 "Maria Kupelwieser",
 "ref":
 "person_17206"},
 {
 "persName":
 "Hugo Schmidl",
 "ref":
 "person_19755"},
 {
 "persName":
 "Johanna Schmidl",
 "ref":
 "person_16852"}],
 "listBibl":
  [
 {
 "title":
 "Der Komödiant",
 "ref":
 "pmb30319"}
 ],
 "listPlace":
  [
 {
 "placeName":
 "Tirol",
 "ref":
 "pmb423"}
 ]
}
}, {
 "type":
 "schnitzler-briefe",
 "color":
 "#A63437",
 "filename":
 "L02082",
 "caption":
 "Briefe mit Autorinnen und Autoren",
 "idno":
 "https://schnitzler-briefe.acdh.oeaw.ac.at/L02082.html",
 "head":
 "Arthur Schnitzler an Richard Beer-Hofmann, 5. 8. 1912",
 "desc":
{"listPerson":
  [
{
 "persName":
 "Richard Beer-Hofmann",
 "ref":
 "pmb10863"},
 {
 "persName":
 "Arthur Kaufmann",
 "ref":
 "pmb2496"}],
 "listPlace":
  [
 {
 "placeName":
 "Engadin",
 "ref":
 "pmb1061"}
 ,  {
 "placeName":
 "Italien",
 "ref":
 "pmb40306"}
 ,  {
 "placeName":
 "Sils im Engadin/Segl",
 "ref":
 "pmb40516"}
 ,  {
 "placeName":
 "St. Moritz",
 "ref":
 "pmb44374"}
 ,  {
 "placeName":
 "Tutzing",
 "ref":
 "pmb44493"}
 ,  {
 "placeName":
 "München",
 "ref":
 "pmb45258"}
 ,  {
 "placeName":
 "Brijuni",
 "ref":
 "pmb45260"}
 ,  {
 "placeName":
 "Wien",
 "ref":
 "pmb50"}
 ,  {
 "placeName":
 "Hotel Waldhaus am See",
 "ref":
 "pmb51935"}
 ,  {
 "placeName":
 "Val Catena",
 "ref":
 "pmb52316"}
 ]
}
}, {
 "type":
 "schnitzler-briefe",
 "color":
 "#A63437",
 "filename":
 "L02083",
 "caption":
 "Briefe mit Autorinnen und Autoren",
 "idno":
 "https://schnitzler-briefe.acdh.oeaw.ac.at/L02083.html",
 "head":
 "Hugo von Hofmannsthal an Arthur Schnitzler, 5. 8. [1912]",
 "desc":
{"listPerson":
  [
{
 "persName":
 "Hugo von Hofmannsthal",
 "ref":
 "pmb11740"},
 {
 "persName":
 "Karl August von Varnhagen-Ense",
 "ref":
 "pmb13001"},
 {
 "persName":
 "Olga Schnitzler",
 "ref":
 "pmb2173"}],
 "listBibl":
  [
 {
 "title":
 "Tagebücher",
 "ref":
 "pmb30297"}
 ],
 "listPlace":
  [
 {
 "placeName":
 "Bad Aussee",
 "ref":
 "pmb415"}
 ,  {
 "placeName":
 "Wien",
 "ref":
 "pmb50"}
 ]
}
}, {
 "type":
 "wienerschnitzler",
 "color":
 "#6F5106",
 "caption":
 "Wiener Schnitzler",
 "idno":
 "https://wienerschnitzler.org/tag.html#1912-08-05",
 "head":
 "Brijuni",
 "desc":
{"listPlace":
  [
 {
 "placeName":
 "Hotel Neptun III",
 "ref":
 ""}
 ]
}
}, {
 "type":
 "wienerschnitzler",
 "color":
 "#6F5106",
 "caption":
 "Wiener Schnitzler",
 "idno":
 "https://wienerschnitzler.org/tag.html#1912-08-05",
 "head":
 "Barbariga"
}, {
 "type":
 "schnitzler-cmif",
 "subtype":
 "#ya489e21-54d5-40de-a56d-f4548e894428",
 "color":
 "#654321",
 "caption":
 "Gedruckte Briefwechsel",
 "head":
 "Arthur Schnitzler an Otto Brahm, 5.8.1912?",
 "source":
 "Der Briefwechsel Arthur Schnitzler – Otto Brahm. Vollständige Ausgabe. Hg., eingel. und erl. von Oskar Seidlin. Tübingen: Niemeyer, 1975."
}] 