[{
 "type":
 "schnitzler-tagebuch",
 "color":
 "#037a33",
 "filename":
 "entry__1912-05-16",
 "caption":
 "Tagebuch",
 "idno":
 "https://schnitzler-tagebuch.acdh.oeaw.ac.at/entry__1912-05-16.html",
 "head":
 "Tagebuch, 16. Mai 1912",
 "desc":
{"listPerson":
  [
{
 "persName":
 "Ludwig Bauer",
 "ref":
 "person_13473"},
 {
 "persName":
 "Richard Beer-Hofmann",
 "ref":
 "person_13551"},
 {
 "persName":
 "Albert Frankfurter",
 "ref":
 "person_15134"},
 {
 "persName":
 "Robert Hirschfeld",
 "ref":
 "person_16228"},
 {
 "persName":
 "Paula Beer-Hofmann",
 "ref":
 "person_13550"},
 {
 "persName":
 "Arthur Kaufmann",
 "ref":
 "person_16770"}],
 "listPlace":
  [
 {
 "placeName":
 "Venedig",
 "ref":
 "pmb462"}
 ,  {
 "placeName":
 "Public Gardens",
 "ref":
 "pmb90711"}
 ,  {
 "placeName":
 "Bonvecchiati",
 "ref":
 "pmb92174"}
 ,  {
 "placeName":
 "Markusplatz",
 "ref":
 "pmb92388"}
 ]
}
}, {
 "type":
 "wienerschnitzler",
 "color":
 "#6F5106",
 "caption":
 "Wiener Schnitzler",
 "idno":
 "https://wienerschnitzler.org/tag.html#1912-05-16",
 "head":
 "Venedig",
 "desc":
{"listPlace":
  [
 {
 "placeName":
 "Hotel de l’Europe [Venedig]",
 "ref":
 ""}
 ,  {
 "placeName":
 "Piazza San Marco",
 "ref":
 ""}
 ,  {
 "placeName":
 "Giardini Napoleonici",
 "ref":
 ""}
 ,  {
 "placeName":
 "Grand Hotel Bauer-Grünwald",
 "ref":
 ""}
 ,  {
 "placeName":
 "Madonna dell’Orto",
 "ref":
 ""}
 ,  {
 "placeName":
 "Hotel Bonvecchiati",
 "ref":
 ""}
 ]
}
}, {
 "type":
 "wienerschnitzler",
 "color":
 "#6F5106",
 "caption":
 "Wiener Schnitzler",
 "idno":
 "https://wienerschnitzler.org/tag.html#1912-05-16",
 "head":
 "Giardini pubblici Indro Montanelli"
}, {
 "type":
 "URL",
 "subtype":
 "pmb",
 "filename":
 "entity/253177/",
 "idno":
 "https://pmb.acdh.oeaw.ac.at/entity/253177/",
 "head":
 "Ausstellungsbesuch Biennale Venedig, 16.5.1912",
 "desc":
{"listPerson":
  [
{
 "persName":
 "Arthur Schnitzler",
 "ref":
 ""}],
 "listPlace":
  [
 {
 "placeName":
 "Giardini pubblici Indro Montanelli",
 "ref":
 ""}
 ]
}
}, {
 "type":
 "kalliope-verbund",
 "color":
 "#003574",
 "caption":
 "Kalliope Verbundkatalog",
 "idno":
 "http://kalliope-verbund.info/DE-2498-HS00077590",
 "head":
 "Hoffmann, Nina an Schnitzler, Arthur [Briefe]",
 "text":
 "2 Bl."
}, {
 "type":
 "kalliope-verbund",
 "color":
 "#003574",
 "caption":
 "Kalliope Verbundkatalog",
 "idno":
 "http://kalliope-verbund.info/DE-2498-HS00077730",
 "head":
 "Reichel, Kurt an Schnitzler, Arthur [Briefe]",
 "text":
 "1 Bl."
}, {
 "type":
 "kalliope-verbund",
 "color":
 "#003574",
 "caption":
 "Kalliope Verbundkatalog",
 "idno":
 "http://kalliope-verbund.info/DE-2498-HS00071751",
 "head":
 "Kaiserlich-Königliche Gesellschaft der Ärzte an Schnitzler, Arthur [Briefe]",
 "text":
 "1 Bl.",
 "desc":
{"listPerson":
  [
{
 "persName":
 "Kaiserlich-Königliche Gesellschaft der Ärzte",
 "ref":
 "http://d-nb.info/gnd/2015137-8"}]
}
}] 