[{
 "type":
 "schnitzler-tagebuch",
 "color":
 "#037a33",
 "filename":
 "entry__1912-08-14",
 "caption":
 "Tagebuch",
 "idno":
 "https://schnitzler-tagebuch.acdh.oeaw.ac.at/entry__1912-08-14.html",
 "head":
 "Tagebuch, 14. August 1912",
 "desc":
{"listPerson":
  [
{
 "persName":
 "Peter Altenberg",
 "ref":
 "person_13162"},
 {
 "persName":
 "Franz Colmers",
 "ref":
 "person_14259"},
 {
 "persName":
 "Paul Goldmann",
 "ref":
 "person_15529"},
 {
 "persName":
 "Otto Lenz",
 "ref":
 "person_17444"},
 {
 "persName":
 "Hugo Schmidl",
 "ref":
 "person_19755"},
 {
 "persName":
 "Paula Schmidl",
 "ref":
 "person_19756"},
 {
 "persName":
 "Otto Zuckerkandl",
 "ref":
 "person_21601"}],
 "listBibl":
  [
 {
 "title":
 "Professor Bernhardi. Komödie in fünf Akten",
 "ref":
 "pmb30203"}
 ],
 "listPlace":
  [
 {
 "placeName":
 "Monte Cipro",
 "ref":
 "pmb92408"}
 ]
}
}, {
 "type":
 "schnitzler-briefe",
 "color":
 "#A63437",
 "filename":
 "L02084",
 "caption":
 "Briefe mit Autorinnen und Autoren",
 "idno":
 "https://schnitzler-briefe.acdh.oeaw.ac.at/L02084.html",
 "head":
 "Richard Dehmel an Arthur Schnitzler, 14. 8. 1912",
 "desc":
{"listPerson":
  [
{
 "persName":
 "Richard Dehmel",
 "ref":
 "pmb11148"},
 {
 "persName":
 "Albert Köster",
 "ref":
 "pmb44882"},
 {
 "persName":
 "Max Bernstein",
 "ref":
 "pmb10905"},
 {
 "persName":
 "Wilhelm Schäfer",
 "ref":
 "pmb9817"},
 {
 "persName":
 "Paul Schlenther",
 "ref":
 "pmb12671"}],
 "listBibl":
  [
 {
 "title":
 "Aufruf zur Kritik an der Verwendung von Spendengeldern für Autoren durch die Deutsche Schillerstiftung",
 "ref":
 "pmb44869"}
 ],
 "listOrg":
  [
 {
 "orgName":
 "Deutsche Schillerstiftung",
 "ref":
 "pmb41852"}
 ],
 "listPlace":
  [
 {
 "placeName":
 "Hamburg",
 "ref":
 "pmb506"}
 ,  {
 "placeName":
 "Wien",
 "ref":
 "pmb50"}
 ,  {
 "placeName":
 "Brijuni",
 "ref":
 "pmb45260"}
 ,  {
 "placeName":
 "Blankenese",
 "ref":
 "pmb1226"}
 ,  {
 "placeName":
 "Berlin",
 "ref":
 "pmb168"}
 ,  {
 "placeName":
 "Fritz-Seger-Straße",
 "ref":
 "pmb50143"}
 ]
}
}, {
 "type":
 "wienerschnitzler",
 "color":
 "#ECDA98",
 "caption":
 "Wiener Schnitzler",
 "head":
 "Brijuni",
 "desc":
{"listPlace":
  [
 {
 "placeName":
 "Hotel Neptun III",
 "ref":
 ""}
 ,  {
 "placeName":
 "Monte Cipro",
 "ref":
 ""}
 ,  {
 "placeName":
 "Bootshaus",
 "ref":
 ""}
 ,  {
 "placeName":
 "Monte Paradiso",
 "ref":
 ""}
 ]
}
}, {
 "type":
 "kalliope-verbund",
 "color":
 "#003574",
 "caption":
 "Kalliope Verbundkatalog",
 "idno":
 "http://kalliope-verbund.info/DE-2498-HS00076801",
 "head":
 "Dehmel, Richard an Schnitzler, Arthur [Briefe]",
 "text":
 "2 Bl.",
 "desc":
{"listPerson":
  [
{
 "persName":
 "Richard (1863-1920) Dehmel",
 "ref":
 "http://d-nb.info/gnd/118679236"}]
}
}, {
 "type":
 "kalliope-verbund",
 "color":
 "#003574",
 "caption":
 "Kalliope Verbundkatalog",
 "idno":
 "http://kalliope-verbund.info/DE-2498-HS00062599",
 "head":
 "Dehmel, Richard an Schnitzler, Arthur [Briefe]",
 "text":
 "1 Bl.Kopie. Mit Negativkopie",
 "desc":
{"listPerson":
  [
{
 "persName":
 "Richard (1863-1920) Dehmel",
 "ref":
 "http://d-nb.info/gnd/118679236"}]
}
}] 