[{
 "type":
 "schnitzler-tagebuch",
 "color":
 "#037a33",
 "filename":
 "entry__1912-03-03",
 "caption":
 "Tagebuch",
 "idno":
 "https://schnitzler-tagebuch.acdh.oeaw.ac.at/entry__1912-03-03.html",
 "head":
 "Tagebuch, 3. März 1912",
 "desc":
{"listPerson":
  [
{
 "persName":
 "Eugenie Bachrach",
 "ref":
 "person_13355"},
 {
 "persName":
 "Stefanie Bachrach",
 "ref":
 "person_13359"},
 {
 "persName":
 "Robert Gund",
 "ref":
 "person_15750"},
 {
 "persName":
 "Ludwig Koessler",
 "ref":
 "person_16982"},
 {
 "persName":
 "Emma Löwenstamm",
 "ref":
 "person_17650"},
 {
 "persName":
 "Paula Schmidl",
 "ref":
 "person_19756"},
 {
 "persName":
 "Heinrich Schnitzler",
 "ref":
 "person_19822"},
 {
 "persName":
 "Fritz Strassni",
 "ref":
 "person_20482"},
 {
 "persName":
 "Wilhelm von Wymetal",
 "ref":
 "person_21486"},
 {
 "persName":
 "Marianne Giustiniani",
 "ref":
 "person_21600"},
 {
 "persName":
 "Jakob Wassermann",
 "ref":
 "person_21107"}],
 "listBibl":
  [
 {
 "title":
 "Frau Beate und ihr Sohn. Novelle",
 "ref":
 "pmb32133"}
 ],
 "listPlace":
  [
 {
 "placeName":
 "Grinzing",
 "ref":
 "pmb90771"}
 ,  {
 "placeName":
 "Pötzleinsdorf",
 "ref":
 "pmb169"}
 ,  {
 "placeName":
 "Währing",
 "ref":
 "pmb90546"}
 ,  {
 "placeName":
 "Penzing",
 "ref":
 "pmb90913"}
 ]
}
}, {
 "type":
 "schnitzler-orte",
 "color":
 "#045344",
 "caption":
 "Aufenthaltsorte",
 "head":
 "Wien",
 "desc":
{"listPlace":
  [
 {
 "placeName":
 "XVII., Hernals",
 "ref":
 ""}
 ,  {
 "placeName":
 "XIV., Penzing",
 "ref":
 ""}
 ,  {
 "placeName":
 "XVIII., Währing",
 "ref":
 ""}
 ,  {
 "placeName":
 "Hohe Warte",
 "ref":
 ""}
 ]
}
}, {
 "type":
 "kalliope-verbund",
 "color":
 "#003574",
 "caption":
 "Kalliope Verbundkatalog",
 "idno":
 "http://kalliope-verbund.info/DE-2498-HS00077441",
 "head":
 "Schwarz, Erich an Schnitzler, Arthur [Briefe]",
 "text":
 "1 Bl."
}] 