[{
 "type":
 "schnitzler-tagebuch",
 "color":
 "#037a33",
 "filename":
 "entry__1912-11-12",
 "caption":
 "Tagebuch",
 "idno":
 "https://schnitzler-tagebuch.acdh.oeaw.ac.at/entry__1912-11-12.html",
 "head":
 "Tagebuch, 12. November 1912",
 "desc":
{"listPerson":
  [
{
 "persName":
 "Ludwig Hartau",
 "ref":
 "person_15936"},
 {
 "persName":
 "Max Schach",
 "ref":
 "person_19603"},
 {
 "persName":
 "Siegfried Trebitsch",
 "ref":
 "person_20796"},
 {
 "persName":
 "Victor Barnowsky",
 "ref":
 "person_13428"},
 {
 "persName":
 "Samuel Fischer",
 "ref":
 "person_15009"}],
 "listBibl":
  [
 {
 "title":
 "Liebelei (Filmplan, 1912)",
 "ref":
 "pmb36041"}
 ,  {
 "title":
 "Professor Bernhardi. Komödie in fünf Akten",
 "ref":
 "pmb30203"}
 ],
 "listPlace":
  [
 {
 "placeName":
 "Berlin",
 "ref":
 "pmb168"}
 ,  {
 "placeName":
 "Potsdamerstr.",
 "ref":
 "pmb92455"}
 ,  {
 "placeName":
 "Unter den Linden",
 "ref":
 "pmb91975"}
 ]
}
}, {
 "type":
 "schnitzler-briefe",
 "color":
 "#A63437",
 "filename":
 "L02095",
 "caption":
 "Briefe mit Autorinnen und Autoren",
 "idno":
 "https://schnitzler-briefe.acdh.oeaw.ac.at/L02095.html",
 "head":
 "Peter Altenberg an Arthur Schnitzler, [zwischen 9. und
                  15. 11. 1912?]",
 "desc":
{"listPerson":
  [
{
 "persName":
 "Hermann Bahr",
 "ref":
 "pmb10815"},
 {
 "persName":
 "Peter Altenberg",
 "ref":
 "pmb2147"}],
 "listPlace":
  [
 {
 "placeName":
 "Semmering",
 "ref":
 "pmb189"}
 ,  {
 "placeName":
 "Wien",
 "ref":
 "pmb50"}
 ]
}
}, {
 "type":
 "schnitzler-briefe",
 "color":
 "#A63437",
 "filename":
 "L02097",
 "caption":
 "Briefe mit Autorinnen und Autoren",
 "idno":
 "https://schnitzler-briefe.acdh.oeaw.ac.at/L02097.html",
 "head":
 "Lou Andreas-Salomé an Arthur Schnitzler, [vor dem 15. 11. 1912?]",
 "desc":
{"listPerson":
  [
{
 "persName":
 "Lou Andreas-Salomé",
 "ref":
 "pmb10762"},
 {
 "persName":
 "Ellen Delp",
 "ref":
 "pmb5416"}],
 "listPlace":
  [
 {
 "placeName":
 "Wien",
 "ref":
 "pmb50"}
 ]
}
}, {
 "type":
 "schnitzler-briefe",
 "color":
 "#A63437",
 "filename":
 "L03639",
 "caption":
 "Briefe mit Autorinnen und Autoren",
 "idno":
 "https://schnitzler-briefe.acdh.oeaw.ac.at/L03639.html",
 "head":
 "Stefan Zweig an Arthur Schnitzler, 12. 11. 1912",
 "desc":
{"listPerson":
  [
{
 "persName":
 "Stefan Zweig",
 "ref":
 "pmb13212"},
 {
 "persName":
 "Olga Schnitzler",
 "ref":
 "pmb2173"}],
 "listBibl":
  [
 {
 "title":
 "Professor Bernhardi. Komödie in fünf Akten",
 "ref":
 "pmb30203"}
 ],
 "listPlace":
  [
 {
 "placeName":
 "Berlin",
 "ref":
 "pmb168"}
 ,  {
 "placeName":
 "Kleines Theater",
 "ref":
 "pmb208"}
 ,  {
 "placeName":
 "Kochgasse 8",
 "ref":
 "pmb249577"}
 ,  {
 "placeName":
 "Wien",
 "ref":
 "pmb50"}
 ]
}
}, {
 "type":
 "wienerschnitzler",
 "color":
 "#ECDA98",
 "caption":
 "Wiener Schnitzler",
 "idno":
 "https://wienerschnitzler.org/tag.html#1912-11-12",
 "head":
 "Berlin",
 "desc":
{"listPlace":
  [
 {
 "placeName":
 "Hotel Esplanade [Berlin]",
 "ref":
 ""}
 ,  {
 "placeName":
 "Hotel und Restaurant »Prinz Wilhelm«",
 "ref":
 ""}
 ,  {
 "placeName":
 "Bülowstraße 90",
 "ref":
 ""}
 ,  {
 "placeName":
 "Potsdamer Straße",
 "ref":
 ""}
 ,  {
 "placeName":
 "Kammerlichtspiele [Berlin]",
 "ref":
 ""}
 ,  {
 "placeName":
 "Kleines Theater",
 "ref":
 ""}
 ]
}
}, {
 "type":
 "schnitzler-kultur",
 "color":
 "#6B4C5A",
 "filename":
 "pmb253904",
 "caption":
 "Kulturveranstaltungen",
 "idno":
 "https://schnitzler-kultur.acdh.oeaw.ac.at/pmb253904.html",
 "head":
 "Arrangierprobe von Professor Bernhardi,
                        12.11.1912",
 "desc":
{"listOrg":
  [
 {
 "orgName":
 "Kleines Theater",
 "ref":
 ""}
 ],
 "listBibl":
  [
 {
 "title":
 "Professor Bernhardi. Komödie in fünf Akten",
 "ref":
 ""}
 ],
 "listPerson":
  [
{
 "persName":
 "Arthur Schnitzler",
 "ref":
 ""}],
 "listPlace":
  [
 {
 "placeName":
 "Kleines Theater",
 "ref":
 ""}
 ]
}
}, {
 "type":
 "schnitzler-kultur",
 "color":
 "#6B4C5A",
 "filename":
 "pmb210467",
 "caption":
 "Kulturveranstaltungen",
 "idno":
 "https://schnitzler-kultur.acdh.oeaw.ac.at/pmb210467.html",
 "head":
 "Filmvorführung, 12.11.1912",
 "desc":
{"listPerson":
  [
{
 "persName":
 "Arthur Schnitzler",
 "ref":
 ""}],
 "listPlace":
  [
 {
 "placeName":
 "Kammerlichtspiele [Berlin]",
 "ref":
 ""}
 ]
}
}, {
 "type":
 "schnitzler-cmif",
 "subtype":
 "#asbw_4ed2e411-8d76-435f-aea0-faf299e96d86",
 "color":
 "#654321",
 "caption":
 "Gedruckte Briefwechsel",
 "head":
 "Erhalt von Isabella Vengerova an Arthur Schnitzler, 7. 11. [1912]",
 "source":
 "Die Korrespondenz von Arthur Schnitzler mit Isabella Vengerova und Zinaida Vengerova. Herausgegeben von Konstantin Asadowski und Martin Anton Müller. In: Hofmannsthal-Jahrbuch zur europäischen Moderne, Bd. 30 (2022), S. 7–91."
}, {
 "type":
 "schnitzler-cmif",
 "subtype":
 "#j7685005-64da-4e31-99b6-b4641aa1628c",
 "color":
 "#654321",
 "caption":
 "Gedruckte Briefwechsel",
 "head":
 "Arthur Schnitzler an Olga Schnitzler, 12. 11. 1912",
 "source":
 "Arthur Schnitzler: Briefe 1875–1912. Hrsg. v. Therese Nickl u. Heinrich Schnitzler. Frankfurt am Main: S. Fischer 1981."
}, {
 "type":
 "schnitzler-kino-buch",
 "subtype":
 "#ISBN978-3205787464",
 "color":
 "#B43C9C",
 "caption":
 "Kino",
 "head":
 "Schnitzler geht ins Kino in Berlin, 12. November 1912",
 "source":
 "»A. ist manchmal wie ein kleines Kind«. Clara Katharina Pollaczek und Arthur Schnitzler gehen ins Kino. Herausgegeben von Stephan Kurz und Michael Rohrwasser unter Mitarbeit von Daniel Schopper. Wien, Köln, Weimar: Böhlau Verlag 2012."
}] 