[{
 "type":
 "schnitzler-tagebuch",
 "color":
 "#037a33",
 "filename":
 "entry__1912-07-20",
 "caption":
 "Tagebuch",
 "idno":
 "https://schnitzler-tagebuch.acdh.oeaw.ac.at/entry__1912-07-20.html",
 "head":
 "Tagebuch, 20. Juli 1912",
 "desc":
{"listPerson":
  [
{
 "persName":
 "Lili Schnitzler",
 "ref":
 "person_14130"},
 {
 "persName":
 "Johan Gustaf Janson",
 "ref":
 "person_16508"},
 {
 "persName":
 "Heinrich Schnitzler",
 "ref":
 "person_19822"}],
 "listBibl":
  [
 {
 "title":
 "Lügen",
 "ref":
 "pmb80740"}
 ]
}
}, {
 "type":
 "wienerschnitzler",
 "color":
 "#ECDA98",
 "caption":
 "Wiener Schnitzler",
 "idno":
 "https://wienerschnitzler.org/tag.html#1912-07-20",
 "head":
 "Wien",
 "desc":
{"listPlace":
  [
 {
 "placeName":
 "X., Favoriten",
 "ref":
 ""}
 ,  {
 "placeName":
 "XVIII., Währing",
 "ref":
 ""}
 ]
}
}, {
 "type":
 "schnitzler-interviews",
 "color":
 "#3D5A80",
 "filename":
 "M154",
 "caption":
 "Interviews, Meinungen, Proteste",
 "idno":
 "https://schnitzler-interviews.acdh.oeaw.ac.at/M154.html",
 "head":
 "Von der Naturschutzparkbewegung, 20. 7. 1912",
 "desc":
{"listPerson":
  [
{
 "persName":
 "Theodor Etzel",
 "ref":
 "pmb61404"},
 {
 "persName":
 "Peter Rosegger",
 "ref":
 "pmb12551"},
 {
 "persName":
 "Wilhelm Bölsche",
 "ref":
 "pmb11061"},
 {
 "persName":
 "Ferdinand von Zeppelin",
 "ref":
 "pmb10670"},
 {
 "persName":
 "Jakob Wassermann",
 "ref":
 "pmb13055"},
 {
 "persName":
 "Hermann Bahr",
 "ref":
 "pmb10815"},
 {
 "persName":
 "Hugo von Hofmannsthal",
 "ref":
 "pmb11740"}],
 "listBibl":
  [
 {
 "title":
 "Von der Naturschutzparkbewegung",
 "ref":
 "pmb61403"}
 ,  {
 "title":
 "Die Lese. Literarische Zeitung für das Deutsche Volk",
 "ref":
 "pmb61408"}
 ],
 "listPlace":
  [
 {
 "placeName":
 "München",
 "ref":
 "pmb45258"}
 ,  {
 "placeName":
 "Stuttgart",
 "ref":
 "pmb872"}
 ,  {
 "placeName":
 "Amerika",
 "ref":
 "pmb175"}
 ,  {
 "placeName":
 "Schweiz",
 "ref":
 "pmb43435"}
 ,  {
 "placeName":
 "Schweden",
 "ref":
 "pmb44335"}
 ,  {
 "placeName":
 "Lüneburger Heide",
 "ref":
 "pmb61428"}
 ,  {
 "placeName":
 "Wilseder Berg",
 "ref":
 "pmb61430"}
 ,  {
 "placeName":
 "Totengrund",
 "ref":
 "pmb61433"}
 ,  {
 "placeName":
 "Steiermark",
 "ref":
 "pmb17"}
 ,  {
 "placeName":
 "Niedere Tauern",
 "ref":
 "pmb61436"}
 ,  {
 "placeName":
 "Schladming",
 "ref":
 "pmb35496"}
 ,  {
 "placeName":
 "Bayern",
 "ref":
 "pmb314"}
 ],
 "listOrg":
  [
 {
 "orgName":
 "Verein Naturschutzpark",
 "ref":
 "pmb61421"}
 ]
}
}] 