[{
 "type":
 "schnitzler-tagebuch",
 "color":
 "#037a33",
 "filename":
 "entry__1912-07-02",
 "caption":
 "Tagebuch",
 "idno":
 "https://schnitzler-tagebuch.acdh.oeaw.ac.at/entry__1912-07-02.html",
 "head":
 "Tagebuch, 2. Juli 1912",
 "desc":
{"listPerson":
  [
{
 "persName":
 "Alfred von Berger",
 "ref":
 "person_13624"},
 {
 "persName":
 "Josef Böhm",
 "ref":
 "person_13833"},
 {
 "persName":
 "Arnold Korff",
 "ref":
 "person_17046"},
 {
 "persName":
 "Ludwig Molitor",
 "ref":
 "person_18215"},
 {
 "persName":
 "Karl Pohl",
 "ref":
 "person_18847"},
 {
 "persName":
 "Richard Rosenbaum",
 "ref":
 "person_19364"},
 {
 "persName":
 "Sigmund Schlesinger",
 "ref":
 "person_19736"},
 {
 "persName":
 "Ferdinand Schmutzer",
 "ref":
 "person_19784"},
 {
 "persName":
 "Heinrich Schnitzler",
 "ref":
 "person_19822"},
 {
 "persName":
 "Ernestine Senders",
 "ref":
 "person_20059"},
 {
 "persName":
 "Otto von Bismarck",
 "ref":
 "person_13749"},
 {
 "persName":
 "Johann Schnitzler",
 "ref":
 "person_19824"},
 {
 "persName":
 "Karl Berger",
 "ref":
 "person_13632"},
 {
 "persName":
 "Frieda Pollak",
 "ref":
 "person_18881"},
 {
 "persName":
 "Hermann Wlach",
 "ref":
 "person_21414"}],
 "listBibl":
  [
 {
 "title":
 "Professor Bernhardi. Komödie in fünf Akten",
 "ref":
 "pmb30203"}
 ,  {
 "title":
 "Lebendige Stunden",
 "ref":
 "pmb29957"}
 ,  {
 "title":
 "Der einsame Weg. Schauspiel in fünf Akten",
 "ref":
 "pmb29985"}
 ],
 "listPlace":
  [
 {
 "placeName":
 "Burgtheater",
 "ref":
 "pmb14"}
 ,  {
 "placeName":
 "Hamburg",
 "ref":
 "pmb506"}
 ,  {
 "placeName":
 "XIII., Hietzing",
 "ref":
 "pmb63"}
 ,  {
 "placeName":
 "Innsbruck",
 "ref":
 "pmb867"}
 ]
}
}, {
 "type":
 "schnitzler-briefe",
 "color":
 "#A63437",
 "filename":
 "L03557",
 "caption":
 "Briefe mit Autorinnen und Autoren",
 "idno":
 "https://schnitzler-briefe.acdh.oeaw.ac.at/L03557.html",
 "head":
 "Felix Salten an Arthur Schnitzler, 2. 7. 1912",
 "desc":
{"listPerson":
  [
{
 "persName":
 "Felix Salten",
 "ref":
 "pmb2167"},
 {
 "persName":
 "Olga Schnitzler",
 "ref":
 "pmb2173"},
 {
 "persName":
 "Heinrich Schnitzler",
 "ref":
 "pmb12692"},
 {
 "persName":
 "Lili Schnitzler",
 "ref":
 "pmb2238"},
 {
 "persName":
 "Louise Wolff",
 "ref":
 "pmb27312"},
 {
 "persName":
 "Paul Goldmann",
 "ref":
 "pmb11485"},
 {
 "persName":
 "Gerhart Hauptmann",
 "ref":
 "pmb11617"}],
 "listBibl":
  [
 {
 "title":
 "Gabriel Schillings Flucht. Drama",
 "ref":
 "pmb30357"}
 ,  {
 "title":
 "Eine Gerhart Hauptmann-Première in Lauchstedt. (»Gabriel Schillings Flucht.«)",
 "ref":
 "pmb148387"}
 ,  {
 "title":
 "Neue Freie Presse",
 "ref":
 "pmb36374"}
 ,  {
 "title":
 "Tagebuch",
 "ref":
 "pmb33243"}
 ],
 "listPlace":
  [
 {
 "placeName":
 "Unterach am Attersee",
 "ref":
 "pmb877"}
 ,  {
 "placeName":
 "Wien",
 "ref":
 "pmb50"}
 ,  {
 "placeName":
 "Sternwartestraße",
 "ref":
 "pmb150"}
 ,  {
 "placeName":
 "Berghof",
 "ref":
 "pmb411"}
 ,  {
 "placeName":
 "Prag",
 "ref":
 "pmb652"}
 ,  {
 "placeName":
 "Landshut",
 "ref":
 "pmb46449"}
 ,  {
 "placeName":
 "Leipzig",
 "ref":
 "pmb864"}
 ,  {
 "placeName":
 "Weimar",
 "ref":
 "pmb197"}
 ,  {
 "placeName":
 "Berlin",
 "ref":
 "pmb168"}
 ,  {
 "placeName":
 "Dresden",
 "ref":
 "pmb866"}
 ,  {
 "placeName":
 "Brijuni",
 "ref":
 "pmb45260"}
 ]
}
}, {
 "type":
 "wienerschnitzler",
 "color":
 "#ECDA98",
 "caption":
 "Wiener Schnitzler",
 "idno":
 "https://wienerschnitzler.org/tag.html#1912-07-02",
 "head":
 "Wien",
 "desc":
{"listPlace":
  [
 {
 "placeName":
 "I., Innere Stadt",
 "ref":
 ""}
 ,  {
 "placeName":
 "XVIII., Währing",
 "ref":
 ""}
 ]
}
}, {
 "type":
 "schnitzler-cmif",
 "subtype":
 "#gc49cd7e-1c35-4af4-808b-831b06a17f3d",
 "color":
 "#654321",
 "caption":
 "Gedruckte Briefwechsel",
 "head":
 "Theodor Reik an Arthur Schnitzler, 2.7.1912",
 "source":
 "Jeffrey B. Berlin/Hans Ulrich Lindken: Theodor Reiks unveröffentlichte Briefe an Arthur Schnitzler. In: Literatur und Kritik, 1983, H. 173/174, 182-197."
}] 