[{
 "type":
 "schnitzler-orte",
 "color":
 "#045344",
 "caption":
 "Aufenthaltsorte",
 "idno":
 "https://pmb.acdh.oeaw.ac.at/entity/45260/",
 "head":
 "Brijuni"
}, {
 "type":
 "schnitzler-orte",
 "color":
 "#045344",
 "caption":
 "Aufenthaltsorte",
 "idno":
 "https://pmb.acdh.oeaw.ac.at/entity/91944/",
 "head":
 "Triest"
}, {
 "type":
 "schnitzler-briefe",
 "color":
 "#A63437",
 "caption":
 "Briefe mit Autorinnen und Autoren",
 "idno":
 "https://schnitzler-briefe.acdh.oeaw.ac.at/L02063.html",
 "head":
 "Arthur Schnitzler an Richard Beer-Hofmann, 13. 5. 1912",
 "desc":
{"listPerson":
  [
{
 "persName":
 "Richard Beer-Hofmann",
 "ref":
 "pmb10863"}],
 "listPlace":
  [
 {
 "placeName":
 "Brijuni",
 "ref":
 "pmb45260"}
 ,  {
 "placeName":
 "Venedig",
 "ref":
 "pmb462"}
 ,  {
 "placeName":
 "Wien",
 "ref":
 "pmb50"}
 ,  {
 "placeName":
 "Grand Hotel Bauer-Grünwald",
 "ref":
 "pmb310"}
 ,  {
 "placeName":
 "Hasenauerstraße",
 "ref":
 "pmb383"}
 ,  {
 "placeName":
 "Hotel de l’Europe",
 "ref":
 "pmb34050"}
 ]
}
}, {
 "type":
 "schnitzler-briefe",
 "color":
 "#A63437",
 "caption":
 "Briefe mit Autorinnen und Autoren",
 "idno":
 "https://schnitzler-briefe.acdh.oeaw.ac.at/L02678.html",
 "head":
 "Thomas Mann an Arthur Schnitzler, 13. 5. [1912?]",
 "desc":
{"listPerson":
  [
{
 "persName":
 "Thomas Mann",
 "ref":
 "pmb12176"}],
 "listPlace":
  [
 {
 "placeName":
 "München",
 "ref":
 "pmb45258"}
 ,  {
 "placeName":
 "Wien",
 "ref":
 "pmb50"}
 ]
}
}, {
 "type":
 "schnitzler-tagebuch",
 "color":
 "#037a33",
 "caption":
 "Tagebuch",
 "idno":
 "https://schnitzler-tagebuch.acdh.oeaw.ac.at/entry__1912-05-13.html",
 "head":
 "Tagebuch, 13. Mai 1912",
 "desc":
{"listPerson":
  [
{
 "persName":
 "Raoul Auernheimer",
 "ref":
 "person_13305"},
 {
 "persName":
 "Herbert Eulenberg",
 "ref":
 "person_14821"},
 {
 "persName":
 "Kühr",
 "ref":
 "person_17167"},
 {
 "persName":
 "Anna Kupelwieser",
 "ref":
 "person_17202"},
 {
 "persName":
 "Paul Ress",
 "ref":
 "person_19198"},
 {
 "persName":
 "Anna Specht",
 "ref":
 "person_20232"},
 {
 "persName":
 "Karl Kupelwieser",
 "ref":
 "person_17204"},
 {
 "persName":
 "Julius Stern",
 "ref":
 "person_20415"}],
 "listPlace":
  [
 {
 "placeName":
 "Trieste",
 "ref":
 "pmb91944"}
 ]
}
}] 