[{
 "type":
 "schnitzler-tagebuch",
 "color":
 "#037a33",
 "filename":
 "entry__1912-08-24",
 "caption":
 "Tagebuch",
 "idno":
 "https://schnitzler-tagebuch.acdh.oeaw.ac.at/entry__1912-08-24.html",
 "head":
 "Tagebuch, 24. August 1912",
 "desc":
{"listPerson":
  [
{
 "persName":
 "Alfred von Berger",
 "ref":
 "person_13624"},
 {
 "persName":
 "Franz Colmers",
 "ref":
 "person_14259"},
 {
 "persName":
 "Paul Kupelwieser",
 "ref":
 "person_17207"},
 {
 "persName":
 "Heinrich Prechtler",
 "ref":
 "person_18950"},
 {
 "persName":
 "Hugo Schmidl",
 "ref":
 "person_19755"},
 {
 "persName":
 "Otto Zuckerkandl",
 "ref":
 "person_21601"},
 {
 "persName":
 "Ferdinande Schmittlein",
 "ref":
 "person_19778"}],
 "listPlace":
  [
 {
 "placeName":
 "Pola",
 "ref":
 "pmb851"}
 ,  {
 "placeName":
 "Trieste",
 "ref":
 "pmb91944"}
 ,  {
 "placeName":
 "Villach",
 "ref":
 "pmb92011"}
 ]
}
}, {
 "type":
 "URL",
 "subtype":
 "wienerschnitzler",
 "head":
 "Brijuni",
 "desc":
{"listPlace":
  [
 {
 "placeName":
 "Hotel Neptun III",
 "ref":
 ""}
 ]
}
}, {
 "type":
 "URL",
 "subtype":
 "wienerschnitzler",
 "head":
 "Villach",
 "desc":
{"listPlace":
  [
 {
 "placeName":
 "Parkhotel Villach",
 "ref":
 ""}
 ]
}
}, {
 "type":
 "URL",
 "subtype":
 "wienerschnitzler",
 "head":
 "Triest",
 "desc":
{"listPlace":
  [
 {
 "placeName":
 "Savoia Excelsior Palace",
 "ref":
 ""}
 ,  {
 "placeName":
 "Triest Hauptbahnhof",
 "ref":
 ""}
 ]
}
}, {
 "type":
 "URL",
 "subtype":
 "wienerschnitzler",
 "head":
 "Pula",
 "desc":
{"listPlace":
  [
 {
 "placeName":
 "Arena",
 "ref":
 ""}
 ]
}
}] 