[{
 "type":
 "schnitzler-tagebuch",
 "color":
 "#037a33",
 "filename":
 "entry__1912-07-05",
 "caption":
 "Tagebuch",
 "idno":
 "https://schnitzler-tagebuch.acdh.oeaw.ac.at/entry__1912-07-05.html",
 "head":
 "Tagebuch, 5. Juli 1912",
 "desc":
{"listPerson":
  [
{
 "persName":
 "Ludwig Anzengruber",
 "ref":
 "person_13237"},
 {
 "persName":
 "Julius Bab",
 "ref":
 "person_13337"},
 {
 "persName":
 "Stefanie Bachrach",
 "ref":
 "person_13359"},
 {
 "persName":
 "Johannes Brahms",
 "ref":
 "person_13914"},
 {
 "persName":
 "Sigmund Freud",
 "ref":
 "person_15172"},
 {
 "persName":
 "Paul Heyse",
 "ref":
 "person_16186"},
 {
 "persName":
 "Emma Löwenstamm",
 "ref":
 "person_17650"},
 {
 "persName":
 "Paul Marx",
 "ref":
 "person_17958"},
 {
 "persName":
 "Heinrich Schnitzler",
 "ref":
 "person_19822"},
 {
 "persName":
 "Irma Schröter",
 "ref":
 "person_19896"},
 {
 "persName":
 "Alfred von Winterstein",
 "ref":
 "person_21387"},
 {
 "persName":
 "Anton Bettelheim",
 "ref":
 "person_13699"},
 {
 "persName":
 "Franz Peter Schubert",
 "ref":
 "person_19902"}],
 "listBibl":
  [
 {
 "title":
 "Sterben. Novelle",
 "ref":
 "pmb30117"}
 ,  {
 "title":
 "Der einsame Weg. Schauspiel in fünf Akten",
 "ref":
 "pmb29985"}
 ,  {
 "title":
 "Deutsche Volkslieder",
 "ref":
 "pmb78197"}
 ,  {
 "title":
 "Der Narr in Christo Emanuel Quint",
 "ref":
 "pmb76921"}
 ]
}
}, {
 "type":
 "schnitzler-briefe",
 "color":
 "#A63437",
 "filename":
 "L02076",
 "caption":
 "Briefe mit Autorinnen und Autoren",
 "idno":
 "https://schnitzler-briefe.acdh.oeaw.ac.at/L02076.html",
 "head":
 "Hugo von Hofmannsthal an Olga Schnitzler, 5. 7. [1912]",
 "desc":
{"listPerson":
  [
{
 "persName":
 "Hugo von Hofmannsthal",
 "ref":
 "pmb11740"},
 {
 "persName":
 "Olga Schnitzler",
 "ref":
 "pmb2173"},
 {
 "persName":
 "Hugo von Hofmannsthal",
 "ref":
 "pmb11740"},
 {
 "persName":
 "Olga Schnitzler",
 "ref":
 "pmb2173"},
 {
 "persName":
 "Albert Steinrück",
 "ref":
 "pmb12837"},
 {
 "persName":
 "Louis Philipp Friedmann",
 "ref":
 "pmb16658"}],
 "listBibl":
  [
 {
 "title":
 "Ariadne auf Naxos. Oper in einem Aufzug",
 "ref":
 "pmb30907"}
 ,  {
 "title":
 "Die Gedichte und kleinen Dramen",
 "ref":
 "pmb44507"}
 ],
 "listPlace":
  [
 {
 "placeName":
 "Rodaun",
 "ref":
 "pmb173"}
 ,  {
 "placeName":
 "Wien",
 "ref":
 "pmb50"}
 ,  {
 "placeName":
 "Tutzing",
 "ref":
 "pmb44493"}
 ,  {
 "placeName":
 "Bad Vöslau",
 "ref":
 "pmb992"}
 ,  {
 "placeName":
 "Hinterbrühl",
 "ref":
 "pmb75"}
 ,  {
 "placeName":
 "Villa Friedmann",
 "ref":
 "pmb44495"}
 ]
}
}, {
 "type":
 "wienerschnitzler",
 "color":
 "#6F5106",
 "caption":
 "Wiener Schnitzler",
 "idno":
 "https://wienerschnitzler.org/tag.html#1912-07-05",
 "head":
 "Wien",
 "desc":
{"listPlace":
  [
 {
 "placeName":
 "XVIII., Währing",
 "ref":
 ""}
 ,  {
 "placeName":
 "IX., Alsergrund",
 "ref":
 ""}
 ,  {
 "placeName":
 "XIX., Döbling",
 "ref":
 ""}
 ]
}
}] 