[{
 "type":
 "schnitzler-tagebuch",
 "color":
 "#037a33",
 "filename":
 "entry__1912-12-02",
 "caption":
 "Tagebuch",
 "idno":
 "https://schnitzler-tagebuch.acdh.oeaw.ac.at/entry__1912-12-02.html",
 "head":
 "Tagebuch, 2. Dezember 1912",
 "desc":
{"listPerson":
  [
{
 "persName":
 "Eugenie Bachrach",
 "ref":
 "person_13355"},
 {
 "persName":
 "Lilly Pick",
 "ref":
 "person_18777"},
 {
 "persName":
 "Felix Speidel",
 "ref":
 "person_20242"},
 {
 "persName":
 "Julius Bachrach",
 "ref":
 "person_13357"}],
 "listBibl":
  [
 {
 "title":
 "Der junge Medardus. Dramatische Historie in einem Vorspiel und fünf Aufzügen",
 "ref":
 "pmb29937"}
 ],
 "listPlace":
  [
 {
 "placeName":
 "Wien",
 "ref":
 "pmb50"}
 ]
}
}, {
 "type":
 "schnitzler-orte",
 "color":
 "#045344",
 "filename":
 "entity/168/",
 "caption":
 "Aufenthaltsorte",
 "idno":
 "https://pmb.acdh.oeaw.ac.at/entity/168/",
 "head":
 "Berlin"
}, {
 "type":
 "schnitzler-orte",
 "color":
 "#045344",
 "filename":
 "entity/50/",
 "caption":
 "Aufenthaltsorte",
 "idno":
 "https://pmb.acdh.oeaw.ac.at/entity/50/",
 "head":
 "Wien"
}, {
 "type":
 "schnitzler-interviews",
 "color":
 "#3D5A80",
 "filename":
 "M029",
 "caption":
 "Interviews, Meinungen, Proteste",
 "idno":
 "https://schnitzler-interviews.acdh.oeaw.ac.at/M029.html",
 "head":
 "Die Leichenfeier für Otto Brahm, 2. 12. 1912",
 "desc":
{"listPerson":
  [
{
 "persName":
 "Otto Brahm",
 "ref":
 "pmb10986"},
 {
 "persName":
 "Ludwig Brahm",
 "ref":
 "pmb5187"},
 {
 "persName":
 "Martha Brahm",
 "ref":
 "pmb29038"},
 {
 "persName":
 "Paul Jonas",
 "ref":
 "pmb4532"},
 {
 "persName":
 "Gerhart Hauptmann",
 "ref":
 "pmb11617"},
 {
 "persName":
 "Hermann Sudermann",
 "ref":
 "pmb12899"},
 {
 "persName":
 "Oskar Blumenthal",
 "ref":
 "pmb14328"},
 {
 "persName":
 "Georg von Hülsen-Haeseler",
 "ref":
 "pmb11795"},
 {
 "persName":
 "Christian Haakon VII. von Norwegen",
 "ref":
 "pmb5190"},
 {
 "persName":
 "Emanuel Reicher",
 "ref":
 "pmb12491"},
 {
 "persName":
 "Paul Schlenther",
 "ref":
 "pmb12671"},
 {
 "persName":
 "Olga Schnitzler",
 "ref":
 "pmb2173"},
 {
 "persName":
 "Raoul Auernheimer",
 "ref":
 "pmb10788"}],
 "listBibl":
  [
 {
 "title":
 "Die Ritter vom Geiste",
 "ref":
 "pmb32997"}
 ,  {
 "title":
 "Liebelei. Schauspiel in drei Akten",
 "ref":
 "pmb29917"}
 ,  {
 "title":
 "Die Leichenfeier für Otto Brahm",
 "ref":
 "pmb33003"}
 ,  {
 "title":
 "Neue Freie Presse",
 "ref":
 "pmb36374"}
 ],
 "listPlace":
  [
 {
 "placeName":
 "Berlin",
 "ref":
 "pmb168"}
 ,  {
 "placeName":
 "Krematorium Wedding",
 "ref":
 "pmb1039"}
 ,  {
 "placeName":
 "Hamburg",
 "ref":
 "pmb506"}
 ,  {
 "placeName":
 "Preußen",
 "ref":
 "pmb206"}
 ,  {
 "placeName":
 "Urnenfriedhof Wedding",
 "ref":
 "pmb1040"}
 ,  {
 "placeName":
 "Lessing-Theater",
 "ref":
 "pmb18"}
 ,  {
 "placeName":
 "Österreich",
 "ref":
 "pmb41240"}
 ,  {
 "placeName":
 "Hotel Adlon",
 "ref":
 "pmb1090"}
 ,  {
 "placeName":
 "Tiergarten",
 "ref":
 "pmb36914"}
 ],
 "listOrg":
  [
 {
 "orgName":
 "Neue Freie Presse",
 "ref":
 "pmb29351"}
 ,  {
 "orgName":
 "Sankt-Olav-Orden",
 "ref":
 "pmb29242"}
 ,  {
 "orgName":
 "Deutscher Bühnenverein Berlin",
 "ref":
 "pmb29769"}
 ]
}
}] 