[{
 "type":
 "schnitzler-tagebuch",
 "color":
 "#037a33",
 "filename":
 "entry__1912-04-28",
 "caption":
 "Tagebuch",
 "idno":
 "https://schnitzler-tagebuch.acdh.oeaw.ac.at/entry__1912-04-28.html",
 "head":
 "Tagebuch, 28. April 1912",
 "desc":
{"listPerson":
  [
{
 "persName":
 "Eva Marie Goldmann",
 "ref":
 "person_15526"},
 {
 "persName":
 "Paul Goldmann",
 "ref":
 "person_15529"},
 {
 "persName":
 "Stefan Großmann",
 "ref":
 "person_15691"},
 {
 "persName":
 "Felix Salten",
 "ref":
 "person_19542"},
 {
 "persName":
 "Hans Schnitzler",
 "ref":
 "person_19821"},
 {
 "persName":
 "Heinrich Schnitzler",
 "ref":
 "person_19822"},
 {
 "persName":
 "Helene Schnitzler",
 "ref":
 "person_19823"},
 {
 "persName":
 "Julius Schnitzler",
 "ref":
 "person_19827"},
 {
 "persName":
 "Karl Schnitzler",
 "ref":
 "person_19828"},
 {
 "persName":
 "Anna Donath",
 "ref":
 "person_14481"},
 {
 "persName":
 "Albert Steinrück",
 "ref":
 "person_20383"}],
 "listBibl":
  [
 {
 "title":
 "Professor Bernhardi. Komödie in fünf Akten",
 "ref":
 "pmb30203"}
 ,  {
 "title":
 "Die Fackel",
 "ref":
 "pmb41244"}
 ],
 "listPlace":
  [
 {
 "placeName":
 "Brühl",
 "ref":
 "pmb44413"}
 ,  {
 "placeName":
 "Mödling",
 "ref":
 "pmb968"}
 ,  {
 "placeName":
 "Radetzky",
 "ref":
 "pmb92471"}
 ,  {
 "placeName":
 "Kalkbergstraße",
 "ref":
 "pmb92324"}
 ,  {
 "placeName":
 "Hinterbrühl",
 "ref":
 "pmb75"}
 ,  {
 "placeName":
 "Hauptstraße",
 "ref":
 "pmb44084"}
 ]
}
}, {
 "type":
 "URL",
 "subtype":
 "wienerschnitzler",
 "head":
 "Wien",
 "desc":
{"listPlace":
  [
 {
 "placeName":
 "X., Favoriten",
 "ref":
 ""}
 ,  {
 "placeName":
 "XVIII., Währing",
 "ref":
 ""}
 ]
}
}, {
 "type":
 "URL",
 "subtype":
 "wienerschnitzler",
 "head":
 "Brühl",
 "desc":
{"listPlace":
  [
 {
 "placeName":
 "Hinterbrühl",
 "ref":
 ""}
 ,  {
 "placeName":
 "Vorderbrühl",
 "ref":
 ""}
 ]
}
}, {
 "type":
 "URL",
 "subtype":
 "wienerschnitzler",
 "head":
 "Mödling",
 "desc":
{"listPlace":
  [
 {
 "placeName":
 "Vorderbrühl",
 "ref":
 ""}
 ,  {
 "placeName":
 "Bahnhof Mödling",
 "ref":
 ""}
 ,  {
 "placeName":
 "Kalenderberg",
 "ref":
 ""}
 ]
}
}] 