[{
 "type":
 "schnitzler-tagebuch",
 "color":
 "#037a33",
 "filename":
 "entry__1912-05-17",
 "caption":
 "Tagebuch",
 "idno":
 "https://schnitzler-tagebuch.acdh.oeaw.ac.at/entry__1912-05-17.html",
 "head":
 "Tagebuch, 17. Mai 1912",
 "desc":
{"listPerson":
  [
{
 "persName":
 "Lili Schnitzler",
 "ref":
 "person_14130"},
 {
 "persName":
 "Rainer Maria Rilke",
 "ref":
 "person_19273"},
 {
 "persName":
 "Ferdinand Schmutzer",
 "ref":
 "person_19784"},
 {
 "persName":
 "Heinrich Schnitzler",
 "ref":
 "person_19822"},
 {
 "persName":
 "Arthur Kaufmann",
 "ref":
 "person_16770"}],
 "listBibl":
  [
 {
 "title":
 "Die Aufzeichnungen des Malte Laurids Brigge",
 "ref":
 "pmb79053"}
 ],
 "listPlace":
  [
 {
 "placeName":
 "Venedig",
 "ref":
 "pmb462"}
 ,  {
 "placeName":
 "Bonvecchiati",
 "ref":
 "pmb92174"}
 ,  {
 "placeName":
 "Markusplatz",
 "ref":
 "pmb92388"}
 ]
}
}, {
 "type":
 "wienerschnitzler",
 "color":
 "#6F5106",
 "caption":
 "Wiener Schnitzler",
 "idno":
 "https://wienerschnitzler.org/tag.html#1912-05-17",
 "head":
 "Venedig",
 "desc":
{"listPlace":
  [
 {
 "placeName":
 "Hotel de l’Europe [Venedig]",
 "ref":
 ""}
 ,  {
 "placeName":
 "Piazza San Marco",
 "ref":
 ""}
 ,  {
 "placeName":
 "Hotel Bonvecchiati",
 "ref":
 ""}
 ,  {
 "placeName":
 "Canal Grande",
 "ref":
 ""}
 ,  {
 "placeName":
 "Gallerie dell’Accademia",
 "ref":
 ""}
 ]
}
}, {
 "type":
 "schnitzler-kultur",
 "color":
 "#6B4C5A",
 "filename":
 "pmb297201",
 "caption":
 "Kulturveranstaltungen",
 "idno":
 "https://schnitzler-kultur.acdh.oeaw.ac.at/pmb297201.html",
 "head":
 "Besuch der Gallerie dell’Accademia, 17.5.1912",
 "desc":
{"listPerson":
  [
{
 "persName":
 "Arthur Schnitzler",
 "ref":
 ""}],
 "listPlace":
  [
 {
 "placeName":
 "Gallerie dell’Accademia",
 "ref":
 ""}
 ]
}
}, {
 "type":
 "kalliope-verbund",
 "color":
 "#003574",
 "caption":
 "Kalliope Verbundkatalog",
 "idno":
 "http://kalliope-verbund.info/DE-2498-HS00033373",
 "head":
 "Egröd-Dörge, Otto an Schnitzler, Arthur [Briefe]",
 "text":
 "2 Bl."
}, {
 "type":
 "kalliope-verbund",
 "color":
 "#003574",
 "caption":
 "Kalliope Verbundkatalog",
 "idno":
 "http://kalliope-verbund.info/DE-2498-HS00072708",
 "head":
 "Kohn-Foeldes, Therese an Schnitzler, Arthur [Briefe]",
 "text":
 "1 Bl."
}, {
 "type":
 "kalliope-verbund",
 "color":
 "#003574",
 "caption":
 "Kalliope Verbundkatalog",
 "idno":
 "http://kalliope-verbund.info/DE-2498-HS00072732",
 "head":
 "Gerzhofer, Camilla an Schnitzler, Arthur [Briefe]",
 "text":
 "1 Bl."
}, {
 "type":
 "kalliope-verbund",
 "color":
 "#003574",
 "caption":
 "Kalliope Verbundkatalog",
 "idno":
 "http://kalliope-verbund.info/DE-2498-HS00077370",
 "head":
 "Telbisz, Albert an Schnitzler, Arthur [Briefe]",
 "text":
 "1 Bl."
}] 