[{
 "type":
 "schnitzler-tagebuch",
 "color":
 "#037a33",
 "filename":
 "entry__1913-04-20",
 "caption":
 "Tagebuch",
 "idno":
 "https://schnitzler-tagebuch.acdh.oeaw.ac.at/entry__1913-04-20.html",
 "head":
 "Tagebuch, 20. April 1913",
 "desc":
{"listPerson":
  [
{
 "persName":
 "Peter Altenberg",
 "ref":
 "person_13162"},
 {
 "persName":
 "Lili Schnitzler",
 "ref":
 "person_14130"},
 {
 "persName":
 "César Franck",
 "ref":
 "person_15113"},
 {
 "persName":
 "Marie Glümer",
 "ref":
 "person_15485"},
 {
 "persName":
 "Joseph Haydn",
 "ref":
 "person_15999"},
 {
 "persName":
 "Adolf Kris",
 "ref":
 "person_17141"},
 {
 "persName":
 "Heinrich Schnitzler",
 "ref":
 "person_19822"},
 {
 "persName":
 "Julius Schnitzler",
 "ref":
 "person_19827"},
 {
 "persName":
 "Johann Gustav Emil Sjögren",
 "ref":
 "person_20149"},
 {
 "persName":
 "Anna Donath",
 "ref":
 "person_14481"},
 {
 "persName":
 "Otto Myller",
 "ref":
 "person_18340"},
 {
 "persName":
 "Karl Richter",
 "ref":
 "person_19242"},
 {
 "persName":
 "Max Reger",
 "ref":
 "person_19103"}],
 "listBibl":
  [
 {
 "title":
 "Mademoiselle Dax, jeune fille",
 "ref":
 "pmb32566"}
 ,  {
 "title":
 "Violinsonate A-Dur",
 "ref":
 "pmb80524"}
 ,  {
 "title":
 "Spielende Kinder. Ein Novellenbuch",
 "ref":
 "pmb79023"}
 ],
 "listPlace":
  [
 {
 "placeName":
 "Erholungsgebiet Steinhof",
 "ref":
 "pmb91840"}
 ,  {
 "placeName":
 "Semmering",
 "ref":
 "pmb91735"}
 ,  {
 "placeName":
 "Baden bei Wien",
 "ref":
 "pmb662"}
 ]
}
}, {
 "type":
 "schnitzler-briefe",
 "color":
 "#A63437",
 "filename":
 "L02125",
 "caption":
 "Briefe mit Autorinnen und Autoren",
 "idno":
 "https://schnitzler-briefe.acdh.oeaw.ac.at/L02125.html",
 "head":
 "Arthur Schnitzler an Georg Engländer, 20. 4. 1913",
 "desc":
{"listPerson":
  [
{
 "persName":
 "Georg Engländer",
 "ref":
 "pmb2260"},
 {
 "persName":
 "Peter Altenberg",
 "ref":
 "pmb2147"},
 {
 "persName":
 "Karl Richter",
 "ref":
 "pmb23360"}],
 "listPlace":
  [
 {
 "placeName":
 "XVIII., Währing",
 "ref":
 "pmb68"}
 ,  {
 "placeName":
 "Wien",
 "ref":
 "pmb50"}
 ,  {
 "placeName":
 "Sternwartestraße",
 "ref":
 "pmb150"}
 ,  {
 "placeName":
 "IX., Alsergrund",
 "ref":
 "pmb59"}
 ,  {
 "placeName":
 "Nussdorfer Straße",
 "ref":
 "pmb1270"}
 ]
}
}, {
 "type":
 "schnitzler-briefe",
 "color":
 "#A63437",
 "filename":
 "L02126",
 "caption":
 "Briefe mit Autorinnen und Autoren",
 "idno":
 "https://schnitzler-briefe.acdh.oeaw.ac.at/L02126.html",
 "head":
 "Peter Altenberg an Arthur Schnitzler, [20.?] 4. 1913",
 "desc":
{"listPerson":
  [
{
 "persName":
 "Peter Altenberg",
 "ref":
 "pmb2147"}],
 "listPlace":
  [
 {
 "placeName":
 "Wien",
 "ref":
 "pmb50"}
 ,  {
 "placeName":
 "Otto-Wagner-Spital",
 "ref":
 "pmb153"}
 ]
}
}, {
 "type":
 "schnitzler-briefe",
 "color":
 "#A63437",
 "filename":
 "L02127",
 "caption":
 "Briefe mit Autorinnen und Autoren",
 "idno":
 "https://schnitzler-briefe.acdh.oeaw.ac.at/L02127.html",
 "head":
 "Peter Altenberg an Arthur Schnitzler, [20.? 4. 1913]",
 "desc":
{"listPerson":
  [
{
 "persName":
 "Peter Altenberg",
 "ref":
 "pmb2147"},
 {
 "persName":
 "Karl Richter",
 "ref":
 "pmb23360"}],
 "listPlace":
  [
 {
 "placeName":
 "Wien",
 "ref":
 "pmb50"}
 ]
}
}, {
 "type":
 "schnitzler-orte",
 "color":
 "#045344",
 "filename":
 "entity/50/",
 "caption":
 "Aufenthaltsorte",
 "idno":
 "https://pmb.acdh.oeaw.ac.at/entity/50/",
 "head":
 "Wien"
}] 