[{
 "type":
 "schnitzler-tagebuch",
 "color":
 "#037a33",
 "filename":
 "entry__1913-04-22",
 "caption":
 "Tagebuch",
 "idno":
 "https://schnitzler-tagebuch.acdh.oeaw.ac.at/entry__1913-04-22.html",
 "head":
 "Tagebuch, 22. April 1913",
 "desc":
{"listPerson":
  [
{
 "persName":
 "Stefanie Bachrach",
 "ref":
 "person_13359"}],
 "listPlace":
  [
 {
 "placeName":
 "Baden bei Wien",
 "ref":
 "pmb662"}
 ,  {
 "placeName":
 "Helenental",
 "ref":
 "pmb90849"}
 ]
}
}, {
 "type":
 "schnitzler-briefe",
 "color":
 "#A63437",
 "filename":
 "L02128",
 "caption":
 "Briefe mit Autorinnen und Autoren",
 "idno":
 "https://schnitzler-briefe.acdh.oeaw.ac.at/L02128.html",
 "head":
 "Arthur Schnitzler an Peter Altenberg, 22. 4. 1913",
 "desc":
{"listPerson":
  [
{
 "persName":
 "Peter Altenberg",
 "ref":
 "pmb2147"},
 {
 "persName":
 "Georg Engländer",
 "ref":
 "pmb2260"},
 {
 "persName":
 "Franz Hansy",
 "ref":
 "pmb2320"},
 {
 "persName":
 "?? [Wärter von Peter Altenberg]",
 "ref":
 "pmb50119"},
 {
 "persName":
 "Karl Richter",
 "ref":
 "pmb23360"}],
 "listPlace":
  [
 {
 "placeName":
 "Wien",
 "ref":
 "pmb50"}
 ,  {
 "placeName":
 "Otto-Wagner-Spital",
 "ref":
 "pmb153"}
 ,  {
 "placeName":
 "Semmering",
 "ref":
 "pmb189"}
 ,  {
 "placeName":
 "Kurhaus Semmering",
 "ref":
 "pmb442"}
 ]
}
}, {
 "type":
 "schnitzler-briefe",
 "color":
 "#A63437",
 "filename":
 "L02129",
 "caption":
 "Briefe mit Autorinnen und Autoren",
 "idno":
 "https://schnitzler-briefe.acdh.oeaw.ac.at/L02129.html",
 "head":
 "Arthur Schnitzler an Hermann Bahr, 22. 4. 1913",
 "desc":
{"listPerson":
  [
{
 "persName":
 "Hermann Bahr",
 "ref":
 "pmb10815"},
 {
 "persName":
 "Peter Altenberg",
 "ref":
 "pmb2147"},
 {
 "persName":
 "Georg Engländer",
 "ref":
 "pmb2260"},
 {
 "persName":
 "Karl Richter",
 "ref":
 "pmb23360"},
 {
 "persName":
 "?? [Wärter von Peter Altenberg]",
 "ref":
 "pmb50119"}],
 "listPlace":
  [
 {
 "placeName":
 "Wien",
 "ref":
 "pmb50"}
 ,  {
 "placeName":
 "Salzburg",
 "ref":
 "pmb30"}
 ,  {
 "placeName":
 "Sternwartestraße",
 "ref":
 "pmb150"}
 ,  {
 "placeName":
 "Otto-Wagner-Spital",
 "ref":
 "pmb153"}
 ,  {
 "placeName":
 "Semmering",
 "ref":
 "pmb189"}
 ,  {
 "placeName":
 "Kurhaus Semmering",
 "ref":
 "pmb442"}
 ]
}
}, {
 "type":
 "schnitzler-briefe",
 "color":
 "#A63437",
 "filename":
 "L02563",
 "caption":
 "Briefe mit Autorinnen und Autoren",
 "idno":
 "https://schnitzler-briefe.acdh.oeaw.ac.at/L02563.html",
 "head":
 "Olga Schnitzler an Paula Beer-Hofmann, 22. 4. 1913",
 "desc":
{"listPerson":
  [
{
 "persName":
 "Olga Schnitzler",
 "ref":
 "pmb2173"},
 {
 "persName":
 "Paula Beer-Hofmann",
 "ref":
 "pmb10860"}],
 "listPlace":
  [
 {
 "placeName":
 "Baden bei Wien",
 "ref":
 "pmb662"}
 ,  {
 "placeName":
 "Wien",
 "ref":
 "pmb50"}
 ,  {
 "placeName":
 "XIX., Döbling",
 "ref":
 "pmb69"}
 ,  {
 "placeName":
 "Hasenauerstraße",
 "ref":
 "pmb383"}
 ,  {
 "placeName":
 "Helenental",
 "ref":
 "pmb53848"}
 ,  {
 "placeName":
 "Grüner Baum",
 "ref":
 "pmb53850"}
 ]
}
}, {
 "type":
 "wienerschnitzler",
 "color":
 "#ECDA98",
 "caption":
 "Wiener Schnitzler",
 "idno":
 "https://wienerschnitzler.org/tag.html#1913-04-22",
 "head":
 "Neuhaus"
}, {
 "type":
 "wienerschnitzler",
 "color":
 "#ECDA98",
 "caption":
 "Wiener Schnitzler",
 "idno":
 "https://wienerschnitzler.org/tag.html#1913-04-22",
 "head":
 "Helenental"
}, {
 "type":
 "wienerschnitzler",
 "color":
 "#ECDA98",
 "caption":
 "Wiener Schnitzler",
 "idno":
 "https://wienerschnitzler.org/tag.html#1913-04-22",
 "head":
 "Baden bei Wien",
 "desc":
{"listPlace":
  [
 {
 "placeName":
 "Grüner Baum",
 "ref":
 ""}
 ]
}
}, {
 "type":
 "wienerschnitzler",
 "color":
 "#ECDA98",
 "caption":
 "Wiener Schnitzler",
 "idno":
 "https://wienerschnitzler.org/tag.html#1913-04-22",
 "head":
 "Wien",
 "desc":
{"listPlace":
  [
 {
 "placeName":
 "XVIII., Währing",
 "ref":
 ""}
 ]
}
}, {
 "type":
 "schnitzler-bahr",
 "color":
 "#639FF9",
 "filename":
 "L041127",
 "caption":
 "Schnitzler/Bahr",
 "idno":
 "https://schnitzler-bahr.acdh.oeaw.ac.at/L041127.html",
 "head":
 "Schnitzler an Bahr, 22. 4. 1913",
 "desc":
{"listPerson":
  [
{
 "persName":
 "Hermann Bahr",
 "ref":
 "pmb10815"},
 {
 "persName":
 "Peter Altenberg",
 "ref":
 "pmb2147"},
 {
 "persName":
 "Georg Engländer",
 "ref":
 "pmb2260"},
 {
 "persName":
 "Karl Richter",
 "ref":
 "pmb23360"}],
 "listPlace":
  [
 {
 "placeName":
 "Wien",
 "ref":
 "pmb50"}
 ,  {
 "placeName":
 "Salzburg",
 "ref":
 "pmb30"}
 ,  {
 "placeName":
 "Sternwartestraße",
 "ref":
 "pmb150"}
 ,  {
 "placeName":
 "Otto-Wagner-Spital",
 "ref":
 "pmb153"}
 ,  {
 "placeName":
 "Semmering",
 "ref":
 "pmb189"}
 ,  {
 "placeName":
 "Kurhaus Semmering",
 "ref":
 "pmb442"}
 ]
}
}, {
 "type":
 "schnitzler-bahr",
 "color":
 "#639FF9",
 "filename":
 "T030045",
 "caption":
 "Schnitzler/Bahr",
 "idno":
 "https://schnitzler-bahr.acdh.oeaw.ac.at/T030045.html",
 "head":
 "[Aufruf für Bahr], Fremden-Blatt, 22. 4. 1913",
 "desc":
{"listPerson":
  [
{
 "persName":
 "Gerhart Hauptmann",
 "ref":
 "pmb11617"},
 {
 "persName":
 "Joachim Gans zu Putlitz",
 "ref":
 "pmb28808"},
 {
 "persName":
 "Nikolaus von Seebach",
 "ref":
 "pmb12759"},
 {
 "persName":
 "Richard Strauss",
 "ref":
 "pmb12870"},
 {
 "persName":
 "Frank Wedekind",
 "ref":
 "pmb13068"},
 {
 "persName":
 "Stefan Zweig",
 "ref":
 "pmb13212"},
 {
 "persName":
 "Hermann Bahr",
 "ref":
 "pmb10815"}],
 "listBibl":
  [
 {
 "title":
 "Das Konzert. Lustspiel in drei Akten",
 "ref":
 "pmb29933"}
 ,  {
 "title":
 "Das Prinzip",
 "ref":
 "pmb30375"}
 ,  {
 "title":
 "Der Krampus",
 "ref":
 "pmb29881"}
 ,  {
 "title":
 "Wienerinnen",
 "ref":
 "pmb29885"}
 ,  {
 "title":
 "Der Meister",
 "ref":
 "pmb29983"}
 ,  {
 "title":
 "Josephine",
 "ref":
 "pmb30137"}
 ,  {
 "title":
 "[Aufruf für Bahr]",
 "ref":
 "pmb30071"}
 ,  {
 "title":
 "Fremden-Blatt",
 "ref":
 "pmb40003"}
 ],
 "listPlace":
  [
 {
 "placeName":
 "Lessing-Theater",
 "ref":
 "pmb18"}
 ,  {
 "placeName":
 "Schauspielhaus",
 "ref":
 "pmb784"}
 ,  {
 "placeName":
 "Königlich Bayerische Hoftheater",
 "ref":
 "pmb9"}
 ,  {
 "placeName":
 "Hoftheater Stuttgart",
 "ref":
 "pmb783"}
 ,  {
 "placeName":
 "Neustrelitz",
 "ref":
 "pmb782"}
 ,  {
 "placeName":
 "Stadttheater",
 "ref":
 "pmb781"}
 ,  {
 "placeName":
 "Thalia-Theater",
 "ref":
 "pmb780"}
 ,  {
 "placeName":
 "Deutsches Theater Hannover",
 "ref":
 "pmb779"}
 ,  {
 "placeName":
 "Volkstheater",
 "ref":
 "pmb20"}
 ,  {
 "placeName":
 "Theater in der Josefstadt",
 "ref":
 "pmb40"}
 ,  {
 "placeName":
 "Stadttheater",
 "ref":
 "pmb778"}
 ,  {
 "placeName":
 "Schweiz",
 "ref":
 "pmb43435"}
 ,  {
 "placeName":
 "Stadttheater",
 "ref":
 "pmb777"}
 ]
}
}, {
 "type":
 "schnitzler-mikrofilme-daten",
 "color":
 "#6e7b8b",
 "filename":
 "1428576_0028",
 "caption":
 "Mikroverfilmung des Nachlasses",
 "idno":
 "https://schnitzler-mikrofilme.acdh.oeaw.ac.at/1428576_0028.html",
 "head":
 "Mappe A114",
 "text":
 "Datumsangabe auf Blatt von Fink und Fliederbusch: »Vorgeschichte Müllers…«"
}, {
 "type":
 "kalliope-verbund",
 "color":
 "#003574",
 "caption":
 "Kalliope Verbundkatalog",
 "idno":
 "http://kalliope-verbund.info/DE-2498-HS00049742",
 "head":
 "Schnitzler, Arthur an Wagner, Carl [Briefe]",
 "text":
 "1 Bl.Durchschl."
}, {
 "type":
 "kalliope-verbund",
 "color":
 "#003574",
 "caption":
 "Kalliope Verbundkatalog",
 "idno":
 "http://kalliope-verbund.info/DE-2498-HS00044457",
 "head":
 "Schnitzler, Arthur an Altenberg, Peter [Briefe]",
 "text":
 "1 Bl.Durchschl. Mit 1 weit. Ex. 1 Bl.Durchschl.",
 "desc":
{"listPerson":
  [
{
 "persName":
 "Peter (1859-1919) Altenberg",
 "ref":
 "http://d-nb.info/gnd/118502255"}]
}
}, {
 "type":
 "kalliope-verbund",
 "color":
 "#003574",
 "caption":
 "Kalliope Verbundkatalog",
 "idno":
 "http://kalliope-verbund.info/DE-2498-HS00044764",
 "head":
 "Schnitzler, Arthur an Block, Paul [Briefe]",
 "text":
 "1 Bl.Durchschl.",
 "desc":
{"listPerson":
  [
{
 "persName":
 "Paul (1862-1934) Block",
 "ref":
 "http://d-nb.info/gnd/116202904"}]
}
}] 