[{
 "type":
 "schnitzler-tagebuch",
 "color":
 "#037a33",
 "filename":
 "entry__1913-02-28",
 "caption":
 "Tagebuch",
 "idno":
 "https://schnitzler-tagebuch.acdh.oeaw.ac.at/entry__1913-02-28.html",
 "head":
 "Tagebuch, 28. Februar 1913",
 "desc":
{"listPerson":
  [
{
 "persName":
 "Max Eugen Burckhard",
 "ref":
 "person_14065"},
 {
 "persName":
 "Julius Schnitzler",
 "ref":
 "person_19827"}],
 "listBibl":
  [
 {
 "title":
 "Das Bacchusfest",
 "ref":
 "pmb32097"}
 ,  {
 "title":
 "Große Szene",
 "ref":
 "pmb31429"}
 ],
 "listPlace":
  [
 {
 "placeName":
 "Ortles",
 "ref":
 "pmb91409"}
 ]
}
}, {
 "type":
 "schnitzler-briefe",
 "color":
 "#A63437",
 "filename":
 "L02115",
 "caption":
 "Briefe mit Autorinnen und Autoren",
 "idno":
 "https://schnitzler-briefe.acdh.oeaw.ac.at/L02115.html",
 "head":
 "Richard Beer-Hofmann, Paula Beer-Hofmann an Arthur Schnitzler, 28. 2. 1913",
 "desc":
{"listPerson":
  [
{
 "persName":
 "Richard Beer-Hofmann",
 "ref":
 "pmb10863"},
 {
 "persName":
 "Paula Beer-Hofmann",
 "ref":
 "pmb10860"}],
 "listPlace":
  [
 {
 "placeName":
 "Salzburg",
 "ref":
 "pmb30"}
 ,  {
 "placeName":
 "Wien",
 "ref":
 "pmb50"}
 ,  {
 "placeName":
 "XVIII., Währing",
 "ref":
 "pmb68"}
 ,  {
 "placeName":
 "Sternwartestraße",
 "ref":
 "pmb150"}
 ,  {
 "placeName":
 "Hofmarstallschwemme",
 "ref":
 "pmb637"}
 ,  {
 "placeName":
 "Hofstallkaserne",
 "ref":
 "pmb52058"}
 ]
}
}, {
 "type":
 "wienerschnitzler",
 "color":
 "#ECDA98",
 "caption":
 "Wiener Schnitzler",
 "head":
 "Wien",
 "desc":
{"listPlace":
  [
 {
 "placeName":
 "XVIII., Währing",
 "ref":
 ""}
 ]
}
}, {
 "type":
 "schnitzler-interviews",
 "color":
 "#3D5A80",
 "filename":
 "P079",
 "caption":
 "Interviews, Meinungen, Proteste",
 "idno":
 "https://schnitzler-interviews.acdh.oeaw.ac.at/P079.html",
 "head":
 "Zum »Professor Bernhardi«, Februar 1913",
 "desc":
{"listPerson":
  [
{
 "persName":
 "Georg Brandes",
 "ref":
 "pmb10992"},
 {
 "persName":
 "Berta Zuckerkandl",
 "ref":
 "pmb2312"},
 {
 "persName":
 "Johann Schnitzler",
 "ref":
 "pmb12695"}],
 "listBibl":
  [
 {
 "title":
 "Professor Bernhardi. Komödie in fünf Akten",
 "ref":
 "pmb30203"}
 ,  {
 "title":
 "Theater und Schauspiele in Deutschland",
 "ref":
 "pmb33259"}
 ,  {
 "title":
 "Der Merker. Österreichische Zeitschrift für Musik und Theater",
 "ref":
 "pmb41568"}
 ,  {
 "title":
 "Zum »Professor Bernhardi«",
 "ref":
 "pmb58381"}
 ],
 "listPlace":
  [
 {
 "placeName":
 "Grand Hotel Metropol",
 "ref":
 "pmb1135"}
 ,  {
 "placeName":
 "Wien",
 "ref":
 "pmb50"}
 ,  {
 "placeName":
 "IX., Alsergrund",
 "ref":
 "pmb59"}
 ],
 "listOrg":
  [
 {
 "orgName":
 "Allgemeine Poliklinik",
 "ref":
 "pmb41367"}
 ]
}
}, {
 "type":
 "schnitzler-traeume",
 "subtype":
 "#ISBN978-3-8353-1029-2",
 "color":
 "#1193CC",
 "caption":
 "Traumtagebuch",
 "head":
 "Traum vom 28. Februar 1913",
 "source":
 "Arthur Schnitzler: Träume. Das Traumtagebuch 1875–1931. Herausgegeben von Peter Michael Braunwarth und Leo A. Lensing. Göttingen: Wallstein 2012 (Bibliothek Janowitz, Bd. 20)"
}] 