[{
 "type":
 "schnitzler-tagebuch",
 "color":
 "#037a33",
 "filename":
 "entry__1913-04-18",
 "caption":
 "Tagebuch",
 "idno":
 "https://schnitzler-tagebuch.acdh.oeaw.ac.at/entry__1913-04-18.html",
 "head":
 "Tagebuch, 18. April 1913",
 "desc":
{"listPerson":
  [
{
 "persName":
 "Felix Speidel",
 "ref":
 "person_20242"},
 {
 "persName":
 "Siegfried Trebitsch",
 "ref":
 "person_20796"}]
}
}, {
 "type":
 "schnitzler-briefe",
 "color":
 "#A63437",
 "filename":
 "L02122",
 "caption":
 "Briefe mit Autorinnen und Autoren",
 "idno":
 "https://schnitzler-briefe.acdh.oeaw.ac.at/L02122.html",
 "head":
 "Arthur Schnitzler an Hermann Bahr, 18. 4. 1913",
 "desc":
{"listPerson":
  [
{
 "persName":
 "Hermann Bahr",
 "ref":
 "pmb10815"},
 {
 "persName":
 "Peter Altenberg",
 "ref":
 "pmb2147"},
 {
 "persName":
 "Georg Engländer",
 "ref":
 "pmb2260"},
 {
 "persName":
 "Karl Richter",
 "ref":
 "pmb23360"}],
 "listPlace":
  [
 {
 "placeName":
 "Wien",
 "ref":
 "pmb50"}
 ,  {
 "placeName":
 "Salzburg",
 "ref":
 "pmb30"}
 ,  {
 "placeName":
 "Sternwartestraße",
 "ref":
 "pmb150"}
 ]
}
}, {
 "type":
 "schnitzler-briefe",
 "color":
 "#A63437",
 "filename":
 "L02123",
 "caption":
 "Briefe mit Autorinnen und Autoren",
 "idno":
 "https://schnitzler-briefe.acdh.oeaw.ac.at/L02123.html",
 "head":
 "Georg Engländer an Arthur Schnitzler, 18. 4. 1913",
 "desc":
{"listPerson":
  [
{
 "persName":
 "Georg Engländer",
 "ref":
 "pmb2260"},
 {
 "persName":
 "Peter Altenberg",
 "ref":
 "pmb2147"},
 {
 "persName":
 "Karl Richter",
 "ref":
 "pmb23360"}],
 "listBibl":
  [
 {
 "title":
 "Sanatorium für Nervenkranke (aber nicht die, in denen ich mich befand!)",
 "ref":
 "pmb50243"}
 ,  {
 "title":
 "Simplicissimus",
 "ref":
 "pmb50245"}
 ],
 "listOrg":
  [
 {
 "orgName":
 "S. Fischer Verlag",
 "ref":
 "pmb29639"}
 ],
 "listPlace":
  [
 {
 "placeName":
 "Wien",
 "ref":
 "pmb50"}
 ,  {
 "placeName":
 "Otto-Wagner-Spital",
 "ref":
 "pmb153"}
 ,  {
 "placeName":
 "Sulz im Wienerwald",
 "ref":
 "pmb19055"}
 ,  {
 "placeName":
 "Seidlgasse",
 "ref":
 "pmb730"}
 ]
}
}, {
 "type":
 "schnitzler-orte",
 "color":
 "#045344",
 "filename":
 "entity/50/",
 "caption":
 "Aufenthaltsorte",
 "idno":
 "https://pmb.acdh.oeaw.ac.at/entity/50/",
 "head":
 "Wien"
}, {
 "type":
 "schnitzler-bahr",
 "color":
 "#F9BD63",
 "filename":
 "L041126",
 "caption":
 "Schnitzler/Bahr",
 "idno":
 "https://schnitzler-bahr.acdh.oeaw.ac.at/L041126.html",
 "head":
 "Schnitzler an Bahr, 18. 4. 1913",
 "desc":
{"listPerson":
  [
{
 "persName":
 "Hermann Bahr",
 "ref":
 "pmb10815"},
 {
 "persName":
 "Peter Altenberg",
 "ref":
 "pmb2147"},
 {
 "persName":
 "Georg Engländer",
 "ref":
 "pmb2260"},
 {
 "persName":
 "Karl Richter",
 "ref":
 "pmb23360"}],
 "listPlace":
  [
 {
 "placeName":
 "Wien",
 "ref":
 "pmb50"}
 ,  {
 "placeName":
 "Salzburg",
 "ref":
 "pmb30"}
 ,  {
 "placeName":
 "Sternwartestraße",
 "ref":
 "pmb150"}
 ]
}
}] 