[{
 "type":
 "schnitzler-tagebuch",
 "color":
 "#037a33",
 "filename":
 "entry__1913-04-26",
 "caption":
 "Tagebuch",
 "idno":
 "https://schnitzler-tagebuch.acdh.oeaw.ac.at/entry__1913-04-26.html",
 "head":
 "Tagebuch, 26. April 1913",
 "desc":
{"listPerson":
  [
{
 "persName":
 "Eugenie Bachrach",
 "ref":
 "person_13355"},
 {
 "persName":
 "Stefanie Bachrach",
 "ref":
 "person_13359"},
 {
 "persName":
 "Margarete Neudörfer",
 "ref":
 "person_18399"},
 {
 "persName":
 "Hugo Schönbrunn",
 "ref":
 "person_19846"},
 {
 "persName":
 "Felix Speidel",
 "ref":
 "person_20242"},
 {
 "persName":
 "Alberto Stringa",
 "ref":
 "person_20532"},
 {
 "persName":
 "Marianne Giustiniani",
 "ref":
 "person_21600"}],
 "listPlace":
  [
 {
 "placeName":
 "Schönbrunn",
 "ref":
 "pmb92518"}
 ,  {
 "placeName":
 "Baden bei Wien",
 "ref":
 "pmb662"}
 ]
}
}, {
 "type":
 "schnitzler-briefe",
 "color":
 "#A63437",
 "filename":
 "L02133",
 "caption":
 "Briefe mit Autorinnen und Autoren",
 "idno":
 "https://schnitzler-briefe.acdh.oeaw.ac.at/L02133.html",
 "head":
 "Peter Altenberg an Arthur Schnitzler, [26. 4. 1913]",
 "desc":
{"listPerson":
  [
{
 "persName":
 "Peter Altenberg",
 "ref":
 "pmb2147"},
 {
 "persName":
 "Georg Engländer",
 "ref":
 "pmb2260"},
 {
 "persName":
 "Karl Richter",
 "ref":
 "pmb23360"}],
 "listPlace":
  [
 {
 "placeName":
 "Otto-Wagner-Spital",
 "ref":
 "pmb153"}
 ,  {
 "placeName":
 "Wien",
 "ref":
 "pmb50"}
 ]
}
}, {
 "type":
 "schnitzler-briefe",
 "color":
 "#A63437",
 "filename":
 "L02134",
 "caption":
 "Briefe mit Autorinnen und Autoren",
 "idno":
 "https://schnitzler-briefe.acdh.oeaw.ac.at/L02134.html",
 "head":
 "Arno Holz an Arthur Schnitzler, 26. 4. 1913",
 "desc":
{"listPerson":
  [
{
 "persName":
 "Hermann Bahr",
 "ref":
 "pmb10815"},
 {
 "persName":
 "Peter Behrens",
 "ref":
 "pmb10869"},
 {
 "persName":
 "Georg Brandes",
 "ref":
 "pmb10992"},
 {
 "persName":
 "Richard Dehmel",
 "ref":
 "pmb11148"},
 {
 "persName":
 "Ludwig Fulda",
 "ref":
 "pmb11391"},
 {
 "persName":
 "Maximilian Harden",
 "ref":
 "pmb11581"},
 {
 "persName":
 "Georg Hirth",
 "ref":
 "pmb11711"},
 {
 "persName":
 "Arno Holz",
 "ref":
 "pmb11763"},
 {
 "persName":
 "Georg von Hülsen-Haeseler",
 "ref":
 "pmb11795"},
 {
 "persName":
 "Max Liebermann",
 "ref":
 "pmb12068"},
 {
 "persName":
 "Paul Lindau",
 "ref":
 "pmb12078"},
 {
 "persName":
 "Ernst Mach",
 "ref":
 "pmb12147"},
 {
 "persName":
 "Heinrich Mann",
 "ref":
 "pmb12170"},
 {
 "persName":
 "Thomas Mann",
 "ref":
 "pmb12176"},
 {
 "persName":
 "Franz Servaes",
 "ref":
 "pmb12772"},
 {
 "persName":
 "Hermann Sudermann",
 "ref":
 "pmb12899"},
 {
 "persName":
 "Siegfried Wagner",
 "ref":
 "pmb13027"},
 {
 "persName":
 "Joachim von Gans-Putlitz",
 "ref":
 "pmb28808"},
 {
 "persName":
 "Alfred Lichtwark",
 "ref":
 "pmb3403"},
 {
 "persName":
 "Wilhelm Ostwald",
 "ref":
 "pmb3923"},
 {
 "persName":
 "Hans Vogeler",
 "ref":
 "pmb4557"},
 {
 "persName":
 "Hans Baluschek",
 "ref":
 "pmb5708"},
 {
 "persName":
 "Josef Collin",
 "ref":
 "pmb5711"},
 {
 "persName":
 "Cornelius Gurlitt",
 "ref":
 "pmb5713"},
 {
 "persName":
 "Otto Eduard Lessing",
 "ref":
 "pmb5717"},
 {
 "persName":
 "Kurt von Mutzenbecher",
 "ref":
 "pmb5720"},
 {
 "persName":
 "Franz Muncker",
 "ref":
 "pmb5723"},
 {
 "persName":
 "Hermann Muthesius",
 "ref":
 "pmb5726"},
 {
 "persName":
 "Georg Reicke",
 "ref":
 "pmb5730"},
 {
 "persName":
 "Henry Thode",
 "ref":
 "pmb5733"},
 {
 "persName":
 "Ferdinand Vetter",
 "ref":
 "pmb5736"},
 {
 "persName":
 "Eugen Wolff",
 "ref":
 "pmb5741"}],
 "listBibl":
  [
 {
 "title":
 "Ignoramibus",
 "ref":
 "pmb33542"}
 ],
 "listOrg":
  [
 {
 "orgName":
 "Der Kunstwart",
 "ref":
 "pmb29649"}
 ],
 "listPlace":
  [
 {
 "placeName":
 "Blasewitz",
 "ref":
 "pmb1222"}
 ,  {
 "placeName":
 "Bern",
 "ref":
 "pmb1223"}
 ,  {
 "placeName":
 "University of Illinois",
 "ref":
 "pmb1225"}
 ,  {
 "placeName":
 "Berlin",
 "ref":
 "pmb168"}
 ,  {
 "placeName":
 "München",
 "ref":
 "pmb45258"}
 ,  {
 "placeName":
 "Wien",
 "ref":
 "pmb50"}
 ,  {
 "placeName":
 "Kiel",
 "ref":
 "pmb907"}
 ,  {
 "placeName":
 "Gießen",
 "ref":
 "pmb910"}
 ]
}
}, {
 "type":
 "wienerschnitzler",
 "color":
 "#6F5106",
 "caption":
 "Wiener Schnitzler",
 "idno":
 "https://wienerschnitzler.org/tag.html#1913-04-26",
 "head":
 "Baden bei Wien",
 "desc":
{"listPlace":
  [
 {
 "placeName":
 "Grüner Baum",
 "ref":
 ""}
 ]
}
}, {
 "type":
 "wienerschnitzler",
 "color":
 "#6F5106",
 "caption":
 "Wiener Schnitzler",
 "idno":
 "https://wienerschnitzler.org/tag.html#1913-04-26",
 "head":
 "Wien",
 "desc":
{"listPlace":
  [
 {
 "placeName":
 "XVIII., Währing",
 "ref":
 ""}
 ]
}
}] 