[{
 "type":
 "schnitzler-tagebuch",
 "color":
 "#037a33",
 "filename":
 "entry__1913-01-27",
 "caption":
 "Tagebuch",
 "idno":
 "https://schnitzler-tagebuch.acdh.oeaw.ac.at/entry__1913-01-27.html",
 "head":
 "Tagebuch, 27. Januar 1913",
 "desc":
{"listPerson":
  [
{
 "persName":
 "Leopold von Andrian-Werburg",
 "ref":
 "person_13202"},
 {
 "persName":
 "Eugenie Bachrach",
 "ref":
 "person_13355"},
 {
 "persName":
 "Hugo Hübl",
 "ref":
 "person_16405"},
 {
 "persName":
 "Hugo Schmidl",
 "ref":
 "person_19755"},
 {
 "persName":
 "Marianne Giustiniani",
 "ref":
 "person_21600"},
 {
 "persName":
 "Otto Zuckerkandl",
 "ref":
 "person_21601"},
 {
 "persName":
 "Max Leitner",
 "ref":
 "person_17425"},
 {
 "persName":
 "Jakob Wassermann",
 "ref":
 "person_21107"},
 {
 "persName":
 "Arthur Kaufmann",
 "ref":
 "person_16770"}],
 "listBibl":
  [
 {
 "title":
 "Flucht in die Finsternis",
 "ref":
 "pmb30863"}
 ,  {
 "title":
 "Im Spiel der Sommerlüfte. In drei Aufzügen",
 "ref":
 "pmb30945"}
 ]
}
}, {
 "type":
 "schnitzler-briefe",
 "color":
 "#A63437",
 "filename":
 "L02571",
 "caption":
 "Briefe mit Autorinnen und Autoren",
 "idno":
 "https://schnitzler-briefe.acdh.oeaw.ac.at/L02571.html",
 "head":
 "Therese Rie an Arthur Schnitzler, 27. 1. 1913",
 "desc":
{"listPerson":
  [
{
 "persName":
 "Therese Rie",
 "ref":
 "pmb4836"},
 {
 "persName":
 "Hans Pfitzner",
 "ref":
 "pmb2674"},
 {
 "persName":
 "Ernst von Dohnányi",
 "ref":
 "pmb11165"}],
 "listBibl":
  [
 {
 "title":
 "Der Weg ins Freie. Roman",
 "ref":
 "pmb29923"}
 ,  {
 "title":
 "Tristan und Isolde",
 "ref":
 "pmb29897"}
 ,  {
 "title":
 "Bühnentradition",
 "ref":
 "pmb56077"}
 ,  {
 "title":
 "Palestrina. Musikalische Legende in drei Akten",
 "ref":
 "pmb31681"}
 ,  {
 "title":
 "Professor Bernhardi. Komödie in fünf Akten",
 "ref":
 "pmb30203"}
 ,  {
 "title":
 "Der Schleier der Pierrette",
 "ref":
 "pmb30215"}
 ,  {
 "title":
 "Tante Simona. Komische Oper in einem Akt",
 "ref":
 "pmb56066"}
 ],
 "listOrg":
  [
 {
 "orgName":
 "Oper Straßburg",
 "ref":
 "pmb56043"}
 ],
 "listPlace":
  [
 {
 "placeName":
 "Wien",
 "ref":
 "pmb50"}
 ,  {
 "placeName":
 "Schönburgstraße",
 "ref":
 "pmb52498"}
 ,  {
 "placeName":
 "Berlin",
 "ref":
 "pmb168"}
 ,  {
 "placeName":
 "Leipzig",
 "ref":
 "pmb864"}
 ,  {
 "placeName":
 "Straßburg",
 "ref":
 "pmb319"}
 ,  {
 "placeName":
 "Dresden",
 "ref":
 "pmb866"}
 ]
}
}, {
 "type":
 "URL",
 "subtype":
 "wienerschnitzler",
 "head":
 "Wien",
 "desc":
{"listPlace":
  [
 {
 "placeName":
 "XVIII., Währing",
 "ref":
 ""}
 ,  {
 "placeName":
 "IX., Alsergrund",
 "ref":
 ""}
 ]
}
}] 