[{
 "type":
 "schnitzler-tagebuch",
 "color":
 "#037a33",
 "filename":
 "entry__1913-08-24",
 "caption":
 "Tagebuch",
 "idno":
 "https://schnitzler-tagebuch.acdh.oeaw.ac.at/entry__1913-08-24.html",
 "head":
 "Tagebuch, 24. August 1913",
 "desc":
{"listPerson":
  [
{
 "persName":
 "Stefanie Bachrach",
 "ref":
 "person_13359"},
 {
 "persName":
 "Richard Beer-Hofmann",
 "ref":
 "person_13551"},
 {
 "persName":
 "Edwin Björkman",
 "ref":
 "person_13757"},
 {
 "persName":
 "Richard Kralik",
 "ref":
 "person_17081"},
 {
 "persName":
 "Hermann Bahr",
 "ref":
 "person_13374"},
 {
 "persName":
 "Samuel Fischer",
 "ref":
 "person_15009"},
 {
 "persName":
 "Jacobo Tintoretto",
 "ref":
 "person_20753"},
 {
 "persName":
 "Victor Zuckerkandl",
 "ref":
 "person_21602"}],
 "listPlace":
  [
 {
 "placeName":
 "Bonvecchiati",
 "ref":
 "pmb92174"}
 ,  {
 "placeName":
 "Lido",
 "ref":
 "pmb91143"}
 ,  {
 "placeName":
 "Österreich",
 "ref":
 "pmb41240"}
 ,  {
 "placeName":
 "Venedig",
 "ref":
 "pmb462"}
 ,  {
 "placeName":
 "Trieste",
 "ref":
 "pmb91944"}
 ]
}
}, {
 "type":
 "URL",
 "subtype":
 "wienerschnitzler",
 "head":
 "Venedig",
 "desc":
{"listPlace":
  [
 {
 "placeName":
 "Grand Hotel Venezia",
 "ref":
 ""}
 ,  {
 "placeName":
 "Lido",
 "ref":
 ""}
 ,  {
 "placeName":
 "Hotel Bonvecchiati",
 "ref":
 ""}
 ,  {
 "placeName":
 "San Giorgio Maggiore",
 "ref":
 ""}
 ,  {
 "placeName":
 "Santa Maria Gloriosa dei Frari",
 "ref":
 ""}
 ,  {
 "placeName":
 "Scuola Grande di San Rocco",
 "ref":
 ""}
 ]
}
}, {
 "type":
 "schnitzler-bahr",
 "color":
 "#639FF9",
 "filename":
 "D041355",
 "caption":
 "Schnitzler/Bahr",
 "idno":
 "https://schnitzler-bahr.acdh.oeaw.ac.at/D041355.html",
 "head":
 "Tagebuch von Schnitzler, 24. 8. 1913",
 "desc":
{"listPerson":
  [
{
 "persName":
 "Olga Schnitzler",
 "ref":
 "pmb2173"},
 {
 "persName":
 "Stefanie Bachrach",
 "ref":
 "pmb13653"},
 {
 "persName":
 "Victor Zuckerkandl",
 "ref":
 "pmb27549"},
 {
 "persName":
 "Jacobo Tintoretto",
 "ref":
 "pmb3173"},
 {
 "persName":
 "Samuel Fischer",
 "ref":
 "pmb11324"},
 {
 "persName":
 "Edwin Björkman",
 "ref":
 "pmb3283"},
 {
 "persName":
 "Hedwig Fischer",
 "ref":
 "pmb2657"},
 {
 "persName":
 "Richard Beer-Hofmann",
 "ref":
 "pmb10863"},
 {
 "persName":
 "Paula Beer-Hofmann",
 "ref":
 "pmb10860"},
 {
 "persName":
 "Hermann Bahr",
 "ref":
 "pmb10815"},
 {
 "persName":
 "Richard Kralik",
 "ref":
 "pmb3731"}],
 "listPlace":
  [
 {
 "placeName":
 "Hotel Bonvecchiati",
 "ref":
 "pmb260"}
 ,  {
 "placeName":
 "Lido",
 "ref":
 "pmb259"}
 ,  {
 "placeName":
 "Vereinigte Staaten von Amerika (USA)",
 "ref":
 "pmb43406"}
 ,  {
 "placeName":
 "Österreich",
 "ref":
 "pmb41240"}
 ,  {
 "placeName":
 "Venedig",
 "ref":
 "pmb462"}
 ,  {
 "placeName":
 "Triest",
 "ref":
 "pmb873"}
 ]
}
}] 