[{
 "type":
 "schnitzler-tagebuch",
 "color":
 "#037a33",
 "filename":
 "entry__1913-09-09",
 "caption":
 "Tagebuch",
 "idno":
 "https://schnitzler-tagebuch.acdh.oeaw.ac.at/entry__1913-09-09.html",
 "head":
 "Tagebuch, 9. September 1913",
 "desc":
{"listPerson":
  [
{
 "persName":
 "Paul Goldmann",
 "ref":
 "person_15529"},
 {
 "persName":
 "Wilhelm Herzog",
 "ref":
 "person_16168"},
 {
 "persName":
 "Heinrich Mann",
 "ref":
 "person_17834"},
 {
 "persName":
 "Maria Mann",
 "ref":
 "person_17837"},
 {
 "persName":
 "Helene Ritscher",
 "ref":
 "person_19283"},
 {
 "persName":
 "Louise Schnitzler",
 "ref":
 "person_19831"},
 {
 "persName":
 "Bettina Seipp",
 "ref":
 "person_20039"},
 {
 "persName":
 "Elisabeth Steinrück",
 "ref":
 "person_20386"},
 {
 "persName":
 "Ernestine Fuchs",
 "ref":
 "person_18251"},
 {
 "persName":
 "Albert Steinrück",
 "ref":
 "person_20383"},
 {
 "persName":
 "Alfred Karl Mayer",
 "ref":
 "person_18011"}],
 "listPlace":
  [
 {
 "placeName":
 "Tutzing",
 "ref":
 "pmb44493"}
 ]
}
}, {
 "type":
 "wienerschnitzler",
 "color":
 "#6F5106",
 "caption":
 "Wiener Schnitzler",
 "idno":
 "https://wienerschnitzler.org/tag.html#1913-09-09",
 "head":
 "München",
 "desc":
{"listPlace":
  [
 {
 "placeName":
 "Hotel Continental [München]",
 "ref":
 ""}
 ,  {
 "placeName":
 "Regina-Palast-Hotel [München]",
 "ref":
 ""}
 ,  {
 "placeName":
 "Nymphenburg",
 "ref":
 ""}
 ,  {
 "placeName":
 "Hauptbahnhof München",
 "ref":
 ""}
 ]
}
}, {
 "type":
 "wienerschnitzler",
 "color":
 "#6F5106",
 "caption":
 "Wiener Schnitzler",
 "idno":
 "https://wienerschnitzler.org/tag.html#1913-09-09",
 "head":
 "Tutzing",
 "desc":
{"listPlace":
  [
 {
 "placeName":
 "Villa Carola",
 "ref":
 ""}
 ,  {
 "placeName":
 "Hotel Simson",
 "ref":
 ""}
 ,  {
 "placeName":
 "Villa Schlüssel",
 "ref":
 ""}
 ,  {
 "placeName":
 "Bahnhof Tutzing",
 "ref":
 ""}
 ]
}
}] 