[{
 "type":
 "schnitzler-tagebuch",
 "color":
 "#037a33",
 "filename":
 "entry__1913-10-21",
 "caption":
 "Tagebuch",
 "idno":
 "https://schnitzler-tagebuch.acdh.oeaw.ac.at/entry__1913-10-21.html",
 "head":
 "Tagebuch, 21. Oktober 1913",
 "desc":
{"listPerson":
  [
{
 "persName":
 "Eugenie Bachrach",
 "ref":
 "person_13355"},
 {
 "persName":
 "Gertrud Eysoldt",
 "ref":
 "person_14840"},
 {
 "persName":
 "Georges de Porto-Riche",
 "ref":
 "person_18928"},
 {
 "persName":
 "Christine Schönberger",
 "ref":
 "person_19843"},
 {
 "persName":
 "Felix Speidel",
 "ref":
 "person_20242"},
 {
 "persName":
 "Adolf Weisse",
 "ref":
 "person_21211"},
 {
 "persName":
 "Franz Katziantschitz",
 "ref":
 "person_16763"},
 {
 "persName":
 "Arthur Kaufmann",
 "ref":
 "person_16770"},
 {
 "persName":
 "Christine Schönberger",
 "ref":
 "person_19842"}],
 "listBibl":
  [
 {
 "title":
 "Professor Bernhardi. Komödie in fünf Akten",
 "ref":
 "pmb30203"}
 ,  {
 "title":
 "Amoureuse",
 "ref":
 "pmb79442"}
 ],
 "listPlace":
  [
 {
 "placeName":
 "Helgoland",
 "ref":
 "pmb90851"}
 ,  {
 "placeName":
 "Silbergasse",
 "ref":
 "pmb92531"}
 ,  {
 "placeName":
 "Brühl",
 "ref":
 "pmb44413"}
 ]
}
}, {
 "type":
 "wienerschnitzler",
 "color":
 "#6F5106",
 "caption":
 "Wiener Schnitzler",
 "idno":
 "https://wienerschnitzler.org/tag.html#1913-10-21",
 "head":
 "Wien",
 "desc":
{"listPlace":
  [
 {
 "placeName":
 "IX., Alsergrund",
 "ref":
 ""}
 ,  {
 "placeName":
 "I., Innere Stadt",
 "ref":
 ""}
 ,  {
 "placeName":
 "XIX., Döbling",
 "ref":
 ""}
 ,  {
 "placeName":
 "VII., Neubau",
 "ref":
 ""}
 ,  {
 "placeName":
 "XVIII., Währing",
 "ref":
 ""}
 ]
}
}, {
 "type":
 "schnitzler-kultur",
 "color":
 "#6B4C5A",
 "filename":
 "pmb297936",
 "caption":
 "Kulturveranstaltungen",
 "idno":
 "https://schnitzler-kultur.acdh.oeaw.ac.at/pmb297936.html",
 "head":
 "Besuch des Kaiserpanoramas [Wien, Schubertring 4], 21.10.1913",
 "desc":
{"listPerson":
  [
{
 "persName":
 "Arthur Schnitzler",
 "ref":
 ""}],
 "listPlace":
  [
 {
 "placeName":
 "Kaiserpanorama [Wien, Schubertring 4]",
 "ref":
 ""}
 ]
}
}, {
 "type":
 "schnitzler-kultur",
 "color":
 "#6B4C5A",
 "filename":
 "pmb297324",
 "caption":
 "Kulturveranstaltungen",
 "idno":
 "https://schnitzler-kultur.acdh.oeaw.ac.at/pmb297324.html",
 "head":
 "Besuch des Kunsthistorischen Museums, 21.10.1913",
 "desc":
{"listPerson":
  [
{
 "persName":
 "Arthur Schnitzler",
 "ref":
 ""}],
 "listPlace":
  [
 {
 "placeName":
 "Kunsthistorisches Museum",
 "ref":
 ""}
 ]
}
}, {
 "type":
 "schnitzler-kultur",
 "color":
 "#6B4C5A",
 "filename":
 "pmb209692",
 "caption":
 "Kulturveranstaltungen",
 "idno":
 "https://schnitzler-kultur.acdh.oeaw.ac.at/pmb209692.html",
 "head":
 "Aufführung von Amoureuse, 21.10.1913",
 "desc":
{"listOrg":
  [
 {
 "orgName":
 "Neue Wiener Bühne",
 "ref":
 ""}
 ],
 "listBibl":
  [
 {
 "title":
 "Amoureuse",
 "ref":
 ""}
 ],
 "listPerson":
  [
{
 "persName":
 "Arthur Schnitzler",
 "ref":
 ""}],
 "listPlace":
  [
 {
 "placeName":
 "Neue Wiener Bühne",
 "ref":
 ""}
 ]
}
}] 