[{
 "type":
 "schnitzler-tagebuch",
 "color":
 "#037a33",
 "filename":
 "entry__1914-05-03",
 "caption":
 "Tagebuch",
 "idno":
 "https://schnitzler-tagebuch.acdh.oeaw.ac.at/entry__1914-05-03.html",
 "head":
 "Tagebuch, 3. Mai 1914",
 "desc":
{"listPerson":
  [
{
 "persName":
 "Stefanie Bachrach",
 "ref":
 "person_13359"},
 {
 "persName":
 "Friederike Ergas",
 "ref":
 "person_14784"},
 {
 "persName":
 "Rudolf Ergas",
 "ref":
 "person_14786"}],
 "listPlace":
  [
 {
 "placeName":
 "Florenz",
 "ref":
 "pmb263"}
 ]
}
}, {
 "type":
 "wienerschnitzler",
 "color":
 "#ECDA98",
 "caption":
 "Wiener Schnitzler",
 "idno":
 "https://wienerschnitzler.org/tag.html#1914-05-03",
 "head":
 "Florenz",
 "desc":
{"listPlace":
  [
 {
 "placeName":
 "Hotel d’Italie [Florenz]",
 "ref":
 ""}
 ,  {
 "placeName":
 "Kathedrale von Florenz",
 "ref":
 ""}
 ,  {
 "placeName":
 "Baptisterium San Giovanni",
 "ref":
 ""}
 ,  {
 "placeName":
 "Basilica di San Lorenzo",
 "ref":
 ""}
 ,  {
 "placeName":
 "Santa Maria Novella [Kirche]",
 "ref":
 ""}
 ,  {
 "placeName":
 "Loggia dei Lanzi",
 "ref":
 ""}
 ,  {
 "placeName":
 "Certosa San Lorenzo di Galluzzo",
 "ref":
 ""}
 ,  {
 "placeName":
 "Parco delle Cascine",
 "ref":
 ""}
 ,  {
 "placeName":
 "Gran Caffè Doney",
 "ref":
 ""}
 ]
}
}, {
 "type":
 "kalliope-verbund",
 "color":
 "#003574",
 "caption":
 "Kalliope Verbundkatalog",
 "idno":
 "http://kalliope-verbund.info/DE-2498-HS00040534",
 "head":
 "Moll, Carl an Schnitzler, Arthur [Briefe]",
 "text":
 "1 Br., 1 Kte 3 Bl.",
 "desc":
{"listPerson":
  [
{
 "persName":
 "Carl (1861-1945) Moll",
 "ref":
 "http://d-nb.info/gnd/118882368"}]
}
}] 