[{
 "type":
 "schnitzler-tagebuch",
 "color":
 "#037a33",
 "filename":
 "entry__1914-06-28",
 "caption":
 "Tagebuch",
 "idno":
 "https://schnitzler-tagebuch.acdh.oeaw.ac.at/entry__1914-06-28.html",
 "head":
 "Tagebuch, 28. Juni 1914",
 "desc":
{"listPerson":
  [
{
 "persName":
 "Lili Schnitzler",
 "ref":
 "person_14130"},
 {
 "persName":
 "Franz Ferdinand von Österreich-Este",
 "ref":
 "person_15149"},
 {
 "persName":
 "Felix Salten",
 "ref":
 "person_19542"},
 {
 "persName":
 "Vera Schapira",
 "ref":
 "person_19625"},
 {
 "persName":
 "Hans Schnitzler",
 "ref":
 "person_19821"},
 {
 "persName":
 "Heinrich Schnitzler",
 "ref":
 "person_19822"},
 {
 "persName":
 "Helene Schnitzler",
 "ref":
 "person_19823"},
 {
 "persName":
 "Julius Schnitzler",
 "ref":
 "person_19827"},
 {
 "persName":
 "Hans Siebert",
 "ref":
 "person_20090"},
 {
 "persName":
 "Herbert Waage",
 "ref":
 "person_21000"},
 {
 "persName":
 "Louise Wolff",
 "ref":
 "person_21447"},
 {
 "persName":
 "Berta Zuckerkandl",
 "ref":
 "person_21594"},
 {
 "persName":
 "Arthur Foges",
 "ref":
 "person_15066"},
 {
 "persName":
 "Richard Specht",
 "ref":
 "person_20238"},
 {
 "persName":
 "William Miller",
 "ref":
 "person_18170"},
 {
 "persName":
 "Julius Stern",
 "ref":
 "person_20415"}],
 "listPlace":
  [
 {
 "placeName":
 "Sofienalpe",
 "ref":
 "pmb92533"}
 ,  {
 "placeName":
 "Scheiblingstein",
 "ref":
 "pmb91677"}
 ,  {
 "placeName":
 "Weidlingbach",
 "ref":
 "pmb44394"}
 ,  {
 "placeName":
 "Döbling",
 "ref":
 "pmb64219"}
 ,  {
 "placeName":
 "Burgtheater",
 "ref":
 "pmb14"}
 ,  {
 "placeName":
 "Sarajevo",
 "ref":
 "pmb65671"}
 ]
}
}, {
 "type":
 "schnitzler-briefe",
 "color":
 "#A63437",
 "filename":
 "L02184",
 "caption":
 "Briefe mit Autorinnen und Autoren",
 "idno":
 "https://schnitzler-briefe.acdh.oeaw.ac.at/L02184.html",
 "head":
 "Richard Beer-Hofmann an Arthur Schnitzler, 28. 6. 1914",
 "desc":
{"listPerson":
  [
{
 "persName":
 "Richard Beer-Hofmann",
 "ref":
 "pmb10863"}],
 "listPlace":
  [
 {
 "placeName":
 "Weißenbach am Attersee",
 "ref":
 "pmb34344"}
 ,  {
 "placeName":
 "Wien",
 "ref":
 "pmb50"}
 ,  {
 "placeName":
 "XVIII., Währing",
 "ref":
 "pmb68"}
 ,  {
 "placeName":
 "Sternwartestraße",
 "ref":
 "pmb150"}
 ,  {
 "placeName":
 "Salzkammergut",
 "ref":
 "pmb429"}
 ]
}
}, {
 "type":
 "URL",
 "subtype":
 "wienerschnitzler",
 "head":
 "Wien",
 "desc":
{"listPlace":
  [
 {
 "placeName":
 "XIV., Penzing",
 "ref":
 ""}
 ,  {
 "placeName":
 "XIX., Döbling",
 "ref":
 ""}
 ,  {
 "placeName":
 "XVIII., Währing",
 "ref":
 ""}
 ]
}
}, {
 "type":
 "URL",
 "subtype":
 "wienerschnitzler",
 "head":
 "Weidlingbach"
}, {
 "type":
 "URL",
 "subtype":
 "wienerschnitzler",
 "head":
 "Scheiblingstein"
}] 