[{
 "type":
 "schnitzler-tagebuch",
 "color":
 "#037a33",
 "filename":
 "entry__1914-05-26",
 "caption":
 "Tagebuch",
 "idno":
 "https://schnitzler-tagebuch.acdh.oeaw.ac.at/entry__1914-05-26.html",
 "head":
 "Tagebuch, 26. Mai 1914",
 "desc":
{"listPlace":
  [
 {
 "placeName":
 "Amsterdam",
 "ref":
 "pmb40709"}
 ,  {
 "placeName":
 "Kalverstraat",
 "ref":
 "pmb92325"}
 ,  {
 "placeName":
 "Haarlem",
 "ref":
 "pmb44256"}
 ,  {
 "placeName":
 "Bloemendaal",
 "ref":
 "pmb90362"}
 ,  {
 "placeName":
 "Zandvoort",
 "ref":
 "pmb49966"}
 ]
}
}, {
 "type":
 "wienerschnitzler",
 "color":
 "#6F5106",
 "caption":
 "Wiener Schnitzler",
 "idno":
 "https://wienerschnitzler.org/tag.html#1914-05-26",
 "head":
 "Amsterdam",
 "desc":
{"listPlace":
  [
 {
 "placeName":
 "Amstelhotel",
 "ref":
 ""}
 ,  {
 "placeName":
 "Six Collection",
 "ref":
 ""}
 ,  {
 "placeName":
 "Kalverstraat",
 "ref":
 ""}
 ,  {
 "placeName":
 "Café Américain",
 "ref":
 ""}
 ]
}
}, {
 "type":
 "wienerschnitzler",
 "color":
 "#6F5106",
 "caption":
 "Wiener Schnitzler",
 "idno":
 "https://wienerschnitzler.org/tag.html#1914-05-26",
 "head":
 "Haarlem"
}, {
 "type":
 "wienerschnitzler",
 "color":
 "#6F5106",
 "caption":
 "Wiener Schnitzler",
 "idno":
 "https://wienerschnitzler.org/tag.html#1914-05-26",
 "head":
 "Zandvoort"
}, {
 "type":
 "wienerschnitzler",
 "color":
 "#6F5106",
 "caption":
 "Wiener Schnitzler",
 "idno":
 "https://wienerschnitzler.org/tag.html#1914-05-26",
 "head":
 "Bloemendaal"
}, {
 "type":
 "URL",
 "subtype":
 "schnitzler-kultur",
 "filename":
 "pmb298194",
 "idno":
 "https://schnitzler-kultur.acdh.oeaw.ac.at/pmb298194.html",
 "head":
 "Besuch der Six Collection, 26.5.1914",
 "desc":
{"listPerson":
  [
{
 "persName":
 "Arthur Schnitzler",
 "ref":
 ""}],
 "listPlace":
  [
 {
 "placeName":
 "Six Collection",
 "ref":
 ""}
 ]
}
}] 