[{
 "type":
 "schnitzler-tagebuch",
 "color":
 "#037a33",
 "filename":
 "entry__1914-12-02",
 "caption":
 "Tagebuch",
 "idno":
 "https://schnitzler-tagebuch.acdh.oeaw.ac.at/entry__1914-12-02.html",
 "head":
 "Tagebuch, 2. Dezember 1914",
 "desc":
{"listPerson":
  [
{
 "persName":
 "Stefanie Bachrach",
 "ref":
 "person_13359"},
 {
 "persName":
 "Stanislaus Eichenbaum",
 "ref":
 "person_14664"},
 {
 "persName":
 "Karl Schönherr",
 "ref":
 "person_19850"},
 {
 "persName":
 "Otto Tressler",
 "ref":
 "person_20803"},
 {
 "persName":
 "Stefan Zweig",
 "ref":
 "person_21614"},
 {
 "persName":
 "Hugo Ganz",
 "ref":
 "person_15345"}],
 "listPlace":
  [
 {
 "placeName":
 "Helenental",
 "ref":
 "pmb90849"}
 ,  {
 "placeName":
 "Siberia",
 "ref":
 "pmb91739"}
 ,  {
 "placeName":
 "Belgrad",
 "ref":
 "pmb40222"}
 ]
}
}, {
 "type":
 "schnitzler-briefe",
 "color":
 "#A63437",
 "filename":
 "L03779",
 "caption":
 "Briefe mit Autorinnen und Autoren",
 "idno":
 "https://schnitzler-briefe.acdh.oeaw.ac.at/L03779.html",
 "head":
 "Arthur Schnitzler an Stefan Zweig, 2. 12. 1914",
 "desc":
{"listPerson":
  [
{
 "persName":
 "Stefan Zweig",
 "ref":
 "pmb13212"},
 {
 "persName":
 "Romain Rolland",
 "ref":
 "pmb12543"},
 {
 "persName":
 "Jakob von Winternitz",
 "ref":
 "pmb13132"}],
 "listBibl":
  [
 {
 "title":
 "Ein Brief Artur Schnitzlers",
 "ref":
 "pmb296393"}
 ,  {
 "title":
 "Neue Zürcher Zeitung",
 "ref":
 "pmb42406"}
 ],
 "listOrg":
  [
 {
 "orgName":
 "Journal de Genève",
 "ref":
 "pmb296405"}
 ],
 "listPlace":
  [
 {
 "placeName":
 "Wien",
 "ref":
 "pmb50"}
 ,  {
 "placeName":
 "Sternwartestraße 71",
 "ref":
 "pmb168815"}
 ,  {
 "placeName":
 "Frankreich",
 "ref":
 "pmb166"}
 ,  {
 "placeName":
 "Schweiz",
 "ref":
 "pmb43435"}
 ,  {
 "placeName":
 "Sibirien",
 "ref":
 "pmb49077"}
 ,  {
 "placeName":
 "Helenental",
 "ref":
 "pmb53848"}
 ]
}
}, {
 "type":
 "wienerschnitzler",
 "color":
 "#6F5106",
 "caption":
 "Wiener Schnitzler",
 "idno":
 "https://wienerschnitzler.org/tag.html#1914-12-02",
 "head":
 "Wien",
 "desc":
{"listPlace":
  [
 {
 "placeName":
 "XVIII., Währing",
 "ref":
 ""}
 ]
}
}, {
 "type":
 "schnitzler-cmif",
 "subtype":
 "#s364f351-b14a-4d77-b480-295e58878c66",
 "color":
 "#654321",
 "caption":
 "Gedruckte Briefwechsel",
 "head":
 "Arthur Schnitzler an Samuel Fischer, 2.12.1914",
 "source":
 "Hans Peter Buohler: Arthur Schnitzlers »Medardus Affairen« Teil 1: Korrespondenzen. In: Hofmannsthal-Jahrbuch ⋅ Zur europäischen Moderne, Jg. 19 (2011), S. 79–215."
}, {
 "type":
 "schnitzler-traeume",
 "subtype":
 "#ISBN978-3-8353-1029-2",
 "color":
 "#1193CC",
 "caption":
 "Traumtagebuch",
 "head":
 "Traum vom 2. Dezember 1914",
 "source":
 "Arthur Schnitzler: Träume. Das Traumtagebuch 1875–1931. Herausgegeben von Peter Michael Braunwarth und Leo A. Lensing. Göttingen: Wallstein 2012 (Bibliothek Janowitz, Bd. 20)"
}, {
 "type":
 "kalliope-verbund",
 "color":
 "#003574",
 "caption":
 "Kalliope Verbundkatalog",
 "idno":
 "http://kalliope-verbund.info/DE-2498-HS00078146",
 "head":
 "Schnitzler, Arthur an Best, ... [Briefe]",
 "text":
 "1 Bl.Durchschl."
}] 