[{
 "type":
 "schnitzler-tagebuch",
 "color":
 "#037a33",
 "filename":
 "entry__1914-08-08",
 "caption":
 "Tagebuch",
 "idno":
 "https://schnitzler-tagebuch.acdh.oeaw.ac.at/entry__1914-08-08.html",
 "head":
 "Tagebuch, 8. August 1914",
 "desc":
{"listPerson":
  [
{
 "persName":
 "Elisabeth Steinrück",
 "ref":
 "person_20386"},
 {
 "persName":
 "Leo Van-Jung",
 "ref":
 "person_20925"},
 {
 "persName":
 "Isabella Vengerova",
 "ref":
 "person_21231"}],
 "listPlace":
  [
 {
 "placeName":
 "Celerina",
 "ref":
 "pmb12589"}
 ,  {
 "placeName":
 "Davos",
 "ref":
 "pmb892"}
 ,  {
 "placeName":
 "Bad Ragaz",
 "ref":
 "pmb49990"}
 ]
}
}, {
 "type":
 "wienerschnitzler",
 "color":
 "#ECDA98",
 "caption":
 "Wiener Schnitzler",
 "idno":
 "https://wienerschnitzler.org/tag.html#1914-08-08",
 "head":
 "Celerina",
 "desc":
{"listPlace":
  [
 {
 "placeName":
 "Bahnhof Celerina",
 "ref":
 ""}
 ]
}
}, {
 "type":
 "wienerschnitzler",
 "color":
 "#ECDA98",
 "caption":
 "Wiener Schnitzler",
 "idno":
 "https://wienerschnitzler.org/tag.html#1914-08-08",
 "head":
 "Bad Ragaz",
 "desc":
{"listPlace":
  [
 {
 "placeName":
 "Bad Ragaz Bahnhof",
 "ref":
 ""}
 ,  {
 "placeName":
 "Hotel Krone",
 "ref":
 ""}
 ]
}
}, {
 "type":
 "wienerschnitzler",
 "color":
 "#ECDA98",
 "caption":
 "Wiener Schnitzler",
 "idno":
 "https://wienerschnitzler.org/tag.html#1914-08-08",
 "head":
 "Davos",
 "desc":
{"listPlace":
  [
 {
 "placeName":
 "Davos Dorf Bahnhof",
 "ref":
 ""}
 ,  {
 "placeName":
 "Grand Hotel Belvédère [Davos]",
 "ref":
 ""}
 ]
}
}] 