[{
 "type":
 "schnitzler-tagebuch",
 "color":
 "#037a33",
 "filename":
 "entry__1914-05-21",
 "caption":
 "Tagebuch",
 "idno":
 "https://schnitzler-tagebuch.acdh.oeaw.ac.at/entry__1914-05-21.html",
 "head":
 "Tagebuch, 21. Mai 1914",
 "desc":
{"listPerson":
  [
{
 "persName":
 "Paula Schmidl",
 "ref":
 "person_19756"},
 {
 "persName":
 "Emilie Sgal",
 "ref":
 "person_20075"},
 {
 "persName":
 "Schulz",
 "ref":
 "person_19933"}],
 "listPlace":
  [
 {
 "placeName":
 "Antwerp",
 "ref":
 "pmb90252"}
 ,  {
 "placeName":
 "Diepenbeeckstr.",
 "ref":
 "pmb92204"}
 ]
}
}, {
 "type":
 "schnitzler-briefe",
 "color":
 "#A63437",
 "filename":
 "L02180",
 "caption":
 "Briefe mit Autorinnen und Autoren",
 "idno":
 "https://schnitzler-briefe.acdh.oeaw.ac.at/L02180.html",
 "head":
 "Arthur Schnitzler, Olga Schnitzler an Richard Beer-Hofmann, Paula Beer-Hofmann, 21. 5. 1914",
 "desc":
{"listPerson":
  [
{
 "persName":
 "Arthur Schnitzler",
 "ref":
 "pmb2121"},
 {
 "persName":
 "Olga Schnitzler",
 "ref":
 "pmb2173"},
 {
 "persName":
 "Richard Beer-Hofmann",
 "ref":
 "pmb10863"},
 {
 "persName":
 "Paula Beer-Hofmann",
 "ref":
 "pmb10860"},
 {
 "persName":
 "Olga Schnitzler",
 "ref":
 "pmb2173"},
 {
 "persName":
 "Richard Beer-Hofmann",
 "ref":
 "pmb10863"},
 {
 "persName":
 "Paula Beer-Hofmann",
 "ref":
 "pmb10860"},
 {
 "persName":
 "Rembrandt van Rijn",
 "ref":
 "pmb5428"},
 {
 "persName":
 "Abraham Dijck",
 "ref":
 "pmb52341"}],
 "listBibl":
  [
 {
 "title":
 "Alter Mann",
 "ref":
 "pmb52342"}
 ],
 "listPlace":
  [
 {
 "placeName":
 "Antwerpen",
 "ref":
 "pmb995"}
 ,  {
 "placeName":
 "Wien",
 "ref":
 "pmb50"}
 ,  {
 "placeName":
 "XVIII., Währing",
 "ref":
 "pmb68"}
 ,  {
 "placeName":
 "Hasenauerstraße 59",
 "ref":
 "pmb235251"}
 ,  {
 "placeName":
 "Österreich",
 "ref":
 "pmb41240"}
 ,  {
 "placeName":
 "Algier",
 "ref":
 "pmb43991"}
 ],
 "listOrg":
  [
 {
 "orgName":
 "Königliches Museum der Schönen Künste",
 "ref":
 "pmb52339"}
 ]
}
}, {
 "type":
 "wienerschnitzler",
 "color":
 "#6F5106",
 "caption":
 "Wiener Schnitzler",
 "idno":
 "https://wienerschnitzler.org/tag.html#1914-05-21",
 "head":
 "Antwerpen",
 "desc":
{"listPlace":
  [
 {
 "placeName":
 "Museum Plantin-Moretus",
 "ref":
 ""}
 ,  {
 "placeName":
 "Onze-Lieve-Vrouwekathedraal",
 "ref":
 ""}
 ,  {
 "placeName":
 "Sint-Jacobskerk",
 "ref":
 ""}
 ,  {
 "placeName":
 "Van Diepenbeeckstraat",
 "ref":
 ""}
 ,  {
 "placeName":
 "Zoo Antwerpen",
 "ref":
 ""}
 ]
}
}, {
 "type":
 "kalliope-verbund",
 "color":
 "#003574",
 "caption":
 "Kalliope Verbundkatalog",
 "idno":
 "http://kalliope-verbund.info/DE-2498-HS00037602",
 "head":
 "Klabund an Schnitzler, Arthur [Briefe]",
 "text":
 "1 Bl.",
 "desc":
{"listPerson":
  [
{
 "persName":
 "Klabund (1890-1928)",
 "ref":
 "http://d-nb.info/gnd/118562681"},
 {
 "persName":
 "Hugo (1886-1927) Ball",
 "ref":
 "http://d-nb.info/gnd/118506234"}]
}
}] 