[{
 "type":
 "schnitzler-tagebuch",
 "color":
 "#037a33",
 "filename":
 "entry__1914-12-21",
 "caption":
 "Tagebuch",
 "idno":
 "https://schnitzler-tagebuch.acdh.oeaw.ac.at/entry__1914-12-21.html",
 "head":
 "Tagebuch, 21. Dezember 1914",
 "desc":
{"listPerson":
  [
{
 "persName":
 "Giuseppe Verdi",
 "ref":
 "person_20942"},
 {
 "persName":
 "Rudolf Neuhaus",
 "ref":
 "person_18404"}],
 "listBibl":
  [
 {
 "title":
 "Komödie der Verführung. In drei Akten",
 "ref":
 "pmb30205"}
 ,  {
 "title":
 "Falstaff",
 "ref":
 "pmb30935"}
 ]
}
}, {
 "type":
 "wienerschnitzler",
 "color":
 "#ECDA98",
 "caption":
 "Wiener Schnitzler",
 "head":
 "Wien",
 "desc":
{"listPlace":
  [
 {
 "placeName":
 "I., Innere Stadt",
 "ref":
 ""}
 ,  {
 "placeName":
 "XVIII., Währing",
 "ref":
 ""}
 ]
}
}, {
 "type":
 "schnitzler-interviews",
 "color":
 "#3D5A80",
 "filename":
 "P111",
 "caption":
 "Interviews, Meinungen, Proteste",
 "idno":
 "https://schnitzler-interviews.acdh.oeaw.ac.at/P111.html",
 "head":
 "Une protestation d’Arthur Schnitzler, 21. 12. 1914",
 "desc":
{"listPerson":
  [
{
 "persName":
 "Romain Rolland",
 "ref":
 "pmb12543"},
 {
 "persName":
 "Isabella Vengerova",
 "ref":
 "pmb3068"},
 {
 "persName":
 "Leo Van-Jung",
 "ref":
 "pmb26392"},
 {
 "persName":
 "Leo N. von Tolstoi",
 "ref":
 "pmb3739"},
 {
 "persName":
 "Maurice Maeterlinck",
 "ref":
 "pmb12156"},
 {
 "persName":
 "Anatole France",
 "ref":
 "pmb4279"},
 {
 "persName":
 "William Shakespeare",
 "ref":
 "pmb2412"},
 {
 "persName":
 "Alice Moller",
 "ref":
 "pmb21549"},
 {
 "persName":
 "Arthur Kaufmann",
 "ref":
 "pmb2496"},
 {
 "persName":
 "Gerhart Hauptmann",
 "ref":
 "pmb11617"},
 {
 "persName":
 "Stefan Zweig",
 "ref":
 "pmb13212"},
 {
 "persName":
 "Jakob von Winternitz",
 "ref":
 "pmb13132"},
 {
 "persName":
 "Paul Block",
 "ref":
 "pmb3256"},
 {
 "persName":
 "Georg Brandes",
 "ref":
 "pmb10992"},
 {
 "persName":
 "der fiktives russisches
                                        Interview verantwortet] ?? [Journalist",
 "ref":
 "pmb27739"},
 {
 "persName":
 "Joseph Chapiro",
 "ref":
 "pmb11090"},
 {
 "persName":
 "Alexander I. Kuprin",
 "ref":
 "pmb19872"},
 {
 "persName":
 "Maxim Gorkij",
 "ref":
 "pmb2323"},
 {
 "persName":
 "Otto Abeles",
 "ref":
 "pmb60610"}],
 "listBibl":
  [
 {
 "title":
 "?? [Fiktives Interview aus der Kriegszeit]",
 "ref":
 "pmb32959"}
 ,  {
 "title":
 "Neue Zürcher Zeitung",
 "ref":
 "pmb42406"}
 ,  {
 "title":
 "Journal de Genève",
 "ref":
 "pmb58493"}
 ,  {
 "title":
 "Offener Brief",
 "ref":
 "pmb59820"}
 ,  {
 "title":
 "Une protestation d’Arthur Schnitzler",
 "ref":
 "pmb58490"}
 ,  {
 "title":
 "Die Zeit",
 "ref":
 "pmb35935"}
 ,  {
 "title":
 "Arbeiter-Zeitung",
 "ref":
 "pmb41202"}
 ],
 "listPlace":
  [
 {
 "placeName":
 "Wien",
 "ref":
 "pmb50"}
 ,  {
 "placeName":
 "Russland",
 "ref":
 "pmb34438"}
 ,  {
 "placeName":
 "Vereinigtes Königreich",
 "ref":
 "pmb34523"}
 ,  {
 "placeName":
 "Frankreich",
 "ref":
 "pmb166"}
 ,  {
 "placeName":
 "Belgien",
 "ref":
 "pmb710"}
 ,  {
 "placeName":
 "Sankt Petersburg",
 "ref":
 "pmb433"}
 ,  {
 "placeName":
 "Deutschland",
 "ref":
 "pmb151"}
 ,  {
 "placeName":
 "Stratford-upon-Avon",
 "ref":
 "pmb49870"}
 ,  {
 "placeName":
 "Amerika",
 "ref":
 "pmb175"}
 ,  {
 "placeName":
 "Vereinigte Staaten von Amerika (USA)",
 "ref":
 "pmb43406"}
 ,  {
 "placeName":
 "Genf",
 "ref":
 "pmb562"}
 ,  {
 "placeName":
 "Schweiz",
 "ref":
 "pmb43435"}
 ,  {
 "placeName":
 "Österreich",
 "ref":
 "pmb41240"}
 ],
 "listOrg":
  [
 {
 "orgName":
 "Neue Zürcher Zeitung",
 "ref":
 "pmb29672"}
 ,  {
 "orgName":
 "[Russische Zeitschrift, in der 1914 gefälschtes Interview von Schnitzler erschien]",
 "ref":
 "pmb29503"}
 ]
}
}, {
 "type":
 "schnitzler-events",
 "color":
 "#9BC53D",
 "filename":
 "entity/209735/",
 "caption":
 "Ereignisse in der PMB",
 "idno":
 "https://pmb.acdh.oeaw.ac.at/entity/209735/",
 "head":
 "Aufführung von Falstaff, 21.12.1914",
 "desc":
{"listOrg":
  [
 {
 "orgName":
 "K.K. Hof-Oper",
 "ref":
 ""}
 ],
 "listBibl":
  [
 {
 "title":
 "Falstaff",
 "ref":
 ""}
 ],
 "listPerson":
  [
{
 "persName":
 "Arthur Schnitzler",
 "ref":
 ""}],
 "listPlace":
  [
 {
 "placeName":
 "Oper",
 "ref":
 ""}
 ]
}
}] 