[{
 "type":
 "schnitzler-tagebuch",
 "color":
 "#037a33",
 "filename":
 "entry__1914-09-09",
 "caption":
 "Tagebuch",
 "idno":
 "https://schnitzler-tagebuch.acdh.oeaw.ac.at/entry__1914-09-09.html",
 "head":
 "Tagebuch, 9. September 1914",
 "desc":
{"listPerson":
  [
{
 "persName":
 "Stefanie Bachrach",
 "ref":
 "person_13359"},
 {
 "persName":
 "Markus Hajek",
 "ref":
 "person_15855"},
 {
 "persName":
 "Karoline Leitner",
 "ref":
 "person_17423"},
 {
 "persName":
 "Louise Schnitzler",
 "ref":
 "person_19831"},
 {
 "persName":
 "Max Leitner",
 "ref":
 "person_17425"},
 {
 "persName":
 "Marie Reinhard",
 "ref":
 "person_19150"},
 {
 "persName":
 "Oscar Rie",
 "ref":
 "person_19254"}]
}
}, {
 "type":
 "schnitzler-orte",
 "color":
 "#045344",
 "filename":
 "entity/50/",
 "caption":
 "Aufenthaltsorte",
 "idno":
 "https://pmb.acdh.oeaw.ac.at/entity/50/",
 "text":
 "Wien"
}, {
 "type":
 "schnitzler-bahr",
 "color":
 "#639FF9",
 "filename":
 "L041648",
 "caption":
 "Schnitzler/Bahr",
 "idno":
 "https://schnitzler-bahr.acdh.oeaw.ac.at/L041648.html",
 "head":
 "Stefan Zweig an Bahr, [9. 9. 1914?]",
 "desc":
{"listPerson":
  [
{
 "persName":
 "Stefan Zweig",
 "ref":
 "pmb13212"},
 {
 "persName":
 "Hermann Bahr",
 "ref":
 "pmb10815"},
 {
 "persName":
 "Thaddäus Rittner",
 "ref":
 "pmb23452"},
 {
 "persName":
 "Jaroslav Kvapil",
 "ref":
 "pmb12011"},
 {
 "persName":
 "Ivo Vojnović",
 "ref":
 "pmb4226"},
 {
 "persName":
 "Lujo Vojnović",
 "ref":
 "pmb4230"},
 {
 "persName":
 "Hugo von Hofmannsthal",
 "ref":
 "pmb11740"}],
 "listBibl":
  [
 {
 "title":
 "[Gedicht]",
 "ref":
 "pmb30815"}
 ],
 "listPlace":
  [
 {
 "placeName":
 "Wien",
 "ref":
 "pmb50"}
 ,  {
 "placeName":
 "Salzburg",
 "ref":
 "pmb30"}
 ,  {
 "placeName":
 "Kochgasse",
 "ref":
 "pmb728"}
 ,  {
 "placeName":
 "Ministerium für Unterricht",
 "ref":
 "pmb24"}
 ,  {
 "placeName":
 "Montenegro",
 "ref":
 "pmb366"}
 ,  {
 "placeName":
 "Serbien",
 "ref":
 "pmb264"}
 ,  {
 "placeName":
 "Österreich",
 "ref":
 "pmb41240"}
 ,  {
 "placeName":
 "Russland",
 "ref":
 "pmb34438"}
 ,  {
 "placeName":
 "Hotel Imperial",
 "ref":
 "pmb365"}
 ,  {
 "placeName":
 "Arad",
 "ref":
 "pmb45359"}
 ,  {
 "placeName":
 "Europa",
 "ref":
 "pmb468"}
 ]
}
}, {
 "type":
 "schnitzler-cmif",
 "subtype":
 "#y8d39a2f-76d4-4426-8799-986c8bf5bc60",
 "color":
 "#654321",
 "caption":
 "Gedruckte Briefwechsel",
 "head":
 "Arthur Schnitzler an Samuel Fischer, 9.9.1914",
 "source":
 "Samuel Fischer, Hedwig Fischer: Briefwechsel mit Autoren. S. Fischer Verlag, Frankfurt am Main: 1989. (nur Korrespondenz mit Arthur Schnitzler)"
}] 