{
 "date":
 {
 "when-iso":
 "1914-08-20",
 "written":
 "Donnerstag, 20. August 1914"
},
"listEvent":
 [{
 "type":
 "schnitzler-orte",
 "idno":
 "https://pmb.acdh.oeaw.ac.at/entity/30/",
 "head":
 "Salzburg"
}, {
 "type":
 "schnitzler-briefe",
 "idno":
 "https://schnitzler-briefe.acdh.oeaw.ac.at/L02192.html",
 "head":
 "Arthur Schnitzler, Olga Schnitzler an Richard Beer-Hofmann, 20. 8. 1914",
 "desc":
{"listPerson":
  [
{
 "persName":
 "Olga Schnitzler",
 "ref":
 "pmb2173"},
 {
 "persName":
 "Richard Beer-Hofmann",
 "ref":
 "pmb10863"}],
 "listPlace":
  [
 {
 "placeName":
 "Salzburg",
 "ref":
 "pmb30"}
 ,  {
 "placeName":
 "Weißenbach am Attersee",
 "ref":
 "pmb34344"}
 ,  {
 "placeName":
 "Attersee",
 "ref":
 "pmb236"}
 ,  {
 "placeName":
 "Oberösterreich",
 "ref":
 "pmb519"}
 ,  {
 "placeName":
 "Festung Hohensalzburg",
 "ref":
 "pmb638"}
 ,  {
 "placeName":
 "Bad Ischl",
 "ref":
 "pmb213"}
 ]}

}, {
 "type":
 "schnitzler-cmif",
 "subtype":
 "#w6429315-92be-4f82-b2f1-926125f9bfa5",
 "head":
 "Eugen Deimel an Arthur Schnitzler, 20.8.1914",
 "desc":
{"listPerson":
  [
{
 "persName":
 "Deimel, Eugen",
 "ref":
 "https://d-nb.info/gnd/124896847"}],
 "bibl":
 "Heinz P. Adamek (Hg.): In die Neue Welt... Arthur Schnitzler - Eugen Deimel. Briefwechsel. Holzhausen Verlag: Wien 2003"}

}, {
 "type":
 "schnitzler-tagebuch",
 "idno":
 "https://schnitzler-tagebuch.acdh.oeaw.ac.at/entry__1914-08-20.html",
 "head":
 "Tagebuch, 20. August 1914",
 "desc":
{"listPerson":
  [
{
 "persName":
 "Lili Schnitzler",
 "ref":
 "person_14130"},
 {
 "persName":
 "Elisabeth Jacobus",
 "ref":
 "person_16480"},
 {
 "persName":
 "Heinrich Schnitzler",
 "ref":
 "person_19822"},
 {
 "persName":
 "Karl Schönherr",
 "ref":
 "person_19850"},
 {
 "persName":
 "Rainer Simons",
 "ref":
 "person_20123"}],
 "listPlace":
  [
 {
 "placeName":
 "Telfs",
 "ref":
 "pmb91879"}
 ,  {
 "placeName":
 "Hellbrunn",
 "ref":
 "pmb31"}
 ]}

}] 
}