[{
 "type":
 "schnitzler-tagebuch",
 "color":
 "#037a33",
 "filename":
 "entry__1914-05-08",
 "caption":
 "Tagebuch",
 "idno":
 "https://schnitzler-tagebuch.acdh.oeaw.ac.at/entry__1914-05-08.html",
 "head":
 "Tagebuch, 8. Mai 1914",
 "desc":
{"listPlace":
  [
 {
 "placeName":
 "Viale dei colli",
 "ref":
 "pmb92582"}
 ,  {
 "placeName":
 "Miniato",
 "ref":
 "pmb92404"}
 ]
}
}, {
 "type":
 "wienerschnitzler",
 "color":
 "#6F5106",
 "caption":
 "Wiener Schnitzler",
 "idno":
 "https://wienerschnitzler.org/tag.html#1914-05-08",
 "head":
 "Florenz",
 "desc":
{"listPlace":
  [
 {
 "placeName":
 "Hotel dâ€™Italie [Florenz]",
 "ref":
 ""}
 ,  {
 "placeName":
 "Viali dei Colli [Florenz]",
 "ref":
 ""}
 ,  {
 "placeName":
 "San Miniato al Monte",
 "ref":
 ""}
 ,  {
 "placeName":
 "Gambrinus Halle [Florenz]",
 "ref":
 ""}
 ,  {
 "placeName":
 "San Marco [Florenz]",
 "ref":
 ""}
 ,  {
 "placeName":
 "Santa Croce [Florenz]",
 "ref":
 ""}
 ,  {
 "placeName":
 "Cimitero delle Porte Sante",
 "ref":
 ""}
 ,  {
 "placeName":
 "Palazzo Vecchio",
 "ref":
 ""}
 ]
}
}] 