[{
 "type":
 "schnitzler-tagebuch",
 "color":
 "#037a33",
 "filename":
 "entry__1914-12-03",
 "caption":
 "Tagebuch",
 "idno":
 "https://schnitzler-tagebuch.acdh.oeaw.ac.at/entry__1914-12-03.html",
 "head":
 "Tagebuch, 3. Dezember 1914",
 "desc":
{"listPerson":
  [
{
 "persName":
 "Hedwig Bleibtreu",
 "ref":
 "person_13776"},
 {
 "persName":
 "Oskar Nedbal",
 "ref":
 "person_18374"},
 {
 "persName":
 "Max Paulsen",
 "ref":
 "person_18691"}],
 "listBibl":
  [
 {
 "title":
 "Doktor Gräsler, Badearzt",
 "ref":
 "pmb30201"}
 ,  {
 "title":
 "Komödie der Verführung. In drei Akten",
 "ref":
 "pmb30205"}
 ],
 "listPlace":
  [
 {
 "placeName":
 "Noyon",
 "ref":
 "pmb91365"}
 ]
}
}, {
 "type":
 "schnitzler-briefe",
 "color":
 "#A63437",
 "filename":
 "L03683",
 "caption":
 "Briefe mit Autorinnen und Autoren",
 "idno":
 "https://schnitzler-briefe.acdh.oeaw.ac.at/L03683.html",
 "head":
 "Stefan Zweig an Arthur Schnitzler, 3. 12. 1914",
 "desc":
{"listPerson":
  [
{
 "persName":
 "Detlev von Liliencron",
 "ref":
 "pmb12071"},
 {
 "persName":
 "Maurice Maeterlinck",
 "ref":
 "pmb12156"},
 {
 "persName":
 "Romain Rolland",
 "ref":
 "pmb12543"},
 {
 "persName":
 "Franz Peter Schubert",
 "ref":
 "pmb12729"},
 {
 "persName":
 "Robert Schumann",
 "ref":
 "pmb12733"},
 {
 "persName":
 "Jakob von Winternitz",
 "ref":
 "pmb13132"},
 {
 "persName":
 "Stefan Zweig",
 "ref":
 "pmb13212"},
 {
 "persName":
 "Olga Schnitzler",
 "ref":
 "pmb2173"},
 {
 "persName":
 "William Shakespeare",
 "ref":
 "pmb2412"},
 {
 "persName":
 "Leo N. von Tolstoi",
 "ref":
 "pmb3739"},
 {
 "persName":
 "Anatole France",
 "ref":
 "pmb4279"}],
 "listBibl":
  [
 {
 "title":
 "Winterreise. Der Wegweiser",
 "ref":
 "pmb206795"}
 ,  {
 "title":
 "Liliencron",
 "ref":
 "pmb268810"}
 ,  {
 "title":
 "Tagebuch",
 "ref":
 "pmb33243"}
 ,  {
 "title":
 "Die Schaubühne",
 "ref":
 "pmb41564"}
 ,  {
 "title":
 "Une protestation d’Arthur Schnitzler",
 "ref":
 "pmb58490"}
 ,  {
 "title":
 "Journal de Genève",
 "ref":
 "pmb58493"}
 ,  {
 "title":
 "Winterreise [op. 89 D 911]",
 "ref":
 "pmb77662"}
 ],
 "listPlace":
  [
 {
 "placeName":
 "Frankreich",
 "ref":
 "pmb166"}
 ,  {
 "placeName":
 "Kochgasse 8",
 "ref":
 "pmb249577"}
 ,  {
 "placeName":
 "Kochgasse 29",
 "ref":
 "pmb294623"}
 ,  {
 "placeName":
 "Romandy",
 "ref":
 "pmb294758"}
 ,  {
 "placeName":
 "Russland",
 "ref":
 "pmb34438"}
 ,  {
 "placeName":
 "Schweiz",
 "ref":
 "pmb43435"}
 ,  {
 "placeName":
 "Wien",
 "ref":
 "pmb50"}
 ,  {
 "placeName":
 "Währinger Cottage",
 "ref":
 "pmb533"}
 ,  {
 "placeName":
 "Volkshochschule Ottakring",
 "ref":
 "pmb599"}
 ]
}
}, {
 "type":
 "wienerschnitzler",
 "color":
 "#6F5106",
 "caption":
 "Wiener Schnitzler",
 "idno":
 "https://wienerschnitzler.org/tag.html#1914-12-03",
 "head":
 "Wien",
 "desc":
{"listPlace":
  [
 {
 "placeName":
 "I., Innere Stadt",
 "ref":
 ""}
 ,  {
 "placeName":
 "XVIII., Währing",
 "ref":
 ""}
 ]
}
}, {
 "type":
 "schnitzler-kultur",
 "color":
 "#6B4C5A",
 "filename":
 "pmb209733",
 "caption":
 "Kulturveranstaltungen",
 "idno":
 "https://schnitzler-kultur.acdh.oeaw.ac.at/pmb209733.html",
 "head":
 "Konzert des Tonkünstlerorchesters, 3.12.1914",
 "desc":
{"listOrg":
  [
 {
 "orgName":
 "Wiener Tonkünstler-Orchester",
 "ref":
 ""}
 ],
 "listPerson":
  [
{
 "persName":
 "Arthur Schnitzler",
 "ref":
 ""},
 {
 "persName":
 "Oskar Nedbal",
 "ref":
 ""},
 {
 "persName":
 "Carl Flesch",
 "ref":
 ""}],
 "listPlace":
  [
 {
 "placeName":
 "Musikverein",
 "ref":
 ""}
 ]
}
}] 