[{
 "type":
 "schnitzler-tagebuch",
 "color":
 "#037a33",
 "filename":
 "entry__1914-11-17",
 "caption":
 "Tagebuch",
 "idno":
 "https://schnitzler-tagebuch.acdh.oeaw.ac.at/entry__1914-11-17.html",
 "head":
 "Tagebuch, 17. November 1914",
 "desc":
{"listPerson":
  [
{
 "persName":
 "Stefanie Bachrach",
 "ref":
 "person_13359"},
 {
 "persName":
 "Jacob Pollak",
 "ref":
 "person_18884"},
 {
 "persName":
 "Heinrich Schnitzler",
 "ref":
 "person_19822"},
 {
 "persName":
 "Leopold Winkler",
 "ref":
 "person_21371"},
 {
 "persName":
 "Rudolf Olden",
 "ref":
 "person_18548"}],
 "listPlace":
  [
 {
 "placeName":
 "Bad Homburg",
 "ref":
 "pmb54155"}
 ]
}
}, {
 "type":
 "wienerschnitzler",
 "color":
 "#ECDA98",
 "caption":
 "Wiener Schnitzler",
 "head":
 "Wien",
 "desc":
{"listPlace":
  [
 {
 "placeName":
 "XIX., Döbling",
 "ref":
 ""}
 ,  {
 "placeName":
 "XVIII., Währing",
 "ref":
 ""}
 ]
}
}, {
 "type":
 "schnitzler-interviews",
 "color":
 "#3D5A80",
 "filename":
 "M106",
 "caption":
 "Interviews, Meinungen, Proteste",
 "idno":
 "https://schnitzler-interviews.acdh.oeaw.ac.at/M106.html",
 "head":
 "Artur Schnitzler über den Krieg. Brief an einen Schulfreund in New
                            York, 17. 11. 1914",
 "desc":
{"listPerson":
  [
{
 "persName":
 "Eugen Deimel",
 "ref":
 "pmb15271"},
 {
 "persName":
 "Karl Knortz",
 "ref":
 "pmb19474"},
 {
 "persName":
 "Georg Brandes",
 "ref":
 "pmb10992"}],
 "listBibl":
  [
 {
 "title":
 "New Yorker Staats-Zeitung",
 "ref":
 "pmb58400"}
 ,  {
 "title":
 "Neues Wiener Journal",
 "ref":
 "pmb36376"}
 ,  {
 "title":
 "Artur Schnitzler über den Krieg. Brief an einen Schulfreund in New York",
 "ref":
 "pmb58394"}
 ],
 "listPlace":
  [
 {
 "placeName":
 "New York City",
 "ref":
 "pmb44053"}
 ,  {
 "placeName":
 "Österreich-Ungarn",
 "ref":
 "pmb687"}
 ,  {
 "placeName":
 "Deutschland",
 "ref":
 "pmb151"}
 ,  {
 "placeName":
 "Wien",
 "ref":
 "pmb50"}
 ,  {
 "placeName":
 "Russland",
 "ref":
 "pmb34438"}
 ,  {
 "placeName":
 "Galizien",
 "ref":
 "pmb644"}
 ,  {
 "placeName":
 "Engadin",
 "ref":
 "pmb1061"}
 ,  {
 "placeName":
 "Salzkammergut",
 "ref":
 "pmb429"}
 ,  {
 "placeName":
 "Europa",
 "ref":
 "pmb468"}
 ,  {
 "placeName":
 "Amerika",
 "ref":
 "pmb175"}
 ],
 "listOrg":
  [
 {
 "orgName":
 "New Yorker Staats-Zeitung",
 "ref":
 "pmb29491"}
 ]
}
}] 