[{
 "type":
 "schnitzler-tagebuch",
 "color":
 "#037a33",
 "filename":
 "entry__1914-07-15",
 "caption":
 "Tagebuch",
 "idno":
 "https://schnitzler-tagebuch.acdh.oeaw.ac.at/entry__1914-07-15.html",
 "head":
 "Tagebuch, 15. Juli 1914",
 "desc":
{"listPerson":
  [
{
 "persName":
 "Richard Arnold Bermann",
 "ref":
 "person_13657"},
 {
 "persName":
 "Gertrud Eysoldt",
 "ref":
 "person_14840"},
 {
 "persName":
 "Ida Roland",
 "ref":
 "person_19331"},
 {
 "persName":
 "Alfred von Schik-Markenau",
 "ref":
 "person_19686"},
 {
 "persName":
 "Hugo Schmidl",
 "ref":
 "person_19755"},
 {
 "persName":
 "Heinrich Schnitzler",
 "ref":
 "person_19822"},
 {
 "persName":
 "Hermann Schöne",
 "ref":
 "person_19848"},
 {
 "persName":
 "Gustav Schwarzkopf",
 "ref":
 "person_19986"},
 {
 "persName":
 "Hugo Thimig",
 "ref":
 "person_20714"},
 {
 "persName":
 "Ludwig Gabillon",
 "ref":
 "person_15319"}],
 "listBibl":
  [
 {
 "title":
 "Komödie der Worte. Drei Einakter",
 "ref":
 "pmb30717"}
 ,  {
 "title":
 "Die Mörderin",
 "ref":
 "pmb33792"}
 ,  {
 "title":
 "Das Seil",
 "ref":
 "pmb78526"}
 ],
 "listPlace":
  [
 {
 "placeName":
 "Wildalpen",
 "ref":
 "pmb34627"}
 ,  {
 "placeName":
 "Burgtheater",
 "ref":
 "pmb14"}
 ,  {
 "placeName":
 "Weichselboden",
 "ref":
 "pmb92057"}
 ,  {
 "placeName":
 "Mariazell",
 "ref":
 "pmb431"}
 ]
}
}, {
 "type":
 "schnitzler-briefe",
 "color":
 "#A63437",
 "filename":
 "L02186",
 "caption":
 "Briefe mit Autorinnen und Autoren",
 "idno":
 "https://schnitzler-briefe.acdh.oeaw.ac.at/L02186.html",
 "head":
 "Arthur Schnitzler, Olga Schnitzler, Hugo Schmidl, Paula Schmidl an Richard Beer-Hofmann, 15. 7. 1914",
 "desc":
{"listPerson":
  [
{
 "persName":
 "Richard Beer-Hofmann",
 "ref":
 "pmb10863"},
 {
 "persName":
 "Olga Schnitzler",
 "ref":
 "pmb2173"},
 {
 "persName":
 "Paula Schmidl",
 "ref":
 "pmb24292"},
 {
 "persName":
 "Hugo Schmidl",
 "ref":
 "pmb3159"}],
 "listPlace":
  [
 {
 "placeName":
 "Steiermark",
 "ref":
 "pmb17"}
 ,  {
 "placeName":
 "Attersee",
 "ref":
 "pmb236"}
 ,  {
 "placeName":
 "Weißenbach am Attersee",
 "ref":
 "pmb34344"}
 ,  {
 "placeName":
 "Mariazell",
 "ref":
 "pmb431"}
 ,  {
 "placeName":
 "Wien",
 "ref":
 "pmb50"}
 ,  {
 "placeName":
 "Oberösterreich",
 "ref":
 "pmb519"}
 ,  {
 "placeName":
 "Hochschwab",
 "ref":
 "pmb52353"}
 ,  {
 "placeName":
 "Lunz am See",
 "ref":
 "pmb941"}
 ]
}
}, {
 "type":
 "schnitzler-briefe",
 "color":
 "#A63437",
 "filename":
 "L02187",
 "caption":
 "Briefe mit Autorinnen und Autoren",
 "idno":
 "https://schnitzler-briefe.acdh.oeaw.ac.at/L02187.html",
 "head":
 "Hugo von Hofmannsthal, Gerty von Hofmannsthal, Richard Beer-Hofmann, Paula Beer-Hofmann, Gustav Schwarzkopf an Arthur Schnitzler, 15. [7. 1914]",
 "desc":
{"listPerson":
  [
{
 "persName":
 "Paula Beer-Hofmann",
 "ref":
 "pmb10860"},
 {
 "persName":
 "Richard Beer-Hofmann",
 "ref":
 "pmb10863"},
 {
 "persName":
 "Hugo von Hofmannsthal",
 "ref":
 "pmb11740"},
 {
 "persName":
 "Gustav Schwarzkopf",
 "ref":
 "pmb12740"},
 {
 "persName":
 "Gertrude von Hofmannsthal",
 "ref":
 "pmb2292"},
 {
 "persName":
 "Hugo Schmidl",
 "ref":
 "pmb3159"}],
 "listPlace":
  [
 {
 "placeName":
 "Niederösterreich",
 "ref":
 "pmb1003"}
 ,  {
 "placeName":
 "Sternwartestraße 71",
 "ref":
 "pmb168815"}
 ,  {
 "placeName":
 "Weißenbach am Attersee",
 "ref":
 "pmb34344"}
 ,  {
 "placeName":
 "Obertressen",
 "ref":
 "pmb36473"}
 ,  {
 "placeName":
 "Salzkammergut",
 "ref":
 "pmb429"}
 ,  {
 "placeName":
 "Wien",
 "ref":
 "pmb50"}
 ,  {
 "placeName":
 "XVIII., Währing",
 "ref":
 "pmb68"}
 ,  {
 "placeName":
 "Lunz am See",
 "ref":
 "pmb941"}
 ]
}
}, {
 "type":
 "wienerschnitzler",
 "color":
 "#ECDA98",
 "caption":
 "Wiener Schnitzler",
 "idno":
 "https://wienerschnitzler.org/tag.html#1914-07-15",
 "head":
 "Lunz am See",
 "desc":
{"listPlace":
  [
 {
 "placeName":
 "Gasthof Grubmayr",
 "ref":
 ""}
 ]
}
}, {
 "type":
 "wienerschnitzler",
 "color":
 "#ECDA98",
 "caption":
 "Wiener Schnitzler",
 "idno":
 "https://wienerschnitzler.org/tag.html#1914-07-15",
 "head":
 "Wien",
 "desc":
{"listPlace":
  [
 {
 "placeName":
 "XV., Rudolfsheim-Fünfhaus",
 "ref":
 ""}
 ,  {
 "placeName":
 "XVIII., Währing",
 "ref":
 ""}
 ]
}
}, {
 "type":
 "wienerschnitzler",
 "color":
 "#ECDA98",
 "caption":
 "Wiener Schnitzler",
 "idno":
 "https://wienerschnitzler.org/tag.html#1914-07-15",
 "head":
 "Wildalpen",
 "desc":
{"listPlace":
  [
 {
 "placeName":
 "Villa Hugo Thimig",
 "ref":
 ""}
 ]
}
}, {
 "type":
 "wienerschnitzler",
 "color":
 "#ECDA98",
 "caption":
 "Wiener Schnitzler",
 "idno":
 "https://wienerschnitzler.org/tag.html#1914-07-15",
 "head":
 "Weichselboden"
}, {
 "type":
 "wienerschnitzler",
 "color":
 "#ECDA98",
 "caption":
 "Wiener Schnitzler",
 "idno":
 "https://wienerschnitzler.org/tag.html#1914-07-15",
 "head":
 "Mariazell",
 "desc":
{"listPlace":
  [
 {
 "placeName":
 "Basilika Mariä Geburt",
 "ref":
 ""}
 ,  {
 "placeName":
 "Hotel Schwarzer Adler [Mariazell]",
 "ref":
 ""}
 ]
}
}, {
 "type":
 "wienerschnitzler",
 "color":
 "#ECDA98",
 "caption":
 "Wiener Schnitzler",
 "idno":
 "https://wienerschnitzler.org/tag.html#1914-07-15",
 "head":
 "St. Pölten",
 "desc":
{"listPlace":
  [
 {
 "placeName":
 "St. Pölten Hauptbahnhof",
 "ref":
 ""}
 ]
}
}] 