{
 "date":
 {
 "when-iso":
 "1914-06-12",
 "written":
 "Freitag, 12. Juni 1914"
},
"listEvent":
 [{
 "type":
 "schnitzler-orte",
 "idno":
 "https://pmb.acdh.oeaw.ac.at/entity/50/",
 "head":
 "Wien"
}, {
 "type":
 "schnitzler-briefe",
 "idno":
 "https://schnitzler-briefe.acdh.oeaw.ac.at/L02181.html",
 "head":
 "Arthur Schnitzler an Hermann Bahr, 12. 6. 1914",
 "desc":
{"listPerson":
  [
{
 "persName":
 "Hermann Bahr",
 "ref":
 "pmb10815"},
 {
 "persName":
 "Maximilian Harden",
 "ref":
 "pmb11581"},
 {
 "persName":
 "Franz von Liszt",
 "ref":
 "pmb12092"},
 {
 "persName":
 "Karl von Lilienthal",
 "ref":
 "pmb2263"},
 {
 "persName":
 "Herbert Eulenberg",
 "ref":
 "pmb11273"},
 {
 "persName":
 "Georg Simmel",
 "ref":
 "pmb12778"},
 {
 "persName":
 "Max Liebermann",
 "ref":
 "pmb12068"},
 {
 "persName":
 "Ludwig Fulda",
 "ref":
 "pmb11391"},
 {
 "persName":
 "Max Eugen Burckhard",
 "ref":
 "pmb11036"}],
 "listBibl":
  [
 {
 "title":
 "Reigen. Zehn Dialoge",
 "ref":
 "pmb29855"}
 ],
 "listOrg":
  [
 {
 "orgName":
 "J. Singer &amp; Co.",
 "ref":
 "pmb29369"}
 ,  {
 "orgName":
 "Wiener Verlag",
 "ref":
 "pmb29636"}
 ],
 "listPlace":
  [
 {
 "placeName":
 "Wien",
 "ref":
 "pmb50"}
 ,  {
 "placeName":
 "Sternwartestraße",
 "ref":
 "pmb150"}
 ,  {
 "placeName":
 "Deutschland",
 "ref":
 "pmb151"}
 ,  {
 "placeName":
 "Berlin",
 "ref":
 "pmb168"}
 ,  {
 "placeName":
 "Österreich",
 "ref":
 "pmb41240"}
 ]}

}, {
 "type":
 "schnitzler-cmif",
 "subtype":
 "#jf7cbca5-b0b6-4bcf-adbf-38e94eed3cb3",
 "head":
 "Arthur Schnitzler an Otto Weizsaecker, 12. 6. 1914",
 "desc":
{"listPerson":
  [
{
 "persName":
 "Weizsaecker, Otto",
 "ref":
 ""}],
 "bibl":
 "Arthur Schnitzler: Briefe 1913–1931. Hrsg. v. Peter Michael Braunwarth, Richard Miklin, Susanne Pertlik und Heinrich Schnitzler. Frankfurt am Main: S. Fischer 1984. (PDF unter: https://schnitzler-briefe.acdh.oeaw.ac.at/)"}

}, {
 "type":
 "schnitzler-tagebuch",
 "idno":
 "https://schnitzler-tagebuch.acdh.oeaw.ac.at/entry__1914-06-12.html",
 "head":
 "Tagebuch, 12. Juni 1914",
 "desc":
{"listPerson":
  [
{
 "persName":
 "Otto Zuckerkandl",
 "ref":
 "person_21601"},
 {
 "persName":
 "Paula Beer-Hofmann",
 "ref":
 "person_13550"}],
 "listBibl":
  [
 {
 "title":
 "Doktor Gräsler, Badearzt",
 "ref":
 "pmb30201"}
 ],
 "listPlace":
  [
 {
 "placeName":
 "Prater",
 "ref":
 "pmb91530"}
 ]}

}, {
 "type":
 "schnitzler-bahr",
 "idno":
 "https://schnitzler-bahr.acdh.oeaw.ac.at/L041132.html",
 "head":
 "Schnitzler an Bahr, 12. 6. 1914",
 "desc":
{"listPerson":
  [
{
 "persName":
 "Hermann Bahr",
 "ref":
 "pmb10815"},
 {
 "persName":
 "Franz von Liszt",
 "ref":
 "pmb12092"},
 {
 "persName":
 "Karl von Lilienthal",
 "ref":
 "pmb2263"},
 {
 "persName":
 "Herbert Eulenberg",
 "ref":
 "pmb11273"},
 {
 "persName":
 "Georg Simmel",
 "ref":
 "pmb12778"},
 {
 "persName":
 "Max Liebermann",
 "ref":
 "pmb12068"},
 {
 "persName":
 "Ludwig Fulda",
 "ref":
 "pmb11391"},
 {
 "persName":
 "Max Eugen Burckhard",
 "ref":
 "pmb11036"}],
 "listBibl":
  [
 {
 "title":
 "Reigen. Zehn Dialoge",
 "ref":
 "pmb29855"}
 ],
 "listPlace":
  [
 {
 "placeName":
 "Wien",
 "ref":
 "pmb50"}
 ,  {
 "placeName":
 "Sternwartestraße",
 "ref":
 "pmb150"}
 ,  {
 "placeName":
 "Deutschland",
 "ref":
 "pmb151"}
 ,  {
 "placeName":
 "Berlin",
 "ref":
 "pmb168"}
 ,  {
 "placeName":
 "Österreich",
 "ref":
 "pmb41240"}
 ],
 "listOrg":
  [
 {
 "orgName":
 "J. Singer &amp; Co.",
 "ref":
 "pmb29369"}
 ]}

}] 
}