[{
 "type":
 "schnitzler-tagebuch",
 "color":
 "#037a33",
 "filename":
 "entry__1914-08-26",
 "caption":
 "Tagebuch",
 "idno":
 "https://schnitzler-tagebuch.acdh.oeaw.ac.at/entry__1914-08-26.html",
 "head":
 "Tagebuch, 26. August 1914",
 "desc":
{"listPerson":
  [
{
 "persName":
 "Raoul Auernheimer",
 "ref":
 "person_13305"},
 {
 "persName":
 "Eugenie Bachrach",
 "ref":
 "person_13355"},
 {
 "persName":
 "Stefanie Bachrach",
 "ref":
 "person_13359"},
 {
 "persName":
 "Wilhelm Rosenberg",
 "ref":
 "person_19378"},
 {
 "persName":
 "Heinrich Schnitzler",
 "ref":
 "person_19822"},
 {
 "persName":
 "Julie Wassermann",
 "ref":
 "person_21109"},
 {
 "persName":
 "Marianne Giustiniani",
 "ref":
 "person_21600"},
 {
 "persName":
 "Jakob Wassermann",
 "ref":
 "person_21107"},
 {
 "persName":
 "Frieda Pollak",
 "ref":
 "person_18881"}],
 "listPlace":
  [
 {
 "placeName":
 "Rettenbachalm",
 "ref":
 "pmb91580"}
 ,  {
 "placeName":
 "Blaa-Alm",
 "ref":
 "pmb90354"}
 ,  {
 "placeName":
 "Altaussee",
 "ref":
 "pmb90229"}
 ,  {
 "placeName":
 "Obertressen",
 "ref":
 "pmb36473"}
 ,  {
 "placeName":
 "Bad Aussee",
 "ref":
 "pmb415"}
 ]
}
}, {
 "type":
 "schnitzler-orte",
 "color":
 "#045344",
 "caption":
 "Aufenthaltsorte",
 "head":
 "Bad Ischl",
 "desc":
{"listPlace":
  [
 {
 "placeName":
 "Hotel Kaiserkrone",
 "ref":
 ""}
 ]
}
}, {
 "type":
 "schnitzler-orte",
 "color":
 "#045344",
 "caption":
 "Aufenthaltsorte",
 "head":
 "Rettenbachalm"
}, {
 "type":
 "schnitzler-orte",
 "color":
 "#045344",
 "caption":
 "Aufenthaltsorte",
 "head":
 "Blaa-Alm"
}, {
 "type":
 "schnitzler-orte",
 "color":
 "#045344",
 "caption":
 "Aufenthaltsorte",
 "head":
 "Altaussee",
 "desc":
{"listPlace":
  [
 {
 "placeName":
 "Fischerndorf",
 "ref":
 ""}
 ]
}
}, {
 "type":
 "schnitzler-orte",
 "color":
 "#045344",
 "caption":
 "Aufenthaltsorte",
 "head":
 "Bad Aussee",
 "desc":
{"listPlace":
  [
 {
 "placeName":
 "Obertressen",
 "ref":
 ""}
 ,  {
 "placeName":
 "Caf√© Vesco",
 "ref":
 ""}
 ]
}
}] 