[{
 "type":
 "schnitzler-tagebuch",
 "color":
 "#037a33",
 "filename":
 "entry__1914-05-14",
 "caption":
 "Tagebuch",
 "idno":
 "https://schnitzler-tagebuch.acdh.oeaw.ac.at/entry__1914-05-14.html",
 "head":
 "Tagebuch, 14. Mai 1914",
 "desc":
{"listBibl":
  [
 {
 "title":
 "Stunde des Erkennens",
 "ref":
 "pmb31447"}
 ]
}
}, {
 "type":
 "schnitzler-briefe",
 "color":
 "#A63437",
 "filename":
 "L02179",
 "caption":
 "Briefe mit Autorinnen und Autoren",
 "idno":
 "https://schnitzler-briefe.acdh.oeaw.ac.at/L02179.html",
 "head":
 "Bertha von Suttner an Arthur Schnitzler, Olga Schnitzler, 14. 5. 1914",
 "desc":
{"listPerson":
  [
{
 "persName":
 "Bertha von Suttner",
 "ref":
 "pmb12906"},
 {
 "persName":
 "Olga Schnitzler",
 "ref":
 "pmb2173"}],
 "listPlace":
  [
 {
 "placeName":
 "Spiegelgasse",
 "ref":
 "pmb45381"}
 ,  {
 "placeName":
 "Wien",
 "ref":
 "pmb50"}
 ,  {
 "placeName":
 "I., Innere Stadt",
 "ref":
 "pmb51"}
 ]
}
}, {
 "type":
 "schnitzler-briefe",
 "color":
 "#A63437",
 "filename":
 "L03563",
 "caption":
 "Briefe mit Autorinnen und Autoren",
 "idno":
 "https://schnitzler-briefe.acdh.oeaw.ac.at/L03563.html",
 "head":
 "Felix Salten, Ottilie Salten an Arthur Schnitzler, Olga Schnitzler, 14. 5. 1914",
 "desc":
{"listPerson":
  [
{
 "persName":
 "Felix Salten",
 "ref":
 "pmb2167"},
 {
 "persName":
 "Olga Schnitzler",
 "ref":
 "pmb2173"},
 {
 "persName":
 "Ottilie Salten",
 "ref":
 "pmb23918"}],
 "listOrg":
  [
 {
 "orgName":
 "Schnellpostdampfer Vaterland",
 "ref":
 "pmb148350"}
 ,  {
 "orgName":
 "Hamburg-Amerika-Linie",
 "ref":
 "pmb51619"}
 ],
 "listPlace":
  [
 {
 "placeName":
 "Nordsee",
 "ref":
 "pmb118890"}
 ,  {
 "placeName":
 "Sternwartestraße 71",
 "ref":
 "pmb168815"}
 ,  {
 "placeName":
 "IJmuiden",
 "ref":
 "pmb181903"}
 ,  {
 "placeName":
 "Paris",
 "ref":
 "pmb182"}
 ,  {
 "placeName":
 "London",
 "ref":
 "pmb224"}
 ,  {
 "placeName":
 "Southampton",
 "ref":
 "pmb47658"}
 ,  {
 "placeName":
 "Wien",
 "ref":
 "pmb50"}
 ,  {
 "placeName":
 "Cuxhaven",
 "ref":
 "pmb90504"}
 ,  {
 "placeName":
 "Genua",
 "ref":
 "pmb994"}
 ]
}
}, {
 "type":
 "wienerschnitzler",
 "color":
 "#ECDA98",
 "caption":
 "Wiener Schnitzler",
 "idno":
 "https://wienerschnitzler.org/tag.html#1914-05-14",
 "head":
 "?? [Mittelmeer, zwischen Genua und Algier]"
}] 