[{
 "type":
 "schnitzler-tagebuch",
 "color":
 "#037a33",
 "filename":
 "entry__1914-07-14",
 "caption":
 "Tagebuch",
 "idno":
 "https://schnitzler-tagebuch.acdh.oeaw.ac.at/entry__1914-07-14.html",
 "head":
 "Tagebuch, 14. Juli 1914",
 "desc":
{"listPerson":
  [
{
 "persName":
 "Hugo Schmidl",
 "ref":
 "person_19755"},
 {
 "persName":
 "Heinrich Schnitzler",
 "ref":
 "person_19822"},
 {
 "persName":
 "Alma Rosenthal",
 "ref":
 "person_19389"},
 {
 "persName":
 "Johanna Schmidl",
 "ref":
 "person_16852"}],
 "listPlace":
  [
 {
 "placeName":
 "Waidhofen an der Ybbs",
 "ref":
 "pmb49181"}
 ,  {
 "placeName":
 "Lunz am See",
 "ref":
 "pmb941"}
 ,  {
 "placeName":
 "Seekopf",
 "ref":
 "pmb91727"}
 ]
}
}, {
 "type":
 "URL",
 "subtype":
 "wienerschnitzler",
 "head":
 "Waidhofen an der Ybbs"
}, {
 "type":
 "URL",
 "subtype":
 "wienerschnitzler",
 "head":
 "Lunz am See",
 "desc":
{"listPlace":
  [
 {
 "placeName":
 "Gasthof Grubmayr",
 "ref":
 ""}
 ,  {
 "placeName":
 "Lehenvilla",
 "ref":
 ""}
 ,  {
 "placeName":
 "Seeterrasse Lunz",
 "ref":
 ""}
 ,  {
 "placeName":
 "Seekopf",
 "ref":
 ""}
 ]
}
}, {
 "type":
 "URL",
 "subtype":
 "wienerschnitzler",
 "head":
 "Wien",
 "desc":
{"listPlace":
  [
 {
 "placeName":
 "XVIII., WÃ¤hring",
 "ref":
 ""}
 ]
}
}, {
 "type":
 "schnitzler-cmif",
 "subtype":
 "#w6429315-92be-4f82-b2f1-926125f9bfa5",
 "color":
 "#654321",
 "caption":
 "Gedruckte Briefwechsel",
 "head":
 "Eugen Deimel an Arthur Schnitzler, 14.7.1914",
 "source":
 "Heinz P. Adamek (Hg.): In die Neue Welt... Arthur Schnitzler - Eugen Deimel. Briefwechsel. Holzhausen Verlag: Wien 2003"
}] 