[{
 "type":
 "schnitzler-tagebuch",
 "color":
 "#037a33",
 "filename":
 "entry__1914-05-29",
 "caption":
 "Tagebuch",
 "idno":
 "https://schnitzler-tagebuch.acdh.oeaw.ac.at/entry__1914-05-29.html",
 "head":
 "Tagebuch, 29. Mai 1914",
 "desc":
{"listPlace":
  [
 {
 "placeName":
 "Köln",
 "ref":
 "pmb145"}
 ]
}
}, {
 "type":
 "wienerschnitzler",
 "color":
 "#6F5106",
 "caption":
 "Wiener Schnitzler",
 "idno":
 "https://wienerschnitzler.org/tag.html#1914-05-29",
 "head":
 "Amsterdam",
 "desc":
{"listPlace":
  [
 {
 "placeName":
 "Amstelhotel",
 "ref":
 ""}
 ,  {
 "placeName":
 "Amsterdam Centraal",
 "ref":
 ""}
 ]
}
}, {
 "type":
 "wienerschnitzler",
 "color":
 "#6F5106",
 "caption":
 "Wiener Schnitzler",
 "idno":
 "https://wienerschnitzler.org/tag.html#1914-05-29",
 "head":
 "Köln",
 "desc":
{"listPlace":
  [
 {
 "placeName":
 "Köln Hauptbahnhof",
 "ref":
 ""}
 ,  {
 "placeName":
 "Excelsior Hotel Ernst",
 "ref":
 ""}
 ,  {
 "placeName":
 "Köln-Deutz",
 "ref":
 ""}
 ,  {
 "placeName":
 "Hotel Ewige Lampe",
 "ref":
 ""}
 ]
}
}, {
 "type":
 "schnitzler-kultur",
 "color":
 "#6B4C5A",
 "filename":
 "pmb256405",
 "caption":
 "Kulturveranstaltungen",
 "idno":
 "https://schnitzler-kultur.acdh.oeaw.ac.at/pmb256405.html",
 "head":
 "Ausstellungsbesuch Kölner Werkbundausstellung, 29.5.1914",
 "desc":
{"listPerson":
  [
{
 "persName":
 "Arthur Schnitzler",
 "ref":
 ""}],
 "listPlace":
  [
 {
 "placeName":
 "Kölner Werkbundausstellung 1914",
 "ref":
 ""}
 ]
}
}] 