[{
 "type":
 "schnitzler-orte",
 "color":
 "#045344",
 "caption":
 "Aufenthaltsorte",
 "idno":
 "https://pmb.acdh.oeaw.ac.at/entity/49990/",
 "head":
 "Bad Ragaz"
}, {
 "type":
 "schnitzler-briefe",
 "color":
 "#A63437",
 "caption":
 "Briefe mit Autorinnen und Autoren",
 "idno":
 "https://schnitzler-briefe.acdh.oeaw.ac.at/L02191.html",
 "head":
 "Richard Beer-Hofmann an Arthur Schnitzler, 10. 8. 1914",
 "desc":
{"listPerson":
  [
{
 "persName":
 "Richard Beer-Hofmann",
 "ref":
 "pmb10863"},
 {
 "persName":
 "Naëmah Beer-Hofmann",
 "ref":
 "pmb2534"},
 {
 "persName":
 "Mirjam Beer-Hofmann",
 "ref":
 "pmb2668"},
 {
 "persName":
 "Gabriel Beer-Hofmann",
 "ref":
 "pmb13923"},
 {
 "persName":
 "Arthur Kaufmann",
 "ref":
 "pmb2496"},
 {
 "persName":
 "Leo Van-Jung",
 "ref":
 "pmb26392"},
 {
 "persName":
 "Isabella Vengerova",
 "ref":
 "pmb3068"}],
 "listPlace":
  [
 {
 "placeName":
 "Weißenbach am Attersee",
 "ref":
 "pmb34344"}
 ,  {
 "placeName":
 "Celerina",
 "ref":
 "pmb12589"}
 ,  {
 "placeName":
 "Hotel Lattmann",
 "ref":
 "pmb50232"}
 ,  {
 "placeName":
 "Bad Ragaz",
 "ref":
 "pmb49990"}
 ,  {
 "placeName":
 "XVIII., Währing",
 "ref":
 "pmb68"}
 ,  {
 "placeName":
 "Sternwartestraße",
 "ref":
 "pmb150"}
 ,  {
 "placeName":
 "Wien",
 "ref":
 "pmb50"}
 ,  {
 "placeName":
 "Schweiz",
 "ref":
 "pmb43435"}
 ,  {
 "placeName":
 "Cresta Palace",
 "ref":
 "pmb1138"}
 ,  {
 "placeName":
 "Salzkammergut",
 "ref":
 "pmb429"}
 ]
}
}, {
 "type":
 "schnitzler-tagebuch",
 "color":
 "#037a33",
 "caption":
 "Tagebuch",
 "idno":
 "https://schnitzler-tagebuch.acdh.oeaw.ac.at/entry__1914-08-10.html",
 "head":
 "Tagebuch, 10. August 1914",
 "desc":
{"listPerson":
  [
{
 "persName":
 "Heinrich Schnitzler",
 "ref":
 "person_19822"}],
 "listBibl":
  [
 {
 "title":
 "Stunde des Erkennens",
 "ref":
 "pmb31447"}
 ],
 "listPlace":
  [
 {
 "placeName":
 "Buchs",
 "ref":
 "pmb859"}
 ]
}
}] 