[{
 "type":
 "schnitzler-tagebuch",
 "color":
 "#037a33",
 "filename":
 "entry__1914-08-15",
 "caption":
 "Tagebuch",
 "idno":
 "https://schnitzler-tagebuch.acdh.oeaw.ac.at/entry__1914-08-15.html",
 "head":
 "Tagebuch, 15. August 1914",
 "desc":
{"listBibl":
  [
 {
 "title":
 "Doktor Gr√§sler, Badearzt",
 "ref":
 "pmb30201"}
 ],
 "listPlace":
  [
 {
 "placeName":
 "Bad Ragaz",
 "ref":
 "pmb49990"}
 ,  {
 "placeName":
 "Buchs",
 "ref":
 "pmb859"}
 ,  {
 "placeName":
 "Feldkirch",
 "ref":
 "pmb44368"}
 ]
}
}, {
 "type":
 "URL",
 "subtype":
 "wienerschnitzler",
 "head":
 "Bad Ragaz",
 "desc":
{"listPlace":
  [
 {
 "placeName":
 "Hotel Krone",
 "ref":
 ""}
 ,  {
 "placeName":
 "Bad Ragaz Bahnhof",
 "ref":
 ""}
 ]
}
}, {
 "type":
 "URL",
 "subtype":
 "wienerschnitzler",
 "head":
 "Feldkirch",
 "desc":
{"listPlace":
  [
 {
 "placeName":
 "Bahnhof Feldkirch",
 "ref":
 ""}
 ,  {
 "placeName":
 "Hotel Post [Feldkirch]",
 "ref":
 ""}
 ,  {
 "placeName":
 "Bezirkshauptmannschaft Feldkirch",
 "ref":
 ""}
 ]
}
}, {
 "type":
 "URL",
 "subtype":
 "wienerschnitzler",
 "head":
 "Buchs",
 "desc":
{"listPlace":
  [
 {
 "placeName":
 "Bahnhof Buchs SG",
 "ref":
 ""}
 ]
}
}] 