[{
 "type":
 "schnitzler-tagebuch",
 "color":
 "#037a33",
 "filename":
 "entry__1914-05-25",
 "caption":
 "Tagebuch",
 "idno":
 "https://schnitzler-tagebuch.acdh.oeaw.ac.at/entry__1914-05-25.html",
 "head":
 "Tagebuch, 25. Mai 1914",
 "desc":
{"listPlace":
  [
 {
 "placeName":
 "Den Haag",
 "ref":
 "pmb58810"}
 ,  {
 "placeName":
 "Scheveningen",
 "ref":
 "pmb44313"}
 ,  {
 "placeName":
 "Amsterdam",
 "ref":
 "pmb40709"}
 ]
}
}, {
 "type":
 "wienerschnitzler",
 "color":
 "#6F5106",
 "caption":
 "Wiener Schnitzler",
 "idno":
 "https://wienerschnitzler.org/tag.html#1914-05-25",
 "head":
 "Amsterdam",
 "desc":
{"listPlace":
  [
 {
 "placeName":
 "Amstelhotel",
 "ref":
 ""}
 ,  {
 "placeName":
 "Café Américain",
 "ref":
 ""}
 ]
}
}, {
 "type":
 "wienerschnitzler",
 "color":
 "#6F5106",
 "caption":
 "Wiener Schnitzler",
 "idno":
 "https://wienerschnitzler.org/tag.html#1914-05-25",
 "head":
 "Den Haag",
 "desc":
{"listPlace":
  [
 {
 "placeName":
 "Koninklijk Kabinet van Schilderijen Mauritshuis",
 "ref":
 ""}
 ,  {
 "placeName":
 "Panorama Mesdag",
 "ref":
 ""}
 ,  {
 "placeName":
 "Hotel Des Indes",
 "ref":
 ""}
 ,  {
 "placeName":
 "Haagse Bos",
 "ref":
 ""}
 ]
}
}, {
 "type":
 "wienerschnitzler",
 "color":
 "#6F5106",
 "caption":
 "Wiener Schnitzler",
 "idno":
 "https://wienerschnitzler.org/tag.html#1914-05-25",
 "head":
 "Scheveningen"
}, {
 "type":
 "schnitzler-kultur",
 "color":
 "#6B4C5A",
 "filename":
 "pmb298191",
 "caption":
 "Kulturveranstaltungen",
 "idno":
 "https://schnitzler-kultur.acdh.oeaw.ac.at/pmb298191.html",
 "head":
 "Besuch des Panorama Mesdag, 25.5.1914",
 "desc":
{"listPerson":
  [
{
 "persName":
 "Arthur Schnitzler",
 "ref":
 ""}],
 "listPlace":
  [
 {
 "placeName":
 "Panorama Mesdag",
 "ref":
 ""}
 ]
}
}, {
 "type":
 "schnitzler-kultur",
 "color":
 "#6B4C5A",
 "filename":
 "pmb298185",
 "caption":
 "Kulturveranstaltungen",
 "idno":
 "https://schnitzler-kultur.acdh.oeaw.ac.at/pmb298185.html",
 "head":
 "Besuch des Koninklijk Kabinet van Schilderijen Mauritshuis, 25.5.1914",
 "desc":
{"listPerson":
  [
{
 "persName":
 "Arthur Schnitzler",
 "ref":
 ""}],
 "listPlace":
  [
 {
 "placeName":
 "Koninklijk Kabinet van Schilderijen Mauritshuis",
 "ref":
 ""}
 ]
}
}] 