[{
 "type":
 "schnitzler-tagebuch",
 "color":
 "#037a33",
 "filename":
 "entry__1914-11-27",
 "caption":
 "Tagebuch",
 "idno":
 "https://schnitzler-tagebuch.acdh.oeaw.ac.at/entry__1914-11-27.html",
 "head":
 "Tagebuch, 27. November 1914",
 "desc":
{"listPerson":
  [
{
 "persName":
 "Eugenie Bachrach",
 "ref":
 "person_13355"},
 {
 "persName":
 "Stefanie Bachrach",
 "ref":
 "person_13359"},
 {
 "persName":
 "Moriz Benedikt",
 "ref":
 "person_13595"},
 {
 "persName":
 "Felix Salten",
 "ref":
 "person_19542"},
 {
 "persName":
 "Stefan Zweig",
 "ref":
 "person_21614"},
 {
 "persName":
 "Lillie Lord",
 "ref":
 "person_17683"},
 {
 "persName":
 "Jakob Wassermann",
 "ref":
 "person_21107"},
 {
 "persName":
 "Paul Zifferer",
 "ref":
 "person_21559"},
 {
 "persName":
 "Fritz von Unruh",
 "ref":
 "person_20885"}],
 "listBibl":
  [
 {
 "title":
 "Offiziere. Ein Drama",
 "ref":
 "pmb76585"}
 ],
 "listPlace":
  [
 {
 "placeName":
 "Russland",
 "ref":
 "pmb34438"}
 ,  {
 "placeName":
 "Galizien",
 "ref":
 "pmb644"}
 ]
}
}, {
 "type":
 "schnitzler-briefe",
 "color":
 "#A63437",
 "filename":
 "L03774",
 "caption":
 "Briefe mit Autorinnen und Autoren",
 "idno":
 "https://schnitzler-briefe.acdh.oeaw.ac.at/L03774.html",
 "head":
 "Arthur Schnitzler an Stefan Zweig, 27. 11. 1914",
 "desc":
{"listPerson":
  [
{
 "persName":
 "Stefan Zweig",
 "ref":
 "pmb13212"},
 {
 "persName":
 "Romain Rolland",
 "ref":
 "pmb12543"},
 {
 "persName":
 "Jakob von Winternitz",
 "ref":
 "pmb13132"},
 {
 "persName":
 "Alfred von Winterstein",
 "ref":
 "pmb13136"},
 {
 "persName":
 "Isabella Vengerova",
 "ref":
 "pmb3068"},
 {
 "persName":
 "Alice Moller",
 "ref":
 "pmb21549"},
 {
 "persName":
 "Leo N. von Tolstoi",
 "ref":
 "pmb3739"},
 {
 "persName":
 "Maurice Maeterlinck",
 "ref":
 "pmb12156"},
 {
 "persName":
 "Anatole France",
 "ref":
 "pmb4279"},
 {
 "persName":
 "William Shakespeare",
 "ref":
 "pmb2412"},
 {
 "persName":
 "Eugen Deimel",
 "ref":
 "pmb15271"}],
 "listBibl":
  [
 {
 "title":
 "Ein Brief Artur Schnitzlers",
 "ref":
 "pmb296393"}
 ,  {
 "title":
 "Journal de Genève",
 "ref":
 "pmb58493"}
 ,  {
 "title":
 "Une protestation d’Arthur Schnitzler",
 "ref":
 "pmb58490"}
 ,  {
 "title":
 "Neue Zürcher Zeitung",
 "ref":
 "pmb42406"}
 ,  {
 "title":
 "?? [Fiktives Interview aus der Kriegszeit]",
 "ref":
 "pmb32959"}
 ,  {
 "title":
 "New Yorker Staats-Zeitung",
 "ref":
 "pmb58400"}
 ,  {
 "title":
 "Artur Schnitzler über den Krieg. Brief an einen Schulfreund in New York",
 "ref":
 "pmb58394"}
 ],
 "listOrg":
  [
 {
 "orgName":
 "Kriegsarchiv",
 "ref":
 "pmb293828"}
 ],
 "listPlace":
  [
 {
 "placeName":
 "Wien",
 "ref":
 "pmb50"}
 ,  {
 "placeName":
 "Sternwartestraße 71",
 "ref":
 "pmb168815"}
 ,  {
 "placeName":
 "Russland",
 "ref":
 "pmb34438"}
 ,  {
 "placeName":
 "Sankt Petersburg",
 "ref":
 "pmb433"}
 ,  {
 "placeName":
 "New York City",
 "ref":
 "pmb44053"}
 ,  {
 "placeName":
 "Vereinigte Staaten von Amerika [USA]",
 "ref":
 "pmb43406"}
 ]
}
}, {
 "type":
 "wienerschnitzler",
 "color":
 "#6F5106",
 "caption":
 "Wiener Schnitzler",
 "idno":
 "https://wienerschnitzler.org/tag.html#1914-11-27",
 "head":
 "Wien",
 "desc":
{"listPlace":
  [
 {
 "placeName":
 "XVIII., Währing",
 "ref":
 ""}
 ,  {
 "placeName":
 "XIX., Döbling",
 "ref":
 ""}
 ]
}
}] 