[{
 "type":
 "schnitzler-orte",
 "color":
 "#045344",
 "caption":
 "Aufenthaltsorte",
 "idno":
 "https://pmb.acdh.oeaw.ac.at/entity/50/",
 "head":
 "Wien"
}, {
 "type":
 "schnitzler-briefe",
 "color":
 "#A63437",
 "caption":
 "Briefe mit Autorinnen und Autoren",
 "idno":
 "https://schnitzler-briefe.acdh.oeaw.ac.at/L02183.html",
 "head":
 "Hermann Bahr an Arthur Schnitzler, 14. 6. 1914",
 "desc":
{"listPerson":
  [
{
 "persName":
 "Hermann Bahr",
 "ref":
 "pmb10815"},
 {
 "persName":
 "Max Eugen Burckhard",
 "ref":
 "pmb11036"},
 {
 "persName":
 "Olga Schnitzler",
 "ref":
 "pmb2173"},
 {
 "persName":
 "Anna Bahr-Mildenburg",
 "ref":
 "pmb10818"}],
 "listBibl":
  [
 {
 "title":
 "Reigen. Zehn Dialoge",
 "ref":
 "pmb29855"}
 ],
 "listPlace":
  [
 {
 "placeName":
 "Venedig",
 "ref":
 "pmb462"}
 ,  {
 "placeName":
 "Wien",
 "ref":
 "pmb50"}
 ,  {
 "placeName":
 "Villa Trieste",
 "ref":
 "pmb156"}
 ,  {
 "placeName":
 "Salzburg",
 "ref":
 "pmb30"}
 ]
}
}, {
 "type":
 "schnitzler-tagebuch",
 "color":
 "#037a33",
 "caption":
 "Tagebuch",
 "idno":
 "https://schnitzler-tagebuch.acdh.oeaw.ac.at/entry__1914-06-14.html",
 "head":
 "Tagebuch, 14. Juni 1914",
 "desc":
{"listPerson":
  [
{
 "persName":
 "Stefanie Bachrach",
 "ref":
 "person_13359"},
 {
 "persName":
 "Anton Bruckner",
 "ref":
 "person_14008"},
 {
 "persName":
 "Leopold Godowsky",
 "ref":
 "person_15494"},
 {
 "persName":
 "Rudolf Stephan Hoffmann",
 "ref":
 "person_16278"},
 {
 "persName":
 "Ferdinand Löwe",
 "ref":
 "person_17641"},
 {
 "persName":
 "Leo Van-Jung",
 "ref":
 "person_20925"},
 {
 "persName":
 "Isabella Vengerova",
 "ref":
 "person_21231"},
 {
 "persName":
 "Hugo Wolf",
 "ref":
 "person_21432"},
 {
 "persName":
 "Julius Bittner",
 "ref":
 "person_13754"},
 {
 "persName":
 "Richard Specht",
 "ref":
 "person_20238"},
 {
 "persName":
 "Amalie Löwe",
 "ref":
 "person_17638"}],
 "listBibl":
  [
 {
 "title":
 "Symphonie Nr. 8 c-Moll WAB 108",
 "ref":
 "pmb30701"}
 ],
 "listPlace":
  [
 {
 "placeName":
 "Kahlenberg",
 "ref":
 "pmb574"}
 ]
}
}, {
 "type":
 "schnitzler-bahr",
 "color":
 "#F9BD63",
 "caption":
 "Schnitzler/Bahr",
 "idno":
 "https://schnitzler-bahr.acdh.oeaw.ac.at/L041341.html",
 "head":
 "Bahr an Schnitzler, 14. 6. 1914",
 "desc":
{"listPerson":
  [
{
 "persName":
 "Hermann Bahr",
 "ref":
 "pmb10815"},
 {
 "persName":
 "Max Eugen Burckhard",
 "ref":
 "pmb11036"},
 {
 "persName":
 "Olga Schnitzler",
 "ref":
 "pmb2173"},
 {
 "persName":
 "Anna Bahr-Mildenburg",
 "ref":
 "pmb10818"}],
 "listBibl":
  [
 {
 "title":
 "Reigen. Zehn Dialoge",
 "ref":
 "pmb29855"}
 ],
 "listPlace":
  [
 {
 "placeName":
 "Venedig",
 "ref":
 "pmb462"}
 ,  {
 "placeName":
 "Wien",
 "ref":
 "pmb50"}
 ,  {
 "placeName":
 "Villa Trieste",
 "ref":
 "pmb156"}
 ,  {
 "placeName":
 "Salzburg",
 "ref":
 "pmb30"}
 ]
}
}] 