[{
 "type":
 "schnitzler-orte",
 "color":
 "#045344",
 "caption":
 "Aufenthaltsorte",
 "idno":
 "https://pmb.acdh.oeaw.ac.at/entity/213/",
 "head":
 "Bad Ischl"
}{
 "type":
 "schnitzler-orte",
 "color":
 "#045344",
 "caption":
 "Aufenthaltsorte",
 "idno":
 "https://pmb.acdh.oeaw.ac.at/entity/655/",
 "head":
 "Hotel Kaiserkrone"
}{
 "type":
 "schnitzler-briefe",
 "color":
 "#A63437",
 "caption":
 "Briefe mit Autorinnen und Autoren",
 "idno":
 "https://schnitzler-briefe.acdh.oeaw.ac.at/L02194.html",
 "head":
 "Arthur Schnitzler an Richard Beer-Hofmann, 22. 8. 1914",
 "desc":
{"listPerson":
  [
{
 "persName":
 "Richard Beer-Hofmann",
 "ref":
 "pmb10863"},
 {
 "persName":
 "Paula Beer-Hofmann",
 "ref":
 "pmb10860"},
 {
 "persName":
 "Felix Salten",
 "ref":
 "pmb2167"},
 {
 "persName":
 "Ottilie Salten",
 "ref":
 "pmb23918"}],
 "listPlace":
  [
 {
 "placeName":
 "Bad Ischl",
 "ref":
 "pmb213"}
 ,  {
 "placeName":
 "Weißenbach am Attersee",
 "ref":
 "pmb34344"}
 ,  {
 "placeName":
 "Hotel Kaiserkrone",
 "ref":
 "pmb655"}
 ,  {
 "placeName":
 "Unterach am Attersee",
 "ref":
 "pmb877"}
 ,  {
 "placeName":
 "Attersee",
 "ref":
 "pmb236"}
 ]
}
}{
 "type":
 "schnitzler-tagebuch",
 "color":
 "#037a33",
 "caption":
 "Tagebuch",
 "idno":
 "https://schnitzler-tagebuch.acdh.oeaw.ac.at/entry__1914-08-22.html",
 "head":
 "Tagebuch, 22. August 1914",
 "desc":
{"listPerson":
  [
{
 "persName":
 "Stefanie Bachrach",
 "ref":
 "person_13359"},
 {
 "persName":
 "Lili Schnitzler",
 "ref":
 "person_14130"},
 {
 "persName":
 "Gertrude von Hofmannsthal",
 "ref":
 "person_16292"},
 {
 "persName":
 "Rudolf Kassner",
 "ref":
 "person_16749"},
 {
 "persName":
 "Heinrich Schnitzler",
 "ref":
 "person_19822"},
 {
 "persName":
 "Leo Van-Jung",
 "ref":
 "person_20925"},
 {
 "persName":
 "Isabella Vengerova",
 "ref":
 "person_21231"},
 {
 "persName":
 "Fritz Ostersetzer",
 "ref":
 "person_18599"},
 {
 "persName":
 "Hugo von Hofmannsthal",
 "ref":
 "person_16293"},
 {
 "persName":
 "Arthur Kaufmann",
 "ref":
 "person_16770"},
 {
 "persName":
 "Rudolf Olden",
 "ref":
 "person_18548"},
 {
 "persName":
 "Frieda Pollak",
 "ref":
 "person_18881"}],
 "listBibl":
  [
 {
 "title":
 "Doktor Gräsler, Badearzt",
 "ref":
 "pmb30201"}
 ,  {
 "title":
 "Das Bacchusfest",
 "ref":
 "pmb32097"}
 ,  {
 "title":
 "Stunde des Erkennens",
 "ref":
 "pmb31447"}
 ],
 "listPlace":
  [
 {
 "placeName":
 "Bad Vöslau",
 "ref":
 "pmb992"}
 ,  {
 "placeName":
 "Sils-Segl Maria",
 "ref":
 "pmb91753"}
 ,  {
 "placeName":
 "Metz",
 "ref":
 "pmb46465"}
 ,  {
 "placeName":
 "Bad Aussee",
 "ref":
 "pmb415"}
 ]
}
}] 