[{
 "type":
 "schnitzler-tagebuch",
 "color":
 "#037a33",
 "filename":
 "entry__1914-04-01",
 "caption":
 "Tagebuch",
 "idno":
 "https://schnitzler-tagebuch.acdh.oeaw.ac.at/entry__1914-04-01.html",
 "head":
 "Tagebuch, 1. April 1914",
 "desc":
{"listPerson":
  [
{
 "persName":
 "Otto Brahm",
 "ref":
 "person_13913"},
 {
 "persName":
 "Richard Rosenbaum",
 "ref":
 "person_19364"},
 {
 "persName":
 "Victor Zuckerkandl",
 "ref":
 "person_21602"}],
 "listBibl":
  [
 {
 "title":
 "Fink und Fliederbusch. Komödie in drei Akten",
 "ref":
 "pmb30881"}
 ,  {
 "title":
 "Der einsame Weg. Schauspiel in fünf Akten",
 "ref":
 "pmb29985"}
 ,  {
 "title":
 "Kritische Schriften. I. Über Drama und Theater",
 "ref":
 "pmb33057"}
 ]
}
}, {
 "type":
 "schnitzler-briefe",
 "color":
 "#A63437",
 "filename":
 "L02172",
 "caption":
 "Briefe mit Autorinnen und Autoren",
 "idno":
 "https://schnitzler-briefe.acdh.oeaw.ac.at/L02172.html",
 "head":
 "Richard Beer-Hofmann an Arthur Schnitzler, 1. 4. 1914",
 "desc":
{"listPerson":
  [
{
 "persName":
 "Richard Beer-Hofmann",
 "ref":
 "pmb10863"},
 {
 "persName":
 "Olga Schnitzler",
 "ref":
 "pmb2173"}],
 "listPlace":
  [
 {
 "placeName":
 "Bahnhof Genua",
 "ref":
 "pmb52288"}
 ,  {
 "placeName":
 "Genua",
 "ref":
 "pmb994"}
 ,  {
 "placeName":
 "Wien",
 "ref":
 "pmb50"}
 ,  {
 "placeName":
 "Österreich",
 "ref":
 "pmb41240"}
 ,  {
 "placeName":
 "XVIII., Währing",
 "ref":
 "pmb68"}
 ,  {
 "placeName":
 "Sternwartestraße",
 "ref":
 "pmb150"}
 ,  {
 "placeName":
 "Opatija",
 "ref":
 "pmb38096"}
 ]
}
}, {
 "type":
 "wienerschnitzler",
 "color":
 "#ECDA98",
 "caption":
 "Wiener Schnitzler",
 "head":
 "Wien",
 "desc":
{"listPlace":
  [
 {
 "placeName":
 "II., Leopoldstadt",
 "ref":
 ""}
 ,  {
 "placeName":
 "I., Innere Stadt",
 "ref":
 ""}
 ,  {
 "placeName":
 "XVIII., Währing",
 "ref":
 ""}
 ]
}
}] 