[{
 "type":
 "schnitzler-tagebuch",
 "color":
 "#037a33",
 "filename":
 "entry__1915-01-03",
 "caption":
 "Tagebuch",
 "idno":
 "https://schnitzler-tagebuch.acdh.oeaw.ac.at/entry__1915-01-03.html",
 "head":
 "Tagebuch, 3. Januar 1915",
 "desc":
{"listPerson":
  [
{
 "persName":
 "Robert Gund",
 "ref":
 "person_15750"},
 {
 "persName":
 "Else Speidel-Haeberle",
 "ref":
 "person_15833"},
 {
 "persName":
 "Paul von Hindenburg",
 "ref":
 "person_16204"},
 {
 "persName":
 "Josef Redlich",
 "ref":
 "person_19096"},
 {
 "persName":
 "Felix Salten",
 "ref":
 "person_19542"},
 {
 "persName":
 "Robert Schumann",
 "ref":
 "person_19942"},
 {
 "persName":
 "Franz von Conrad-Hötzendorf",
 "ref":
 "person_14266"},
 {
 "persName":
 "Richard Specht",
 "ref":
 "person_20238"},
 {
 "persName":
 "Josef II.",
 "ref":
 "person_16586"},
 {
 "persName":
 "Franz Peter Schubert",
 "ref":
 "person_19902"}],
 "listBibl":
  [
 {
 "title":
 "Flucht in die Finsternis",
 "ref":
 "pmb30863"}
 ],
 "listPlace":
  [
 {
 "placeName":
 "Kahlenbergerdorf",
 "ref":
 "pmb90969"}
 ,  {
 "placeName":
 "Nussdorf",
 "ref":
 "pmb91367"}
 ,  {
 "placeName":
 "Rumänien",
 "ref":
 "pmb378"}
 ,  {
 "placeName":
 "Italien",
 "ref":
 "pmb40306"}
 ,  {
 "placeName":
 "Österreich",
 "ref":
 "pmb41240"}
 ,  {
 "placeName":
 "Deutschland",
 "ref":
 "pmb151"}
 ]
}
}, {
 "type":
 "schnitzler-orte",
 "color":
 "#045344",
 "caption":
 "Aufenthaltsorte",
 "head":
 "Wien",
 "desc":
{"listPlace":
  [
 {
 "placeName":
 "XVI., Ottakring",
 "ref":
 ""}
 ,  {
 "placeName":
 "XVIII., Währing",
 "ref":
 ""}
 ]
}
}, {
 "type":
 "schnitzler-events",
 "color":
 "#9BC53D",
 "filename":
 "entity/183655/",
 "caption":
 "Ereignisse in der PMB",
 "idno":
 "https://pmb.acdh.oeaw.ac.at/entity/183655/",
 "head":
 "Konzert Olga Schnitzler, 3.1.1915",
 "desc":
{"listOrg":
  [
 {
 "orgName":
 "Verein Volksheim",
 "ref":
 ""}
 ],
 "listPerson":
  [
{
 "persName":
 "Olga Schnitzler",
 "ref":
 ""},
 {
 "persName":
 "Robert Gund",
 "ref":
 ""},
 {
 "persName":
 "Arthur Schnitzler",
 "ref":
 ""},
 {
 "persName":
 "Else Speidel-Haeberle",
 "ref":
 ""}],
 "listPlace":
  [
 {
 "placeName":
 "Volkshochschule Ottakring",
 "ref":
 ""}
 ]
}
}] 