[{
 "type":
 "schnitzler-tagebuch",
 "color":
 "#037a33",
 "filename":
 "entry__1915-03-25",
 "caption":
 "Tagebuch",
 "idno":
 "https://schnitzler-tagebuch.acdh.oeaw.ac.at/entry__1915-03-25.html",
 "head":
 "Tagebuch, 25. März 1915",
 "desc":
{"listPerson":
  [
{
 "persName":
 "Johanna von Hartenau",
 "ref":
 "person_15939"},
 {
 "persName":
 "Gustav Schwarzkopf",
 "ref":
 "person_19986"}],
 "listPlace":
  [
 {
 "placeName":
 "Baden bei Wien",
 "ref":
 "pmb662"}
 ,  {
 "placeName":
 "Einöde",
 "ref":
 "pmb90569"}
 ,  {
 "placeName":
 "Anningerhaus",
 "ref":
 "pmb92145"}
 ,  {
 "placeName":
 "Mödling",
 "ref":
 "pmb968"}
 ]
}
}, {
 "type":
 "schnitzler-briefe",
 "color":
 "#A63437",
 "filename":
 "L03987",
 "caption":
 "Briefe mit Autorinnen und Autoren",
 "idno":
 "https://schnitzler-briefe.acdh.oeaw.ac.at/L03987.html",
 "head":
 "Arthur Schnitzler an Berta Zuckerkandl, 25. 3. 1915",
 "desc":
{"listPerson":
  [
{
 "persName":
 "Arthur Schnitzler",
 "ref":
 "pmb2121"},
 {
 "persName":
 "Berta Zuckerkandl",
 "ref":
 "pmb2312"},
 {
 "persName":
 "Berta Zuckerkandl",
 "ref":
 "pmb2312"},
 {
 "persName":
 "Olga Schnitzler",
 "ref":
 "pmb2173"},
 {
 "persName":
 "Eugenie Bachrach",
 "ref":
 "pmb13644"},
 {
 "persName":
 "Marianne Zuckerkandl",
 "ref":
 "pmb2753"},
 {
 "persName":
 "Lew Nikolajewitsch Tolstoi",
 "ref":
 "pmb3739"},
 {
 "persName":
 "Anton Pavlovič Čechov",
 "ref":
 "pmb3603"},
 {
 "persName":
 "Hermann Kusmanek",
 "ref":
 "pmb98807"},
 {
 "persName":
 "Charles de Coster",
 "ref":
 "pmb11110"}],
 "listBibl":
  [
 {
 "title":
 "Krieg und Frieden",
 "ref":
 "pmb34996"}
 ,  {
 "title":
 "Tyll Ulenspiegel und Lamm Goedzak",
 "ref":
 "pmb33636"}
 ],
 "listPlace":
  [
 {
 "placeName":
 "Wien",
 "ref":
 "pmb50"}
 ,  {
 "placeName":
 "Sternwartestraße 71",
 "ref":
 "pmb168815"}
 ,  {
 "placeName":
 "Anninger",
 "ref":
 "pmb90247"}
 ,  {
 "placeName":
 "Russland",
 "ref":
 "pmb34438"}
 ,  {
 "placeName":
 "Przemyśl",
 "ref":
 "pmb48345"}
 ],
 "listOrg":
  [
 {
 "orgName":
 "Streitkräfte von Österreich-Ungarn",
 "ref":
 "pmb299480"}
 ]
}
}, {
 "type":
 "wienerschnitzler",
 "color":
 "#6F5106",
 "caption":
 "Wiener Schnitzler",
 "idno":
 "https://wienerschnitzler.org/tag.html#1915-03-25",
 "head":
 "Wien",
 "desc":
{"listPlace":
  [
 {
 "placeName":
 "I., Innere Stadt",
 "ref":
 ""}
 ,  {
 "placeName":
 "XVIII., Währing",
 "ref":
 ""}
 ]
}
}, {
 "type":
 "wienerschnitzler",
 "color":
 "#6F5106",
 "caption":
 "Wiener Schnitzler",
 "idno":
 "https://wienerschnitzler.org/tag.html#1915-03-25",
 "head":
 "Baden bei Wien"
}, {
 "type":
 "wienerschnitzler",
 "color":
 "#6F5106",
 "caption":
 "Wiener Schnitzler",
 "idno":
 "https://wienerschnitzler.org/tag.html#1915-03-25",
 "head":
 "Mödling",
 "desc":
{"listPlace":
  [
 {
 "placeName":
 "Goldene Stiege",
 "ref":
 ""}
 ]
}
}, {
 "type":
 "wienerschnitzler",
 "color":
 "#6F5106",
 "caption":
 "Wiener Schnitzler",
 "idno":
 "https://wienerschnitzler.org/tag.html#1915-03-25",
 "head":
 "Anninger",
 "desc":
{"listPlace":
  [
 {
 "placeName":
 "Goldene Stiege",
 "ref":
 ""}
 ,  {
 "placeName":
 "Anningerhaus",
 "ref":
 ""}
 ]
}
}, {
 "type":
 "wienerschnitzler",
 "color":
 "#6F5106",
 "caption":
 "Wiener Schnitzler",
 "idno":
 "https://wienerschnitzler.org/tag.html#1915-03-25",
 "head":
 "Einöde"
}, {
 "type":
 "URL",
 "subtype":
 "schnitzler-kultur",
 "filename":
 "pmb209751",
 "idno":
 "https://schnitzler-kultur.acdh.oeaw.ac.at/pmb209751.html",
 "head":
 "Wohltätigkeitskonzert von Johanna von Hartenau, 25.3.1915",
 "desc":
{"listPerson":
  [
{
 "persName":
 "Arthur Schnitzler",
 "ref":
 ""},
 {
 "persName":
 "Johanna von Hartenau",
 "ref":
 ""}],
 "listPlace":
  [
 {
 "placeName":
 "Musikverein",
 "ref":
 ""}
 ]
}
}] 