[{
 "type":
 "schnitzler-tagebuch",
 "color":
 "#037a33",
 "filename":
 "entry__1915-03-07",
 "caption":
 "Tagebuch",
 "idno":
 "https://schnitzler-tagebuch.acdh.oeaw.ac.at/entry__1915-03-07.html",
 "head":
 "Tagebuch, 7. März 1915",
 "desc":
{"listPerson":
  [
{
 "persName":
 "Stefanie Bachrach",
 "ref":
 "person_13359"},
 {
 "persName":
 "Lili Schnitzler",
 "ref":
 "person_14130"},
 {
 "persName":
 "Vera Schapira",
 "ref":
 "person_19625"},
 {
 "persName":
 "Fritz Zuckerkandl",
 "ref":
 "person_21597"},
 {
 "persName":
 "Marianne Giustiniani",
 "ref":
 "person_21600"},
 {
 "persName":
 "Anton Lindner",
 "ref":
 "person_17573"},
 {
 "persName":
 "Jürgen Fehling",
 "ref":
 "person_14908"},
 {
 "persName":
 "Victor Zuckerkandl",
 "ref":
 "person_21602"}],
 "listBibl":
  [
 {
 "title":
 "Flucht in die Finsternis",
 "ref":
 "pmb30863"}
 ,  {
 "title":
 "Der blinde Geronimo und sein Bruder",
 "ref":
 "pmb30649"}
 ,  {
 "title":
 "Der Schleier der Beatrice. Schauspiel in fünf Akten",
 "ref":
 "pmb29857"}
 ,  {
 "title":
 "Die letzten Masken",
 "ref":
 "pmb29877"}
 ],
 "listPlace":
  [
 {
 "placeName":
 "Berlin",
 "ref":
 "pmb168"}
 ,  {
 "placeName":
 "München",
 "ref":
 "pmb45258"}
 ,  {
 "placeName":
 "Darmstadt",
 "ref":
 "pmb834"}
 ,  {
 "placeName":
 "Königseggasse",
 "ref":
 "pmb1210"}
 ,  {
 "placeName":
 "Hamburg",
 "ref":
 "pmb506"}
 ]
}
}, {
 "type":
 "URL",
 "subtype":
 "wienerschnitzler",
 "head":
 "Wien",
 "desc":
{"listPlace":
  [
 {
 "placeName":
 "VI., Mariahilf",
 "ref":
 ""}
 ,  {
 "placeName":
 "XVIII., Währing",
 "ref":
 ""}
 ]
}
}, {
 "type":
 "schnitzler-events",
 "color":
 "#9BC53D",
 "filename":
 "entity/183363/",
 "caption":
 "Ereignisse in der PMB",
 "idno":
 "https://pmb.acdh.oeaw.ac.at/entity/183363/",
 "head":
 "Lesung von Der blinde Geronimo, Die letzten Masken, Der Schleier der Beatrice [Schluss], 7.3.1915",
 "desc":
{"listOrg":
  [
 {
 "orgName":
 "Arbeiterbildungsverein",
 "ref":
 ""}
 ],
 "listBibl":
  [
 {
 "title":
 "Der blinde Geronimo und sein Bruder",
 "ref":
 ""}
 ,  {
 "title":
 "Die letzten Masken",
 "ref":
 ""}
 ,  {
 "title":
 "Der Schleier der Beatrice. Schauspiel in fünf Akten",
 "ref":
 ""}
 ],
 "listPerson":
  [
{
 "persName":
 "Arthur Schnitzler",
 "ref":
 ""}],
 "listPlace":
  [
 {
 "placeName":
 "Verbandsheim",
 "ref":
 ""}
 ]
}
}] 