[{
 "type":
 "schnitzler-tagebuch",
 "color":
 "#037a33",
 "filename":
 "entry__1915-01-31",
 "caption":
 "Tagebuch",
 "idno":
 "https://schnitzler-tagebuch.acdh.oeaw.ac.at/entry__1915-01-31.html",
 "head":
 "Tagebuch, 31. Januar 1915",
 "desc":
{"listPerson":
  [
{
 "persName":
 "Johanna Bergmeister",
 "ref":
 "person_13641"},
 {
 "persName":
 "Hugo Schmidl",
 "ref":
 "person_19755"},
 {
 "persName":
 "Paula Schmidl",
 "ref":
 "person_19756"},
 {
 "persName":
 "Johanna Schmidl",
 "ref":
 "person_16852"}],
 "listBibl":
  [
 {
 "title":
 "Der blinde Geronimo und sein Bruder",
 "ref":
 "pmb30649"}
 ,  {
 "title":
 "Der grüne Kakadu. Groteske in einem Akt",
 "ref":
 "pmb29843"}
 ],
 "listPlace":
  [
 {
 "placeName":
 "Wien",
 "ref":
 "pmb50"}
 ,  {
 "placeName":
 "Stöbergasse",
 "ref":
 "pmb92552"}
 ]
}
}, {
 "type":
 "wienerschnitzler",
 "color":
 "#6F5106",
 "caption":
 "Wiener Schnitzler",
 "idno":
 "https://wienerschnitzler.org/tag.html#1915-01-31",
 "head":
 "Semmering",
 "desc":
{"listPlace":
  [
 {
 "placeName":
 "Südbahnhotel [Semmering]",
 "ref":
 ""}
 ,  {
 "placeName":
 "Bahnhof Semmering",
 "ref":
 ""}
 ]
}
}, {
 "type":
 "wienerschnitzler",
 "color":
 "#6F5106",
 "caption":
 "Wiener Schnitzler",
 "idno":
 "https://wienerschnitzler.org/tag.html#1915-01-31",
 "head":
 "Wien",
 "desc":
{"listPlace":
  [
 {
 "placeName":
 "V., Margareten",
 "ref":
 ""}
 ,  {
 "placeName":
 "XVIII., Währing",
 "ref":
 ""}
 ,  {
 "placeName":
 "X., Favoriten",
 "ref":
 ""}
 ,  {
 "placeName":
 "IV., Wieden",
 "ref":
 ""}
 ]
}
}, {
 "type":
 "schnitzler-kultur",
 "color":
 "#6B4C5A",
 "filename":
 "pmb183350",
 "caption":
 "Kulturveranstaltungen",
 "idno":
 "https://schnitzler-kultur.acdh.oeaw.ac.at/pmb183350.html",
 "head":
 "Lesung von Der blinde Geronimo, Der grüne Kakadu, 31.1.1915",
 "desc":
{"listOrg":
  [
 {
 "orgName":
 "Wiener Volksbildungsverein",
 "ref":
 ""}
 ],
 "listBibl":
  [
 {
 "title":
 "Der blinde Geronimo und sein Bruder",
 "ref":
 ""}
 ,  {
 "title":
 "Der grüne Kakadu. Groteske in einem Akt",
 "ref":
 ""}
 ],
 "listPerson":
  [
{
 "persName":
 "Arthur Schnitzler",
 "ref":
 ""}],
 "listPlace":
  [
 {
 "placeName":
 "Volkshochschule Stöbergasse",
 "ref":
 ""}
 ]
}
}] 