[{
 "type":
 "schnitzler-tagebuch",
 "color":
 "#037a33",
 "filename":
 "entry__1915-10-24",
 "caption":
 "Tagebuch",
 "idno":
 "https://schnitzler-tagebuch.acdh.oeaw.ac.at/entry__1915-10-24.html",
 "head":
 "Tagebuch, 24. Oktober 1915",
 "desc":
{"listPerson":
  [
{
 "persName":
 "Sybille Binder",
 "ref":
 "person_13735"},
 {
 "persName":
 "Stefan Großmann",
 "ref":
 "person_15691"},
 {
 "persName":
 "Moritz Heimann",
 "ref":
 "person_16041"},
 {
 "persName":
 "Lina Lossen",
 "ref":
 "person_17692"},
 {
 "persName":
 "Arthur Nikisch",
 "ref":
 "person_18454"},
 {
 "persName":
 "Elisabeth Steinrück",
 "ref":
 "person_20386"},
 {
 "persName":
 "Louise Wolff",
 "ref":
 "person_21447"},
 {
 "persName":
 "Victor Barnowsky",
 "ref":
 "person_13428"},
 {
 "persName":
 "Albert Steinrück",
 "ref":
 "person_20383"},
 {
 "persName":
 "Samuel Fischer",
 "ref":
 "person_15009"}],
 "listBibl":
  [
 {
 "title":
 "Stunde des Erkennens",
 "ref":
 "pmb31447"}
 ,  {
 "title":
 "Große Szene",
 "ref":
 "pmb31429"}
 ,  {
 "title":
 "Das Lied von der Erde",
 "ref":
 "pmb77679"}
 ],
 "listPlace":
  [
 {
 "placeName":
 "Grunewald",
 "ref":
 "pmb129"}
 ,  {
 "placeName":
 "München",
 "ref":
 "pmb45258"}
 ]
}
}, {
 "type":
 "wienerschnitzler",
 "color":
 "#ECDA98",
 "caption":
 "Wiener Schnitzler",
 "idno":
 "https://wienerschnitzler.org/tag.html#1915-10-24",
 "head":
 "Berlin",
 "desc":
{"listPlace":
  [
 {
 "placeName":
 "Hotel Bristol Berlin",
 "ref":
 ""}
 ,  {
 "placeName":
 "Lessing-Theater",
 "ref":
 ""}
 ,  {
 "placeName":
 "Hotel Prinz-Friedrich-Carl",
 "ref":
 ""}
 ,  {
 "placeName":
 "Erdener Straße 8",
 "ref":
 ""}
 ,  {
 "placeName":
 "Restaurant Töpfer",
 "ref":
 ""}
 ,  {
 "placeName":
 "Alte Philharmonie [Berlin]",
 "ref":
 ""}
 ]
}
}, {
 "type":
 "schnitzler-kultur",
 "color":
 "#6B4C5A",
 "filename":
 "pmb209779",
 "caption":
 "Kulturveranstaltungen",
 "idno":
 "https://schnitzler-kultur.acdh.oeaw.ac.at/pmb209779.html",
 "head":
 "Generalprobe von Das Lied von der Erde,
                        24.10.1915",
 "desc":
{"listBibl":
  [
 {
 "title":
 "Das Lied von der Erde",
 "ref":
 ""}
 ],
 "listPerson":
  [
{
 "persName":
 "Arthur Nikisch",
 "ref":
 ""},
 {
 "persName":
 "Arthur Schnitzler",
 "ref":
 ""}],
 "listPlace":
  [
 {
 "placeName":
 "Berlin",
 "ref":
 ""}
 ,  {
 "placeName":
 "Alte Philharmonie [Berlin]",
 "ref":
 ""}
 ]
}
}, {
 "type":
 "schnitzler-kultur",
 "color":
 "#6B4C5A",
 "filename":
 "pmb186312",
 "caption":
 "Kulturveranstaltungen",
 "idno":
 "https://schnitzler-kultur.acdh.oeaw.ac.at/pmb186312.html",
 "head":
 "2. Aufführung von Komödie der Worte,
                        24.10.1915",
 "desc":
{"listOrg":
  [
 {
 "orgName":
 "Lessing-Theater",
 "ref":
 ""}
 ],
 "listBibl":
  [
 {
 "title":
 "Komödie der Worte. Drei Einakter",
 "ref":
 ""}
 ],
 "listPerson":
  [
{
 "persName":
 "Arthur Schnitzler",
 "ref":
 ""},
 {
 "persName":
 "Lina Lossen",
 "ref":
 ""},
 {
 "persName":
 "Sybille Falckenberg",
 "ref":
 ""}],
 "listPlace":
  [
 {
 "placeName":
 "Lessing-Theater",
 "ref":
 ""}
 ]
}
}] 