[{
 "type":
 "schnitzler-tagebuch",
 "color":
 "#037a33",
 "filename":
 "entry__1915-01-22",
 "caption":
 "Tagebuch",
 "idno":
 "https://schnitzler-tagebuch.acdh.oeaw.ac.at/entry__1915-01-22.html",
 "head":
 "Tagebuch, 22. Januar 1915",
 "desc":
{"listPerson":
  [
{
 "persName":
 "Moriz Benedikt",
 "ref":
 "person_13595"},
 {
 "persName":
 "Julius Berdach",
 "ref":
 "person_13613"},
 {
 "persName":
 "Vincenz Chiavacci",
 "ref":
 "person_14195"},
 {
 "persName":
 "Artur Fleischer",
 "ref":
 "person_15032"},
 {
 "persName":
 "Markus Hajek",
 "ref":
 "person_15855"},
 {
 "persName":
 "Jeanette Heeger",
 "ref":
 "person_16022"},
 {
 "persName":
 "Franz Höbling",
 "ref":
 "person_16250"},
 {
 "persName":
 "Wilhelm Latzko",
 "ref":
 "person_17355"},
 {
 "persName":
 "Franziska Reich",
 "ref":
 "person_17368"},
 {
 "persName":
 "Eduard Pötzl",
 "ref":
 "person_18841"},
 {
 "persName":
 "Heinrich Schnitzler",
 "ref":
 "person_19822"},
 {
 "persName":
 "Helene Schnitzler",
 "ref":
 "person_19823"},
 {
 "persName":
 "Julius Schnitzler",
 "ref":
 "person_19827"},
 {
 "persName":
 "Louise Schnitzler",
 "ref":
 "person_19831"},
 {
 "persName":
 "Franz Wahl",
 "ref":
 "person_21041"},
 {
 "persName":
 "Erich Ziegel",
 "ref":
 "person_21545"},
 {
 "persName":
 "Johann Schnitzler",
 "ref":
 "person_19824"}],
 "listBibl":
  [
 {
 "title":
 "Abschiedssouper",
 "ref":
 "pmb30005"}
 ,  {
 "title":
 "Fink und Fliederbusch. Komödie in drei Akten",
 "ref":
 "pmb30881"}
 ,  {
 "title":
 "Flucht in die Finsternis",
 "ref":
 "pmb30863"}
 ,  {
 "title":
 "Der Ruf des Lebens. Schauspiel in drei Akten",
 "ref":
 "pmb29905"}
 ,  {
 "title":
 "Der Weg ins Freie. Roman",
 "ref":
 "pmb29923"}
 ,  {
 "title":
 "Illustrierte Geschichte der Weltliteratur",
 "ref":
 "pmb81256"}
 ],
 "listPlace":
  [
 {
 "placeName":
 "Burgring",
 "ref":
 "pmb274"}
 ,  {
 "placeName":
 "Eschenbachgasse",
 "ref":
 "pmb564"}
 ,  {
 "placeName":
 "Avezzano",
 "ref":
 "pmb90288"}
 ,  {
 "placeName":
 "Seilerstätte",
 "ref":
 "pmb53775"}
 ,  {
 "placeName":
 "Mehlmarkt",
 "ref":
 "pmb92398"}
 ,  {
 "placeName":
 "Berlin",
 "ref":
 "pmb168"}
 ,  {
 "placeName":
 "Genf",
 "ref":
 "pmb562"}
 ]
}
}, {
 "type":
 "schnitzler-orte",
 "color":
 "#045344",
 "caption":
 "Aufenthaltsorte",
 "head":
 "Wien",
 "desc":
{"listPlace":
  [
 {
 "placeName":
 "IX., Alsergrund",
 "ref":
 ""}
 ,  {
 "placeName":
 "XVIII., Währing",
 "ref":
 ""}
 ]
}
}, {
 "type":
 "schnitzler-traeume",
 "subtype":
 "#ISBN978-3-8353-1029-2",
 "head":
 "Traum vom 22. Januar 1915",
 "source":
 "Arthur Schnitzler: Träume. Das Traumtagebuch 1875–1931. Herausgegeben von Peter Michael Braunwarth und Leo A. Lensing. Göttingen: Wallstein 2012 (Bibliothek Janowitz, Bd. 20)"
}] 