[{
 "type":
 "schnitzler-tagebuch",
 "color":
 "#037a33",
 "filename":
 "entry__1915-02-10",
 "caption":
 "Tagebuch",
 "idno":
 "https://schnitzler-tagebuch.acdh.oeaw.ac.at/entry__1915-02-10.html",
 "head":
 "Tagebuch, 10. Februar 1915",
 "desc":
{"listPerson":
  [
{
 "persName":
 "Heinrich Mendl",
 "ref":
 "person_18072"},
 {
 "persName":
 "Arnold Feuer",
 "ref":
 "person_14966"}],
 "listBibl":
  [
 {
 "title":
 "Flucht in die Finsternis",
 "ref":
 "pmb30863"}
 ],
 "listPlace":
  [
 {
 "placeName":
 "Schweiz",
 "ref":
 "pmb43435"}
 ,  {
 "placeName":
 "Österreich",
 "ref":
 "pmb41240"}
 ]
}
}, {
 "type":
 "schnitzler-briefe",
 "color":
 "#A63437",
 "filename":
 "L03651",
 "caption":
 "Briefe mit Autorinnen und Autoren",
 "idno":
 "https://schnitzler-briefe.acdh.oeaw.ac.at/L03651.html",
 "head":
 "Stefan Zweig an Arthur Schnitzler, [zwischen 5. und 10. 2. 1915]",
 "desc":
{"listPerson":
  [
{
 "persName":
 "Romain Rolland",
 "ref":
 "pmb12543"},
 {
 "persName":
 "Stefan Zweig",
 "ref":
 "pmb13212"},
 {
 "persName":
 "Olga Schnitzler",
 "ref":
 "pmb2173"},
 {
 "persName":
 "Paul Block",
 "ref":
 "pmb3256"}],
 "listBibl":
  [
 {
 "title":
 "Kultur–?",
 "ref":
 "pmb294010"}
 ,  {
 "title":
 "Berliner Tageblatt",
 "ref":
 "pmb41531"}
 ],
 "listPlace":
  [
 {
 "placeName":
 "Deutschland",
 "ref":
 "pmb151"}
 ,  {
 "placeName":
 "Frankreich",
 "ref":
 "pmb166"}
 ,  {
 "placeName":
 "Kochgasse 8",
 "ref":
 "pmb249577"}
 ,  {
 "placeName":
 "Wien",
 "ref":
 "pmb50"}
 ]
}
}, {
 "type":
 "schnitzler-briefe",
 "color":
 "#A63437",
 "filename":
 "L02204",
 "caption":
 "Briefe mit Autorinnen und Autoren",
 "idno":
 "https://schnitzler-briefe.acdh.oeaw.ac.at/L02204.html",
 "head":
 "Hermann Bahr an Arthur Schnitzler, 10. 2. 1915",
 "desc":
{"listPerson":
  [
{
 "persName":
 "Hermann Bahr",
 "ref":
 "pmb10815"},
 {
 "persName":
 "Anna Bahr-Mildenburg",
 "ref":
 "pmb10818"},
 {
 "persName":
 "Hugo Heller",
 "ref":
 "pmb11646"},
 {
 "persName":
 "Franz Peter Schubert",
 "ref":
 "pmb12729"},
 {
 "persName":
 "Hugo Wolf",
 "ref":
 "pmb13152"},
 {
 "persName":
 "Olga Schnitzler",
 "ref":
 "pmb2173"}],
 "listBibl":
  [
 {
 "title":
 "Fünf Gedichte von Mathilde Wesendonk für eine Frauenstimme und Klavier",
 "ref":
 "pmb29973"}
 ],
 "listPlace":
  [
 {
 "placeName":
 "Krankenhaus der Barmherzigen Brüder",
 "ref":
 "pmb157"}
 ,  {
 "placeName":
 "München",
 "ref":
 "pmb45258"}
 ,  {
 "placeName":
 "Wien",
 "ref":
 "pmb50"}
 ]
}
}, {
 "type":
 "schnitzler-briefe",
 "color":
 "#A63437",
 "filename":
 "L03477",
 "caption":
 "Briefe mit Autorinnen und Autoren",
 "idno":
 "https://schnitzler-briefe.acdh.oeaw.ac.at/L03477.html",
 "head":
 "Paul Goldmann an Arthur Schnitzler, 10. 2. 1915",
 "desc":
{"listPerson":
  [
{
 "persName":
 "Paul Goldmann",
 "ref":
 "pmb11485"}],
 "listPlace":
  [
 {
 "placeName":
 "Berlin",
 "ref":
 "pmb168"}
 ,  {
 "placeName":
 "Wien",
 "ref":
 "pmb50"}
 ,  {
 "placeName":
 "Stauffenbergstraße",
 "ref":
 "pmb63858"}
 ]
}
}, {
 "type":
 "wienerschnitzler",
 "color":
 "#ECDA98",
 "caption":
 "Wiener Schnitzler",
 "idno":
 "https://wienerschnitzler.org/tag.html#1915-02-10",
 "head":
 "Wien",
 "desc":
{"listPlace":
  [
 {
 "placeName":
 "XVIII., Währing",
 "ref":
 ""}
 ]
}
}, {
 "type":
 "schnitzler-bahr",
 "color":
 "#639FF9",
 "filename":
 "L041342",
 "caption":
 "Schnitzler/Bahr",
 "idno":
 "https://schnitzler-bahr.acdh.oeaw.ac.at/L041342.html",
 "head":
 "Bahr an Schnitzler, 10. 2. 1915",
 "desc":
{"listPerson":
  [
{
 "persName":
 "Hermann Bahr",
 "ref":
 "pmb10815"},
 {
 "persName":
 "Anna Bahr-Mildenburg",
 "ref":
 "pmb10818"},
 {
 "persName":
 "Franz Peter Schubert",
 "ref":
 "pmb12729"},
 {
 "persName":
 "Hugo Wolf",
 "ref":
 "pmb13152"},
 {
 "persName":
 "Hugo Heller",
 "ref":
 "pmb11646"},
 {
 "persName":
 "Olga Schnitzler",
 "ref":
 "pmb2173"}],
 "listBibl":
  [
 {
 "title":
 "Fünf Gedichte von Mathilde Wesendonk für eine Frauenstimme und Klavier",
 "ref":
 "pmb29973"}
 ],
 "listPlace":
  [
 {
 "placeName":
 "Wien",
 "ref":
 "pmb50"}
 ,  {
 "placeName":
 "Krankenhaus der Barmherzigen Brüder",
 "ref":
 "pmb157"}
 ,  {
 "placeName":
 "München",
 "ref":
 "pmb45258"}
 ]
}
}, {
 "type":
 "kalliope-verbund",
 "color":
 "#003574",
 "caption":
 "Kalliope Verbundkatalog",
 "idno":
 "http://kalliope-verbund.info/DE-2498-HS00044969",
 "head":
 "Schnitzler, Arthur an Burian-Fejervare, ... [Briefe]",
 "text":
 "1 Bl.Durchschl."
}] 