[{
 "type":
 "schnitzler-tagebuch",
 "color":
 "#037a33",
 "filename":
 "entry__1915-07-24",
 "caption":
 "Tagebuch",
 "idno":
 "https://schnitzler-tagebuch.acdh.oeaw.ac.at/entry__1915-07-24.html",
 "head":
 "Tagebuch, 24. Juli 1915",
 "desc":
{"listPerson":
  [
{
 "persName":
 "Heinrich Schnitzler",
 "ref":
 "person_19822"}],
 "listPlace":
  [
 {
 "placeName":
 "Wien",
 "ref":
 "pmb50"}
 ]
}
}, {
 "type":
 "wienerschnitzler",
 "color":
 "#ECDA98",
 "caption":
 "Wiener Schnitzler",
 "idno":
 "https://wienerschnitzler.org/tag.html#1915-07-24",
 "head":
 "Rax",
 "desc":
{"listPlace":
  [
 {
 "placeName":
 "Raxalpe",
 "ref":
 ""}
 ,  {
 "placeName":
 "Karl-Ludwig-Haus",
 "ref":
 ""}
 ,  {
 "placeName":
 "Otto-Schutzhaus",
 "ref":
 ""}
 ]
}
}, {
 "type":
 "wienerschnitzler",
 "color":
 "#ECDA98",
 "caption":
 "Wiener Schnitzler",
 "idno":
 "https://wienerschnitzler.org/tag.html#1915-07-24",
 "head":
 "Wien",
 "desc":
{"listPlace":
  [
 {
 "placeName":
 "X., Favoriten",
 "ref":
 ""}
 ,  {
 "placeName":
 "XVIII., WÃ¤hring",
 "ref":
 ""}
 ]
}
}, {
 "type":
 "wienerschnitzler",
 "color":
 "#ECDA98",
 "caption":
 "Wiener Schnitzler",
 "idno":
 "https://wienerschnitzler.org/tag.html#1915-07-24",
 "head":
 "Reichenau an der Rax",
 "desc":
{"listPlace":
  [
 {
 "placeName":
 "Edlach",
 "ref":
 ""}
 ,  {
 "placeName":
 "Hotel Marienhof",
 "ref":
 ""}
 ]
}
}, {
 "type":
 "wienerschnitzler",
 "color":
 "#ECDA98",
 "caption":
 "Wiener Schnitzler",
 "idno":
 "https://wienerschnitzler.org/tag.html#1915-07-24",
 "head":
 "Payerbach",
 "desc":
{"listPlace":
  [
 {
 "placeName":
 "Bahnhof Payerbach-Reichenau",
 "ref":
 ""}
 ]
}
}] 