[{
 "type":
 "schnitzler-tagebuch",
 "color":
 "#037a33",
 "filename":
 "entry__1915-06-29",
 "caption":
 "Tagebuch",
 "idno":
 "https://schnitzler-tagebuch.acdh.oeaw.ac.at/entry__1915-06-29.html",
 "head":
 "Tagebuch, 29. Juni 1915",
 "desc":
{"listPerson":
  [
{
 "persName":
 "Egon Böhmer",
 "ref":
 "person_13836"},
 {
 "persName":
 "Karl Kobald",
 "ref":
 "person_16947"},
 {
 "persName":
 "Hans Schnitzler",
 "ref":
 "person_19821"},
 {
 "persName":
 "Heinrich Schnitzler",
 "ref":
 "person_19822"},
 {
 "persName":
 "Helene Schnitzler",
 "ref":
 "person_19823"},
 {
 "persName":
 "Julius Schnitzler",
 "ref":
 "person_19827"},
 {
 "persName":
 "Karl Schnitzler",
 "ref":
 "person_19828"},
 {
 "persName":
 "Franz Herbert Stern-Tiring",
 "ref":
 "person_20411"}],
 "listBibl":
  [
 {
 "title":
 "Aphoristisches",
 "ref":
 "pmb35745"}
 ,  {
 "title":
 "Das weite Land. Tragikomödie in fünf Akten",
 "ref":
 "pmb30207"}
 ,  {
 "title":
 "Der Weg ins Freie. Roman",
 "ref":
 "pmb29923"}
 ,  {
 "title":
 "In memoriam Gustave Flaubert",
 "ref":
 "pmb80503"}
 ]
}
}, {
 "type":
 "schnitzler-briefe",
 "color":
 "#A63437",
 "filename":
 "L02210",
 "caption":
 "Briefe mit Autorinnen und Autoren",
 "idno":
 "https://schnitzler-briefe.acdh.oeaw.ac.at/L02210.html",
 "head":
 "Arthur Schnitzler an Robert Adam, 29. 6. 1915",
 "desc":
{"listPerson":
  [
{
 "persName":
 "Robert Adam",
 "ref":
 "pmb12438"},
 {
 "persName":
 "Hugo Thimig",
 "ref":
 "pmb12948"},
 {
 "persName":
 "Albert Steinrück",
 "ref":
 "pmb12837"}],
 "listBibl":
  [
 {
 "title":
 "Die Geschichte des Alî ibn Bekkâr mit Schams an-Nahâr",
 "ref":
 "pmb33578"}
 ,  {
 "title":
 "Der Fremde",
 "ref":
 "pmb33606"}
 ,  {
 "title":
 "Fatme",
 "ref":
 "pmb33582"}
 ],
 "listOrg":
  [
 {
 "orgName":
 "Nationaltheater München",
 "ref":
 "pmb44112"}
 ],
 "listPlace":
  [
 {
 "placeName":
 "Wien",
 "ref":
 "pmb50"}
 ,  {
 "placeName":
 "Sternwartestraße",
 "ref":
 "pmb150"}
 ,  {
 "placeName":
 "XII., Meidling",
 "ref":
 "pmb62"}
 ,  {
 "placeName":
 "Meidlinger Hauptstraße",
 "ref":
 "pmb1239"}
 ,  {
 "placeName":
 "Burgtheater",
 "ref":
 "pmb14"}
 ,  {
 "placeName":
 "Villa Zufriedenheit",
 "ref":
 "pmb34392"}
 ,  {
 "placeName":
 "Villa Annerl",
 "ref":
 "pmb34387"}
 ]
}
}, {
 "type":
 "schnitzler-briefe",
 "color":
 "#A63437",
 "filename":
 "L02211",
 "caption":
 "Briefe mit Autorinnen und Autoren",
 "idno":
 "https://schnitzler-briefe.acdh.oeaw.ac.at/L02211.html",
 "head":
 "Richard Beer-Hofmann an Arthur Schnitzler, 29. 6. 1915",
 "desc":
{"listPerson":
  [
{
 "persName":
 "Richard Beer-Hofmann",
 "ref":
 "pmb10863"},
 {
 "persName":
 "Arthur Kaufmann",
 "ref":
 "pmb2496"},
 {
 "persName":
 "Olga Schnitzler",
 "ref":
 "pmb2173"},
 {
 "persName":
 "Theodor Reik",
 "ref":
 "pmb12495"}],
 "listPlace":
  [
 {
 "placeName":
 "Bad Ischl",
 "ref":
 "pmb213"}
 ,  {
 "placeName":
 "Wien",
 "ref":
 "pmb50"}
 ,  {
 "placeName":
 "XVIII., Währing",
 "ref":
 "pmb68"}
 ,  {
 "placeName":
 "Sternwartestraße",
 "ref":
 "pmb150"}
 ,  {
 "placeName":
 "Salzkammergut",
 "ref":
 "pmb429"}
 ,  {
 "placeName":
 "Semmering",
 "ref":
 "pmb189"}
 ]
}
}, {
 "type":
 "wienerschnitzler",
 "color":
 "#ECDA98",
 "caption":
 "Wiener Schnitzler",
 "idno":
 "https://wienerschnitzler.org/tag.html#1915-06-29",
 "head":
 "Wien",
 "desc":
{"listPlace":
  [
 {
 "placeName":
 "XVIII., Währing",
 "ref":
 ""}
 ]
}
}, {
 "type":
 "schnitzler-cmif",
 "subtype":
 "#dc95034c-3e70-47e1-9072-3fc75d84b47a",
 "color":
 "#654321",
 "caption":
 "Gedruckte Briefwechsel",
 "head":
 "Fritz Unruh an Arthur Schnitzler, 29.6.1915",
 "source":
 "Ulrich K. Goldsmith: Der Briefwechsel Fritz von Unruhs mit Arthur Schnitzler. In: Modern Austrian Literature, Jg. 10, 1977, H. 3/4, S. 69-128."
}] 