[{
 "type":
 "schnitzler-tagebuch",
 "color":
 "#037a33",
 "filename":
 "entry__1916-01-01",
 "caption":
 "Tagebuch",
 "idno":
 "https://schnitzler-tagebuch.acdh.oeaw.ac.at/entry__1916-01-01.html",
 "head":
 "Tagebuch, 1. Januar 1916",
 "desc":
{"listPerson":
  [
{
 "persName":
 "Lili Schnitzler",
 "ref":
 "person_14130"},
 {
 "persName":
 "Margarete Gelbard",
 "ref":
 "person_15374"},
 {
 "persName":
 "Marie Glümer",
 "ref":
 "person_15485"},
 {
 "persName":
 "Hugo Schmidl",
 "ref":
 "person_19755"},
 {
 "persName":
 "Julius Schnitzler",
 "ref":
 "person_19827"},
 {
 "persName":
 "Franz Steiner",
 "ref":
 "person_20372"},
 {
 "persName":
 "Fritz Wittels",
 "ref":
 "person_21406"},
 {
 "persName":
 "Yerta Wittels",
 "ref":
 "person_21411"},
 {
 "persName":
 "Otto Zuckerkandl",
 "ref":
 "person_21601"},
 {
 "persName":
 "Marie Reinhard",
 "ref":
 "person_19150"}],
 "listBibl":
  [
 {
 "title":
 "Aufzeichnungen über Kunst und Kritik",
 "ref":
 "pmb35741"}
 ,  {
 "title":
 "Fink und Fliederbusch. Komödie in drei Akten",
 "ref":
 "pmb30881"}
 ,  {
 "title":
 "Komödie der Worte. Drei Einakter",
 "ref":
 "pmb30717"}
 ,  {
 "title":
 "Der Stechlin",
 "ref":
 "pmb78374"}
 ],
 "listPlace":
  [
 {
 "placeName":
 "Augustinerstraße",
 "ref":
 "pmb55097"}
 ,  {
 "placeName":
 "Josefsplatz",
 "ref":
 "pmb92310"}
 ,  {
 "placeName":
 "Herrengasse",
 "ref":
 "pmb90869"}
 ,  {
 "placeName":
 "Pötzleinsdorf",
 "ref":
 "pmb169"}
 ,  {
 "placeName":
 "Salmannsdorf",
 "ref":
 "pmb91641"}
 ,  {
 "placeName":
 "Sommerhaidenweg",
 "ref":
 "pmb243"}
 ]
}
}, {
 "type":
 "schnitzler-interviews",
 "color":
 "#3D5A80",
 "filename":
 "I019",
 "caption":
 "Interviews, Meinungen, Proteste",
 "idno":
 "https://schnitzler-interviews.acdh.oeaw.ac.at/I019.html",
 "head":
 "Herman Bernstein: Vienna’s Foremost Dramatist, Januar 1916",
 "desc":
{"listPerson":
  [
{
 "persName":
 "Herman Bernstein",
 "ref":
 "pmb5160"},
 {
 "persName":
 "Henrik Ibsen",
 "ref":
 "pmb11798"},
 {
 "persName":
 "August Strindberg",
 "ref":
 "pmb12877"},
 {
 "persName":
 "Anton Pavlovič Čechov",
 "ref":
 "pmb3603"},
 {
 "persName":
 "Gerhart Hauptmann",
 "ref":
 "pmb11617"},
 {
 "persName":
 "George Bernard Shaw",
 "ref":
 "pmb2381"},
 {
 "persName":
 "Maurice Maeterlinck",
 "ref":
 "pmb12156"},
 {
 "persName":
 "Doris Keane",
 "ref":
 "pmb29026"},
 {
 "persName":
 "Edwin Björkman",
 "ref":
 "pmb3283"},
 {
 "persName":
 "Johann Schnitzler",
 "ref":
 "pmb12695"},
 {
 "persName":
 "Alfred Kerr",
 "ref":
 "pmb11910"},
 {
 "persName":
 "Woodrow Wilson",
 "ref":
 "pmb4016"}],
 "listBibl":
  [
 {
 "title":
 "Anatol",
 "ref":
 "pmb29935"}
 ,  {
 "title":
 "Liebelei. Schauspiel in drei Akten",
 "ref":
 "pmb29917"}
 ,  {
 "title":
 "Der einsame Weg. Schauspiel in fünf Akten",
 "ref":
 "pmb29985"}
 ,  {
 "title":
 "Zwischenspiel. Komödie in drei Akten",
 "ref":
 "pmb29903"}
 ,  {
 "title":
 "Das weite Land. Tragikomödie in fünf Akten",
 "ref":
 "pmb30207"}
 ,  {
 "title":
 "Das Märchen. Schauspiel in drei Aufzügen",
 "ref":
 "pmb29823"}
 ,  {
 "title":
 "Literatur",
 "ref":
 "pmb29869"}
 ,  {
 "title":
 "Der grüne Kakadu. Groteske in einem Akt",
 "ref":
 "pmb29843"}
 ,  {
 "title":
 "Komtesse Mizzi oder Der Familientag",
 "ref":
 "pmb29931"}
 ,  {
 "title":
 "Vienna’s Foremost Dramatist",
 "ref":
 "pmb32961"}
 ,  {
 "title":
 "Vanity Fair",
 "ref":
 "pmb58107"}
 ],
 "listPlace":
  [
 {
 "placeName":
 "Wien",
 "ref":
 "pmb50"}
 ,  {
 "placeName":
 "Norwegen",
 "ref":
 "pmb64465"}
 ,  {
 "placeName":
 "Schweden",
 "ref":
 "pmb44335"}
 ,  {
 "placeName":
 "Russland",
 "ref":
 "pmb34438"}
 ,  {
 "placeName":
 "Deutschland",
 "ref":
 "pmb151"}
 ,  {
 "placeName":
 "England",
 "ref":
 "pmb254"}
 ,  {
 "placeName":
 "Frankreich",
 "ref":
 "pmb166"}
 ,  {
 "placeName":
 "Österreich",
 "ref":
 "pmb41240"}
 ,  {
 "placeName":
 "Maxine Elliott’s Theatre",
 "ref":
 "pmb1031"}
 ,  {
 "placeName":
 "Europa",
 "ref":
 "pmb468"}
 ,  {
 "placeName":
 "Amerika",
 "ref":
 "pmb175"}
 ,  {
 "placeName":
 "Paris",
 "ref":
 "pmb182"}
 ,  {
 "placeName":
 "London",
 "ref":
 "pmb224"}
 ],
 "listOrg":
  [
 {
 "orgName":
 "Madame d’Ora",
 "ref":
 "pmb29400"}
 ,  {
 "orgName":
 "Mitchell Kennerley",
 "ref":
 "pmb29433"}
 ,  {
 "orgName":
 "The Sun",
 "ref":
 "pmb29434"}
 ]
}
}, {
 "type":
 "pollaczek",
 "color":
 "#1e81b0",
 "filename":
 "ckp058",
 "caption":
 "Pollazczek: Schnitzler und ich",
 "idno":
 "https://pollaczek.acdh.oeaw.ac.at/ckp058.html",
 "head":
 "Zwischenbemerkung, 1916–1920"
}, {
 "type":
 "pmb",
 "color":
 "#9B5F98",
 "filename":
 "entity/50/",
 "caption":
 "PMB",
 "idno":
 "https://pmb.acdh.oeaw.ac.at/entity/50/",
 "text":
 "Wien"
}, {
 "type":
 "schnitzler-traeume",
 "subtype":
 "#ISBN978-3-8353-1029-2",
 "color":
 "#1193CC",
 "caption":
 "Traumtagebuch",
 "head":
 "Traum vom 01. Januar 1916",
 "source":
 "Arthur Schnitzler: Träume. Das Traumtagebuch 1875–1931. Herausgegeben von Peter Michael Braunwarth und Leo A. Lensing. Göttingen: Wallstein 2012 (Bibliothek Janowitz, Bd. 20)"
}, {
 "type":
 "kalliope-verbund",
 "color":
 "#003574",
 "caption":
 "Kalliope Verbundkatalog",
 "idno":
 "http://kalliope-verbund.info/DE-2498-HS00032323",
 "head":
 "Bettelheim, Grete an Schnitzler, Arthur [Briefe]",
 "text":
 "2 Bl."
}] 