[{
 "type":
 "schnitzler-orte",
 "color":
 "#045344",
 "caption":
 "Aufenthaltsorte",
 "idno":
 "https://pmb.acdh.oeaw.ac.at/entity/34401/",
 "head":
 "Altaussee"
}{
 "type":
 "schnitzler-orte",
 "color":
 "#045344",
 "caption":
 "Aufenthaltsorte",
 "idno":
 "https://pmb.acdh.oeaw.ac.at/entity/34387/",
 "head":
 "Villa Annerl"
}{
 "type":
 "schnitzler-briefe",
 "color":
 "#A63437",
 "caption":
 "Briefe mit Autorinnen und Autoren",
 "idno":
 "https://schnitzler-briefe.acdh.oeaw.ac.at/L02231.html",
 "head":
 "Arthur Schnitzler an Robert Adam, 14. 7. 1916",
 "desc":
{"listPerson":
  [
{
 "persName":
 "Robert Adam",
 "ref":
 "pmb12438"}],
 "listPlace":
  [
 {
 "placeName":
 "Altaussee",
 "ref":
 "pmb34401"}
 ]
}
}{
 "type":
 "schnitzler-briefe",
 "color":
 "#A63437",
 "caption":
 "Briefe mit Autorinnen und Autoren",
 "idno":
 "https://schnitzler-briefe.acdh.oeaw.ac.at/L02232.html",
 "head":
 "Arthur Schnitzler an Richard Beer-Hofmann, 14. 7. 1916",
 "desc":
{"listPerson":
  [
{
 "persName":
 "Richard Beer-Hofmann",
 "ref":
 "pmb10863"},
 {
 "persName":
 "Olga Schnitzler",
 "ref":
 "pmb2173"},
 {
 "persName":
 "Lili Schnitzler",
 "ref":
 "pmb2238"},
 {
 "persName":
 "Heinrich Schnitzler",
 "ref":
 "pmb12692"},
 {
 "persName":
 "Paula Beer-Hofmann",
 "ref":
 "pmb10860"},
 {
 "persName":
 "Gabriel Beer-Hofmann",
 "ref":
 "pmb13923"},
 {
 "persName":
 "Naëmah Beer-Hofmann",
 "ref":
 "pmb2534"},
 {
 "persName":
 "Mirjam Beer-Hofmann",
 "ref":
 "pmb2668"}],
 "listPlace":
  [
 {
 "placeName":
 "Bad Aussee",
 "ref":
 "pmb415"}
 ,  {
 "placeName":
 "Altaussee",
 "ref":
 "pmb34401"}
 ,  {
 "placeName":
 "Bad Ischl",
 "ref":
 "pmb213"}
 ,  {
 "placeName":
 "Grazer Straße",
 "ref":
 "pmb1220"}
 ,  {
 "placeName":
 "Salzkammergut",
 "ref":
 "pmb429"}
 ,  {
 "placeName":
 "Loser",
 "ref":
 "pmb52428"}
 ,  {
 "placeName":
 "Fischerndorf",
 "ref":
 "pmb34402"}
 ,  {
 "placeName":
 "Villa Annerl",
 "ref":
 "pmb34387"}
 ,  {
 "placeName":
 "Seewirt",
 "ref":
 "pmb106"}
 ]
}
}{
 "type":
 "schnitzler-tagebuch",
 "color":
 "#037a33",
 "caption":
 "Tagebuch",
 "idno":
 "https://schnitzler-tagebuch.acdh.oeaw.ac.at/entry__1916-07-14.html",
 "head":
 "Tagebuch, 14. Juli 1916",
 "desc":
{"listPerson":
  [
{
 "persName":
 "Ludwig Chiavacci",
 "ref":
 "person_14194"},
 {
 "persName":
 "Molly von Filtsch",
 "ref":
 "person_14980"},
 {
 "persName":
 "Emanuel Geibel",
 "ref":
 "person_15365"},
 {
 "persName":
 "Johanna Nemetschke",
 "ref":
 "person_18388"},
 {
 "persName":
 "Robert Adam",
 "ref":
 "person_18893"},
 {
 "persName":
 "Heinrich Schnitzler",
 "ref":
 "person_19822"},
 {
 "persName":
 "Malvine Schönherr",
 "ref":
 "person_19851"}],
 "listBibl":
  [
 {
 "title":
 "Die Schwestern oder Casanova in Spa. Lustspiel in Versen",
 "ref":
 "pmb30819"}
 ,  {
 "title":
 "Faust. Eine Tragödie",
 "ref":
 "pmb30247"}
 ],
 "listPlace":
  [
 {
 "placeName":
 "Tressenstein",
 "ref":
 "pmb91938"}
 ,  {
 "placeName":
 "Bad Aussee",
 "ref":
 "pmb415"}
 ]
}
}] 