[{
 "type":
 "schnitzler-tagebuch",
 "color":
 "#037a33",
 "filename":
 "entry__1916-09-23",
 "caption":
 "Tagebuch",
 "idno":
 "https://schnitzler-tagebuch.acdh.oeaw.ac.at/entry__1916-09-23.html",
 "head":
 "Tagebuch, 23. September 1916",
 "desc":
{"listPerson":
  [
{
 "persName":
 "Eugenie Bachrach",
 "ref":
 "person_13355"},
 {
 "persName":
 "Anton Bruckner",
 "ref":
 "person_14008"},
 {
 "persName":
 "Molly von Filtsch",
 "ref":
 "person_14980"},
 {
 "persName":
 "Gertrude Felice von Landesberger",
 "ref":
 "person_19227"},
 {
 "persName":
 "Max Leitner",
 "ref":
 "person_17425"},
 {
 "persName":
 "Jakob Wassermann",
 "ref":
 "person_21107"},
 {
 "persName":
 "Emma Kerry",
 "ref":
 "person_16822"},
 {
 "persName":
 "Gustav Mahler",
 "ref":
 "person_17786"}],
 "listBibl":
  [
 {
 "title":
 "Die Schwestern oder Casanova in Spa. Lustspiel in Versen",
 "ref":
 "pmb30819"}
 ,  {
 "title":
 "Symphonie Nr. 8 c-Moll WAB 108",
 "ref":
 "pmb30701"}
 ],
 "listPlace":
  [
 {
 "placeName":
 "Pötschenstraße",
 "ref":
 "pmb92454"}
 ,  {
 "placeName":
 "Nikolaus-Lenau-Hügel",
 "ref":
 "pmb92420"}
 ]
}
}, {
 "type":
 "wienerschnitzler",
 "color":
 "#ECDA98",
 "caption":
 "Wiener Schnitzler",
 "head":
 "Bad Ischl"
}, {
 "type":
 "wienerschnitzler",
 "color":
 "#ECDA98",
 "caption":
 "Wiener Schnitzler",
 "head":
 "Altaussee",
 "desc":
{"listPlace":
  [
 {
 "placeName":
 "Villa Annerl",
 "ref":
 ""}
 ,  {
 "placeName":
 "Hotel am See",
 "ref":
 ""}
 ,  {
 "placeName":
 "Villa Filtsch",
 "ref":
 ""}
 ,  {
 "placeName":
 "Kerry-Villa",
 "ref":
 ""}
 ]
}
}, {
 "type":
 "wienerschnitzler",
 "color":
 "#ECDA98",
 "caption":
 "Wiener Schnitzler",
 "head":
 "Bad Aussee",
 "desc":
{"listPlace":
  [
 {
 "placeName":
 "Nikolaus-Lenau-Hügel",
 "ref":
 ""}
 ,  {
 "placeName":
 "Pötschenstraße",
 "ref":
 ""}
 ]
}
}] 