[{
 "type":
 "schnitzler-tagebuch",
 "color":
 "#037a33",
 "filename":
 "entry__1916-08-30",
 "caption":
 "Tagebuch",
 "idno":
 "https://schnitzler-tagebuch.acdh.oeaw.ac.at/entry__1916-08-30.html",
 "head":
 "Tagebuch, 30. August 1916",
 "desc":
{"listPerson":
  [
{
 "persName":
 "Stefanie Bachrach",
 "ref":
 "person_13359"},
 {
 "persName":
 "Julius von Landesberger",
 "ref":
 "person_17278"},
 {
 "persName":
 "Johanna Nemetschke",
 "ref":
 "person_18388"},
 {
 "persName":
 "Adolf von Sonnenthal",
 "ref":
 "person_20204"},
 {
 "persName":
 "Paul Weingarten",
 "ref":
 "person_21171"},
 {
 "persName":
 "Fritz Rothschild",
 "ref":
 "person_19431"},
 {
 "persName":
 "Moritz? Güdemann",
 "ref":
 "person_15727"},
 {
 "persName":
 "Paul Hellmann",
 "ref":
 "person_16074"}],
 "listBibl":
  [
 {
 "title":
 "Die Schwestern oder Casanova in Spa. Lustspiel in Versen",
 "ref":
 "pmb30819"}
 ],
 "listPlace":
  [
 {
 "placeName":
 "Ruine Pflindsberg",
 "ref":
 "pmb91474"}
 ,  {
 "placeName":
 "Moosberg",
 "ref":
 "pmb92411"}
 ,  {
 "placeName":
 "Sandling",
 "ref":
 "pmb91653"}
 ]
}
}, {
 "type":
 "wienerschnitzler",
 "color":
 "#6F5106",
 "caption":
 "Wiener Schnitzler",
 "idno":
 "https://wienerschnitzler.org/tag.html#1916-08-30",
 "head":
 "Bad Ischl"
}, {
 "type":
 "wienerschnitzler",
 "color":
 "#6F5106",
 "caption":
 "Wiener Schnitzler",
 "idno":
 "https://wienerschnitzler.org/tag.html#1916-08-30",
 "head":
 "Altaussee",
 "desc":
{"listPlace":
  [
 {
 "placeName":
 "Villa Annerl",
 "ref":
 ""}
 ,  {
 "placeName":
 "Hotel am See",
 "ref":
 ""}
 ,  {
 "placeName":
 "Moosberg",
 "ref":
 ""}
 ,  {
 "placeName":
 "Salzberg Altaussee",
 "ref":
 ""}
 ,  {
 "placeName":
 "Ruine Pflindsberg",
 "ref":
 ""}
 ,  {
 "placeName":
 "Seevilla [Altaussee]",
 "ref":
 ""}
 ,  {
 "placeName":
 "Villa Hellmann",
 "ref":
 ""}
 ]
}
}, {
 "type":
 "schnitzler-kultur",
 "color":
 "#6B4C5A",
 "filename":
 "pmb264996",
 "caption":
 "Kulturveranstaltungen",
 "idno":
 "https://schnitzler-kultur.acdh.oeaw.ac.at/pmb264996.html",
 "head":
 "Wohltätigkeitskonzert, 30.8.1916",
 "desc":
{"listPerson":
  [
{
 "persName":
 "Arthur Schnitzler",
 "ref":
 ""}],
 "listPlace":
  [
 {
 "placeName":
 "Seevilla [Altaussee]",
 "ref":
 ""}
 ]
}
}] 