{
 "date":
 {
 "when-iso":
 "1916-01-18",
 "written":
 "Dienstag, 18. Januar 1916"
},
"listEvent":
 [{
 "type":
 "schnitzler-orte",
 "idno":
 "https://pmb.acdh.oeaw.ac.at/entity/50/",
 "head":
 "Wien"
}, {
 "type":
 "schnitzler-cmif",
 "subtype":
 "#d43bae78-6be4-4898-b4e5-86e3d9bc9f34",
 "head":
 "Stefan Zweig an Arthur Schnitzler, 18.1.1916",
 "desc":
{"listPerson":
  [
{
 "persName":
 "Zweig, Stefan",
 "ref":
 "https://d-nb.info/gnd/118637479"}],
 "bibl":
 "Stefan Zweig: Briefwechsel mit Hermann Bahr, Sigmund Freud, Rainer Maria Rilke und Arthur Schnitzler. Hgg. Jeffrey B. Berlin, Hans-Ulrich Lindken und Donald A. Prater. Berlin: S. Fischer 1987. (Nur Briefe an Bahr und Schnitzler erfasst)"}

}, {
 "type":
 "schnitzler-tagebuch",
 "idno":
 "https://schnitzler-tagebuch.acdh.oeaw.ac.at/entry__1916-01-18.html",
 "head":
 "Tagebuch, 18. Januar 1916",
 "desc":
{"listPerson":
  [
{
 "persName":
 "Stefanie Bachrach",
 "ref":
 "person_13359"},
 {
 "persName":
 "Franz Blei",
 "ref":
 "person_13774"},
 {
 "persName":
 "Oskar Blumenthal",
 "ref":
 "person_13808"},
 {
 "persName":
 "Franz von Schönaich",
 "ref":
 "person_19839"},
 {
 "persName":
 "Alberto Stringa",
 "ref":
 "person_20532"},
 {
 "persName":
 "Rudolf Urbantschitsch",
 "ref":
 "person_20892"},
 {
 "persName":
 "Marianne Giustiniani",
 "ref":
 "person_21600"},
 {
 "persName":
 "Carl Sternheim",
 "ref":
 "person_20427"}],
 "listBibl":
  [
 {
 "title":
 "Logik des Herzens. Lustspiel in vier Aufzügen",
 "ref":
 "pmb76902"}
 ],
 "listPlace":
  [
 {
 "placeName":
 "Baden bei Wien",
 "ref":
 "pmb662"}
 ,  {
 "placeName":
 "Montenegro",
 "ref":
 "pmb366"}
 ,  {
 "placeName":
 "Italien",
 "ref":
 "pmb40306"}
 ,  {
 "placeName":
 "Istanbul",
 "ref":
 "pmb966"}
 ]}

}, {
 "type":
 "schnitzler-bahr",
 "idno":
 "https://schnitzler-bahr.acdh.oeaw.ac.at/L041573.html",
 "head":
 "Arno Holz an Bahr, 18. 1. 1916",
 "desc":
{"listPerson":
  [
{
 "persName":
 "Arno Holz",
 "ref":
 "pmb11763"},
 {
 "persName":
 "Hermann Bahr",
 "ref":
 "pmb10815"},
 {
 "persName":
 "Nathaniel Meyer von Rothschild",
 "ref":
 "pmb4554"},
 {
 "persName":
 "Albert Salomon von Rothschild",
 "ref":
 "pmb12576"}],
 "listBibl":
  [
 {
 "title":
 "Phantasus",
 "ref":
 "pmb32284"}
 ],
 "listPlace":
  [
 {
 "placeName":
 "Berlin",
 "ref":
 "pmb168"}
 ,  {
 "placeName":
 "Salzburg",
 "ref":
 "pmb30"}
 ,  {
 "placeName":
 "Stübbenstraße",
 "ref":
 "pmb658"}
 ,  {
 "placeName":
 "Wien",
 "ref":
 "pmb50"}
 ],
 "listOrg":
  [
 {
 "orgName":
 "Insel-Verlag",
 "ref":
 "pmb29751"}
 ]}

}] 
}