[{
 "type":
 "schnitzler-tagebuch",
 "color":
 "#037a33",
 "filename":
 "entry__1916-08-02",
 "caption":
 "Tagebuch",
 "idno":
 "https://schnitzler-tagebuch.acdh.oeaw.ac.at/entry__1916-08-02.html",
 "head":
 "Tagebuch, 2. August 1916",
 "desc":
{"listPerson":
  [
{
 "persName":
 "Albrecht von Bernstorff",
 "ref":
 "person_13683"},
 {
 "persName":
 "Franz Grillparzer",
 "ref":
 "person_15661"},
 {
 "persName":
 "Gertrude von Hofmannsthal",
 "ref":
 "person_16292"},
 {
 "persName":
 "Julius von Landesberger",
 "ref":
 "person_17278"},
 {
 "persName":
 "Martha Wassermann",
 "ref":
 "person_21110"},
 {
 "persName":
 "Jakob Wassermann",
 "ref":
 "person_21107"},
 {
 "persName":
 "Hugo von Hofmannsthal",
 "ref":
 "person_16293"}],
 "listBibl":
  [
 {
 "title":
 "Die Schwestern oder Casanova in Spa. Lustspiel in Versen",
 "ref":
 "pmb30819"}
 ],
 "listPlace":
  [
 {
 "placeName":
 "Grundlsee",
 "ref":
 "pmb90787"}
 ,  {
 "placeName":
 "Cramerpromenade",
 "ref":
 "pmb92192"}
 ,  {
 "placeName":
 "Tressenstein",
 "ref":
 "pmb91938"}
 ]
}
}, {
 "type":
 "URL",
 "subtype":
 "wienerschnitzler",
 "head":
 "Altaussee",
 "desc":
{"listPlace":
  [
 {
 "placeName":
 "Villa Annerl",
 "ref":
 ""}
 ]
}
}, {
 "type":
 "URL",
 "subtype":
 "wienerschnitzler",
 "head":
 "Grundlsee [Gemeinde]",
 "desc":
{"listPlace":
  [
 {
 "placeName":
 "Tressensattel",
 "ref":
 ""}
 ]
}
}, {
 "type":
 "URL",
 "subtype":
 "wienerschnitzler",
 "head":
 "Bad Aussee",
 "desc":
{"listPlace":
  [
 {
 "placeName":
 "Cramerpromenade",
 "ref":
 ""}
 ,  {
 "placeName":
 "Ramgut",
 "ref":
 ""}
 ,  {
 "placeName":
 "Rennerstügergütl",
 "ref":
 ""}
 ]
}
}, {
 "type":
 "schnitzler-cmif",
 "subtype":
 "#v02efeb3-b382-4ed8-a71f-1366a4647e76",
 "color":
 "#654321",
 "caption":
 "Gedruckte Briefwechsel",
 "head":
 "Arthur Schnitzler an Raoul Auernheimer, 2.8.1916",
 "source":
 "The Correspondence of Arthur Schnitzler and Raoul Auernheimer with Raoul Auernheimer’s Aphorism. Edited with introduction and notes by Donald G. Daviau and Jorun B. Johns. Chapel Hill: The University of North Carolina Press, 1972 (University of North Carolina Studies in the Germanic Languages and Literatures, 73)."
}] 