[{
 "type":
 "schnitzler-tagebuch",
 "color":
 "#037a33",
 "filename":
 "entry__1916-01-27",
 "caption":
 "Tagebuch",
 "idno":
 "https://schnitzler-tagebuch.acdh.oeaw.ac.at/entry__1916-01-27.html",
 "head":
 "Tagebuch, 27. Januar 1916",
 "desc":
{"listPerson":
  [
{
 "persName":
 "Oskar Nedbal",
 "ref":
 "person_18374"},
 {
 "persName":
 "Jacob Pollak",
 "ref":
 "person_18884"},
 {
 "persName":
 "Felix Salten",
 "ref":
 "person_19542"},
 {
 "persName":
 "Heinrich Schnitzler",
 "ref":
 "person_19822"},
 {
 "persName":
 "Louise Schnitzler",
 "ref":
 "person_19831"},
 {
 "persName":
 "Anna Bahr-Mildenburg",
 "ref":
 "person_13376"},
 {
 "persName":
 "Gustav Klimt",
 "ref":
 "person_16910"},
 {
 "persName":
 "Wilhelm II. von Preußen",
 "ref":
 "person_21338"},
 {
 "persName":
 "Hermann Bahr",
 "ref":
 "person_13374"},
 {
 "persName":
 "Moriz Károlyi",
 "ref":
 "person_16735"},
 {
 "persName":
 "Johanna Schmidl",
 "ref":
 "person_16852"}],
 "listBibl":
  [
 {
 "title":
 "Komödie der Verführung. In drei Akten",
 "ref":
 "pmb30205"}
 ],
 "listPlace":
  [
 {
 "placeName":
 "Radetzkybrücke",
 "ref":
 "pmb273"}
 ,  {
 "placeName":
 "Ringstraße",
 "ref":
 "pmb112"}
 ,  {
 "placeName":
 "II., Leopoldstadt",
 "ref":
 "pmb52"}
 ,  {
 "placeName":
 "Burgring",
 "ref":
 "pmb274"}
 ,  {
 "placeName":
 "Flims",
 "ref":
 "pmb40407"}
 ,  {
 "placeName":
 "Lunz am See",
 "ref":
 "pmb941"}
 ,  {
 "placeName":
 "Baden bei Wien",
 "ref":
 "pmb662"}
 ,  {
 "placeName":
 "Istanbul",
 "ref":
 "pmb966"}
 ,  {
 "placeName":
 "Italien",
 "ref":
 "pmb40306"}
 ]
}
}, {
 "type":
 "wienerschnitzler",
 "color":
 "#ECDA98",
 "caption":
 "Wiener Schnitzler",
 "idno":
 "https://wienerschnitzler.org/tag.html#1916-01-27",
 "head":
 "Wien",
 "desc":
{"listPlace":
  [
 {
 "placeName":
 "XVIII., Währing",
 "ref":
 ""}
 ,  {
 "placeName":
 "I., Innere Stadt",
 "ref":
 ""}
 ]
}
}, {
 "type":
 "schnitzler-kultur",
 "color":
 "#6B4C5A",
 "filename":
 "pmb209805",
 "caption":
 "Kulturveranstaltungen",
 "idno":
 "https://schnitzler-kultur.acdh.oeaw.ac.at/pmb209805.html",
 "head":
 "Konzert des Tonkünstlerorchesters, 27.1.1916",
 "desc":
{"listOrg":
  [
 {
 "orgName":
 "Wiener Tonkünstler-Orchester",
 "ref":
 ""}
 ],
 "listPerson":
  [
{
 "persName":
 "Arthur Schnitzler",
 "ref":
 ""},
 {
 "persName":
 "Oskar Nedbal",
 "ref":
 ""}],
 "listPlace":
  [
 {
 "placeName":
 "Musikverein",
 "ref":
 ""}
 ]
}
}, {
 "type":
 "schnitzler-bahr",
 "color":
 "#639FF9",
 "filename":
 "D041368",
 "caption":
 "Schnitzler/Bahr",
 "idno":
 "https://schnitzler-bahr.acdh.oeaw.ac.at/D041368.html",
 "head":
 "Tagebuch von Schnitzler, 27. 1. 1916",
 "desc":
{"listPerson":
  [
{
 "persName":
 "Gustav Klimt",
 "ref":
 "pmb11941"},
 {
 "persName":
 "Heinrich Schnitzler",
 "ref":
 "pmb12692"},
 {
 "persName":
 "Hermann Bahr",
 "ref":
 "pmb10815"},
 {
 "persName":
 "Anna Bahr-Mildenburg",
 "ref":
 "pmb10818"},
 {
 "persName":
 "Louise Schnitzler",
 "ref":
 "pmb12701"},
 {
 "persName":
 "Felix Salten",
 "ref":
 "pmb2167"},
 {
 "persName":
 "Wilhelm II. von Preußen",
 "ref":
 "pmb2566"},
 {
 "persName":
 "Moriz Károlyi",
 "ref":
 "pmb19914"},
 {
 "persName":
 "Jacob Pollak",
 "ref":
 "pmb22733"},
 {
 "persName":
 "Olga Schnitzler",
 "ref":
 "pmb2173"},
 {
 "persName":
 "Johanna Schmidl",
 "ref":
 "pmb27815"},
 {
 "persName":
 "Oskar Nedbal",
 "ref":
 "pmb12335"}],
 "listPlace":
  [
 {
 "placeName":
 "Radetzkybrücke",
 "ref":
 "pmb273"}
 ,  {
 "placeName":
 "Ringstraße",
 "ref":
 "pmb112"}
 ,  {
 "placeName":
 "II., Leopoldstadt",
 "ref":
 "pmb52"}
 ,  {
 "placeName":
 "Burgring",
 "ref":
 "pmb274"}
 ,  {
 "placeName":
 "Flims",
 "ref":
 "pmb40407"}
 ,  {
 "placeName":
 "Lunz am See",
 "ref":
 "pmb941"}
 ,  {
 "placeName":
 "Baden bei Wien",
 "ref":
 "pmb662"}
 ,  {
 "placeName":
 "Istanbul",
 "ref":
 "pmb966"}
 ,  {
 "placeName":
 "Deutschland",
 "ref":
 "pmb151"}
 ,  {
 "placeName":
 "Bulgarien",
 "ref":
 "pmb249"}
 ,  {
 "placeName":
 "Italien",
 "ref":
 "pmb40306"}
 ],
 "listOrg":
  [
 {
 "orgName":
 "Fremden-Blatt",
 "ref":
 "pmb48930"}
 ]
}
}, {
 "type":
 "schnitzler-traeume",
 "subtype":
 "#ISBN978-3-8353-1029-2",
 "color":
 "#1193CC",
 "caption":
 "Traumtagebuch",
 "head":
 "Traum vom 27. Januar 1916",
 "source":
 "Arthur Schnitzler: Träume. Das Traumtagebuch 1875–1931. Herausgegeben von Peter Michael Braunwarth und Leo A. Lensing. Göttingen: Wallstein 2012 (Bibliothek Janowitz, Bd. 20)"
}] 