[{
 "type":
 "schnitzler-tagebuch",
 "color":
 "#037a33",
 "filename":
 "entry__1916-09-10",
 "caption":
 "Tagebuch",
 "idno":
 "https://schnitzler-tagebuch.acdh.oeaw.ac.at/entry__1916-09-10.html",
 "head":
 "Tagebuch, 10. September 1916",
 "desc":
{"listPerson":
  [
{
 "persName":
 "Raoul Auernheimer",
 "ref":
 "person_13305"},
 {
 "persName":
 "Eugenie Bachrach",
 "ref":
 "person_13355"},
 {
 "persName":
 "Stefanie Bachrach",
 "ref":
 "person_13359"},
 {
 "persName":
 "Molly von Filtsch",
 "ref":
 "person_14980"},
 {
 "persName":
 "Julius von Landesberger",
 "ref":
 "person_17278"},
 {
 "persName":
 "Therese Horn",
 "ref":
 "person_16366"}],
 "listBibl":
  [
 {
 "title":
 "Die Schwestern oder Casanova in Spa. Lustspiel in Versen",
 "ref":
 "pmb30819"}
 ],
 "listPlace":
  [
 {
 "placeName":
 "Ruine Pflindsberg",
 "ref":
 "pmb91474"}
 ,  {
 "placeName":
 "Pötschenstraße",
 "ref":
 "pmb92454"}
 ]
}
}, {
 "type":
 "wienerschnitzler",
 "color":
 "#ECDA98",
 "caption":
 "Wiener Schnitzler",
 "head":
 "Bad Ischl"
}, {
 "type":
 "wienerschnitzler",
 "color":
 "#ECDA98",
 "caption":
 "Wiener Schnitzler",
 "head":
 "Altaussee",
 "desc":
{"listPlace":
  [
 {
 "placeName":
 "Villa Annerl",
 "ref":
 ""}
 ,  {
 "placeName":
 "Ruine Pflindsberg",
 "ref":
 ""}
 ,  {
 "placeName":
 "Seevilla [Altaussee]",
 "ref":
 ""}
 ,  {
 "placeName":
 "Parkhotel Altaussee",
 "ref":
 ""}
 ]
}
}, {
 "type":
 "wienerschnitzler",
 "color":
 "#ECDA98",
 "caption":
 "Wiener Schnitzler",
 "head":
 "Bad Aussee",
 "desc":
{"listPlace":
  [
 {
 "placeName":
 "Pötschenstraße",
 "ref":
 ""}
 ]
}
}, {
 "type":
 "wienerschnitzler",
 "color":
 "#ECDA98",
 "caption":
 "Wiener Schnitzler",
 "head":
 "Lupitsch",
 "desc":
{"listPlace":
  [
 {
 "placeName":
 "Waldgraben",
 "ref":
 ""}
 ]
}
}] 