[{
 "type":
 "schnitzler-tagebuch",
 "color":
 "#037a33",
 "filename":
 "entry__1916-05-30",
 "caption":
 "Tagebuch",
 "idno":
 "https://schnitzler-tagebuch.acdh.oeaw.ac.at/entry__1916-05-30.html",
 "head":
 "Tagebuch, 30. Mai 1916",
 "desc":
{"listPerson":
  [
{
 "persName":
 "Stefanie Bachrach",
 "ref":
 "person_13359"},
 {
 "persName":
 "Marianne Giustiniani",
 "ref":
 "person_21600"}],
 "listPlace":
  [
 {
 "placeName":
 "Altaussee",
 "ref":
 "pmb90229"}
 ,  {
 "placeName":
 "Nikolaus-Lenau-Hügel",
 "ref":
 "pmb92420"}
 ]
}
}, {
 "type":
 "URL",
 "subtype":
 "wienerschnitzler",
 "head":
 "Bad Ischl",
 "desc":
{"listPlace":
  [
 {
 "placeName":
 "Hotel garni Athen",
 "ref":
 ""}
 ,  {
 "placeName":
 "Bahnhof Bad Ischl",
 "ref":
 ""}
 ]
}
}, {
 "type":
 "URL",
 "subtype":
 "wienerschnitzler",
 "head":
 "Altaussee",
 "desc":
{"listPlace":
  [
 {
 "placeName":
 "Hotel am See",
 "ref":
 ""}
 ]
}
}, {
 "type":
 "URL",
 "subtype":
 "wienerschnitzler",
 "head":
 "Lupitsch",
 "desc":
{"listPlace":
  [
 {
 "placeName":
 "Gasthaus zum Bachwirt",
 "ref":
 ""}
 ]
}
}, {
 "type":
 "URL",
 "subtype":
 "wienerschnitzler",
 "head":
 "Bad Aussee",
 "desc":
{"listPlace":
  [
 {
 "placeName":
 "Bahnhof Bad Aussee",
 "ref":
 ""}
 ,  {
 "placeName":
 "Nikolaus-Lenau-Hügel",
 "ref":
 ""}
 ]
}
}] 