[{
 "type":
 "schnitzler-tagebuch",
 "color":
 "#037a33",
 "filename":
 "entry__1916-09-02",
 "caption":
 "Tagebuch",
 "idno":
 "https://schnitzler-tagebuch.acdh.oeaw.ac.at/entry__1916-09-02.html",
 "head":
 "Tagebuch, 2. September 1916",
 "desc":
{"listPerson":
  [
{
 "persName":
 "Raoul Auernheimer",
 "ref":
 "person_13305"},
 {
 "persName":
 "Albrecht von Bernstorff",
 "ref":
 "person_13683"},
 {
 "persName":
 "Johannes Brahms",
 "ref":
 "person_13914"},
 {
 "persName":
 "Lili Schnitzler",
 "ref":
 "person_14130"},
 {
 "persName":
 "Frédéric Chopin",
 "ref":
 "person_14203"},
 {
 "persName":
 "Severin Eisenberger",
 "ref":
 "person_14681"},
 {
 "persName":
 "Ignaz Friedman",
 "ref":
 "person_15225"},
 {
 "persName":
 "Hohenzollern",
 "ref":
 "person_16310"},
 {
 "persName":
 "Hansi Niese",
 "ref":
 "person_18450"},
 {
 "persName":
 "Heinrich Schnitzler",
 "ref":
 "person_19822"},
 {
 "persName":
 "Elisabeth Steinrück",
 "ref":
 "person_20386"},
 {
 "persName":
 "Friedrich Wilhelm von Stolberg-Wernigerode",
 "ref":
 "person_20457"},
 {
 "persName":
 "Julie Wassermann",
 "ref":
 "person_21109"},
 {
 "persName":
 "Alexander Girardi",
 "ref":
 "person_15442"},
 {
 "persName":
 "Jakob Wassermann",
 "ref":
 "person_21107"},
 {
 "persName":
 "Egon Friedell",
 "ref":
 "person_15210"},
 {
 "persName":
 "Paul Hellmann",
 "ref":
 "person_16074"},
 {
 "persName":
 "Hugo von Hofmannsthal",
 "ref":
 "person_16293"},
 {
 "persName":
 "Felicitas Marie Kapper",
 "ref":
 "person_16708"}],
 "listBibl":
  [
 {
 "title":
 "L’éducation sentimentale. Histoire d’un jeune homme",
 "ref":
 "pmb77888"}
 ],
 "listPlace":
  [
 {
 "placeName":
 "München",
 "ref":
 "pmb45258"}
 ,  {
 "placeName":
 "Deutschland",
 "ref":
 "pmb151"}
 ,  {
 "placeName":
 "St. Gilgen",
 "ref":
 "pmb33"}
 ,  {
 "placeName":
 "Bad Ischl",
 "ref":
 "pmb213"}
 ,  {
 "placeName":
 "Bad Aussee",
 "ref":
 "pmb415"}
 ]
}
}, {
 "type":
 "schnitzler-orte",
 "color":
 "#045344",
 "caption":
 "Aufenthaltsorte",
 "head":
 "Bad Ischl",
 "desc":
{"listPlace":
  [
 {
 "placeName":
 "Bahnhof Bad Ischl",
 "ref":
 ""}
 ,  {
 "placeName":
 "Hotel zum goldenen Kreuz [Bad Ischl]",
 "ref":
 ""}
 ]
}
}, {
 "type":
 "schnitzler-orte",
 "color":
 "#045344",
 "caption":
 "Aufenthaltsorte",
 "head":
 "Salzburg",
 "desc":
{"listPlace":
  [
 {
 "placeName":
 "Grand Hotel de L’Europe, G. Jung",
 "ref":
 ""}
 ,  {
 "placeName":
 "Hauptbahnhof Salzburg",
 "ref":
 ""}
 ]
}
}, {
 "type":
 "schnitzler-orte",
 "color":
 "#045344",
 "caption":
 "Aufenthaltsorte",
 "head":
 "Altaussee",
 "desc":
{"listPlace":
  [
 {
 "placeName":
 "Villa Annerl",
 "ref":
 ""}
 ,  {
 "placeName":
 "Villa Hellmann",
 "ref":
 ""}
 ]
}
}, {
 "type":
 "schnitzler-orte",
 "color":
 "#045344",
 "caption":
 "Aufenthaltsorte",
 "head":
 "Bad Ischl",
 "desc":
{"listPlace":
  [
 {
 "placeName":
 "Bahnhof Bad Ischl",
 "ref":
 ""}
 ,  {
 "placeName":
 "Hotel zum goldenen Kreuz [Bad Ischl]",
 "ref":
 ""}
 ]
}
}, {
 "type":
 "schnitzler-orte",
 "color":
 "#045344",
 "caption":
 "Aufenthaltsorte",
 "head":
 "Bad Aussee",
 "desc":
{"listPlace":
  [
 {
 "placeName":
 "Bahnhof Bad Aussee",
 "ref":
 ""}
 ]
}
}] 