[{
 "type":
 "schnitzler-tagebuch",
 "color":
 "#037a33",
 "filename":
 "entry__1916-06-25",
 "caption":
 "Tagebuch",
 "idno":
 "https://schnitzler-tagebuch.acdh.oeaw.ac.at/entry__1916-06-25.html",
 "head":
 "Tagebuch, 25. Juni 1916",
 "desc":
{"listPerson":
  [
{
 "persName":
 "Lili Schnitzler",
 "ref":
 "person_14130"},
 {
 "persName":
 "Fritz",
 "ref":
 "person_15263"},
 {
 "persName":
 "Karl Kraus",
 "ref":
 "person_17108"},
 {
 "persName":
 "N.",
 "ref":
 "person_18342"},
 {
 "persName":
 "Clara Katharina Pollaczek",
 "ref":
 "person_18863"},
 {
 "persName":
 "Lilly Roth",
 "ref":
 "person_19418"},
 {
 "persName":
 "Heinrich Schnitzler",
 "ref":
 "person_19822"},
 {
 "persName":
 "Julius Schnitzler",
 "ref":
 "person_19827"},
 {
 "persName":
 "Karl Schnitzler",
 "ref":
 "person_19828"},
 {
 "persName":
 "Felix Speidel",
 "ref":
 "person_20242"},
 {
 "persName":
 "Salomon David Steinberg",
 "ref":
 "person_20362"},
 {
 "persName":
 "Maria Schmutzer",
 "ref":
 "person_19786"}],
 "listBibl":
  [
 {
 "title":
 "Ilias",
 "ref":
 "pmb47977"}
 ,  {
 "title":
 "Der grüne Heinrich",
 "ref":
 "pmb80783"}
 ,  {
 "title":
 "Rahel, ein Buch des Andenkens für ihre Freunde",
 "ref":
 "pmb76538"}
 ],
 "listPlace":
  [
 {
 "placeName":
 "Pötzleinsdorf",
 "ref":
 "pmb169"}
 ,  {
 "placeName":
 "Dornbacher Park",
 "ref":
 "pmb176"}
 ,  {
 "placeName":
 "Sommerhaidenweg",
 "ref":
 "pmb243"}
 ,  {
 "placeName":
 "Zell am See",
 "ref":
 "pmb40336"}
 ,  {
 "placeName":
 "G.",
 "ref":
 "pmb92248"}
 ,  {
 "placeName":
 "Bad Aussee",
 "ref":
 "pmb415"}
 ,  {
 "placeName":
 "Zürich",
 "ref":
 "pmb484"}
 ]
}
}, {
 "type":
 "URL",
 "subtype":
 "wienerschnitzler",
 "head":
 "Wien",
 "desc":
{"listPlace":
  [
 {
 "placeName":
 "XVII., Hernals",
 "ref":
 ""}
 ,  {
 "placeName":
 "XVIII., Währing",
 "ref":
 ""}
 ,  {
 "placeName":
 "XIX., Döbling",
 "ref":
 ""}
 ,  {
 "placeName":
 "VIII., Josefstadt",
 "ref":
 ""}
 ]
}
}] 