[{
 "type":
 "schnitzler-orte",
 "color":
 "#045344",
 "filename":
 "entity/34401/",
 "caption":
 "Aufenthaltsorte",
 "idno":
 "https://pmb.acdh.oeaw.ac.at/entity/34401/",
 "head":
 "Altaussee"
}, {
 "type":
 "schnitzler-orte",
 "color":
 "#045344",
 "filename":
 "entity/34387/",
 "caption":
 "Aufenthaltsorte",
 "idno":
 "https://pmb.acdh.oeaw.ac.at/entity/34387/",
 "head":
 "Villa Annerl"
}, {
 "type":
 "schnitzler-briefe",
 "color":
 "#A63437",
 "filename":
 "L02237",
 "caption":
 "Briefe mit Autorinnen und Autoren",
 "idno":
 "https://schnitzler-briefe.acdh.oeaw.ac.at/L02237.html",
 "head":
 "Arthur Schnitzler an Richard Beer-Hofmann, 20. 8. 1916",
 "desc":
{"listPerson":
  [
{
 "persName":
 "Richard Beer-Hofmann",
 "ref":
 "pmb10863"}],
 "listPlace":
  [
 {
 "placeName":
 "Altaussee",
 "ref":
 "pmb34401"}
 ,  {
 "placeName":
 "Bad Ischl",
 "ref":
 "pmb213"}
 ,  {
 "placeName":
 "Fischerndorf",
 "ref":
 "pmb34402"}
 ,  {
 "placeName":
 "Grazer Straße",
 "ref":
 "pmb1220"}
 ,  {
 "placeName":
 "Hotel Kaiserkrone",
 "ref":
 "pmb655"}
 ,  {
 "placeName":
 "Hotel Post",
 "ref":
 "pmb40440"}
 ,  {
 "placeName":
 "Hoher Koppen",
 "ref":
 "pmb40448"}
 ,  {
 "placeName":
 "Pötschenpass",
 "ref":
 "pmb40449"}
 ,  {
 "placeName":
 "Restaurant Sonnenschein",
 "ref":
 "pmb40450"}
 ,  {
 "placeName":
 "Aschau",
 "ref":
 "pmb40452"}
 ,  {
 "placeName":
 "Bad Aussee",
 "ref":
 "pmb415"}
 ]
}
}, {
 "type":
 "schnitzler-tagebuch",
 "color":
 "#037a33",
 "filename":
 "entry__1916-08-20",
 "caption":
 "Tagebuch",
 "idno":
 "https://schnitzler-tagebuch.acdh.oeaw.ac.at/entry__1916-08-20.html",
 "head":
 "Tagebuch, 20. August 1916",
 "desc":
{"listPerson":
  [
{
 "persName":
 "Paul Heyse",
 "ref":
 "person_16186"},
 {
 "persName":
 "Hans Horst Meyer",
 "ref":
 "person_18116"},
 {
 "persName":
 "Johanna Nemetschke",
 "ref":
 "person_18388"},
 {
 "persName":
 "Paul Weingarten",
 "ref":
 "person_21171"},
 {
 "persName":
 "Auguste Wilbrandt-Baudius",
 "ref":
 "person_21320"},
 {
 "persName":
 "Fritz Rothschild",
 "ref":
 "person_19431"}],
 "listBibl":
  [
 {
 "title":
 "Die Schwestern oder Casanova in Spa. Lustspiel in Versen",
 "ref":
 "pmb30819"}
 ],
 "listPlace":
  [
 {
 "placeName":
 "Galizien",
 "ref":
 "pmb644"}
 ]
}
}] 