[{
 "type":
 "schnitzler-tagebuch",
 "color":
 "#037a33",
 "filename":
 "entry__1916-06-14",
 "caption":
 "Tagebuch",
 "idno":
 "https://schnitzler-tagebuch.acdh.oeaw.ac.at/entry__1916-06-14.html",
 "head":
 "Tagebuch, 14. Juni 1916",
 "desc":
{"listPerson":
  [
{
 "persName":
 "Erich Wolfgang Korngold",
 "ref":
 "person_17058"},
 {
 "persName":
 "Eveline Landing",
 "ref":
 "person_17285"},
 {
 "persName":
 "Johanna Nemetschke",
 "ref":
 "person_18388"},
 {
 "persName":
 "Frank Wedekind",
 "ref":
 "person_21130"},
 {
 "persName":
 "Theodor Antropp",
 "ref":
 "person_13236"},
 {
 "persName":
 "Albert von Apponyi",
 "ref":
 "person_13241"},
 {
 "persName":
 "Therese Horn",
 "ref":
 "person_16366"},
 {
 "persName":
 "Ottilie Salten",
 "ref":
 "person_19543"},
 {
 "persName":
 "Albert Steinrück",
 "ref":
 "person_20383"},
 {
 "persName":
 "Leo Feld",
 "ref":
 "person_14923"}],
 "listBibl":
  [
 {
 "title":
 "Erdgeist. Tragödie in vier Aufzügen",
 "ref":
 "pmb31323"}
 ],
 "listPlace":
  [
 {
 "placeName":
 "New York City",
 "ref":
 "pmb44053"}
 ,  {
 "placeName":
 "Genua",
 "ref":
 "pmb994"}
 ,  {
 "placeName":
 "Bad Aussee",
 "ref":
 "pmb415"}
 ,  {
 "placeName":
 "Budapest",
 "ref":
 "pmb43471"}
 ,  {
 "placeName":
 "Österreich",
 "ref":
 "pmb41240"}
 ]
}
}, {
 "type":
 "wienerschnitzler",
 "color":
 "#6F5106",
 "caption":
 "Wiener Schnitzler",
 "idno":
 "https://wienerschnitzler.org/tag.html#1916-06-14",
 "head":
 "Wien",
 "desc":
{"listPlace":
  [
 {
 "placeName":
 "I., Innere Stadt",
 "ref":
 ""}
 ,  {
 "placeName":
 "IX., Alsergrund",
 "ref":
 ""}
 ,  {
 "placeName":
 "XVIII., Währing",
 "ref":
 ""}
 ]
}
}, {
 "type":
 "schnitzler-kultur",
 "color":
 "#6B4C5A",
 "filename":
 "pmb298032",
 "caption":
 "Kulturveranstaltungen",
 "idno":
 "https://schnitzler-kultur.acdh.oeaw.ac.at/pmb298032.html",
 "head":
 "Besuch des Kaiserpanoramas [Wien, Schubertring 4], 14.6.1916",
 "desc":
{"listPerson":
  [
{
 "persName":
 "Arthur Schnitzler",
 "ref":
 ""}],
 "listPlace":
  [
 {
 "placeName":
 "Kaiserpanorama [Wien, Schubertring 4]",
 "ref":
 ""}
 ]
}
}, {
 "type":
 "schnitzler-kultur",
 "color":
 "#6B4C5A",
 "filename":
 "pmb209836",
 "caption":
 "Kulturveranstaltungen",
 "idno":
 "https://schnitzler-kultur.acdh.oeaw.ac.at/pmb209836.html",
 "head":
 "Aufführung von Erdgeist. Tragödie in vier Aufzügen, 14.6.1916",
 "desc":
{"listOrg":
  [
 {
 "orgName":
 "Neue Wiener Bühne",
 "ref":
 ""}
 ],
 "listBibl":
  [
 {
 "title":
 "Erdgeist. Tragödie in vier Aufzügen",
 "ref":
 ""}
 ],
 "listPerson":
  [
{
 "persName":
 "Albert Steinrück",
 "ref":
 ""},
 {
 "persName":
 "Arthur Schnitzler",
 "ref":
 ""},
 {
 "persName":
 "Eveline Landing",
 "ref":
 ""}],
 "listPlace":
  [
 {
 "placeName":
 "Neue Wiener Bühne",
 "ref":
 ""}
 ]
}
}] 