[{
 "type":
 "schnitzler-tagebuch",
 "color":
 "#037a33",
 "filename":
 "entry__1917-08-27",
 "caption":
 "Tagebuch",
 "idno":
 "https://schnitzler-tagebuch.acdh.oeaw.ac.at/entry__1917-08-27.html",
 "head":
 "Tagebuch, 27. August 1917",
 "desc":
{"listPerson":
  [
{
 "persName":
 "Wilhelm von Hartel",
 "ref":
 "person_15937"},
 {
 "persName":
 "Max von Hussarek-Heinlein",
 "ref":
 "person_16420"},
 {
 "persName":
 "Karl Wallner",
 "ref":
 "person_21074"},
 {
 "persName":
 "Heinrich Glücksmann",
 "ref":
 "person_15483"},
 {
 "persName":
 "Gustav Mahler",
 "ref":
 "person_17786"},
 {
 "persName":
 "Max von Millenkovich",
 "ref":
 "person_18168"},
 {
 "persName":
 "Victor Zuckerkandl",
 "ref":
 "person_21602"}],
 "listBibl":
  [
 {
 "title":
 "Fink und Fliederbusch. Komödie in drei Akten",
 "ref":
 "pmb30881"}
 ,  {
 "title":
 "Der grüne Kakadu. Groteske in einem Akt",
 "ref":
 "pmb29843"}
 ,  {
 "title":
 "Das weite Land. Tragikomödie in fünf Akten",
 "ref":
 "pmb30207"}
 ,  {
 "title":
 "Jugend in Wien",
 "ref":
 "pmb33838"}
 ,  {
 "title":
 "Professor Bernhardi. Komödie in fünf Akten",
 "ref":
 "pmb30203"}
 ,  {
 "title":
 "Der Schleier der Beatrice. Schauspiel in fünf Akten",
 "ref":
 "pmb29857"}
 ]
}
}, {
 "type":
 "schnitzler-briefe",
 "color":
 "#A63437",
 "filename":
 "L02269",
 "caption":
 "Briefe mit Autorinnen und Autoren",
 "idno":
 "https://schnitzler-briefe.acdh.oeaw.ac.at/L02269.html",
 "head":
 "Arthur Schnitzler an Robert Adam, 27. 8. 1917",
 "desc":
{"listPerson":
  [
{
 "persName":
 "Arthur Schnitzler",
 "ref":
 "pmb2121"},
 {
 "persName":
 "Robert Adam",
 "ref":
 "pmb12438"},
 {
 "persName":
 "Robert Adam",
 "ref":
 "pmb12438"}],
 "listPlace":
  [
 {
 "placeName":
 "XVIII., Währing",
 "ref":
 "pmb68"}
 ,  {
 "placeName":
 "Wien",
 "ref":
 "pmb50"}
 ,  {
 "placeName":
 "VIII., Josefstadt",
 "ref":
 "pmb58"}
 ,  {
 "placeName":
 "Sternwartestraße 71",
 "ref":
 "pmb168815"}
 ,  {
 "placeName":
 "XII., Meidling",
 "ref":
 "pmb62"}
 ,  {
 "placeName":
 "Meidlinger Hauptstraße",
 "ref":
 "pmb1239"}
 ]
}
}, {
 "type":
 "schnitzler-briefe",
 "color":
 "#A63437",
 "filename":
 "L02270",
 "caption":
 "Briefe mit Autorinnen und Autoren",
 "idno":
 "https://schnitzler-briefe.acdh.oeaw.ac.at/L02270.html",
 "head":
 "Thomas Mann an Arthur Schnitzler, 27. 8. 1917",
 "desc":
{"listPerson":
  [
{
 "persName":
 "Thomas Mann",
 "ref":
 "pmb12176"},
 {
 "persName":
 "Arthur Schnitzler",
 "ref":
 "pmb2121"},
 {
 "persName":
 "Thomas Mann",
 "ref":
 "pmb12176"},
 {
 "persName":
 "Molière",
 "ref":
 "pmb3272"}],
 "listBibl":
  [
 {
 "title":
 "Doktor Gräsler, Badearzt",
 "ref":
 "pmb30201"}
 ,  {
 "title":
 "Betrachtungen eines Unpolitischen",
 "ref":
 "pmb33598"}
 ,  {
 "title":
 "Scapins Streiche",
 "ref":
 "pmb33596"}
 ],
 "listPlace":
  [
 {
 "placeName":
 "Bad Tölz",
 "ref":
 "pmb424"}
 ,  {
 "placeName":
 "Wien",
 "ref":
 "pmb50"}
 ],
 "listOrg":
  [
 {
 "orgName":
 "S. Fischer Verlag",
 "ref":
 "pmb29639"}
 ]
}
}, {
 "type":
 "wienerschnitzler",
 "color":
 "#6F5106",
 "caption":
 "Wiener Schnitzler",
 "idno":
 "https://wienerschnitzler.org/tag.html#1917-08-27",
 "head":
 "Wien",
 "desc":
{"listPlace":
  [
 {
 "placeName":
 "VII., Neubau",
 "ref":
 ""}
 ,  {
 "placeName":
 "XVIII., Währing",
 "ref":
 ""}
 ,  {
 "placeName":
 "I., Innere Stadt",
 "ref":
 ""}
 ]
}
}] 