[{
 "type":
 "schnitzler-tagebuch",
 "color":
 "#037a33",
 "filename":
 "entry__1917-04-15",
 "caption":
 "Tagebuch",
 "idno":
 "https://schnitzler-tagebuch.acdh.oeaw.ac.at/entry__1917-04-15.html",
 "head":
 "Tagebuch, 15. April 1917",
 "desc":
{"listPerson":
  [
{
 "persName":
 "John Field",
 "ref":
 "person_14977"},
 {
 "persName":
 "Gertrude Felice von Landesberger",
 "ref":
 "person_19227"},
 {
 "persName":
 "Moritz Rosenthal",
 "ref":
 "person_19394"},
 {
 "persName":
 "Malvine Schönherr",
 "ref":
 "person_19851"},
 {
 "persName":
 "Anna Donath",
 "ref":
 "person_14481"}],
 "listBibl":
  [
 {
 "title":
 "Der letzte Brief eines Literaten",
 "ref":
 "pmb30893"}
 ],
 "listPlace":
  [
 {
 "placeName":
 "Neuwaldegg",
 "ref":
 "pmb170"}
 ]
}
}, {
 "type":
 "schnitzler-orte",
 "color":
 "#045344",
 "caption":
 "Aufenthaltsorte",
 "head":
 "Wien",
 "desc":
{"listPlace":
  [
 {
 "placeName":
 "XVII., Hernals",
 "ref":
 ""}
 ,  {
 "placeName":
 "III., Landstraße",
 "ref":
 ""}
 ,  {
 "placeName":
 "XVIII., Währing",
 "ref":
 ""}
 ,  {
 "placeName":
 "XVII., Hernals",
 "ref":
 ""}
 ,  {
 "placeName":
 "III., Landstraße",
 "ref":
 ""}
 ,  {
 "placeName":
 "XVIII., Währing",
 "ref":
 ""}
 ]
}
}, {
 "type":
 "schnitzler-orte",
 "color":
 "#045344",
 "caption":
 "Aufenthaltsorte",
 "head":
 "Wien",
 "desc":
{"listPlace":
  [
 {
 "placeName":
 "XVII., Hernals",
 "ref":
 ""}
 ,  {
 "placeName":
 "III., Landstraße",
 "ref":
 ""}
 ,  {
 "placeName":
 "XVIII., Währing",
 "ref":
 ""}
 ,  {
 "placeName":
 "XVII., Hernals",
 "ref":
 ""}
 ,  {
 "placeName":
 "III., Landstraße",
 "ref":
 ""}
 ,  {
 "placeName":
 "XVIII., Währing",
 "ref":
 ""}
 ]
}
}, {
 "type":
 "schnitzler-orte",
 "color":
 "#045344",
 "caption":
 "Aufenthaltsorte",
 "head":
 "Klosterneuburg",
 "desc":
{"listPlace":
  [
 {
 "placeName":
 "Rotes Kreuz",
 "ref":
 ""}
 ]
}
}, {
 "type":
 "schnitzler-events",
 "color":
 "#9BC53D",
 "filename":
 "entity/209878/",
 "caption":
 "Ereignisse in der PMB",
 "idno":
 "https://pmb.acdh.oeaw.ac.at/entity/209878/",
 "head":
 "Historischer Zyklus V, 15.4.1917",
 "desc":
{"listPerson":
  [
{
 "persName":
 "Moritz Rosenthal",
 "ref":
 ""},
 {
 "persName":
 "Arthur Schnitzler",
 "ref":
 ""}]
}
}] 