[{
 "type":
 "schnitzler-tagebuch",
 "color":
 "#037a33",
 "filename":
 "entry__1917-05-05",
 "caption":
 "Tagebuch",
 "idno":
 "https://schnitzler-tagebuch.acdh.oeaw.ac.at/entry__1917-05-05.html",
 "head":
 "Tagebuch, 5. Mai 1917",
 "desc":
{"listPerson":
  [
{
 "persName":
 "Elisabeth Bergner",
 "ref":
 "person_13643"},
 {
 "persName":
 "Adolf Oswald von Dubsky-Třembomyslic",
 "ref":
 "person_14531"},
 {
 "persName":
 "Sigmund Ehrlich",
 "ref":
 "person_14656"},
 {
 "persName":
 "Heinrich Hierhammer",
 "ref":
 "person_16189"},
 {
 "persName":
 "Viktor von Horsetzky-Hornthal",
 "ref":
 "person_16386"},
 {
 "persName":
 "Alfred Reucker",
 "ref":
 "person_19208"},
 {
 "persName":
 "Rudolf Urbantschitsch",
 "ref":
 "person_20892"},
 {
 "persName":
 "Arthur Kaufmann",
 "ref":
 "person_16770"},
 {
 "persName":
 "Max von Millenkovich",
 "ref":
 "person_18168"}],
 "listBibl":
  [
 {
 "title":
 "Fink und Fliederbusch. Komödie in drei Akten",
 "ref":
 "pmb30881"}
 ,  {
 "title":
 "Der Berner Totentanz",
 "ref":
 "pmb80951"}
 ,  {
 "title":
 "Das Urner Spiel von Wilhelm Tell",
 "ref":
 "pmb81342"}
 ,  {
 "title":
 "Comedia von zweien jungen Eheleuten",
 "ref":
 "pmb81365"}
 ],
 "listPlace":
  [
 {
 "placeName":
 "Greifenstein",
 "ref":
 "pmb90763"}
 ,  {
 "placeName":
 "Hadersfeld",
 "ref":
 "pmb90813"}
 ,  {
 "placeName":
 "Kritzendorf",
 "ref":
 "pmb91077"}
 ,  {
 "placeName":
 "Burgtheater",
 "ref":
 "pmb14"}
 ,  {
 "placeName":
 "Ortles",
 "ref":
 "pmb91409"}
 ,  {
 "placeName":
 "Zürich",
 "ref":
 "pmb484"}
 ]
}
}, {
 "type":
 "URL",
 "subtype":
 "wienerschnitzler",
 "head":
 "Wien",
 "desc":
{"listPlace":
  [
 {
 "placeName":
 "VIII., Josefstadt",
 "ref":
 ""}
 ,  {
 "placeName":
 "I., Innere Stadt",
 "ref":
 ""}
 ,  {
 "placeName":
 "XVIII., Währing",
 "ref":
 ""}
 ]
}
}, {
 "type":
 "URL",
 "subtype":
 "wienerschnitzler",
 "head":
 "Kritzendorf"
}, {
 "type":
 "URL",
 "subtype":
 "wienerschnitzler",
 "head":
 "Klosterneuburg",
 "desc":
{"listPlace":
  [
 {
 "placeName":
 "Stiftskeller Klosterneuburg",
 "ref":
 ""}
 ]
}
}, {
 "type":
 "URL",
 "subtype":
 "wienerschnitzler",
 "head":
 "St. Andrä-Wördern",
 "desc":
{"listPlace":
  [
 {
 "placeName":
 "Hadersfeld",
 "ref":
 ""}
 ]
}
}, {
 "type":
 "schnitzler-events",
 "color":
 "#9BC53D",
 "filename":
 "entity/209883/",
 "caption":
 "Ereignisse in der PMB",
 "idno":
 "https://pmb.acdh.oeaw.ac.at/entity/209883/",
 "head":
 "Aufführung von Der Berner Totentanz, Das Urner Spiel von Wilhelm Tell, Comedia von zweien jungen Eheleuten, 5.5.1917",
 "desc":
{"listOrg":
  [
 {
 "orgName":
 "Stadttheater [Zürich]",
 "ref":
 ""}
 ],
 "listBibl":
  [
 {
 "title":
 "Der Berner Totentanz",
 "ref":
 ""}
 ,  {
 "title":
 "Das Urner Spiel von Wilhelm Tell",
 "ref":
 ""}
 ,  {
 "title":
 "Comedia von zweien jungen Eheleuten",
 "ref":
 ""}
 ],
 "listPerson":
  [
{
 "persName":
 "Arthur Schnitzler",
 "ref":
 ""}],
 "listPlace":
  [
 {
 "placeName":
 "Wiener Stadttheater [8. Wiener Gemeindebezirk]",
 "ref":
 ""}
 ]
}
}] 