[{
 "type":
 "schnitzler-tagebuch",
 "color":
 "#037a33",
 "filename":
 "entry__1917-04-26",
 "caption":
 "Tagebuch",
 "idno":
 "https://schnitzler-tagebuch.acdh.oeaw.ac.at/entry__1917-04-26.html",
 "head":
 "Tagebuch, 26. April 1917",
 "desc":
{"listPerson":
  [
{
 "persName":
 "Clara Büdding",
 "ref":
 "person_14048"},
 {
 "persName":
 "Gisela Hajek",
 "ref":
 "person_15854"},
 {
 "persName":
 "Hohenzollern",
 "ref":
 "person_16310"},
 {
 "persName":
 "Heinrich Kanner",
 "ref":
 "person_16687"},
 {
 "persName":
 "Else Keller",
 "ref":
 "person_16793"},
 {
 "persName":
 "Elsa Landesberger",
 "ref":
 "person_17277"},
 {
 "persName":
 "Rudolf Lothar",
 "ref":
 "person_17696"},
 {
 "persName":
 "Peter Nansen",
 "ref":
 "person_18355"},
 {
 "persName":
 "Melanie Perisič",
 "ref":
 "person_18716"},
 {
 "persName":
 "Gertrude Felice von Landesberger",
 "ref":
 "person_19227"},
 {
 "persName":
 "Felix Salten",
 "ref":
 "person_19542"},
 {
 "persName":
 "René Schickele",
 "ref":
 "person_19676"},
 {
 "persName":
 "Julius Schnitzler",
 "ref":
 "person_19827"},
 {
 "persName":
 "Kurt Sonnenfeld",
 "ref":
 "person_20201"},
 {
 "persName":
 "Elisabeth von Landesberger",
 "ref":
 "person_20543"},
 {
 "persName":
 "Anna von Suppé",
 "ref":
 "person_20573"},
 {
 "persName":
 "Pauline von Suppè",
 "ref":
 "person_20576"},
 {
 "persName":
 "Wilhelm von Preußen",
 "ref":
 "person_21336"},
 {
 "persName":
 "Berta Zuckerkandl",
 "ref":
 "person_21594"},
 {
 "persName":
 "Hugo von Hofmannsthal",
 "ref":
 "person_16293"},
 {
 "persName":
 "Fritz von Unruh",
 "ref":
 "person_20885"}],
 "listBibl":
  [
 {
 "title":
 "Fink und Fliederbusch. Komödie in drei Akten",
 "ref":
 "pmb30881"}
 ,  {
 "title":
 "Die Brüder Menthe",
 "ref":
 "pmb32095"}
 ,  {
 "title":
 "Ein Geschlecht",
 "ref":
 "pmb32326"}
 ],
 "listPlace":
  [
 {
 "placeName":
 "Schweiz",
 "ref":
 "pmb43435"}
 ,  {
 "placeName":
 "England",
 "ref":
 "pmb90593"}
 ,  {
 "placeName":
 "Österreich",
 "ref":
 "pmb41240"}
 ,  {
 "placeName":
 "Preußen",
 "ref":
 "pmb206"}
 ,  {
 "placeName":
 "Zürich",
 "ref":
 "pmb484"}
 ]
}
}, {
 "type":
 "wienerschnitzler",
 "color":
 "#6F5106",
 "caption":
 "Wiener Schnitzler",
 "idno":
 "https://wienerschnitzler.org/tag.html#1917-04-26",
 "head":
 "Wien",
 "desc":
{"listPlace":
  [
 {
 "placeName":
 "IX., Alsergrund",
 "ref":
 ""}
 ,  {
 "placeName":
 "I., Innere Stadt",
 "ref":
 ""}
 ,  {
 "placeName":
 "XVIII., Währing",
 "ref":
 ""}
 ]
}
}] 