[{
 "type":
 "schnitzler-tagebuch",
 "color":
 "#037a33",
 "filename":
 "entry__1917-09-04",
 "caption":
 "Tagebuch",
 "idno":
 "https://schnitzler-tagebuch.acdh.oeaw.ac.at/entry__1917-09-04.html",
 "head":
 "Tagebuch, 4. September 1917",
 "desc":
{"listPerson":
  [
{
 "persName":
 "Efraim Frisch",
 "ref":
 "person_15253"},
 {
 "persName":
 "Marie Glümer",
 "ref":
 "person_15485"},
 {
 "persName":
 "Anne-Elisabeth Kösters",
 "ref":
 "person_16984"},
 {
 "persName":
 "Paul Marx",
 "ref":
 "person_17958"},
 {
 "persName":
 "Elisabeth Steinrück",
 "ref":
 "person_20386"},
 {
 "persName":
 "Albert Steinrück",
 "ref":
 "person_20383"},
 {
 "persName":
 "Clemens von Franckenstein",
 "ref":
 "person_15115"},
 {
 "persName":
 "Bruno Walter",
 "ref":
 "person_21080"}],
 "listBibl":
  [
 {
 "title":
 "Fink und Fliederbusch. Komödie in drei Akten",
 "ref":
 "pmb30881"}
 ],
 "listPlace":
  [
 {
 "placeName":
 "München",
 "ref":
 "pmb45258"}
 ,  {
 "placeName":
 "Tivolistraße",
 "ref":
 "pmb92568"}
 ,  {
 "placeName":
 "Garmisch-Partenkirchen",
 "ref":
 "pmb667"}
 ]
}
}, {
 "type":
 "URL",
 "subtype":
 "wienerschnitzler",
 "head":
 "München",
 "desc":
{"listPlace":
  [
 {
 "placeName":
 "Hauptbahnhof München",
 "ref":
 ""}
 ,  {
 "placeName":
 "Königlich Bayerische Hoftheater",
 "ref":
 ""}
 ,  {
 "placeName":
 "Tivolistraße 1",
 "ref":
 ""}
 ,  {
 "placeName":
 "Pfälzer Weinstube",
 "ref":
 ""}
 ]
}
}, {
 "type":
 "URL",
 "subtype":
 "wienerschnitzler",
 "head":
 "Garmisch-Partenkirchen",
 "desc":
{"listPlace":
  [
 {
 "placeName":
 "Partenkirchen",
 "ref":
 ""}
 ,  {
 "placeName":
 "Bahnhof Garmisch-Partenkirchen",
 "ref":
 ""}
 ]
}
}] 