[{
 "type":
 "schnitzler-tagebuch",
 "color":
 "#037a33",
 "filename":
 "entry__1917-02-01",
 "caption":
 "Tagebuch",
 "idno":
 "https://schnitzler-tagebuch.acdh.oeaw.ac.at/entry__1917-02-01.html",
 "head":
 "Tagebuch, 1. Februar 1917",
 "desc":
{"listPerson":
  [
{
 "persName":
 "Stefanie Bachrach",
 "ref":
 "person_13359"},
 {
 "persName":
 "Ludwig van Beethoven",
 "ref":
 "person_13555"},
 {
 "persName":
 "Johann Wolfgang von Goethe",
 "ref":
 "person_15499"},
 {
 "persName":
 "Carl Hagemann",
 "ref":
 "person_15840"},
 {
 "persName":
 "Franz Klein",
 "ref":
 "person_16885"},
 {
 "persName":
 "Charles Leyst",
 "ref":
 "person_17499"},
 {
 "persName":
 "Max von Oberleithner",
 "ref":
 "person_18511"},
 {
 "persName":
 "Gunther Plüschow",
 "ref":
 "person_18836"},
 {
 "persName":
 "Woldemar Runge",
 "ref":
 "person_19472"},
 {
 "persName":
 "Hermann Stehr",
 "ref":
 "person_20343"},
 {
 "persName":
 "Ullstein",
 "ref":
 "person_20870"},
 {
 "persName":
 "Victor Barnowsky",
 "ref":
 "person_13428"},
 {
 "persName":
 "von Oberleithner",
 "ref":
 "person_18510"},
 {
 "persName":
 "Karl Wallner",
 "ref":
 "person_21074"},
 {
 "persName":
 "Alexandre père Dumas",
 "ref":
 "person_14547"}],
 "listBibl":
  [
 {
 "title":
 "Die Frau des Richters. Novelle",
 "ref":
 "pmb30751"}
 ,  {
 "title":
 "Jugend in Wien",
 "ref":
 "pmb33838"}
 ,  {
 "title":
 "Der Weg ins Freie. Roman",
 "ref":
 "pmb29923"}
 ,  {
 "title":
 "Mémoires d’un médecin",
 "ref":
 "pmb77784"}
 ,  {
 "title":
 "Der abenteuerliche Simplicissimus Teutsch",
 "ref":
 "pmb80632"}
 ,  {
 "title":
 "Talleyrand",
 "ref":
 "pmb78968"}
 ,  {
 "title":
 "Der eiserne Heiland",
 "ref":
 "pmb81069"}
 ,  {
 "title":
 "Die Abenteuer des Fliegers von Tsingtau. Meine Erlebnisse in 3 Erdteilen",
 "ref":
 "pmb79035"}
 ,  {
 "title":
 "Das Abendrot. Novellen",
 "ref":
 "pmb78474"}
 ],
 "listPlace":
  [
 {
 "placeName":
 "Deutsches Volkstheater",
 "ref":
 "pmb92202"}
 ,  {
 "placeName":
 "Berlin",
 "ref":
 "pmb168"}
 ,  {
 "placeName":
 "Breslau",
 "ref":
 "pmb677"}
 ]
}
}, {
 "type":
 "schnitzler-orte",
 "color":
 "#045344",
 "caption":
 "Aufenthaltsorte",
 "head":
 "Wien",
 "desc":
{"listPlace":
  [
 {
 "placeName":
 "I., Innere Stadt",
 "ref":
 ""}
 ,  {
 "placeName":
 "XVIII., Währing",
 "ref":
 ""}
 ]
}
}, {
 "type":
 "schnitzler-bahr",
 "color":
 "#639FF9",
 "filename":
 "D041481",
 "caption":
 "Schnitzler/Bahr",
 "idno":
 "https://schnitzler-bahr.acdh.oeaw.ac.at/D041481.html",
 "head":
 "Bahr: [Reiseplanung für Wienaufenthalt], [Februar 1917]",
 "desc":
{"listPerson":
  [
{
 "persName":
 "Hermann Bahr",
 "ref":
 "pmb10815"},
 {
 "persName":
 "Joseph Eberle",
 "ref":
 "pmb3727"},
 {
 "persName":
 "Jan Verkade",
 "ref":
 "pmb28262"},
 {
 "persName":
 "Adele Benedikt",
 "ref":
 "pmb27790"},
 {
 "persName":
 "Richard Beer-Hofmann",
 "ref":
 "pmb10863"},
 {
 "persName":
 "Richard Kralik",
 "ref":
 "pmb3731"},
 {
 "persName":
 "Felix Salten",
 "ref":
 "pmb2167"},
 {
 "persName":
 "Sadoc Szabó",
 "ref":
 "pmb28261"},
 {
 "persName":
 "Josef Redlich",
 "ref":
 "pmb12481"},
 {
 "persName":
 "Dora Breisach",
 "ref":
 "pmb27826"},
 {
 "persName":
 "Irene Hellmann",
 "ref":
 "pmb18084"},
 {
 "persName":
 "Wilhelm Singer",
 "ref":
 "pmb2202"},
 {
 "persName":
 "Adolf Gelber",
 "ref":
 "pmb16958"},
 {
 "persName":
 "Moriz Benedikt",
 "ref":
 "pmb10875"},
 {
 "persName":
 "Julian Sternberg",
 "ref":
 "pmb3021"},
 {
 "persName":
 "Viktor von Fuchs",
 "ref":
 "pmb28625"},
 {
 "persName":
 "Koloman Moser",
 "ref":
 "pmb3280"},
 {
 "persName":
 "Jaroslav von Thun-Hohenstein",
 "ref":
 "pmb12954"},
 {
 "persName":
 "Zdenko von Lobkowitz",
 "ref":
 "pmb4291"},
 {
 "persName":
 "Konrad von Hohenlohe-Schillingsfürst",
 "ref":
 "pmb2686"},
 {
 "persName":
 "Hugo Heller",
 "ref":
 "pmb11646"},
 {
 "persName":
 "Pauline von Metternich-Sándor",
 "ref":
 "pmb12231"},
 {
 "persName":
 "Leopold Jacobson",
 "ref":
 "pmb3579"},
 {
 "persName":
 "Leopold von Andrian-Werburg",
 "ref":
 "pmb10765"},
 {
 "persName":
 "Christiane von Thun-Hohenstein-Salm-Reifferscheidt",
 "ref":
 "pmb26046"},
 {
 "persName":
 "Ludwig Klinenberger",
 "ref":
 "pmb3916"},
 {
 "persName":
 "Wilhelm Eisner-Buba",
 "ref":
 "pmb28336"}],
 "listPlace":
  [
 {
 "placeName":
 "Nußwaldgasse",
 "ref":
 "pmb371"}
 ,  {
 "placeName":
 "Karmeliterkirche",
 "ref":
 "pmb381"}
 ,  {
 "placeName":
 "Wohllebengasse",
 "ref":
 "pmb382"}
 ,  {
 "placeName":
 "Hasenauerstraße",
 "ref":
 "pmb383"}
 ,  {
 "placeName":
 "Richard-Kralik-Platz",
 "ref":
 "pmb384"}
 ,  {
 "placeName":
 "Sternwartestraße",
 "ref":
 "pmb150"}
 ,  {
 "placeName":
 "Postgasse",
 "ref":
 "pmb385"}
 ,  {
 "placeName":
 "Riedlingen",
 "ref":
 "pmb40253"}
 ,  {
 "placeName":
 "Lugeck",
 "ref":
 "pmb786"}
 ,  {
 "placeName":
 "Jordangasse",
 "ref":
 "pmb444"}
 ,  {
 "placeName":
 "Am Hof",
 "ref":
 "pmb498"}
 ,  {
 "placeName":
 "Fasangasse",
 "ref":
 "pmb528"}
 ,  {
 "placeName":
 "Hoher Markt",
 "ref":
 "pmb529"}
 ,  {
 "placeName":
 "Sinapalais",
 "ref":
 "pmb787"}
 ],
 "listOrg":
  [
 {
 "orgName":
 "Deutsche Passstelle",
 "ref":
 "pmb29788"}
 ,  {
 "orgName":
 "Kaiser Karl-Gesellschaft",
 "ref":
 "pmb29760"}
 ,  {
 "orgName":
 "Neues Wiener Journal",
 "ref":
 "pmb29320"}
 ,  {
 "orgName":
 "Neue Freie Presse",
 "ref":
 "pmb29351"}
 ]
}
}] 