[{
 "type":
 "Arthur-Schnitzler-digital",
 "color":
 "#801e23",
 "caption":
 "Arthur Schnitzler digital (Werke 1905–1931)",
 "idno":
 "https://www.schnitzler-edition.net/Dokumentarisch/Dokumentklasse/GRA_DJ_0102",
 "head":
 "Doktor Gräsler, Badearzt, Journaldruck"
}, {
 "type":
 "schnitzler-tagebuch",
 "color":
 "#037a33",
 "filename":
 "entry__1917-02-25",
 "caption":
 "Tagebuch",
 "idno":
 "https://schnitzler-tagebuch.acdh.oeaw.ac.at/entry__1917-02-25.html",
 "head":
 "Tagebuch, 25. Februar 1917",
 "desc":
{"listPerson":
  [
{
 "persName":
 "Stefanie Bachrach",
 "ref":
 "person_13359"},
 {
 "persName":
 "Felix Mendelssohn-Bartholdy",
 "ref":
 "person_18066"},
 {
 "persName":
 "Heinrich Schnitzler",
 "ref":
 "person_19822"},
 {
 "persName":
 "Victor Zuckerkandl",
 "ref":
 "person_21602"}],
 "listBibl":
  [
 {
 "title":
 "Die Frau des Richters. Novelle",
 "ref":
 "pmb30751"}
 ,  {
 "title":
 "Jugend in Wien",
 "ref":
 "pmb33838"}
 ,  {
 "title":
 "Symphonie Nr. 4 A-Dur op. 90",
 "ref":
 "pmb80998"}
 ],
 "listPlace":
  [
 {
 "placeName":
 "Budapest",
 "ref":
 "pmb43471"}
 ]
}
}, {
 "type":
 "schnitzler-briefe",
 "color":
 "#A63437",
 "filename":
 "L03660",
 "caption":
 "Briefe mit Autorinnen und Autoren",
 "idno":
 "https://schnitzler-briefe.acdh.oeaw.ac.at/L03660.html",
 "head":
 "Stefan Zweig an Arthur Schnitzler, 25. 2. 1917",
 "desc":
{"listPerson":
  [
{
 "persName":
 "Stefan Zweig",
 "ref":
 "pmb13212"},
 {
 "persName":
 "Arthur Schnitzler",
 "ref":
 "pmb2121"},
 {
 "persName":
 "Stefan Zweig",
 "ref":
 "pmb13212"},
 {
 "persName":
 "Olga Schnitzler",
 "ref":
 "pmb2173"}],
 "listBibl":
  [
 {
 "title":
 "Fink und Fliederbusch. Komödie in drei Akten",
 "ref":
 "pmb30881"}
 ],
 "listPlace":
  [
 {
 "placeName":
 "Bern",
 "ref":
 "pmb1223"}
 ,  {
 "placeName":
 "Feldkirch",
 "ref":
 "pmb44368"}
 ,  {
 "placeName":
 "XVIII., Währing",
 "ref":
 "pmb68"}
 ,  {
 "placeName":
 "Wien",
 "ref":
 "pmb50"}
 ,  {
 "placeName":
 "Sternwartestraße 71",
 "ref":
 "pmb168815"}
 ,  {
 "placeName":
 "Österreich",
 "ref":
 "pmb41240"}
 ,  {
 "placeName":
 "Genfer See",
 "ref":
 "pmb512"}
 ,  {
 "placeName":
 "Ouchy",
 "ref":
 "pmb36464"}
 ],
 "listOrg":
  [
 {
 "orgName":
 "k.u.k. Österreichisch-ungarische Gesandtschaft in der Schweiz",
 "ref":
 "pmb293781"}
 ]
}
}, {
 "type":
 "wienerschnitzler",
 "color":
 "#6F5106",
 "caption":
 "Wiener Schnitzler",
 "idno":
 "https://wienerschnitzler.org/tag.html#1917-02-25",
 "head":
 "Wien",
 "desc":
{"listPlace":
  [
 {
 "placeName":
 "XIX., Döbling",
 "ref":
 ""}
 ,  {
 "placeName":
 "XVIII., Währing",
 "ref":
 ""}
 ]
}
}] 