[{
 "type":
 "schnitzler-tagebuch",
 "color":
 "#037a33",
 "filename":
 "entry__1917-05-15",
 "caption":
 "Tagebuch",
 "idno":
 "https://schnitzler-tagebuch.acdh.oeaw.ac.at/entry__1917-05-15.html",
 "head":
 "Tagebuch, 15. Mai 1917",
 "desc":
{"listPerson":
  [
{
 "persName":
 "Stefanie Bachrach",
 "ref":
 "person_13359"},
 {
 "persName":
 "Lili Schnitzler",
 "ref":
 "person_14130"},
 {
 "persName":
 "Knut Hamsun",
 "ref":
 "person_15894"},
 {
 "persName":
 "Heinrich Schnitzler",
 "ref":
 "person_19822"},
 {
 "persName":
 "Helene Schnitzler",
 "ref":
 "person_19823"},
 {
 "persName":
 "Julius Schnitzler",
 "ref":
 "person_19827"},
 {
 "persName":
 "Anna Donath",
 "ref":
 "person_14481"}],
 "listBibl":
  [
 {
 "title":
 "Die Stadt Segelfoß",
 "ref":
 "pmb78029"}
 ],
 "listPlace":
  [
 {
 "placeName":
 "Hellbrunn",
 "ref":
 "pmb31"}
 ,  {
 "placeName":
 "Salzach",
 "ref":
 "pmb91647"}
 ]
}
}, {
 "type":
 "schnitzler-briefe",
 "color":
 "#A63437",
 "filename":
 "L03566",
 "caption":
 "Briefe mit Autorinnen und Autoren",
 "idno":
 "https://schnitzler-briefe.acdh.oeaw.ac.at/L03566.html",
 "head":
 "Felix Salten an Arthur Schnitzler, 15. 5. 1917",
 "desc":
{"listPerson":
  [
{
 "persName":
 "Felix Salten",
 "ref":
 "pmb2167"},
 {
 "persName":
 "Oscar Wettstein",
 "ref":
 "pmb142980"},
 {
 "persName":
 "Adolf Oswald von Dubsky-Třembomyslic",
 "ref":
 "pmb15505"}],
 "listOrg":
  [
 {
 "orgName":
 "Ministerium für Äußeres",
 "ref":
 "pmb47747"}
 ],
 "listPlace":
  [
 {
 "placeName":
 "Wien",
 "ref":
 "pmb50"}
 ,  {
 "placeName":
 "Schweiz",
 "ref":
 "pmb43435"}
 ,  {
 "placeName":
 "Hotel Imperial",
 "ref":
 "pmb126"}
 ]
}
}, {
 "type":
 "schnitzler-orte",
 "color":
 "#045344",
 "caption":
 "Aufenthaltsorte",
 "head":
 "Salzburg",
 "desc":
{"listPlace":
  [
 {
 "placeName":
 "Grand Hotel de L’Europe, G. Jung",
 "ref":
 ""}
 ,  {
 "placeName":
 "Café Bazar",
 "ref":
 ""}
 ,  {
 "placeName":
 "Salzach [Stadtgebiet Salzburg]",
 "ref":
 ""}
 ,  {
 "placeName":
 "Hellbrunn",
 "ref":
 ""}
 ]
}
}, {
 "type":
 "schnitzler-traeume",
 "subtype":
 "#ISBN978-3-8353-1029-2",
 "color":
 "#1193CC",
 "caption":
 "Traumtagebuch",
 "head":
 "Traum vom 15. Mai 1917",
 "source":
 "Arthur Schnitzler: Träume. Das Traumtagebuch 1875–1931. Herausgegeben von Peter Michael Braunwarth und Leo A. Lensing. Göttingen: Wallstein 2012 (Bibliothek Janowitz, Bd. 20)"
}, {
 "type":
 "kalliope-verbund",
 "color":
 "#003574",
 "caption":
 "Kalliope Verbundkatalog",
 "idno":
 "http://kalliope-verbund.info/DE-2498-HS00037768",
 "head":
 "Berliner Theater an Schnitzler, Arthur [Briefe]",
 "text":
 "2 Bl."
}] 