[{
 "type":
 "schnitzler-tagebuch",
 "color":
 "#037a33",
 "filename":
 "entry__1917-10-22",
 "caption":
 "Tagebuch",
 "idno":
 "https://schnitzler-tagebuch.acdh.oeaw.ac.at/entry__1917-10-22.html",
 "head":
 "Tagebuch, 22. Oktober 1917",
 "desc":
{"listPerson":
  [
{
 "persName":
 "Else Speidel-Haeberle",
 "ref":
 "person_15833"},
 {
 "persName":
 "Felix Speidel",
 "ref":
 "person_20242"}],
 "listBibl":
  [
 {
 "title":
 "Die Schwestern oder Casanova in Spa. Lustspiel in Versen",
 "ref":
 "pmb30819"}
 ,  {
 "title":
 "Therese. Chronik eines Frauenlebens",
 "ref":
 "pmb30817"}
 ]
}
}, {
 "type":
 "schnitzler-briefe",
 "color":
 "#A63437",
 "filename":
 "L02277",
 "caption":
 "Briefe mit Autorinnen und Autoren",
 "idno":
 "https://schnitzler-briefe.acdh.oeaw.ac.at/L02277.html",
 "head":
 "Arthur Schnitzler an Robert Adam, 22. 10. 1917",
 "desc":
{"listPerson":
  [
{
 "persName":
 "Robert Adam",
 "ref":
 "pmb12438"}],
 "listBibl":
  [
 {
 "title":
 "Das Ende des Judas",
 "ref":
 "pmb33608"}
 ],
 "listPlace":
  [
 {
 "placeName":
 "Meidlinger Hauptstraße",
 "ref":
 "pmb1239"}
 ,  {
 "placeName":
 "Sternwartestraße 71",
 "ref":
 "pmb168815"}
 ,  {
 "placeName":
 "Wien",
 "ref":
 "pmb50"}
 ,  {
 "placeName":
 "VIII., Josefstadt",
 "ref":
 "pmb58"}
 ,  {
 "placeName":
 "XII., Meidling",
 "ref":
 "pmb62"}
 ]
}
}, {
 "type":
 "wienerschnitzler",
 "color":
 "#ECDA98",
 "caption":
 "Wiener Schnitzler",
 "idno":
 "https://wienerschnitzler.org/tag.html#1917-10-22",
 "head":
 "Wien",
 "desc":
{"listPlace":
  [
 {
 "placeName":
 "III., Landstraße",
 "ref":
 ""}
 ,  {
 "placeName":
 "XVIII., Währing",
 "ref":
 ""}
 ]
}
}, {
 "type":
 "schnitzler-events",
 "color":
 "#9BC53D",
 "filename":
 "entity/209898/",
 "caption":
 "Ereignisse in der PMB",
 "idno":
 "https://pmb.acdh.oeaw.ac.at/entity/209898/",
 "head":
 "Schweizer Musikwoche, erster Abend: Symphoniekonzert, 22.10.1917",
 "desc":
{"listPerson":
  [
{
 "persName":
 "Arthur Schnitzler",
 "ref":
 ""},
 {
 "persName":
 "Marie-Louise Debogis",
 "ref":
 ""},
 {
 "persName":
 "Fritz Brun",
 "ref":
 ""}],
 "listPlace":
  [
 {
 "placeName":
 "Wiener Konzerthaus",
 "ref":
 ""}
 ]
}
}] 