[{
 "type":
 "schnitzler-tagebuch",
 "color":
 "#037a33",
 "filename":
 "entry__1917-07-22",
 "caption":
 "Tagebuch",
 "idno":
 "https://schnitzler-tagebuch.acdh.oeaw.ac.at/entry__1917-07-22.html",
 "head":
 "Tagebuch, 22. Juli 1917",
 "desc":
{"listPerson":
  [
{
 "persName":
 "Otto Anninger",
 "ref":
 "person_13219"},
 {
 "persName":
 "Ludwig van Beethoven",
 "ref":
 "person_13555"},
 {
 "persName":
 "Gideon Ernst von Laudon",
 "ref":
 "person_17358"},
 {
 "persName":
 "Johanna Nemetschke",
 "ref":
 "person_18388"},
 {
 "persName":
 "Gertrude Felice von Landesberger",
 "ref":
 "person_19227"},
 {
 "persName":
 "Heinrich Schnitzler",
 "ref":
 "person_19822"},
 {
 "persName":
 "Arthur Kaufmann",
 "ref":
 "person_16770"}],
 "listBibl":
  [
 {
 "title":
 "Casanovas Heimfahrt",
 "ref":
 "pmb30971"}
 ,  {
 "title":
 "Klaviertrio Nr. 4 B-Dur op. 11",
 "ref":
 "pmb77156"}
 ,  {
 "title":
 "Anna Karenina. Roman",
 "ref":
 "pmb77383"}
 ],
 "listPlace":
  [
 {
 "placeName":
 "Penzing",
 "ref":
 "pmb90913"}
 ,  {
 "placeName":
 "Hinter Hainbach",
 "ref":
 "pmb92286"}
 ,  {
 "placeName":
 "Sofienalpe",
 "ref":
 "pmb92533"}
 ,  {
 "placeName":
 "Dornbacher Park",
 "ref":
 "pmb176"}
 ,  {
 "placeName":
 "Pötzleinsdorf",
 "ref":
 "pmb169"}
 ,  {
 "placeName":
 "Tegernsee",
 "ref":
 "pmb39752"}
 ]
}
}, {
 "type":
 "wienerschnitzler",
 "color":
 "#ECDA98",
 "caption":
 "Wiener Schnitzler",
 "head":
 "Wien",
 "desc":
{"listPlace":
  [
 {
 "placeName":
 "XVII., Hernals",
 "ref":
 ""}
 ,  {
 "placeName":
 "XIV., Penzing",
 "ref":
 ""}
 ,  {
 "placeName":
 "XVIII., Währing",
 "ref":
 ""}
 ]
}
}] 