[{
 "type":
 "schnitzler-tagebuch",
 "color":
 "#037a33",
 "filename":
 "entry__1918-05-23",
 "caption":
 "Tagebuch",
 "idno":
 "https://schnitzler-tagebuch.acdh.oeaw.ac.at/entry__1918-05-23.html",
 "head":
 "Tagebuch, 23. Mai 1918",
 "desc":
{"listPerson":
  [
{
 "persName":
 "Franciszek Wład",
 "ref":
 "person_21415"},
 {
 "persName":
 "Arthur Kaufmann",
 "ref":
 "person_16770"},
 {
 "persName":
 "August von Kotzebue",
 "ref":
 "person_17069"}],
 "listBibl":
  [
 {
 "title":
 "Menschenhaß und Reue",
 "ref":
 "pmb78930"}
 ,  {
 "title":
 "Meine Flucht durchs mongolische Sandmeer",
 "ref":
 "pmb81510"}
 ],
 "listPlace":
  [
 {
 "placeName":
 "Bürgeralpe",
 "ref":
 "pmb90420"}
 ,  {
 "placeName":
 "Rasing",
 "ref":
 "pmb91566"}
 ]
}
}, {
 "type":
 "wienerschnitzler",
 "color":
 "#6F5106",
 "caption":
 "Wiener Schnitzler",
 "idno":
 "https://wienerschnitzler.org/tag.html#1918-05-23",
 "head":
 "Mariazell",
 "desc":
{"listPlace":
  [
 {
 "placeName":
 "Hotel Rohrbacherhof",
 "ref":
 ""}
 ,  {
 "placeName":
 "Hotel Schwarzer Adler [Mariazell]",
 "ref":
 ""}
 ,  {
 "placeName":
 "Rasing",
 "ref":
 ""}
 ,  {
 "placeName":
 "Josefswarte",
 "ref":
 ""}
 ,  {
 "placeName":
 "Elisabethswarte",
 "ref":
 ""}
 ,  {
 "placeName":
 "Basilika Mariä Geburt",
 "ref":
 ""}
 ]
}
}, {
 "type":
 "wienerschnitzler",
 "color":
 "#6F5106",
 "caption":
 "Wiener Schnitzler",
 "idno":
 "https://wienerschnitzler.org/tag.html#1918-05-23",
 "head":
 "Bürgeralpe"
}] 