[{
 "type":
 "schnitzler-tagebuch",
 "color":
 "#037a33",
 "filename":
 "entry__1918-08-26",
 "caption":
 "Tagebuch",
 "idno":
 "https://schnitzler-tagebuch.acdh.oeaw.ac.at/entry__1918-08-26.html",
 "head":
 "Tagebuch, 26. August 1918",
 "desc":
{"listPerson":
  [
{
 "persName":
 "Ludvig Holberg",
 "ref":
 "person_16315"},
 {
 "persName":
 "Georges Manolescu",
 "ref":
 "person_17843"},
 {
 "persName":
 "Alexander Lange Kielland",
 "ref":
 "person_16835"}],
 "listBibl":
  [
 {
 "title":
 "Der politische Kannegießer",
 "ref":
 "pmb80715"}
 ,  {
 "title":
 "Novelletten",
 "ref":
 "pmb79882"}
 ,  {
 "title":
 "Ein Fürst der Diebe. Memoiren",
 "ref":
 "pmb80950"}
 ],
 "listPlace":
  [
 {
 "placeName":
 "München",
 "ref":
 "pmb45258"}
 ]
}
}, {
 "type":
 "schnitzler-briefe",
 "color":
 "#A63437",
 "filename":
 "L02301",
 "caption":
 "Briefe mit Autorinnen und Autoren",
 "idno":
 "https://schnitzler-briefe.acdh.oeaw.ac.at/L02301.html",
 "head":
 "Arthur Schnitzler an Richard Beer-Hofmann, 26. 8. 1918",
 "desc":
{"listPerson":
  [
{
 "persName":
 "Olga Schnitzler",
 "ref":
 "pmb2173"},
 {
 "persName":
 "Heinrich Schnitzler",
 "ref":
 "pmb12692"},
 {
 "persName":
 "Lili Schnitzler",
 "ref":
 "pmb2238"},
 {
 "persName":
 "Richard Beer-Hofmann",
 "ref":
 "pmb10863"},
 {
 "persName":
 "Elisabeth Steinrück",
 "ref":
 "pmb2315"},
 {
 "persName":
 "Max Reinhardt",
 "ref":
 "pmb12504"}],
 "listBibl":
  [
 {
 "title":
 "Jaákobs Traum. Ein Vorspiel",
 "ref":
 "pmb31595"}
 ,  {
 "title":
 "Die Schwestern oder Casanova in Spa. Lustspiel in Versen",
 "ref":
 "pmb30819"}
 ],
 "listOrg":
  [
 {
 "orgName":
 "Deutsches Theater Berlin",
 "ref":
 "pmb35597"}
 ],
 "listPlace":
  [
 {
 "placeName":
 "Wien",
 "ref":
 "pmb50"}
 ,  {
 "placeName":
 "Bad Ischl",
 "ref":
 "pmb213"}
 ,  {
 "placeName":
 "Grazer Straße",
 "ref":
 "pmb1220"}
 ,  {
 "placeName":
 "Sternwartestraße",
 "ref":
 "pmb150"}
 ,  {
 "placeName":
 "Salzburg",
 "ref":
 "pmb30"}
 ,  {
 "placeName":
 "München",
 "ref":
 "pmb45258"}
 ,  {
 "placeName":
 "Partenkirchen",
 "ref":
 "pmb2318"}
 ,  {
 "placeName":
 "Haus Tannenberg",
 "ref":
 "pmb808"}
 ,  {
 "placeName":
 "Salzburg-Leopoldskron",
 "ref":
 "pmb34839"}
 ,  {
 "placeName":
 "Berlin",
 "ref":
 "pmb168"}
 ]
}
}, {
 "type":
 "URL",
 "subtype":
 "wienerschnitzler",
 "head":
 "Wien",
 "desc":
{"listPlace":
  [
 {
 "placeName":
 "XV., Rudolfsheim-Fünfhaus",
 "ref":
 ""}
 ,  {
 "placeName":
 "XVIII., Währing",
 "ref":
 ""}
 ]
}
}, {
 "type":
 "URL",
 "subtype":
 "wienerschnitzler",
 "head":
 "München",
 "desc":
{"listPlace":
  [
 {
 "placeName":
 "Hotel Marienbad [München]",
 "ref":
 ""}
 ,  {
 "placeName":
 "Hauptbahnhof München",
 "ref":
 ""}
 ,  {
 "placeName":
 "Alte Börse München",
 "ref":
 ""}
 ]
}
}] 