{
 "date":
 {
 "when-iso":
 "1918-08-13",
 "written":
 "Dienstag, 13. August 1918"
},
"listEvent":
 [{
 "type":
 "schnitzler-orte",
 "idno":
 "https://pmb.acdh.oeaw.ac.at/entity/50/",
 "head":
 "Wien"
}, {
 "type":
 "schnitzler-briefe",
 "idno":
 "https://schnitzler-briefe.acdh.oeaw.ac.at/L02296.html",
 "head":
 "Richard Beer-Hofmann an Arthur Schnitzler, 13. 8. 1918",
 "desc":
{"listPerson":
  [
{
 "persName":
 "Richard Beer-Hofmann",
 "ref":
 "pmb10863"},
 {
 "persName":
 "Max Reinhardt",
 "ref":
 "pmb12504"}],
 "listPlace":
  [
 {
 "placeName":
 "Bad Ischl",
 "ref":
 "pmb213"}
 ,  {
 "placeName":
 "Wien",
 "ref":
 "pmb50"}
 ,  {
 "placeName":
 "XVIII., Währing",
 "ref":
 "pmb68"}
 ,  {
 "placeName":
 "Sternwartestraße",
 "ref":
 "pmb150"}
 ,  {
 "placeName":
 "Salzkammergut",
 "ref":
 "pmb429"}
 ,  {
 "placeName":
 "Kaiservilla",
 "ref":
 "pmb47678"}
 ,  {
 "placeName":
 "Salzburg-Leopoldskron",
 "ref":
 "pmb34839"}
 ,  {
 "placeName":
 "Salzburg",
 "ref":
 "pmb30"}
 ]}

}, {
 "type":
 "schnitzler-tagebuch",
 "idno":
 "https://schnitzler-tagebuch.acdh.oeaw.ac.at/entry__1918-08-13.html",
 "head":
 "Tagebuch, 13. August 1918",
 "desc":
{"listPerson":
  [
{
 "persName":
 "Josef Popper-Lynkeus",
 "ref":
 "person_18916"},
 {
 "persName":
 "Alice Schmutzer",
 "ref":
 "person_19783"},
 {
 "persName":
 "Elisabeth Steinrück",
 "ref":
 "person_20386"},
 {
 "persName":
 "Fritz Wittels",
 "ref":
 "person_21406"}],
 "listBibl":
  [
 {
 "title":
 "Jugend in Wien",
 "ref":
 "pmb33838"}
 ,  {
 "title":
 "Die allgemeine Nährpflicht als Lösung der sozialen Frage",
 "ref":
 "pmb78105"}
 ],
 "listPlace":
  [
 {
 "placeName":
 "Dornbacher Park",
 "ref":
 "pmb176"}
 ,  {
 "placeName":
 "München",
 "ref":
 "pmb45258"}
 ,  {
 "placeName":
 "Stuttgart",
 "ref":
 "pmb872"}
 ,  {
 "placeName":
 "Istanbul",
 "ref":
 "pmb966"}
 ]}

}] 
}