[{
 "type":
 "schnitzler-tagebuch",
 "color":
 "#037a33",
 "filename":
 "entry__1918-03-24",
 "caption":
 "Tagebuch",
 "idno":
 "https://schnitzler-tagebuch.acdh.oeaw.ac.at/entry__1918-03-24.html",
 "head":
 "Tagebuch, 24. März 1918",
 "desc":
{"listPerson":
  [
{
 "persName":
 "Gabriel Beer-Hofmann",
 "ref":
 "person_13547"},
 {
 "persName":
 "Richard Beer-Hofmann",
 "ref":
 "person_13551"},
 {
 "persName":
 "Efraim Frisch",
 "ref":
 "person_15253"},
 {
 "persName":
 "Wilhelm Gutheil",
 "ref":
 "person_15765"},
 {
 "persName":
 "Marie Gutheil-Schoder",
 "ref":
 "person_15766"},
 {
 "persName":
 "Hans Pfitzner",
 "ref":
 "person_18745"},
 {
 "persName":
 "Heinrich Schnitzler",
 "ref":
 "person_19822"},
 {
 "persName":
 "Marianne Giustiniani",
 "ref":
 "person_21600"},
 {
 "persName":
 "Anna Bahr-Mildenburg",
 "ref":
 "person_13376"},
 {
 "persName":
 "Samuel Fischer",
 "ref":
 "person_15009"},
 {
 "persName":
 "Gustav Mahler",
 "ref":
 "person_17786"}],
 "listPlace":
  [
 {
 "placeName":
 "Döbling",
 "ref":
 "pmb64219"}
 ,  {
 "placeName":
 "Hermannskogel",
 "ref":
 "pmb90863"}
 ,  {
 "placeName":
 "Salmannsdorf",
 "ref":
 "pmb91641"}
 ]
}
}, {
 "type":
 "URL",
 "subtype":
 "wienerschnitzler",
 "head":
 "Wien",
 "desc":
{"listPlace":
  [
 {
 "placeName":
 "XIX., Döbling",
 "ref":
 ""}
 ,  {
 "placeName":
 "XVII., Hernals",
 "ref":
 ""}
 ,  {
 "placeName":
 "XVIII., Währing",
 "ref":
 ""}
 ]
}
}, {
 "type":
 "schnitzler-bahr",
 "color":
 "#639FF9",
 "filename":
 "D041544",
 "caption":
 "Schnitzler/Bahr",
 "idno":
 "https://schnitzler-bahr.acdh.oeaw.ac.at/D041544.html",
 "head":
 "Tagebuch von Schnitzler, 24. 3. 1918",
 "desc":
{"listPerson":
  [
{
 "persName":
 "Samuel Fischer",
 "ref":
 "pmb11324"},
 {
 "persName":
 "Marianne Giustiniani",
 "ref":
 "pmb2753"},
 {
 "persName":
 "Marie Gutheil-Schoder",
 "ref":
 "pmb2349"},
 {
 "persName":
 "Olga Schnitzler",
 "ref":
 "pmb2173"},
 {
 "persName":
 "Hans Pfitzner",
 "ref":
 "pmb2674"},
 {
 "persName":
 "Gustav Mahler",
 "ref":
 "pmb12163"},
 {
 "persName":
 "Anna Bahr-Mildenburg",
 "ref":
 "pmb10818"},
 {
 "persName":
 "Ephraim Frisch",
 "ref":
 "pmb28366"},
 {
 "persName":
 "Gabriel Beer-Hofmann",
 "ref":
 "pmb13923"},
 {
 "persName":
 "Richard Beer-Hofmann",
 "ref":
 "pmb10863"},
 {
 "persName":
 "Heinrich Schnitzler",
 "ref":
 "pmb12692"}],
 "listPlace":
  [
 {
 "placeName":
 "Sievering",
 "ref":
 "pmb288"}
 ,  {
 "placeName":
 "Salmannsdorf",
 "ref":
 "pmb242"}
 ,  {
 "placeName":
 "Österreich",
 "ref":
 "pmb41240"}
 ],
 "listOrg":
  [
 {
 "orgName":
 "S. Fischer Verlag",
 "ref":
 "pmb29639"}
 ]
}
}, {
 "type":
 "kalliope-verbund",
 "color":
 "#003574",
 "caption":
 "Kalliope Verbundkatalog",
 "idno":
 "http://kalliope-verbund.info/DE-2498-HS00040177",
 "head":
 "Mannheimer, Georg an Schnitzler, Arthur [Briefe]",
 "text":
 "2 Bl.",
 "desc":
{"listPerson":
  [
{
 "persName":
 "Georg (1887-1942) Mannheimer",
 "ref":
 "http://d-nb.info/gnd/116734639"}]
}
}] 