{
 "date":
 {
 "when-iso":
 "1918-08-24",
 "written":
 "Samstag, 24. August 1918"
},
"listEvent":
 [{
 "type":
 "schnitzler-orte",
 "idno":
 "https://pmb.acdh.oeaw.ac.at/entity/50/",
 "head":
 "Wien"
}, {
 "type":
 "schnitzler-briefe",
 "idno":
 "https://schnitzler-briefe.acdh.oeaw.ac.at/L02299.html",
 "head":
 "Arthur Schnitzler an Hermann Bahr, 24. 8. 1918",
 "desc":
{"listPerson":
  [
{
 "persName":
 "Hermann Bahr",
 "ref":
 "pmb10815"},
 {
 "persName":
 "Heinrich Schnitzler",
 "ref":
 "pmb12692"},
 {
 "persName":
 "Arthur Johannes Scholz",
 "ref":
 "pmb2270"}],
 "listBibl":
  [
 {
 "title":
 "Die Pantomime vom braven Mann op. 32",
 "ref":
 "pmb30155"}
 ,  {
 "title":
 "Die Pantomime vom braven Manne",
 "ref":
 "pmb30043"}
 ],
 "listPlace":
  [
 {
 "placeName":
 "Wien",
 "ref":
 "pmb50"}
 ,  {
 "placeName":
 "Salzburg",
 "ref":
 "pmb30"}
 ,  {
 "placeName":
 "Sternwartestraße",
 "ref":
 "pmb150"}
 ,  {
 "placeName":
 "Burgtheater",
 "ref":
 "pmb14"}
 ]}

}, {
 "type":
 "schnitzler-tagebuch",
 "idno":
 "https://schnitzler-tagebuch.acdh.oeaw.ac.at/entry__1918-08-24.html",
 "head":
 "Tagebuch, 24. August 1918",
 "desc":
{"listPerson":
  [
{
 "persName":
 "Julius Schnitzler",
 "ref":
 "person_19827"},
 {
 "persName":
 "Gustav Schwarzkopf",
 "ref":
 "person_19986"},
 {
 "persName":
 "Hermann Bahr",
 "ref":
 "person_13374"}],
 "listBibl":
  [
 {
 "title":
 "Casanovas Heimfahrt",
 "ref":
 "pmb30971"}
 ]}

}, {
 "type":
 "schnitzler-bahr",
 "idno":
 "https://schnitzler-bahr.acdh.oeaw.ac.at/L041135.html",
 "head":
 "Schnitzler an Bahr, 24. 8. 1918",
 "desc":
{"listPerson":
  [
{
 "persName":
 "Hermann Bahr",
 "ref":
 "pmb10815"},
 {
 "persName":
 "Heinrich Schnitzler",
 "ref":
 "pmb12692"},
 {
 "persName":
 "Arthur Johannes Scholz",
 "ref":
 "pmb2270"}],
 "listBibl":
  [
 {
 "title":
 "Die Pantomime vom braven Mann op. 32",
 "ref":
 "pmb30155"}
 ,  {
 "title":
 "Die Pantomime vom braven Manne",
 "ref":
 "pmb30043"}
 ],
 "listPlace":
  [
 {
 "placeName":
 "Wien",
 "ref":
 "pmb50"}
 ,  {
 "placeName":
 "Salzburg",
 "ref":
 "pmb30"}
 ,  {
 "placeName":
 "Sternwartestraße",
 "ref":
 "pmb150"}
 ]}

}, {
 "type":
 "schnitzler-bahr",
 "idno":
 "https://schnitzler-bahr.acdh.oeaw.ac.at/D041547.html",
 "head":
 "Tagebuch von Schnitzler, 24. 8. 1918",
 "desc":
{"listPerson":
  [
{
 "persName":
 "Gustav Schwarzkopf",
 "ref":
 "pmb12740"},
 {
 "persName":
 "Hermann Bahr",
 "ref":
 "pmb10815"},
 {
 "persName":
 "Julius Schnitzler",
 "ref":
 "pmb12698"}],
 "listPlace":
  [
 {
 "placeName":
 "Burgtheater",
 "ref":
 "pmb14"}
 ],
 "listOrg":
  [
 {
 "orgName":
 "Der Kunstwart",
 "ref":
 "pmb29649"}
 ]}

}] 
}