{
 "date":
 {
 "when-iso":
 "1918-12-01",
 "written":
 "Sonntag, 1. Dezember 1918"
},
"listEvent":
 [{
 "type":
 "schnitzler-orte",
 "idno":
 "https://pmb.acdh.oeaw.ac.at/entity/50/",
 "head":
 "Wien"
}, {
 "type":
 "schnitzler-briefe",
 "idno":
 "https://schnitzler-briefe.acdh.oeaw.ac.at/L02313.html",
 "head":
 "Hugo von Hofmannsthal an Arthur Schnitzler, [Anfang Dezember
                  1918]",
 "desc":
{"listPerson":
  [
{
 "persName":
 "Hugo von Hofmannsthal",
 "ref":
 "pmb11740"},
 {
 "persName":
 "Frieda Pollak",
 "ref":
 "pmb22728"},
 {
 "persName":
 "Gertrude von Hofmannsthal",
 "ref":
 "pmb2292"},
 {
 "persName":
 "Olga Schnitzler",
 "ref":
 "pmb2173"}],
 "listBibl":
  [
 {
 "title":
 "Professor Bernhardi. Komödie in fünf Akten",
 "ref":
 "pmb30203"}
 ],
 "listPlace":
  [
 {
 "placeName":
 "Wien",
 "ref":
 "pmb50"}
 ,  {
 "placeName":
 "Stallburggasse",
 "ref":
 "pmb34024"}
 ,  {
 "placeName":
 "Hofmannsthal-Schlössl",
 "ref":
 "pmb40297"}
 ]}

}, {
 "type":
 "schnitzler-tagebuch",
 "idno":
 "https://schnitzler-tagebuch.acdh.oeaw.ac.at/entry__1918-12-01.html",
 "head":
 "Tagebuch, 1. Dezember 1918",
 "desc":
{"listPerson":
  [
{
 "persName":
 "Hanna Askonas",
 "ref":
 "person_13282"},
 {
 "persName":
 "Rudolf Askonas",
 "ref":
 "person_13285"},
 {
 "persName":
 "Joseph Haydn",
 "ref":
 "person_15999"},
 {
 "persName":
 "Laura Hilgermann",
 "ref":
 "person_16195"},
 {
 "persName":
 "Julius von Landesberger",
 "ref":
 "person_17278"},
 {
 "persName":
 "Amalia Markbreiter",
 "ref":
 "person_17894"},
 {
 "persName":
 "Philipp Markbreiter",
 "ref":
 "person_17908"},
 {
 "persName":
 "Paul Marx",
 "ref":
 "person_17958"},
 {
 "persName":
 "Heinrich Schnitzler",
 "ref":
 "person_19822"},
 {
 "persName":
 "Felix Speidel",
 "ref":
 "person_20242"},
 {
 "persName":
 "Frieda Pollak",
 "ref":
 "person_18881"}],
 "listPlace":
  [
 {
 "placeName":
 "Circusgasse",
 "ref":
 "pmb92189"}
 ,  {
 "placeName":
 "Praterstraße",
 "ref":
 "pmb92460"}
 ,  {
 "placeName":
 "Grinzing",
 "ref":
 "pmb90771"}
 ,  {
 "placeName":
 "Kahlenberg",
 "ref":
 "pmb574"}
 ,  {
 "placeName":
 "Wien",
 "ref":
 "pmb50"}
 ,  {
 "placeName":
 "München",
 "ref":
 "pmb45258"}
 ]}

}] 
}