[{
 "type":
 "schnitzler-tagebuch",
 "color":
 "#037a33",
 "filename":
 "entry__1918-08-12",
 "caption":
 "Tagebuch",
 "idno":
 "https://schnitzler-tagebuch.acdh.oeaw.ac.at/entry__1918-08-12.html",
 "head":
 "Tagebuch, 12. August 1918",
 "desc":
{"listPerson":
  [
{
 "persName":
 "Robert Adam",
 "ref":
 "person_18893"},
 {
 "persName":
 "Samuel Fischer",
 "ref":
 "person_15009"}],
 "listBibl":
  [
 {
 "title":
 "Jugend in Wien",
 "ref":
 "pmb33838"}
 ,  {
 "title":
 "Therese. Chronik eines Frauenlebens",
 "ref":
 "pmb30817"}
 ]
}
}, {
 "type":
 "schnitzler-briefe",
 "color":
 "#A63437",
 "filename":
 "L02295",
 "caption":
 "Briefe mit Autorinnen und Autoren",
 "idno":
 "https://schnitzler-briefe.acdh.oeaw.ac.at/L02295.html",
 "head":
 "Arthur Schnitzler an Richard Beer-Hofmann, 12. 8. 1918",
 "desc":
{"listPerson":
  [
{
 "persName":
 "Richard Beer-Hofmann",
 "ref":
 "pmb10863"},
 {
 "persName":
 "Max Reinhardt",
 "ref":
 "pmb12504"},
 {
 "persName":
 "Naëmah Beer-Hofmann",
 "ref":
 "pmb2534"},
 {
 "persName":
 "Mirjam Beer-Hofmann",
 "ref":
 "pmb2668"},
 {
 "persName":
 "Paula Beer-Hofmann",
 "ref":
 "pmb10860"},
 {
 "persName":
 "Gabriel Beer-Hofmann",
 "ref":
 "pmb13923"}],
 "listPlace":
  [
 {
 "placeName":
 "I., Innere Stadt",
 "ref":
 "pmb51"}
 ,  {
 "placeName":
 "Wien",
 "ref":
 "pmb50"}
 ,  {
 "placeName":
 "Bad Ischl",
 "ref":
 "pmb213"}
 ,  {
 "placeName":
 "Sternwartestraße",
 "ref":
 "pmb150"}
 ,  {
 "placeName":
 "Grazer Straße",
 "ref":
 "pmb1220"}
 ,  {
 "placeName":
 "Bayern",
 "ref":
 "pmb314"}
 ,  {
 "placeName":
 "Salzburg",
 "ref":
 "pmb30"}
 ,  {
 "placeName":
 "Salzburg-Leopoldskron",
 "ref":
 "pmb34839"}
 ]
}
}, {
 "type":
 "wienerschnitzler",
 "color":
 "#ECDA98",
 "caption":
 "Wiener Schnitzler",
 "head":
 "Wien",
 "desc":
{"listPlace":
  [
 {
 "placeName":
 "XVIII., Währing",
 "ref":
 ""}
 ]
}
}, {
 "type":
 "schnitzler-cmif",
 "subtype":
 "#jf7cbca5-b0b6-4bcf-adbf-38e94eed3cb3",
 "color":
 "#654321",
 "caption":
 "Gedruckte Briefwechsel",
 "head":
 "Arthur Schnitzler an Heinrich Schnitzler, 12. 8. 1918",
 "source":
 "Arthur Schnitzler: Briefe 1913–1931. Hrsg. v. Peter Michael Braunwarth, Richard Miklin, Susanne Pertlik und Heinrich Schnitzler. Frankfurt am Main: S. Fischer 1984. (PDF unter: https://schnitzler-briefe.acdh.oeaw.ac.at/)"
}] 