[{
 "type":
 "schnitzler-tagebuch",
 "color":
 "#037a33",
 "filename":
 "entry__1918-12-22",
 "caption":
 "Tagebuch",
 "idno":
 "https://schnitzler-tagebuch.acdh.oeaw.ac.at/entry__1918-12-22.html",
 "head":
 "Tagebuch, 22. Dezember 1918",
 "desc":
{"listPerson":
  [
{
 "persName":
 "Raoul Auernheimer",
 "ref":
 "person_13305"},
 {
 "persName":
 "Alfred Bernau",
 "ref":
 "person_13663"},
 {
 "persName":
 "Franz Blei",
 "ref":
 "person_13774"},
 {
 "persName":
 "Marco Brociner",
 "ref":
 "person_13983"},
 {
 "persName":
 "Friedrich Eckstein",
 "ref":
 "person_14612"},
 {
 "persName":
 "Albert Paris Gütersloh",
 "ref":
 "person_15735"},
 {
 "persName":
 "Ludwig Karpath",
 "ref":
 "person_16736"},
 {
 "persName":
 "Alma Maria Mahler",
 "ref":
 "person_17784"},
 {
 "persName":
 "Felix Salten",
 "ref":
 "person_19542"},
 {
 "persName":
 "Friedrich Sander",
 "ref":
 "person_19562"},
 {
 "persName":
 "Hugo Schmidl",
 "ref":
 "person_19755"},
 {
 "persName":
 "Franz Werfel",
 "ref":
 "person_21243"},
 {
 "persName":
 "Rudolf Winternitz",
 "ref":
 "person_21385"}],
 "listBibl":
  [
 {
 "title":
 "Anatol",
 "ref":
 "pmb29935"}
 ,  {
 "title":
 "Professor Bernhardi. Komödie in fünf Akten",
 "ref":
 "pmb30203"}
 ],
 "listPlace":
  [
 {
 "placeName":
 "Grinzing",
 "ref":
 "pmb90771"}
 ,  {
 "placeName":
 "Döbling",
 "ref":
 "pmb64219"}
 ,  {
 "placeName":
 "Türkenschanzpark",
 "ref":
 "pmb113"}
 ]
}
}, {
 "type":
 "URL",
 "subtype":
 "wienerschnitzler",
 "head":
 "Wien",
 "desc":
{"listPlace":
  [
 {
 "placeName":
 "XIX., Döbling",
 "ref":
 ""}
 ,  {
 "placeName":
 "XVIII., Währing",
 "ref":
 ""}
 ,  {
 "placeName":
 "VII., Neubau",
 "ref":
 ""}
 ,  {
 "placeName":
 "I., Innere Stadt",
 "ref":
 ""}
 ]
}
}, {
 "type":
 "schnitzler-events",
 "color":
 "#9BC53D",
 "filename":
 "entity/238767/",
 "caption":
 "Ereignisse in der PMB",
 "idno":
 "https://pmb.acdh.oeaw.ac.at/entity/238767/",
 "head":
 "2. Aufführung von Professor Bernhardi, 22.12.1918",
 "desc":
{"listOrg":
  [
 {
 "orgName":
 "Burgtheater",
 "ref":
 ""}
 ],
 "listBibl":
  [
 {
 "title":
 "Professor Bernhardi. Komödie in fünf Akten",
 "ref":
 ""}
 ],
 "listPerson":
  [
{
 "persName":
 "Arthur Schnitzler",
 "ref":
 ""}],
 "listPlace":
  [
 {
 "placeName":
 "Burgtheater",
 "ref":
 ""}
 ]
}
}] 