[{
 "type":
 "schnitzler-tagebuch",
 "color":
 "#037a33",
 "filename":
 "entry__1918-05-24",
 "caption":
 "Tagebuch",
 "idno":
 "https://schnitzler-tagebuch.acdh.oeaw.ac.at/entry__1918-05-24.html",
 "head":
 "Tagebuch, 24. Mai 1918",
 "desc":
{"listPerson":
  [
{
 "persName":
 "Stefanie Bachrach",
 "ref":
 "person_13359"},
 {
 "persName":
 "Gottfried Keller",
 "ref":
 "person_16794"},
 {
 "persName":
 "Marianne Giustiniani",
 "ref":
 "person_21600"},
 {
 "persName":
 "Arthur Kaufmann",
 "ref":
 "person_16770"},
 {
 "persName":
 "Victor Zuckerkandl",
 "ref":
 "person_21602"}],
 "listPlace":
  [
 {
 "placeName":
 "Erlaufsee",
 "ref":
 "pmb90599"}
 ,  {
 "placeName":
 "Grünau",
 "ref":
 "pmb90783"}
 ,  {
 "placeName":
 "Mariazell",
 "ref":
 "pmb431"}
 ,  {
 "placeName":
 "Rasing",
 "ref":
 "pmb91566"}
 ,  {
 "placeName":
 "Sigmundsberg",
 "ref":
 "pmb91747"}
 ,  {
 "placeName":
 "Wien Mauer",
 "ref":
 "pmb91217"}
 ]
}
}, {
 "type":
 "URL",
 "subtype":
 "wienerschnitzler",
 "head":
 "Mariazell",
 "desc":
{"listPlace":
  [
 {
 "placeName":
 "Hotel Rohrbacherhof",
 "ref":
 ""}
 ,  {
 "placeName":
 "Rasing",
 "ref":
 ""}
 ,  {
 "placeName":
 "Filialkirche hl. Sigmund",
 "ref":
 ""}
 ]
}
}, {
 "type":
 "URL",
 "subtype":
 "wienerschnitzler",
 "head":
 "Grünau",
 "desc":
{"listPlace":
  [
 {
 "placeName":
 "Marienwasserfall",
 "ref":
 ""}
 ]
}
}, {
 "type":
 "URL",
 "subtype":
 "wienerschnitzler",
 "head":
 "Erlaufsee"
}, {
 "type":
 "URL",
 "subtype":
 "wienerschnitzler",
 "head":
 "Sigmundsberg",
 "desc":
{"listPlace":
  [
 {
 "placeName":
 "Filialkirche hl. Sigmund",
 "ref":
 ""}
 ]
}
}] 