[{
 "type":
 "schnitzler-tagebuch",
 "color":
 "#037a33",
 "filename":
 "entry__1918-06-09",
 "caption":
 "Tagebuch",
 "idno":
 "https://schnitzler-tagebuch.acdh.oeaw.ac.at/entry__1918-06-09.html",
 "head":
 "Tagebuch, 9. Juni 1918",
 "desc":
{"listPerson":
  [
{
 "persName":
 "Hanna Askonas",
 "ref":
 "person_13282"},
 {
 "persName":
 "Richard Beer-Hofmann",
 "ref":
 "person_13551"},
 {
 "persName":
 "Efraim Frisch",
 "ref":
 "person_15253"},
 {
 "persName":
 "Anna Hansa",
 "ref":
 "person_15903"},
 {
 "persName":
 "Paul Marx",
 "ref":
 "person_17958"},
 {
 "persName":
 "Helene Piekarski",
 "ref":
 "person_18786"},
 {
 "persName":
 "Eberhard Schott",
 "ref":
 "person_19871"},
 {
 "persName":
 "Peter Schott",
 "ref":
 "person_19872"},
 {
 "persName":
 "Werner Schott",
 "ref":
 "person_19874"},
 {
 "persName":
 "Mela Schwarz",
 "ref":
 "person_19978"},
 {
 "persName":
 "Gustav Schwarzkopf",
 "ref":
 "person_19986"},
 {
 "persName":
 "Erich Schweinburg",
 "ref":
 "person_19998"},
 {
 "persName":
 "Frieda Pollak",
 "ref":
 "person_18881"},
 {
 "persName":
 "Rosa Schweinburg",
 "ref":
 "person_19999"}],
 "listPlace":
  [
 {
 "placeName":
 "Pötzleinsdorf",
 "ref":
 "pmb169"}
 ,  {
 "placeName":
 "Sofienalpe",
 "ref":
 "pmb92533"}
 ,  {
 "placeName":
 "Weidlingbach",
 "ref":
 "pmb44394"}
 ,  {
 "placeName":
 "Döbling",
 "ref":
 "pmb64219"}
 ,  {
 "placeName":
 "München",
 "ref":
 "pmb45258"}
 ]
}
}, {
 "type":
 "wienerschnitzler",
 "color":
 "#6F5106",
 "caption":
 "Wiener Schnitzler",
 "idno":
 "https://wienerschnitzler.org/tag.html#1918-06-09",
 "head":
 "Wien",
 "desc":
{"listPlace":
  [
 {
 "placeName":
 "XIV., Penzing",
 "ref":
 ""}
 ,  {
 "placeName":
 "XVIII., Währing",
 "ref":
 ""}
 ,  {
 "placeName":
 "XIX., Döbling",
 "ref":
 ""}
 ]
}
}, {
 "type":
 "wienerschnitzler",
 "color":
 "#6F5106",
 "caption":
 "Wiener Schnitzler",
 "idno":
 "https://wienerschnitzler.org/tag.html#1918-06-09",
 "head":
 "Klosterneuburg",
 "desc":
{"listPlace":
  [
 {
 "placeName":
 "Weidlingbach",
 "ref":
 ""}
 ,  {
 "placeName":
 "Toiflhütte",
 "ref":
 ""}
 ]
}
}] 