[{
 "type":
 "schnitzler-tagebuch",
 "color":
 "#037a33",
 "filename":
 "entry__1919-09-10",
 "caption":
 "Tagebuch",
 "idno":
 "https://schnitzler-tagebuch.acdh.oeaw.ac.at/entry__1919-09-10.html",
 "head":
 "Tagebuch, 10. September 1919",
 "desc":
{"listPerson":
  [
{
 "persName":
 "Julius Konried",
 "ref":
 "person_16613"},
 {
 "persName":
 "Alma Maria Mahler",
 "ref":
 "person_17784"},
 {
 "persName":
 "Alfred Pick",
 "ref":
 "person_18773"},
 {
 "persName":
 "Julius Schnitzler",
 "ref":
 "person_19827"},
 {
 "persName":
 "Anna von Zsolnay",
 "ref":
 "person_21584"},
 {
 "persName":
 "Irma Hoffmeister",
 "ref":
 "person_16281"},
 {
 "persName":
 "Gustav Mahler",
 "ref":
 "person_17786"}],
 "listBibl":
  [
 {
 "title":
 "Der Gang zum Weiher. Dramatische Dichtung",
 "ref":
 "pmb30775"}
 ],
 "listPlace":
  [
 {
 "placeName":
 "Kreuzbergwarte",
 "ref":
 "pmb251"}
 ,  {
 "placeName":
 "Prein an der Rax",
 "ref":
 "pmb49072"}
 ,  {
 "placeName":
 "Edlach",
 "ref":
 "pmb470"}
 ,  {
 "placeName":
 "Kleinau",
 "ref":
 "pmb91036"}
 ]
}
}, {
 "type":
 "wienerschnitzler",
 "color":
 "#ECDA98",
 "caption":
 "Wiener Schnitzler",
 "head":
 "Payerbach",
 "desc":
{"listPlace":
  [
 {
 "placeName":
 "Stojerh√∂he",
 "ref":
 ""}
 ]
}
}, {
 "type":
 "wienerschnitzler",
 "color":
 "#ECDA98",
 "caption":
 "Wiener Schnitzler",
 "head":
 "Reichenau an der Rax",
 "desc":
{"listPlace":
  [
 {
 "placeName":
 "Kurhaus Rudolfsbad",
 "ref":
 ""}
 ,  {
 "placeName":
 "Edlach",
 "ref":
 ""}
 ,  {
 "placeName":
 "Hotel Marienhof",
 "ref":
 ""}
 ]
}
}, {
 "type":
 "wienerschnitzler",
 "color":
 "#ECDA98",
 "caption":
 "Wiener Schnitzler",
 "head":
 "Prein an der Rax",
 "desc":
{"listPlace":
  [
 {
 "placeName":
 "Hotel Preinerwand",
 "ref":
 ""}
 ,  {
 "placeName":
 "Alpengasthof Unterer Eggl",
 "ref":
 ""}
 ,  {
 "placeName":
 "Eselbachgraben",
 "ref":
 ""}
 ]
}
}, {
 "type":
 "wienerschnitzler",
 "color":
 "#ECDA98",
 "caption":
 "Wiener Schnitzler",
 "head":
 "Breitenstein am Semmering",
 "desc":
{"listPlace":
  [
 {
 "placeName":
 "Kreuzbergwarte",
 "ref":
 ""}
 ,  {
 "placeName":
 "Haus Mahler",
 "ref":
 ""}
 ]
}
}, {
 "type":
 "wienerschnitzler",
 "color":
 "#ECDA98",
 "caption":
 "Wiener Schnitzler",
 "head":
 "Kleinau"
}] 