[{
 "type":
 "schnitzler-orte",
 "color":
 "#045344",
 "caption":
 "Aufenthaltsorte",
 "idno":
 "https://pmb.acdh.oeaw.ac.at/entity/50/",
 "head":
 "Wien"
}{
 "type":
 "schnitzler-briefe",
 "color":
 "#A63437",
 "caption":
 "Briefe mit Autorinnen und Autoren",
 "idno":
 "https://schnitzler-briefe.acdh.oeaw.ac.at/L02326.html",
 "head":
 "Hugo von Hofmannsthal an Arthur Schnitzler, 19. 9. 1919",
 "desc":
{"listPerson":
  [
{
 "persName":
 "Hugo von Hofmannsthal",
 "ref":
 "pmb11740"},
 {
 "persName":
 "Frieda Pollak",
 "ref":
 "pmb22728"},
 {
 "persName":
 "Richard Strauss",
 "ref":
 "pmb12870"},
 {
 "persName":
 "Franz Schalk",
 "ref":
 "pmb12630"}],
 "listBibl":
  [
 {
 "title":
 "Palestrina. Musikalische Legende in drei Akten",
 "ref":
 "pmb31681"}
 ,  {
 "title":
 "Die Frau ohne Schatten. Erzählung",
 "ref":
 "pmb39853"}
 ],
 "listPlace":
  [
 {
 "placeName":
 "Bad Aussee",
 "ref":
 "pmb415"}
 ,  {
 "placeName":
 "Wien",
 "ref":
 "pmb50"}
 ,  {
 "placeName":
 "Ferleiten",
 "ref":
 "pmb40632"}
 ,  {
 "placeName":
 "Salzburg",
 "ref":
 "pmb30"}
 ,  {
 "placeName":
 "Mirabell",
 "ref":
 "pmb180"}
 ,  {
 "placeName":
 "Hellbrunn",
 "ref":
 "pmb31"}
 ,  {
 "placeName":
 "Salzburg-Leopoldskron",
 "ref":
 "pmb34839"}
 ,  {
 "placeName":
 "Oper",
 "ref":
 "pmb15"}
 ]
}
}{
 "type":
 "schnitzler-cmif",
 "subtype":
 "#hbas_0a380dfe-61d4-4b9e-8641-01eba8e50777",
 "color":
 "#654321",
 "caption":
 "Gedruckte Briefwechsel",
 "head":
 "Arthur Schnitzler an Olga Schnitzler, 19.9.1919",
 "desc":
{"listPerson":
  [
{
 "persName":
 "Schnitzler, Olga",
 "ref":
 "https://d-nb.info/gnd/116848723"}],
 "bibl":
 "Hermann Bahr, Arthur Schnitzler. Briefwechsel, Aufzeichnungen, Dokumente 1891–1931. Herausgegeben von Kurt Ifkovits, Martin Anton Müller. Göttingen: Wallstein Verlag 2018"
}
}{
 "type":
 "schnitzler-cmif",
 "subtype":
 "#n0827e77-245d-4359-a0b0-5b601a5370ee",
 "color":
 "#654321",
 "caption":
 "Gedruckte Briefwechsel",
 "head":
 "Hedy Kempny an Arthur Schnitzler, 19.9.1919",
 "desc":
{"listPerson":
  [
{
 "persName":
 "Kempny, Hedy",
 "ref":
 "https://d-nb.info/gnd/11872181X"}],
 "bibl":
 "Hedy Kempny und Arthur Schnitzler: Das Mädchen mit den dreizehn Seelen. Eine Korrespondenz ergänzt durch Blätter aus Hedy Kempnys Tagebuch sowie durch eine Auswahl ihrer Erzählungen. Hg. v. Heinz P. Adamek. Reinbek bei Hamburg: Rowohlt 1984. (Neue Frau)"
}
}{
 "type":
 "schnitzler-tagebuch",
 "color":
 "#037a33",
 "caption":
 "Tagebuch",
 "idno":
 "https://schnitzler-tagebuch.acdh.oeaw.ac.at/entry__1919-09-19.html",
 "head":
 "Tagebuch, 19. September 1919",
 "desc":
{"listPerson":
  [
{
 "persName":
 "Hedwig Bleibtreu",
 "ref":
 "person_13776"},
 {
 "persName":
 "Friederike Ergas",
 "ref":
 "person_14784"},
 {
 "persName":
 "Alma Maria Mahler",
 "ref":
 "person_17784"},
 {
 "persName":
 "Felix Salten",
 "ref":
 "person_19542"},
 {
 "persName":
 "Rudolf Ergas",
 "ref":
 "person_14786"},
 {
 "persName":
 "Fritz von Unruh",
 "ref":
 "person_20885"}],
 "listBibl":
  [
 {
 "title":
 "Der Gang zum Weiher. Dramatische Dichtung",
 "ref":
 "pmb30775"}
 ,  {
 "title":
 "Ein Geschlecht",
 "ref":
 "pmb32326"}
 ],
 "listPlace":
  [
 {
 "placeName":
 "Kreuzberg",
 "ref":
 "pmb91067"}
 ]
}
}{
 "type":
 "schnitzler-bahr",
 "color":
 "#F9BD63",
 "caption":
 "Schnitzler/Bahr",
 "idno":
 "https://schnitzler-bahr.acdh.oeaw.ac.at/L041653.html",
 "head":
 "Arthur an Olga Schnitzler, 19. 9. 1919",
 "desc":
{"listPerson":
  [
{
 "persName":
 "Olga Schnitzler",
 "ref":
 "pmb2173"},
 {
 "persName":
 "Jacob Pollak",
 "ref":
 "pmb22733"},
 {
 "persName":
 "Anna Bahr-Mildenburg",
 "ref":
 "pmb10818"},
 {
 "persName":
 "Josef Popper-Lynkeus",
 "ref":
 "pmb2135"},
 {
 "persName":
 "Fritz Zuckerkandl",
 "ref":
 "pmb3115"},
 {
 "persName":
 "Gertrude Zuckerkandl",
 "ref":
 "pmb13197"},
 {
 "persName":
 "Berta Zuckerkandl",
 "ref":
 "pmb2312"},
 {
 "persName":
 "Oscar Fried",
 "ref":
 "pmb16608"},
 {
 "persName":
 "Felix Salten",
 "ref":
 "pmb2167"},
 {
 "persName":
 "Leo Van-Jung",
 "ref":
 "pmb26392"},
 {
 "persName":
 "Eleonore Tressler",
 "ref":
 "pmb26173"},
 {
 "persName":
 "Fritz von Unruh",
 "ref":
 "pmb12993"},
 {
 "persName":
 "Friederike Ergas",
 "ref":
 "pmb15967"},
 {
 "persName":
 "Julius Bauer",
 "ref":
 "pmb2150"},
 {
 "persName":
 "Rudolf Ergas",
 "ref":
 "pmb3103"},
 {
 "persName":
 "Alma Maria Mahler",
 "ref":
 "pmb12160"},
 {
 "persName":
 "Manon Gropius",
 "ref":
 "pmb11521"},
 {
 "persName":
 "Hedwig Bleibtreu",
 "ref":
 "pmb10959"},
 {
 "persName":
 "Werner Schott",
 "ref":
 "pmb12711"},
 {
 "persName":
 "Hans Thimig",
 "ref":
 "pmb12939"},
 {
 "persName":
 "Maria Mayen",
 "ref":
 "pmb12211"},
 {
 "persName":
 "Albert von Mensdorff-Pouilly-Dietrichstein",
 "ref":
 "pmb21327"},
 {
 "persName":
 "Hermine Simandt",
 "ref":
 "pmb24945"},
 {
 "persName":
 "Gustav Mahler",
 "ref":
 "pmb12163"},
 {
 "persName":
 "Heinrich Schnitzler",
 "ref":
 "pmb12692"},
 {
 "persName":
 "Lili Schnitzler",
 "ref":
 "pmb2238"},
 {
 "persName":
 "Severin Nemec",
 "ref":
 "pmb21844"}],
 "listBibl":
  [
 {
 "title":
 "Ein Geschlecht",
 "ref":
 "pmb32326"}
 ,  {
 "title":
 "Heinrich aus Andernach",
 "ref":
 "pmb32300"}
 ,  {
 "title":
 "Platz",
 "ref":
 "pmb32298"}
 ,  {
 "title":
 "Symphonie Nr. 9 D-Dur",
 "ref":
 "pmb32155"}
 ],
 "listPlace":
  [
 {
 "placeName":
 "Wien",
 "ref":
 "pmb50"}
 ,  {
 "placeName":
 "Salzburg",
 "ref":
 "pmb30"}
 ,  {
 "placeName":
 "XVIII., Währing",
 "ref":
 "pmb68"}
 ,  {
 "placeName":
 "Sternwartestraße",
 "ref":
 "pmb150"}
 ,  {
 "placeName":
 "Hotel Bristol",
 "ref":
 "pmb40384"}
 ,  {
 "placeName":
 "Turin",
 "ref":
 "pmb917"}
 ,  {
 "placeName":
 "Hotel Bristol",
 "ref":
 "pmb205"}
 ,  {
 "placeName":
 "Währinger Cottage",
 "ref":
 "pmb533"}
 ,  {
 "placeName":
 "Burgtheater",
 "ref":
 "pmb14"}
 ,  {
 "placeName":
 "Bad Ischl",
 "ref":
 "pmb213"}
 ,  {
 "placeName":
 "Elisabethstraße",
 "ref":
 "pmb795"}
 ,  {
 "placeName":
 "Breitenstein am Semmering",
 "ref":
 "pmb36503"}
 ]
}
}] 