[{
 "type":
 "schnitzler-tagebuch",
 "color":
 "#037a33",
 "filename":
 "entry__1919-10-04",
 "caption":
 "Tagebuch",
 "idno":
 "https://schnitzler-tagebuch.acdh.oeaw.ac.at/entry__1919-10-04.html",
 "head":
 "Tagebuch, 4. Oktober 1919",
 "desc":
{"listPerson":
  [
{
 "persName":
 "Rudolf Allers",
 "ref":
 "person_13152"},
 {
 "persName":
 "Ignaz Fleminger",
 "ref":
 "person_15042"},
 {
 "persName":
 "Felix Salten",
 "ref":
 "person_19542"},
 {
 "persName":
 "Ernestine Patak",
 "ref":
 "person_18672"},
 {
 "persName":
 "Johannes Wertheim",
 "ref":
 "person_21258"},
 {
 "persName":
 "Carl Goetz",
 "ref":
 "person_15503"}],
 "listBibl":
  [
 {
 "title":
 "Der Gang zum Weiher. Dramatische Dichtung",
 "ref":
 "pmb30775"}
 ],
 "listPlace":
  [
 {
 "placeName":
 "Corse",
 "ref":
 "pmb90494"}
 ,  {
 "placeName":
 "Deutsches Volkstheater",
 "ref":
 "pmb92202"}
 ,  {
 "placeName":
 "Deutschland",
 "ref":
 "pmb151"}
 ,  {
 "placeName":
 "München",
 "ref":
 "pmb45258"}
 ,  {
 "placeName":
 "Unterzögersdorf",
 "ref":
 "pmb90153"}
 ]
}
}, {
 "type":
 "wienerschnitzler",
 "color":
 "#6F5106",
 "caption":
 "Wiener Schnitzler",
 "idno":
 "https://wienerschnitzler.org/tag.html#1919-10-04",
 "head":
 "Wien",
 "desc":
{"listPlace":
  [
 {
 "placeName":
 "I., Innere Stadt",
 "ref":
 ""}
 ,  {
 "placeName":
 "XVIII., Währing",
 "ref":
 ""}
 ]
}
}, {
 "type":
 "URL",
 "subtype":
 "schnitzler-kultur",
 "filename":
 "pmb298149",
 "idno":
 "https://schnitzler-kultur.acdh.oeaw.ac.at/pmb298149.html",
 "head":
 "Besuch des Kaiserpanoramas [Wien, Stubenring 12], 4.10.1919",
 "desc":
{"listPerson":
  [
{
 "persName":
 "Arthur Schnitzler",
 "ref":
 ""}],
 "listPlace":
  [
 {
 "placeName":
 "Kaiserpanorama [Wien, Stubenring 12]",
 "ref":
 ""}
 ]
}
}, {
 "type":
 "URL",
 "subtype":
 "schnitzler-kultur",
 "filename":
 "pmb297069",
 "idno":
 "https://schnitzler-kultur.acdh.oeaw.ac.at/pmb297069.html",
 "head":
 "Besuch des Österreichischen Museums fur Kunst und Industrie, 4.10.1919",
 "desc":
{"listPerson":
  [
{
 "persName":
 "Arthur Schnitzler",
 "ref":
 ""}],
 "listPlace":
  [
 {
 "placeName":
 "Museum für Angewandte Kunst",
 "ref":
 ""}
 ]
}
}] 