[{
 "type":
 "schnitzler-tagebuch",
 "color":
 "#037a33",
 "filename":
 "entry__1919-07-06",
 "caption":
 "Tagebuch",
 "idno":
 "https://schnitzler-tagebuch.acdh.oeaw.ac.at/entry__1919-07-06.html",
 "head":
 "Tagebuch, 6. Juli 1919",
 "desc":
{"listPerson":
  [
{
 "persName":
 "Johann Sebastian Bach",
 "ref":
 "person_13344"},
 {
 "persName":
 "Max Eisler",
 "ref":
 "person_14694"},
 {
 "persName":
 "Oscar Fried",
 "ref":
 "person_15204"},
 {
 "persName":
 "Emil Redlich",
 "ref":
 "person_19093"},
 {
 "persName":
 "Camille Saint-Saëns",
 "ref":
 "person_19523"},
 {
 "persName":
 "Heinrich Schnitzler",
 "ref":
 "person_19822"},
 {
 "persName":
 "Franz Schreker",
 "ref":
 "person_19886"},
 {
 "persName":
 "Frank Wedekind",
 "ref":
 "person_21130"},
 {
 "persName":
 "Carl Fleischmann",
 "ref":
 "person_15038"},
 {
 "persName":
 "Gustav Mahler",
 "ref":
 "person_17786"}],
 "listBibl":
  [
 {
 "title":
 "Tagebuch",
 "ref":
 "pmb33243"}
 ,  {
 "title":
 "Le déluge op. 45",
 "ref":
 "pmb78418"}
 ,  {
 "title":
 "Der Schatzgräber",
 "ref":
 "pmb81276"}
 ],
 "listPlace":
  [
 {
 "placeName":
 "Pötzleinsdorf",
 "ref":
 "pmb169"}
 ,  {
 "placeName":
 "Neuwaldegg",
 "ref":
 "pmb170"}
 ,  {
 "placeName":
 "Sofienalpe",
 "ref":
 "pmb92533"}
 ,  {
 "placeName":
 "Raxalpe",
 "ref":
 "pmb91572"}
 ,  {
 "placeName":
 "Weidlingbach",
 "ref":
 "pmb44394"}
 ,  {
 "placeName":
 "Salmannsdorf",
 "ref":
 "pmb91641"}
 ,  {
 "placeName":
 "Kahlenberg",
 "ref":
 "pmb574"}
 ]
}
}, {
 "type":
 "schnitzler-orte",
 "color":
 "#045344",
 "caption":
 "Aufenthaltsorte",
 "head":
 "Wien",
 "desc":
{"listPlace":
  [
 {
 "placeName":
 "XIV., Penzing",
 "ref":
 ""}
 ,  {
 "placeName":
 "XIX., Döbling",
 "ref":
 ""}
 ,  {
 "placeName":
 "XVIII., Währing",
 "ref":
 ""}
 ,  {
 "placeName":
 "XVII., Hernals",
 "ref":
 ""}
 ]
}
}] 