[{
 "type":
 "schnitzler-tagebuch",
 "color":
 "#037a33",
 "filename":
 "entry__1919-04-06",
 "caption":
 "Tagebuch",
 "idno":
 "https://schnitzler-tagebuch.acdh.oeaw.ac.at/entry__1919-04-06.html",
 "head":
 "Tagebuch, 6. April 1919",
 "desc":
{"listPerson":
  [
{
 "persName":
 "Paul Breisach",
 "ref":
 "person_13948"},
 {
 "persName":
 "Oscar Fried",
 "ref":
 "person_15204"},
 {
 "persName":
 "Irmgard Kaufmann",
 "ref":
 "person_16449"},
 {
 "persName":
 "Rudolf Kaufmann",
 "ref":
 "person_16777"},
 {
 "persName":
 "Adelbert Muhr",
 "ref":
 "person_18323"},
 {
 "persName":
 "Felix Salten",
 "ref":
 "person_19542"},
 {
 "persName":
 "Ferdinand Schmutzer",
 "ref":
 "person_19784"},
 {
 "persName":
 "Helene Schnitzler",
 "ref":
 "person_19823"},
 {
 "persName":
 "Julius Schnitzler",
 "ref":
 "person_19827"},
 {
 "persName":
 "Gustav Schwarzkopf",
 "ref":
 "person_19986"},
 {
 "persName":
 "Hermine von Sonnenthal",
 "ref":
 "person_20207"},
 {
 "persName":
 "Franz Steiner",
 "ref":
 "person_20372"},
 {
 "persName":
 "Georg Szell",
 "ref":
 "person_20602"},
 {
 "persName":
 "Leo Van-Jung",
 "ref":
 "person_20925"},
 {
 "persName":
 "Paul Weingarten",
 "ref":
 "person_21171"},
 {
 "persName":
 "Egon Wellesz",
 "ref":
 "person_21223"},
 {
 "persName":
 "Hugo Wolf",
 "ref":
 "person_21432"},
 {
 "persName":
 "Berta Zuckerkandl",
 "ref":
 "person_21594"},
 {
 "persName":
 "Maria von Wydenbruck",
 "ref":
 "person_21484"},
 {
 "persName":
 "Frieda Pollak",
 "ref":
 "person_18881"},
 {
 "persName":
 "Franz Peter Schubert",
 "ref":
 "person_19902"}],
 "listPlace":
  [
 {
 "placeName":
 "Salmannsdorf",
 "ref":
 "pmb91641"}
 ,  {
 "placeName":
 "Sofienalpe",
 "ref":
 "pmb92533"}
 ,  {
 "placeName":
 "Dornbacher Park",
 "ref":
 "pmb176"}
 ,  {
 "placeName":
 "Pötzleinsdorf",
 "ref":
 "pmb169"}
 ]
}
}, {
 "type":
 "wienerschnitzler",
 "color":
 "#ECDA98",
 "caption":
 "Wiener Schnitzler",
 "head":
 "Wien",
 "desc":
{"listPlace":
  [
 {
 "placeName":
 "XVII., Hernals",
 "ref":
 ""}
 ,  {
 "placeName":
 "XIX., Döbling",
 "ref":
 ""}
 ,  {
 "placeName":
 "XIV., Penzing",
 "ref":
 ""}
 ,  {
 "placeName":
 "XVIII., Währing",
 "ref":
 ""}
 ]
}
}, {
 "type":
 "wienerschnitzler",
 "color":
 "#ECDA98",
 "caption":
 "Wiener Schnitzler",
 "head":
 "Klosterneuburg",
 "desc":
{"listPlace":
  [
 {
 "placeName":
 "Rotes Kreuz",
 "ref":
 ""}
 ]
}
}] 