[{
 "type":
 "schnitzler-tagebuch",
 "color":
 "#037a33",
 "filename":
 "entry__1919-11-15",
 "caption":
 "Tagebuch",
 "idno":
 "https://schnitzler-tagebuch.acdh.oeaw.ac.at/entry__1919-11-15.html",
 "head":
 "Tagebuch, 15. November 1919",
 "desc":
{"listPerson":
  [
{
 "persName":
 "Julius Bab",
 "ref":
 "person_13337"},
 {
 "persName":
 "Alfred Bernau",
 "ref":
 "person_13663"},
 {
 "persName":
 "Friederike Ergas",
 "ref":
 "person_14784"},
 {
 "persName":
 "Franz Lehár",
 "ref":
 "person_17401"},
 {
 "persName":
 "Ida Roland",
 "ref":
 "person_19331"},
 {
 "persName":
 "Oscar Straus",
 "ref":
 "person_20490"},
 {
 "persName":
 "Victor Barnowsky",
 "ref":
 "person_13428"},
 {
 "persName":
 "Franz Schallud",
 "ref":
 "person_19620"},
 {
 "persName":
 "Fritz von Unruh",
 "ref":
 "person_20885"}],
 "listBibl":
  [
 {
 "title":
 "Aufzeichnungen über Kunst und Kritik",
 "ref":
 "pmb35741"}
 ,  {
 "title":
 "Der grüne Kakadu. Groteske in einem Akt",
 "ref":
 "pmb29843"}
 ,  {
 "title":
 "Professor Bernhardi. Komödie in fünf Akten",
 "ref":
 "pmb30203"}
 ,  {
 "title":
 "Die Schwestern oder Casanova in Spa. Lustspiel in Versen",
 "ref":
 "pmb30819"}
 ],
 "listPlace":
  [
 {
 "placeName":
 "St Louis",
 "ref":
 "pmb45739"}
 ,  {
 "placeName":
 "Wien",
 "ref":
 "pmb50"}
 ,  {
 "placeName":
 "Österreich",
 "ref":
 "pmb41240"}
 ,  {
 "placeName":
 "Lübeck",
 "ref":
 "pmb884"}
 ,  {
 "placeName":
 "Stockholm",
 "ref":
 "pmb1119"}
 ,  {
 "placeName":
 "Deutsches Volkstheater",
 "ref":
 "pmb92202"}
 ,  {
 "placeName":
 "Florenz",
 "ref":
 "pmb263"}
 ]
}
}, {
 "type":
 "schnitzler-orte",
 "color":
 "#045344",
 "caption":
 "Aufenthaltsorte",
 "head":
 "Wien",
 "desc":
{"listPlace":
  [
 {
 "placeName":
 "VII., Neubau",
 "ref":
 ""}
 ,  {
 "placeName":
 "XVIII., Währing",
 "ref":
 ""}
 ]
}
}] 