[{
 "type":
 "schnitzler-tagebuch",
 "color":
 "#037a33",
 "filename":
 "entry__1920-11-20",
 "caption":
 "Tagebuch",
 "idno":
 "https://schnitzler-tagebuch.acdh.oeaw.ac.at/entry__1920-11-20.html",
 "head":
 "Tagebuch, 20. November 1920",
 "desc":
{"listPerson":
  [
{
 "persName":
 "Else Berger",
 "ref":
 "person_13626"},
 {
 "persName":
 "Josef Popper-Lynkeus",
 "ref":
 "person_18916"},
 {
 "persName":
 "Frieda Pollak",
 "ref":
 "person_18881"}],
 "listBibl":
  [
 {
 "title":
 "Der Gang zum Weiher. Dramatische Dichtung",
 "ref":
 "pmb30775"}
 ],
 "listPlace":
  [
 {
 "placeName":
 "XIII., Hietzing",
 "ref":
 "pmb63"}
 ]
}
}, {
 "type":
 "schnitzler-briefe",
 "color":
 "#A63437",
 "filename":
 "L02358",
 "caption":
 "Briefe mit Autorinnen und Autoren",
 "idno":
 "https://schnitzler-briefe.acdh.oeaw.ac.at/L02358.html",
 "head":
 "Arthur Schnitzler an Robert Adam, 20. 11. 1920",
 "desc":
{"listPerson":
  [
{
 "persName":
 "Arthur Schnitzler",
 "ref":
 "pmb2121"},
 {
 "persName":
 "Robert Adam",
 "ref":
 "pmb12438"},
 {
 "persName":
 "Robert Adam",
 "ref":
 "pmb12438"}],
 "listPlace":
  [
 {
 "placeName":
 "IX., Alsergrund",
 "ref":
 "pmb59"}
 ,  {
 "placeName":
 "Wien",
 "ref":
 "pmb50"}
 ,  {
 "placeName":
 "XVIII., Währing",
 "ref":
 "pmb68"}
 ,  {
 "placeName":
 "Sternwartestraße 71",
 "ref":
 "pmb168815"}
 ,  {
 "placeName":
 "XII., Meidling",
 "ref":
 "pmb62"}
 ,  {
 "placeName":
 "Meidlinger Hauptstraße",
 "ref":
 "pmb1239"}
 ],
 "listOrg":
  [
 {
 "orgName":
 "Genossenschaft dramatischer Autoren und Komponisten in Österreich",
 "ref":
 "pmb29594"}
 ]
}
}, {
 "type":
 "wienerschnitzler",
 "color":
 "#6F5106",
 "caption":
 "Wiener Schnitzler",
 "idno":
 "https://wienerschnitzler.org/tag.html#1920-11-20",
 "head":
 "Wien",
 "desc":
{"listPlace":
  [
 {
 "placeName":
 "XIII., Hietzing",
 "ref":
 ""}
 ,  {
 "placeName":
 "XVIII., Währing",
 "ref":
 ""}
 ]
}
}] 