[{
 "type":
 "schnitzler-tagebuch",
 "color":
 "#037a33",
 "filename":
 "entry__1920-08-27",
 "caption":
 "Tagebuch",
 "idno":
 "https://schnitzler-tagebuch.acdh.oeaw.ac.at/entry__1920-08-27.html",
 "head":
 "Tagebuch, 27. August 1920",
 "desc":
{"listPerson":
  [
{
 "persName":
 "Hans Bartsch",
 "ref":
 "person_13445"},
 {
 "persName":
 "Else Berger",
 "ref":
 "person_13626"},
 {
 "persName":
 "Lili Schnitzler",
 "ref":
 "person_14130"},
 {
 "persName":
 "Albert Ehrenstein",
 "ref":
 "person_14643"},
 {
 "persName":
 "Gisela Hajek",
 "ref":
 "person_15854"},
 {
 "persName":
 "Jean Paul",
 "ref":
 "person_16524"},
 {
 "persName":
 "Tausky",
 "ref":
 "person_20647"},
 {
 "persName":
 "Georg Kulka",
 "ref":
 "person_17188"},
 {
 "persName":
 "Roman Resch",
 "ref":
 "person_19195"},
 {
 "persName":
 "Walter Hart? Blumenthal",
 "ref":
 "person_13809"},
 {
 "persName":
 "Arthur Kaufmann",
 "ref":
 "person_16770"}],
 "listBibl":
  [
 {
 "title":
 "Frau Bertha Garlan. Roman",
 "ref":
 "pmb30486"}
 ],
 "listPlace":
  [
 {
 "placeName":
 "Altaussee",
 "ref":
 "pmb90229"}
 ]
}
}, {
 "type":
 "URL",
 "subtype":
 "wienerschnitzler",
 "head":
 "Bad Ischl",
 "desc":
{"listPlace":
  [
 {
 "placeName":
 "Hotel Kaiserkrone",
 "ref":
 ""}
 ,  {
 "placeName":
 "Konditorei Zauner",
 "ref":
 ""}
 ,  {
 "placeName":
 "Bahnhof Bad Ischl",
 "ref":
 ""}
 ]
}
}, {
 "type":
 "URL",
 "subtype":
 "wienerschnitzler",
 "head":
 "Bad Aussee",
 "desc":
{"listPlace":
  [
 {
 "placeName":
 "Bahnhof Bad Aussee",
 "ref":
 ""}
 ]
}
}, {
 "type":
 "URL",
 "subtype":
 "wienerschnitzler",
 "head":
 "Altaussee",
 "desc":
{"listPlace":
  [
 {
 "placeName":
 "Hotel am See",
 "ref":
 ""}
 ,  {
 "placeName":
 "Villa Gisela und Markus Hajek",
 "ref":
 ""}
 ,  {
 "placeName":
 "?? [Wohngeb√§ude von Roman Resch]",
 "ref":
 ""}
 ]
}
}] 