[{
 "type":
 "schnitzler-tagebuch",
 "color":
 "#037a33",
 "filename":
 "entry__1920-09-03",
 "caption":
 "Tagebuch",
 "idno":
 "https://schnitzler-tagebuch.acdh.oeaw.ac.at/entry__1920-09-03.html",
 "head":
 "Tagebuch, 3. September 1920",
 "desc":
{"listPerson":
  [
{
 "persName":
 "Rudolf Askonas",
 "ref":
 "person_13285"},
 {
 "persName":
 "Raoul Auernheimer",
 "ref":
 "person_13305"},
 {
 "persName":
 "Lili Schnitzler",
 "ref":
 "person_14130"},
 {
 "persName":
 "Gertrude von Hofmannsthal",
 "ref":
 "person_16292"},
 {
 "persName":
 "Hans Bernhard Schlesinger",
 "ref":
 "person_19731"},
 {
 "persName":
 "Christiane von Hofmannsthal",
 "ref":
 "person_21564"},
 {
 "persName":
 "Hugo von Hofmannsthal",
 "ref":
 "person_16293"},
 {
 "persName":
 "Arthur Kaufmann",
 "ref":
 "person_16770"}],
 "listBibl":
  [
 {
 "title":
 "Der Gang zum Weiher. Dramatische Dichtung",
 "ref":
 "pmb30775"}
 ],
 "listPlace":
  [
 {
 "placeName":
 "Salzbergstraße",
 "ref":
 "pmb39784"}
 ,  {
 "placeName":
 "Rom",
 "ref":
 "pmb445"}
 ]
}
}, {
 "type":
 "wienerschnitzler",
 "color":
 "#6F5106",
 "caption":
 "Wiener Schnitzler",
 "idno":
 "https://wienerschnitzler.org/tag.html#1920-09-03",
 "head":
 "Altaussee",
 "desc":
{"listPlace":
  [
 {
 "placeName":
 "Hotel am See",
 "ref":
 ""}
 ,  {
 "placeName":
 "?? [Urlaubsadresse von Rudolf und Hanna Askonas, Altaussee? 1920]",
 "ref":
 ""}
 ,  {
 "placeName":
 "Villa Gisela und Markus Hajek",
 "ref":
 ""}
 ,  {
 "placeName":
 "Promenadenweg [Nordufer]",
 "ref":
 ""}
 ,  {
 "placeName":
 "Promenadenweg [Ostufer]",
 "ref":
 ""}
 ,  {
 "placeName":
 "Promenadenweg [Südufer]",
 "ref":
 ""}
 ]
}
}] 