{
 "date":
 {
 "when-iso":
 "1920-07-20",
 "written":
 "Dienstag, 20. Juli 1920"
},
"listEvent":
 [{
 "type":
 "schnitzler-orte",
 "idno":
 "https://pmb.acdh.oeaw.ac.at/entity/50/",
 "head":
 "Wien"
}, {
 "type":
 "schnitzler-briefe",
 "idno":
 "https://schnitzler-briefe.acdh.oeaw.ac.at/L02351.html",
 "head":
 "Arthur Schnitzler an Robert Adam, 20. 7. 1922",
 "desc":
{"listPerson":
  [
{
 "persName":
 "Robert Adam",
 "ref":
 "pmb12438"}],
 "listPlace":
  [
 {
 "placeName":
 "Gutenstein",
 "ref":
 "pmb1036"}
 ,  {
 "placeName":
 "Niederösterreich",
 "ref":
 "pmb1003"}
 ,  {
 "placeName":
 "Erholungsheim der Bundesbeamten",
 "ref":
 "pmb1263"}
 ,  {
 "placeName":
 "Wien",
 "ref":
 "pmb50"}
 ,  {
 "placeName":
 "XVIII., Währing",
 "ref":
 "pmb68"}
 ,  {
 "placeName":
 "Sternwartestraße",
 "ref":
 "pmb150"}
 ,  {
 "placeName":
 "XII., Meidling",
 "ref":
 "pmb62"}
 ,  {
 "placeName":
 "Meidlinger Hauptstraße",
 "ref":
 "pmb1239"}
 ]}

}, {
 "type":
 "schnitzler-tagebuch",
 "idno":
 "https://schnitzler-tagebuch.acdh.oeaw.ac.at/entry__1920-07-20.html",
 "head":
 "Tagebuch, 20. Juli 1920",
 "desc":
{"listPerson":
  [
{
 "persName":
 "Lucy von Jacobi",
 "ref":
 "person_16469"},
 {
 "persName":
 "Raden Mas Pandjo Sosro Kartono",
 "ref":
 "person_16743"},
 {
 "persName":
 "Robert Lichtenstern",
 "ref":
 "person_17509"},
 {
 "persName":
 "Willy Nowak",
 "ref":
 "person_18496"},
 {
 "persName":
 "Egon Schiele",
 "ref":
 "person_19678"},
 {
 "persName":
 "Josefine Schipper",
 "ref":
 "person_19707"},
 {
 "persName":
 "Fritz Zuckerkandl",
 "ref":
 "person_21597"},
 {
 "persName":
 "Felix Albrecht Harta",
 "ref":
 "person_15935"},
 {
 "persName":
 "Gustav Klimt",
 "ref":
 "person_16910"},
 {
 "persName":
 "Ruth Lindberg",
 "ref":
 "person_17562"},
 {
 "persName":
 "Egon Friedell",
 "ref":
 "person_15210"},
 {
 "persName":
 "Wilhelm Grosz",
 "ref":
 "person_15685"},
 {
 "persName":
 "Olga Schnitzler",
 "ref":
 "person_19832"}],
 "listBibl":
  [
 {
 "title":
 "Therese. Chronik eines Frauenlebens",
 "ref":
 "pmb30817"}
 ,  {
 "title":
 "Die Kulturgeschichte der Neuzeit",
 "ref":
 "pmb32624"}
 ],
 "listPlace":
  [
 {
 "placeName":
 "Paris",
 "ref":
 "pmb182"}
 ]}

}] 
}