[{
 "type":
 "schnitzler-tagebuch",
 "color":
 "#037a33",
 "filename":
 "entry__1920-06-09",
 "caption":
 "Tagebuch",
 "idno":
 "https://schnitzler-tagebuch.acdh.oeaw.ac.at/entry__1920-06-09.html",
 "head":
 "Tagebuch, 9. Juni 1920",
 "desc":
{"listPerson":
  [
{
 "persName":
 "Ludwig Bauer",
 "ref":
 "person_13473"},
 {
 "persName":
 "Otto Brahm",
 "ref":
 "person_13913"},
 {
 "persName":
 "Max Eugen Burckhard",
 "ref":
 "person_14065"},
 {
 "persName":
 "Gisela Hajek",
 "ref":
 "person_15854"},
 {
 "persName":
 "Alfred Scharf",
 "ref":
 "person_19628"},
 {
 "persName":
 "Heinrich Schnitzler",
 "ref":
 "person_19822"},
 {
 "persName":
 "Karl Schönherr",
 "ref":
 "person_19850"},
 {
 "persName":
 "Hermine Simandt",
 "ref":
 "person_20112"},
 {
 "persName":
 "Berta Zuckerkandl",
 "ref":
 "person_21594"},
 {
 "persName":
 "Julius Bittner",
 "ref":
 "person_13754"},
 {
 "persName":
 "Marcel Dunan",
 "ref":
 "person_14551"},
 {
 "persName":
 "Carl Fleischmann",
 "ref":
 "person_15038"},
 {
 "persName":
 "Olga Schnitzler",
 "ref":
 "person_19832"},
 {
 "persName":
 "Fritz von Unruh",
 "ref":
 "person_20885"}],
 "listPlace":
  [
 {
 "placeName":
 "Lugano",
 "ref":
 "pmb885"}
 ,  {
 "placeName":
 "Frankreich",
 "ref":
 "pmb166"}
 ,  {
 "placeName":
 "Deutschland",
 "ref":
 "pmb151"}
 ,  {
 "placeName":
 "Österreich",
 "ref":
 "pmb41240"}
 ,  {
 "placeName":
 "Pötzleinsdorf",
 "ref":
 "pmb169"}
 ,  {
 "placeName":
 "Bad Hofgastein",
 "ref":
 "pmb90893"}
 ,  {
 "placeName":
 "Bad Aussee",
 "ref":
 "pmb415"}
 ,  {
 "placeName":
 "Südtirol",
 "ref":
 "pmb969"}
 ]
}
}, {
 "type":
 "schnitzler-orte",
 "color":
 "#045344",
 "caption":
 "Aufenthaltsorte",
 "head":
 "Wien",
 "desc":
{"listPlace":
  [
 {
 "placeName":
 "XVIII., Währing",
 "ref":
 ""}
 ,  {
 "placeName":
 "I., Innere Stadt",
 "ref":
 ""}
 ]
}
}, {
 "type":
 "schnitzler-orte",
 "color":
 "#045344",
 "caption":
 "Aufenthaltsorte",
 "head":
 "Café Imperial"
}, {
 "type":
 "schnitzler-orte",
 "color":
 "#045344",
 "caption":
 "Aufenthaltsorte",
 "head":
 "Beethovengasse 6"
}, {
 "type":
 "kalliope-verbund",
 "color":
 "#003574",
 "caption":
 "Kalliope Verbundkatalog",
 "idno":
 "http://kalliope-verbund.info/DE-2498-HS00032776",
 "head":
 "Cannon, Stamm &amp; Co. &lt;New York, NY&gt; an Schnitzler, Arthur [Briefe]",
 "text":
 "1 Bl."
}] 