[{
 "type":
 "schnitzler-tagebuch",
 "color":
 "#037a33",
 "filename":
 "entry__1920-09-15",
 "caption":
 "Tagebuch",
 "idno":
 "https://schnitzler-tagebuch.acdh.oeaw.ac.at/entry__1920-09-15.html",
 "head":
 "Tagebuch, 15. September 1920",
 "desc":
{"listPerson":
  [
{
 "persName":
 "Lili Schnitzler",
 "ref":
 "person_14130"},
 {
 "persName":
 "Alfons Goldschmidt",
 "ref":
 "person_15542"},
 {
 "persName":
 "Alfred Kerr",
 "ref":
 "person_16819"}],
 "listBibl":
  [
 {
 "title":
 "Moskau 1920. Tagebuchblätter",
 "ref":
 "pmb78759"}
 ],
 "listPlace":
  [
 {
 "placeName":
 "Gosau",
 "ref":
 "pmb51797"}
 ,  {
 "placeName":
 "Pass Gschütt",
 "ref":
 "pmb90791"}
 ,  {
 "placeName":
 "Abtenau",
 "ref":
 "pmb52548"}
 ,  {
 "placeName":
 "Golling an der Salzach",
 "ref":
 "pmb90733"}
 ]
}
}, {
 "type":
 "wienerschnitzler",
 "color":
 "#6F5106",
 "caption":
 "Wiener Schnitzler",
 "idno":
 "https://wienerschnitzler.org/tag.html#1920-09-15",
 "head":
 "Gosau",
 "desc":
{"listPlace":
  [
 {
 "placeName":
 "Hotel und Restaurant Brandwirt",
 "ref":
 ""}
 ]
}
}, {
 "type":
 "wienerschnitzler",
 "color":
 "#6F5106",
 "caption":
 "Wiener Schnitzler",
 "idno":
 "https://wienerschnitzler.org/tag.html#1920-09-15",
 "head":
 "Golling an der Salzach",
 "desc":
{"listPlace":
  [
 {
 "placeName":
 "Hotel Bahnhof (Inh. Linus Steinacher)",
 "ref":
 ""}
 ,  {
 "placeName":
 "Hotel Alte Post (Inh. Leo Steinacher)",
 "ref":
 ""}
 ]
}
}, {
 "type":
 "wienerschnitzler",
 "color":
 "#6F5106",
 "caption":
 "Wiener Schnitzler",
 "idno":
 "https://wienerschnitzler.org/tag.html#1920-09-15",
 "head":
 "Abtenau",
 "desc":
{"listPlace":
  [
 {
 "placeName":
 "Hotel Rother Ochs",
 "ref":
 ""}
 ]
}
}, {
 "type":
 "wienerschnitzler",
 "color":
 "#6F5106",
 "caption":
 "Wiener Schnitzler",
 "idno":
 "https://wienerschnitzler.org/tag.html#1920-09-15",
 "head":
 "Pass Gschütt"
}, {
 "type":
 "wienerschnitzler",
 "color":
 "#6F5106",
 "caption":
 "Wiener Schnitzler",
 "idno":
 "https://wienerschnitzler.org/tag.html#1920-09-15",
 "head":
 "Rußbach am Paß Gschütt"
}] 