[{
 "type":
 "schnitzler-tagebuch",
 "color":
 "#037a33",
 "filename":
 "entry__1920-12-29",
 "caption":
 "Tagebuch",
 "idno":
 "https://schnitzler-tagebuch.acdh.oeaw.ac.at/entry__1920-12-29.html",
 "head":
 "Tagebuch, 29. Dezember 1920",
 "desc":
{"listPerson":
  [
{
 "persName":
 "Lili Schnitzler",
 "ref":
 "person_14130"},
 {
 "persName":
 "Gisela Hajek",
 "ref":
 "person_15854"},
 {
 "persName":
 "Benjamin Harz",
 "ref":
 "person_15957"},
 {
 "persName":
 "Daniel Spitzer",
 "ref":
 "person_20276"},
 {
 "persName":
 "Olga Schnitzler",
 "ref":
 "person_19832"}],
 "listBibl":
  [
 {
 "title":
 "Wiener Spaziergänge",
 "ref":
 "pmb81335"}
 ],
 "listPlace":
  [
 {
 "placeName":
 "Weißgerberlände",
 "ref":
 "pmb92598"}
 ,  {
 "placeName":
 "Baden bei Wien",
 "ref":
 "pmb662"}
 ,  {
 "placeName":
 "Wien",
 "ref":
 "pmb50"}
 ]
}
}, {
 "type":
 "wienerschnitzler",
 "color":
 "#ECDA98",
 "caption":
 "Wiener Schnitzler",
 "idno":
 "https://wienerschnitzler.org/tag.html#1920-12-29",
 "head":
 "Wien",
 "desc":
{"listPlace":
  [
 {
 "placeName":
 "III., Landstraße",
 "ref":
 ""}
 ,  {
 "placeName":
 "X., Favoriten",
 "ref":
 ""}
 ,  {
 "placeName":
 "IV., Wieden",
 "ref":
 ""}
 ,  {
 "placeName":
 "XVIII., Währing",
 "ref":
 ""}
 ]
}
}, {
 "type":
 "wienerschnitzler",
 "color":
 "#ECDA98",
 "caption":
 "Wiener Schnitzler",
 "idno":
 "https://wienerschnitzler.org/tag.html#1920-12-29",
 "head":
 "Baden bei Wien",
 "desc":
{"listPlace":
  [
 {
 "placeName":
 "Pension Cortella",
 "ref":
 ""}
 ,  {
 "placeName":
 "Bahnhof Baden bei Wien",
 "ref":
 ""}
 ]
}
}] 