[{
 "type":
 "schnitzler-tagebuch",
 "color":
 "#037a33",
 "filename":
 "entry__1920-06-05",
 "caption":
 "Tagebuch",
 "idno":
 "https://schnitzler-tagebuch.acdh.oeaw.ac.at/entry__1920-06-05.html",
 "head":
 "Tagebuch, 5. Juni 1920",
 "desc":
{"listPerson":
  [
{
 "persName":
 "Lili Schnitzler",
 "ref":
 "person_14130"},
 {
 "persName":
 "Paul Eger",
 "ref":
 "person_14626"},
 {
 "persName":
 "Rudolf Eger",
 "ref":
 "person_14627"}],
 "listBibl":
  [
 {
 "title":
 "Jugend in Wien",
 "ref":
 "pmb33838"}
 ,  {
 "title":
 "Reigen. Zehn Dialoge",
 "ref":
 "pmb29855"}
 ],
 "listPlace":
  [
 {
 "placeName":
 "Chicago",
 "ref":
 "pmb880"}
 ,  {
 "placeName":
 "Nürnberg",
 "ref":
 "pmb44172"}
 ,  {
 "placeName":
 "Pötzleinsdorf",
 "ref":
 "pmb169"}
 ]
}
}, {
 "type":
 "schnitzler-interviews",
 "color":
 "#3D5A80",
 "filename":
 "I070",
 "caption":
 "Interviews, Meinungen, Proteste",
 "idno":
 "https://schnitzler-interviews.acdh.oeaw.ac.at/I070.html",
 "head":
 "Joseph Gollomb: Dr. Arthur Schnitzler on the Vienna of To-day,
                            5. 6. 1920",
 "desc":
{"listPerson":
  [
{
 "persName":
 "Joseph Gollomb",
 "ref":
 "pmb11494"},
 {
 "persName":
 "Johann Strauss",
 "ref":
 "pmb12867"},
 {
 "persName":
 "Fritz Kreisler",
 "ref":
 "pmb11992"},
 {
 "persName":
 "Harley Granville-Barker",
 "ref":
 "pmb5369"},
 {
 "persName":
 "John Barrymore",
 "ref":
 "pmb5372"},
 {
 "persName":
 "Henrik Ibsen",
 "ref":
 "pmb11798"},
 {
 "persName":
 "Johann Wolfgang von Goethe",
 "ref":
 "pmb11461"},
 {
 "persName":
 "Friedrich von Schiller",
 "ref":
 "pmb12654"},
 {
 "persName":
 "Gotthold Ephraim Lessing",
 "ref":
 "pmb12053"},
 {
 "persName":
 "Heinrich Heine",
 "ref":
 "pmb11640"},
 {
 "persName":
 "George Bernard Shaw",
 "ref":
 "pmb2381"},
 {
 "persName":
 "William Shakespeare",
 "ref":
 "pmb2412"},
 {
 "persName":
 "Gustav Mahler",
 "ref":
 "pmb12163"},
 {
 "persName":
 "Gustav Klimt",
 "ref":
 "pmb11941"},
 {
 "persName":
 "Karl Lueger",
 "ref":
 "pmb3561"},
 {
 "persName":
 "Franz Joseph I. von Österreich-Ungarn",
 "ref":
 "pmb2513"},
 {
 "persName":
 "Franz Ferdinand von Österreich-Este",
 "ref":
 "pmb3287"},
 {
 "persName":
 "Jacob H. Kolbert",
 "ref":
 "pmb63846"},
 {
 "persName":
 "Georg Brandes",
 "ref":
 "pmb10992"}],
 "listBibl":
  [
 {
 "title":
 "Anatol",
 "ref":
 "pmb29935"}
 ,  {
 "title":
 "Caprice Viennois",
 "ref":
 "pmb33225"}
 ,  {
 "title":
 "Zeitschrift des allgemeinen österreichischen Apotheker-Vereines",
 "ref":
 "pmb62890"}
 ,  {
 "title":
 "Diario de la Marina",
 "ref":
 "pmb63852"}
 ,  {
 "title":
 "Dr. Arthur Schnitzler on the Vienna of To-day",
 "ref":
 "pmb33223"}
 ,  {
 "title":
 "Evening Post",
 "ref":
 "pmb41576"}
 ],
 "listPlace":
  [
 {
 "placeName":
 "Wien",
 "ref":
 "pmb50"}
 ,  {
 "placeName":
 "Paris",
 "ref":
 "pmb182"}
 ,  {
 "placeName":
 "Wienerwald",
 "ref":
 "pmb40876"}
 ,  {
 "placeName":
 "Hayes Theatre",
 "ref":
 "pmb1078"}
 ,  {
 "placeName":
 "Amerika",
 "ref":
 "pmb175"}
 ,  {
 "placeName":
 "Ringstraße",
 "ref":
 "pmb112"}
 ,  {
 "placeName":
 "Preußen",
 "ref":
 "pmb206"}
 ,  {
 "placeName":
 "Österreich",
 "ref":
 "pmb41240"}
 ,  {
 "placeName":
 "Europa",
 "ref":
 "pmb468"}
 ,  {
 "placeName":
 "Mariahilferstraße",
 "ref":
 "pmb302"}
 ,  {
 "placeName":
 "Deutschland",
 "ref":
 "pmb151"}
 ,  {
 "placeName":
 "Russland",
 "ref":
 "pmb34438"}
 ,  {
 "placeName":
 "Oper",
 "ref":
 "pmb15"}
 ,  {
 "placeName":
 "Budapest",
 "ref":
 "pmb43471"}
 ,  {
 "placeName":
 "Havana",
 "ref":
 "pmb39944"}
 ,  {
 "placeName":
 "Calle N",
 "ref":
 "pmb63849"}
 ],
 "listOrg":
  [
 {
 "orgName":
 "Mitchell Kennerley",
 "ref":
 "pmb29433"}
 ,  {
 "orgName":
 "Landtag von Niederösterreich",
 "ref":
 "pmb62887"}
 ,  {
 "orgName":
 "Evening Post",
 "ref":
 "pmb29736"}
 ]
}
}, {
 "type":
 "pmb",
 "color":
 "#9B5F98",
 "filename":
 "entity/50/",
 "caption":
 "PMB",
 "idno":
 "https://pmb.acdh.oeaw.ac.at/entity/50/",
 "text":
 "Wien"
}, {
 "type":
 "schnitzler-cmif",
 "subtype":
 "#jf7cbca5-b0b6-4bcf-adbf-38e94eed3cb3",
 "color":
 "#654321",
 "caption":
 "Gedruckte Briefwechsel",
 "head":
 "Arthur Schnitzler an Andrea H. Proudfoot, 5. 6. 1920",
 "source":
 "Arthur Schnitzler: Briefe 1913–1931. Hrsg. v. Peter Michael Braunwarth, Richard Miklin, Susanne Pertlik und Heinrich Schnitzler. Frankfurt am Main: S. Fischer 1984. (PDF unter: https://schnitzler-briefe.acdh.oeaw.ac.at/)"
}] 