[{
 "type":
 "schnitzler-tagebuch",
 "color":
 "#037a33",
 "filename":
 "entry__1920-09-10",
 "caption":
 "Tagebuch",
 "idno":
 "https://schnitzler-tagebuch.acdh.oeaw.ac.at/entry__1920-09-10.html",
 "head":
 "Tagebuch, 10. September 1920",
 "desc":
{"listPerson":
  [
{
 "persName":
 "Hanna Askonas",
 "ref":
 "person_13282"},
 {
 "persName":
 "Irene Auernheimer",
 "ref":
 "person_13304"},
 {
 "persName":
 "Gisela Hajek",
 "ref":
 "person_15854"},
 {
 "persName":
 "Paul Wilhelm Klein",
 "ref":
 "person_16895"},
 {
 "persName":
 "Olga Marianne Lieben",
 "ref":
 "person_17514"},
 {
 "persName":
 "Heinrich Schnitzler",
 "ref":
 "person_19822"},
 {
 "persName":
 "Louise Schnitzler",
 "ref":
 "person_19831"},
 {
 "persName":
 "Anna Seifert",
 "ref":
 "person_20032"},
 {
 "persName":
 "Margot Vallo",
 "ref":
 "person_16894"},
 {
 "persName":
 "Arthur Kaufmann",
 "ref":
 "person_16770"},
 {
 "persName":
 "Peter Kuranda",
 "ref":
 "person_17213"},
 {
 "persName":
 "Olga Schnitzler",
 "ref":
 "person_19832"},
 {
 "persName":
 "Victor Zuckerkandl",
 "ref":
 "person_21602"}],
 "listPlace":
  [
 {
 "placeName":
 "Garnisongasse",
 "ref":
 "pmb731"}
 ,  {
 "placeName":
 "Mariannengasse",
 "ref":
 "pmb311"}
 ,  {
 "placeName":
 "Abtenau",
 "ref":
 "pmb52548"}
 ,  {
 "placeName":
 "Bad Ischl",
 "ref":
 "pmb213"}
 ]
}
}, {
 "type":
 "schnitzler-orte",
 "color":
 "#045344",
 "caption":
 "Aufenthaltsorte",
 "head":
 "Altaussee",
 "desc":
{"listPlace":
  [
 {
 "placeName":
 "Seewirt",
 "ref":
 ""}
 ,  {
 "placeName":
 "Villa Gisela und Markus Hajek",
 "ref":
 ""}
 ,  {
 "placeName":
 "Villa Schöneck",
 "ref":
 ""}
 ,  {
 "placeName":
 "Mößernstraße",
 "ref":
 ""}
 ]
}
}, {
 "type":
 "schnitzler-cmif",
 "subtype":
 "#sf764ae3-dd0e-4189-99ce-df42a712c689",
 "color":
 "#654321",
 "caption":
 "Gedruckte Briefwechsel",
 "head":
 "Olga Schnitzler an Arthur Schnitzler, 10.9.1920",
 "source":
 "Max Haberich: Arthur Schnitzler. Anatom des Fin de Siècle. Die Biografie. Wien: Kremayr und Scheriau 2017, ISBN 13: 9783218010641, Anhang: Korrespondenz Arthur und Olga Schnitzler, S. 277–293."
}, {
 "type":
 "schnitzler-traeume",
 "subtype":
 "#ISBN978-3-8353-1029-2",
 "color":
 "#1193CC",
 "caption":
 "Traumtagebuch",
 "head":
 "Traum vom 10. September 1920",
 "source":
 "Arthur Schnitzler: Träume. Das Traumtagebuch 1875–1931. Herausgegeben von Peter Michael Braunwarth und Leo A. Lensing. Göttingen: Wallstein 2012 (Bibliothek Janowitz, Bd. 20)"
}] 