[{
 "type":
 "schnitzler-tagebuch",
 "color":
 "#037a33",
 "filename":
 "entry__1920-01-11",
 "caption":
 "Tagebuch",
 "idno":
 "https://schnitzler-tagebuch.acdh.oeaw.ac.at/entry__1920-01-11.html",
 "head":
 "Tagebuch, 11. Januar 1920",
 "desc":
{"listPerson":
  [
{
 "persName":
 "Albert Einstein",
 "ref":
 "person_14669"},
 {
 "persName":
 "Leopold Ferdinand Salvator",
 "ref":
 "person_17459"},
 {
 "persName":
 "Robert Lichtenstern",
 "ref":
 "person_17509"},
 {
 "persName":
 "Felix Salten",
 "ref":
 "person_19542"},
 {
 "persName":
 "Heinrich Schnitzler",
 "ref":
 "person_19822"},
 {
 "persName":
 "Kurt Sonnenfeld",
 "ref":
 "person_20201"},
 {
 "persName":
 "Siegfried Trebitsch",
 "ref":
 "person_20796"},
 {
 "persName":
 "Leo Van-Jung",
 "ref":
 "person_20925"},
 {
 "persName":
 "Paul Wertheimer",
 "ref":
 "person_21264"},
 {
 "persName":
 "Arthur Kaufmann",
 "ref":
 "person_16770"}],
 "listBibl":
  [
 {
 "title":
 "Liebelei. Schauspiel in drei Akten",
 "ref":
 "pmb29917"}
 ],
 "listPlace":
  [
 {
 "placeName":
 "Pötzleinsdorf",
 "ref":
 "pmb169"}
 ,  {
 "placeName":
 "Salmannsdorf",
 "ref":
 "pmb91641"}
 ,  {
 "placeName":
 "Berlin",
 "ref":
 "pmb168"}
 ]
}
}, {
 "type":
 "schnitzler-orte",
 "color":
 "#045344",
 "filename":
 "entity/50/",
 "caption":
 "Aufenthaltsorte",
 "idno":
 "https://pmb.acdh.oeaw.ac.at/entity/50/",
 "head":
 "Wien"
}, {
 "type":
 "schnitzler-interviews",
 "color":
 "#3D5A80",
 "filename":
 "I013",
 "caption":
 "Interviews, Meinungen, Proteste",
 "idno":
 "https://schnitzler-interviews.acdh.oeaw.ac.at/I013.html",
 "head":
 "Kurt Sonnenfeld: Ein Abend bei Artur Schnitzler, 11. 1. 1920",
 "desc":
{"listPerson":
  [
{
 "persName":
 "Kurt Sonnenfeld",
 "ref":
 "pmb3109"},
 {
 "persName":
 "Hedwig Bleibtreu",
 "ref":
 "pmb10959"},
 {
 "persName":
 "Alexander Römpler",
 "ref":
 "pmb12595"},
 {
 "persName":
 "Heinrich Schnitzler",
 "ref":
 "pmb12692"},
 {
 "persName":
 "Romain Rolland",
 "ref":
 "pmb12543"},
 {
 "persName":
 "Pierre Ramus",
 "ref":
 "pmb5138"},
 {
 "persName":
 "Leo N. von Tolstoi",
 "ref":
 "pmb3739"},
 {
 "persName":
 "Ernst Toller",
 "ref":
 "pmb12961"},
 {
 "persName":
 "Lili Schnitzler",
 "ref":
 "pmb2238"},
 {
 "persName":
 "Heinrich Heine",
 "ref":
 "pmb11640"},
 {
 "persName":
 "Charles Dickens",
 "ref":
 "pmb11153"},
 {
 "persName":
 "Karl Schönherr",
 "ref":
 "pmb12749"},
 {
 "persName":
 "Joseph Victor Widmann",
 "ref":
 "pmb3557"},
 {
 "persName":
 "Josef Kainz",
 "ref":
 "pmb11851"},
 {
 "persName":
 "Olga Schnitzler",
 "ref":
 "pmb2173"},
 {
 "persName":
 "Johannes Brahms",
 "ref":
 "pmb10989"},
 {
 "persName":
 "Hugo Wolf",
 "ref":
 "pmb13152"},
 {
 "persName":
 "Giacomo Girolamo Casanova",
 "ref":
 "pmb3145"}],
 "listBibl":
  [
 {
 "title":
 "Liebelei. Schauspiel in drei Akten",
 "ref":
 "pmb29917"}
 ,  {
 "title":
 "Frühlingsnacht im Seziersaal. Phantasie",
 "ref":
 "pmb33822"}
 ,  {
 "title":
 "Arbeiter-Zeitung",
 "ref":
 "pmb41202"}
 ,  {
 "title":
 "Jugend in Wien",
 "ref":
 "pmb33838"}
 ,  {
 "title":
 "Über den Patriotismus",
 "ref":
 "pmb33019"}
 ,  {
 "title":
 "Anatol",
 "ref":
 "pmb29935"}
 ,  {
 "title":
 "Die Schwestern oder Casanova in Spa. Lustspiel in Versen",
 "ref":
 "pmb30819"}
 ,  {
 "title":
 "Neues Wiener Journal",
 "ref":
 "pmb36376"}
 ,  {
 "title":
 "Ein Abend bei Artur Schnitzler",
 "ref":
 "pmb32937"}
 ],
 "listPlace":
  [
 {
 "placeName":
 "Währinger Cottage",
 "ref":
 "pmb533"}
 ,  {
 "placeName":
 "XVIII., Währing",
 "ref":
 "pmb68"}
 ,  {
 "placeName":
 "Wien",
 "ref":
 "pmb50"}
 ,  {
 "placeName":
 "Altes Allgemeines Krankenhaus",
 "ref":
 "pmb546"}
 ,  {
 "placeName":
 "Edmund-Weiß-Gasse",
 "ref":
 "pmb133"}
 ,  {
 "placeName":
 "Frankreich",
 "ref":
 "pmb166"}
 ,  {
 "placeName":
 "Berlin",
 "ref":
 "pmb168"}
 ,  {
 "placeName":
 "Leopoldsberg",
 "ref":
 "pmb59364"}
 ,  {
 "placeName":
 "Kahlenberg",
 "ref":
 "pmb574"}
 ,  {
 "placeName":
 "Hermannskogel",
 "ref":
 "pmb535"}
 ,  {
 "placeName":
 "Dreimarkstein",
 "ref":
 "pmb537"}
 ,  {
 "placeName":
 "Donau",
 "ref":
 "pmb59370"}
 ],
 "listOrg":
  [
 {
 "orgName":
 "Der freie Landesbote",
 "ref":
 "pmb29432"}
 ,  {
 "orgName":
 "S. Fischer Verlag",
 "ref":
 "pmb29639"}
 ,  {
 "orgName":
 "Sonntagsblatt des Bund",
 "ref":
 "pmb29343"}
 ,  {
 "orgName":
 "Neues Wiener Journal",
 "ref":
 "pmb29320"}
 ]
}
}, {
 "type":
 "schnitzler-cmif",
 "subtype":
 "#asbw_0a380dfe-61d4-4b9e-8641-01eba8e50760",
 "color":
 "#654321",
 "caption":
 "Gedruckte Briefwechsel",
 "head":
 "Erhalt von Hugo von Hofmannsthal an Arthur Schnitzler, 7. 1. 1920",
 "source":
 "Arthur Schnitzler – Briefwechsel mit Autorinnen und Autoren. Digitale Edition herausgegeben von Martin Anton Müller, Gerd-Hermann Susen und Laura Untner, 2018–[2024]"
}] 