[{
 "type":
 "schnitzler-tagebuch",
 "color":
 "#037a33",
 "filename":
 "entry__1920-12-12",
 "caption":
 "Tagebuch",
 "idno":
 "https://schnitzler-tagebuch.acdh.oeaw.ac.at/entry__1920-12-12.html",
 "head":
 "Tagebuch, 12. Dezember 1920",
 "desc":
{"listPerson":
  [
{
 "persName":
 "Ludwig Altmann",
 "ref":
 "person_13173"},
 {
 "persName":
 "Gabriele Arnau",
 "ref":
 "person_13255"},
 {
 "persName":
 "Ludwig van Beethoven",
 "ref":
 "person_13555"},
 {
 "persName":
 "Friedrich Gundolf",
 "ref":
 "person_15751"},
 {
 "persName":
 "Franz Herterich",
 "ref":
 "person_16125"},
 {
 "persName":
 "Erich Wolfgang Korngold",
 "ref":
 "person_17058"},
 {
 "persName":
 "Josef Lesowsky",
 "ref":
 "person_17470"},
 {
 "persName":
 "Arnold Rosé",
 "ref":
 "person_19351"},
 {
 "persName":
 "Heinrich Schnitzler",
 "ref":
 "person_19822"},
 {
 "persName":
 "Richard Specht",
 "ref":
 "person_20238"},
 {
 "persName":
 "Stefan Hock",
 "ref":
 "person_16247"},
 {
 "persName":
 "Olga Schnitzler",
 "ref":
 "person_19832"}],
 "listBibl":
  [
 {
 "title":
 "George",
 "ref":
 "pmb77088"}
 ,  {
 "title":
 "Die tote Stadt op. 12",
 "ref":
 "pmb77566"}
 ],
 "listPlace":
  [
 {
 "placeName":
 "Burgtheater",
 "ref":
 "pmb14"}
 ,  {
 "placeName":
 "Siberia",
 "ref":
 "pmb91739"}
 ]
}
}, {
 "type":
 "wienerschnitzler",
 "color":
 "#6F5106",
 "caption":
 "Wiener Schnitzler",
 "idno":
 "https://wienerschnitzler.org/tag.html#1920-12-12",
 "head":
 "Wien",
 "desc":
{"listPlace":
  [
 {
 "placeName":
 "I., Innere Stadt",
 "ref":
 ""}
 ,  {
 "placeName":
 "XIX., Döbling",
 "ref":
 ""}
 ,  {
 "placeName":
 "III., Landstraße",
 "ref":
 ""}
 ,  {
 "placeName":
 "XVIII., Währing",
 "ref":
 ""}
 ]
}
}, {
 "type":
 "URL",
 "subtype":
 "schnitzler-kultur",
 "filename":
 "pmb292003",
 "idno":
 "https://schnitzler-kultur.acdh.oeaw.ac.at/pmb292003.html",
 "head":
 "Sitzung der Genossenschaft dramatischer Autoren und Komponisten in Österreich, 12.12.1920",
 "desc":
{"listOrg":
  [
 {
 "orgName":
 "Genossenschaft dramatischer Autoren und Komponisten in Österreich",
 "ref":
 ""}
 ],
 "listPerson":
  [
{
 "persName":
 "Arthur Schnitzler",
 "ref":
 ""}],
 "listPlace":
  [
 {
 "placeName":
 "Wipplingerstraße 20",
 "ref":
 ""}
 ]
}
}, {
 "type":
 "URL",
 "subtype":
 "schnitzler-kultur",
 "filename":
 "pmb210074",
 "idno":
 "https://schnitzler-kultur.acdh.oeaw.ac.at/pmb210074.html",
 "head":
 "Beethoven-Zyklus des Rosé-Quartetts, 2. Abend, 12.12.1920",
 "desc":
{"listOrg":
  [
 {
 "orgName":
 "Rosé-Quartett",
 "ref":
 ""}
 ],
 "listPerson":
  [
{
 "persName":
 "Arthur Schnitzler",
 "ref":
 ""}],
 "listPlace":
  [
 {
 "placeName":
 "Wiener Konzerthaus",
 "ref":
 ""}
 ]
}
}] 