[{
 "type":
 "schnitzler-tagebuch",
 "color":
 "#037a33",
 "filename":
 "entry__1920-09-11",
 "caption":
 "Tagebuch",
 "idno":
 "https://schnitzler-tagebuch.acdh.oeaw.ac.at/entry__1920-09-11.html",
 "head":
 "Tagebuch, 11. September 1920",
 "desc":
{"listPerson":
  [
{
 "persName":
 "Lili Schnitzler",
 "ref":
 "person_14130"},
 {
 "persName":
 "Gisela Hajek",
 "ref":
 "person_15854"},
 {
 "persName":
 "Hermann von Keyserling",
 "ref":
 "person_16831"},
 {
 "persName":
 "Edmund Gustav Schwarz",
 "ref":
 "person_19964"},
 {
 "persName":
 "Egon Wellesz",
 "ref":
 "person_21223"},
 {
 "persName":
 "Berta Zuckerkandl",
 "ref":
 "person_21594"},
 {
 "persName":
 "Anna Reiter",
 "ref":
 "person_19170"},
 {
 "persName":
 "Franzl",
 "ref":
 "person_15152"},
 {
 "persName":
 "Arthur Kaufmann",
 "ref":
 "person_16770"},
 {
 "persName":
 "Olga Schnitzler",
 "ref":
 "person_19832"},
 {
 "persName":
 "Victor Zuckerkandl",
 "ref":
 "person_21602"}],
 "listBibl":
  [
 {
 "title":
 "Das Reisetagebuch eines Philosophen",
 "ref":
 "pmb39833"}
 ],
 "listPlace":
  [
 {
 "placeName":
 "Sandling",
 "ref":
 "pmb91653"}
 ,  {
 "placeName":
 "Altaussee",
 "ref":
 "pmb90229"}
 ,  {
 "placeName":
 "Salzburg",
 "ref":
 "pmb30"}
 ]
}
}, {
 "type":
 "wienerschnitzler",
 "color":
 "#6F5106",
 "caption":
 "Wiener Schnitzler",
 "idno":
 "https://wienerschnitzler.org/tag.html#1920-09-11",
 "head":
 "Altaussee",
 "desc":
{"listPlace":
  [
 {
 "placeName":
 "Hotel am See",
 "ref":
 ""}
 ,  {
 "placeName":
 "Villa Sch√∂neck",
 "ref":
 ""}
 ]
}
}, {
 "type":
 "wienerschnitzler",
 "color":
 "#6F5106",
 "caption":
 "Wiener Schnitzler",
 "idno":
 "https://wienerschnitzler.org/tag.html#1920-09-11",
 "head":
 "Lupitsch",
 "desc":
{"listPlace":
  [
 {
 "placeName":
 "Gasthaus zum Bachwirt",
 "ref":
 ""}
 ]
}
}, {
 "type":
 "wienerschnitzler",
 "color":
 "#6F5106",
 "caption":
 "Wiener Schnitzler",
 "idno":
 "https://wienerschnitzler.org/tag.html#1920-09-11",
 "head":
 "Bad Ischl",
 "desc":
{"listPlace":
  [
 {
 "placeName":
 "Hintere Sandlingalm",
 "ref":
 ""}
 ]
}
}, {
 "type":
 "wienerschnitzler",
 "color":
 "#6F5106",
 "caption":
 "Wiener Schnitzler",
 "idno":
 "https://wienerschnitzler.org/tag.html#1920-09-11",
 "head":
 "Sandling",
 "desc":
{"listPlace":
  [
 {
 "placeName":
 "Hintere Sandlingalm",
 "ref":
 ""}
 ,  {
 "placeName":
 "Vordere Sandlingalm",
 "ref":
 ""}
 ]
}
}, {
 "type":
 "wienerschnitzler",
 "color":
 "#6F5106",
 "caption":
 "Wiener Schnitzler",
 "idno":
 "https://wienerschnitzler.org/tag.html#1920-09-11",
 "head":
 "Bad Goisern",
 "desc":
{"listPlace":
  [
 {
 "placeName":
 "Vordere Sandlingalm",
 "ref":
 ""}
 ]
}
}] 