[{
 "type":
 "schnitzler-tagebuch",
 "color":
 "#037a33",
 "filename":
 "entry__1920-05-09",
 "caption":
 "Tagebuch",
 "idno":
 "https://schnitzler-tagebuch.acdh.oeaw.ac.at/entry__1920-05-09.html",
 "head":
 "Tagebuch, 9. Mai 1920",
 "desc":
{"listPerson":
  [
{
 "persName":
 "Lili Schnitzler",
 "ref":
 "person_14130"},
 {
 "persName":
 "Emma Löwenstamm",
 "ref":
 "person_17650"},
 {
 "persName":
 "Helene Piekarski",
 "ref":
 "person_18786"},
 {
 "persName":
 "Gustav Schwarzkopf",
 "ref":
 "person_19986"},
 {
 "persName":
 "Felix Speidel",
 "ref":
 "person_20242"},
 {
 "persName":
 "Agnes Ulmann",
 "ref":
 "person_20872"},
 {
 "persName":
 "Johann Wachsmann",
 "ref":
 "person_21005"},
 {
 "persName":
 "Egon Witrofsky",
 "ref":
 "person_21402"},
 {
 "persName":
 "Arthur Kaufmann",
 "ref":
 "person_16770"}],
 "listBibl":
  [
 {
 "title":
 "Fink und Fliederbusch. Komödie in drei Akten",
 "ref":
 "pmb30881"}
 ],
 "listPlace":
  [
 {
 "placeName":
 "Pötzleinsdorf",
 "ref":
 "pmb169"}
 ,  {
 "placeName":
 "Dornbacher Park",
 "ref":
 "pmb176"}
 ]
}
}, {
 "type":
 "schnitzler-orte",
 "color":
 "#045344",
 "filename":
 "entity/50/",
 "caption":
 "Aufenthaltsorte",
 "idno":
 "https://pmb.acdh.oeaw.ac.at/entity/50/",
 "head":
 "Wien"
}, {
 "type":
 "schnitzler-interviews",
 "color":
 "#3D5A80",
 "filename":
 "I070",
 "caption":
 "Interviews, Meinungen, Proteste",
 "idno":
 "https://schnitzler-interviews.acdh.oeaw.ac.at/I070.html",
 "head":
 "Joseph Gollomb: Dr. Arthur Schnitzler on the Vienna of To-day,
                            5. 6. 1920",
 "desc":
{"listPerson":
  [
{
 "persName":
 "Joseph Gollomb",
 "ref":
 "pmb11494"},
 {
 "persName":
 "Johann Strauss",
 "ref":
 "pmb12867"},
 {
 "persName":
 "Fritz Kreisler",
 "ref":
 "pmb11992"},
 {
 "persName":
 "Harley Granville-Barker",
 "ref":
 "pmb5369"},
 {
 "persName":
 "John Barrymore",
 "ref":
 "pmb5372"},
 {
 "persName":
 "Henrik Ibsen",
 "ref":
 "pmb11798"},
 {
 "persName":
 "Johann Wolfgang von Goethe",
 "ref":
 "pmb11461"},
 {
 "persName":
 "Friedrich von Schiller",
 "ref":
 "pmb12654"},
 {
 "persName":
 "Gotthold Ephraim Lessing",
 "ref":
 "pmb12053"},
 {
 "persName":
 "Heinrich Heine",
 "ref":
 "pmb11640"},
 {
 "persName":
 "George Bernard Shaw",
 "ref":
 "pmb2381"},
 {
 "persName":
 "William Shakespeare",
 "ref":
 "pmb2412"},
 {
 "persName":
 "Gustav Mahler",
 "ref":
 "pmb12163"},
 {
 "persName":
 "Gustav Klimt",
 "ref":
 "pmb11941"},
 {
 "persName":
 "Karl Lueger",
 "ref":
 "pmb3561"},
 {
 "persName":
 "Franz Joseph I. von Österreich-Ungarn",
 "ref":
 "pmb2513"},
 {
 "persName":
 "Franz Ferdinand von Österreich-Este",
 "ref":
 "pmb3287"},
 {
 "persName":
 "Jacob H. Kolbert",
 "ref":
 "pmb63846"},
 {
 "persName":
 "Georg Brandes",
 "ref":
 "pmb10992"}],
 "listBibl":
  [
 {
 "title":
 "Anatol",
 "ref":
 "pmb29935"}
 ,  {
 "title":
 "Caprice Viennois",
 "ref":
 "pmb33225"}
 ,  {
 "title":
 "Zeitschrift des allgemeinen österreichischen Apotheker-Vereines",
 "ref":
 "pmb62890"}
 ,  {
 "title":
 "Diario de la Marina",
 "ref":
 "pmb63852"}
 ,  {
 "title":
 "Dr. Arthur Schnitzler on the Vienna of To-day",
 "ref":
 "pmb33223"}
 ,  {
 "title":
 "Evening Post",
 "ref":
 "pmb41576"}
 ],
 "listPlace":
  [
 {
 "placeName":
 "Wien",
 "ref":
 "pmb50"}
 ,  {
 "placeName":
 "Paris",
 "ref":
 "pmb182"}
 ,  {
 "placeName":
 "Wienerwald",
 "ref":
 "pmb40876"}
 ,  {
 "placeName":
 "Hayes Theatre",
 "ref":
 "pmb1078"}
 ,  {
 "placeName":
 "Amerika",
 "ref":
 "pmb175"}
 ,  {
 "placeName":
 "Ringstraße",
 "ref":
 "pmb112"}
 ,  {
 "placeName":
 "Preußen",
 "ref":
 "pmb206"}
 ,  {
 "placeName":
 "Österreich",
 "ref":
 "pmb41240"}
 ,  {
 "placeName":
 "Europa",
 "ref":
 "pmb468"}
 ,  {
 "placeName":
 "Mariahilferstraße",
 "ref":
 "pmb302"}
 ,  {
 "placeName":
 "Deutschland",
 "ref":
 "pmb151"}
 ,  {
 "placeName":
 "Russland",
 "ref":
 "pmb34438"}
 ,  {
 "placeName":
 "Oper",
 "ref":
 "pmb15"}
 ,  {
 "placeName":
 "Budapest",
 "ref":
 "pmb43471"}
 ,  {
 "placeName":
 "Havana",
 "ref":
 "pmb39944"}
 ,  {
 "placeName":
 "Calle N",
 "ref":
 "pmb63849"}
 ],
 "listOrg":
  [
 {
 "orgName":
 "Mitchell Kennerley",
 "ref":
 "pmb29433"}
 ,  {
 "orgName":
 "Landtag von Niederösterreich",
 "ref":
 "pmb62887"}
 ,  {
 "orgName":
 "Evening Post",
 "ref":
 "pmb29736"}
 ]
}
}] 