[{
 "type":
 "schnitzler-tagebuch",
 "color":
 "#037a33",
 "filename":
 "entry__1921-10-26",
 "caption":
 "Tagebuch",
 "idno":
 "https://schnitzler-tagebuch.acdh.oeaw.ac.at/entry__1921-10-26.html",
 "head":
 "Tagebuch, 26. Oktober 1921",
 "desc":
{"listPerson":
  [
{
 "persName":
 "Egbertje Alida Brevée",
 "ref":
 "person_13969"},
 {
 "persName":
 "Armin Horovitz",
 "ref":
 "person_16377"},
 {
 "persName":
 "Fritz Kreisler",
 "ref":
 "person_17128"},
 {
 "persName":
 "Franz Josef Lichtenstern",
 "ref":
 "person_17507"},
 {
 "persName":
 "Robert Lichtenstern",
 "ref":
 "person_17509"},
 {
 "persName":
 "Isidor Mautner",
 "ref":
 "person_17998"},
 {
 "persName":
 "Rudolf Müller",
 "ref":
 "person_18308"},
 {
 "persName":
 "Alexander N. Ostrowski",
 "ref":
 "person_18602"},
 {
 "persName":
 "Heinrich Schnitzler",
 "ref":
 "person_19822"}],
 "listBibl":
  [
 {
 "title":
 "Jede Weisheit hat ihren Haken",
 "ref":
 "pmb81089"}
 ],
 "listPlace":
  [
 {
 "placeName":
 "Budapest",
 "ref":
 "pmb43471"}
 ,  {
 "placeName":
 "Neuwaldegg",
 "ref":
 "pmb170"}
 ,  {
 "placeName":
 "Dornbacher Park",
 "ref":
 "pmb176"}
 ,  {
 "placeName":
 "Pötzleinsdorf",
 "ref":
 "pmb169"}
 ,  {
 "placeName":
 "Vereinigte Staaten von Amerika (USA)",
 "ref":
 "pmb43406"}
 ]
}
}, {
 "type":
 "wienerschnitzler",
 "color":
 "#6F5106",
 "caption":
 "Wiener Schnitzler",
 "idno":
 "https://wienerschnitzler.org/tag.html#1921-10-26",
 "head":
 "Wien",
 "desc":
{"listPlace":
  [
 {
 "placeName":
 "XVII., Hernals",
 "ref":
 ""}
 ,  {
 "placeName":
 "VIII., Josefstadt",
 "ref":
 ""}
 ,  {
 "placeName":
 "XVIII., Währing",
 "ref":
 ""}
 ]
}
}, {
 "type":
 "schnitzler-kultur",
 "color":
 "#6B4C5A",
 "filename":
 "pmb210121",
 "caption":
 "Kulturveranstaltungen",
 "idno":
 "https://schnitzler-kultur.acdh.oeaw.ac.at/pmb210121.html",
 "head":
 "Aufführung von Jede Weisheit hat ihren Haken, 26.10.1921",
 "desc":
{"listOrg":
  [
 {
 "orgName":
 "Tschechow-Kunsttheater Moskau",
 "ref":
 ""}
 ],
 "listBibl":
  [
 {
 "title":
 "Jede Weisheit hat ihren Haken",
 "ref":
 ""}
 ],
 "listPerson":
  [
{
 "persName":
 "Arthur Schnitzler",
 "ref":
 ""}],
 "listPlace":
  [
 {
 "placeName":
 "Wiener Stadttheater [8. Wiener Gemeindebezirk]",
 "ref":
 ""}
 ]
}
}, {
 "type":
 "schnitzler-traeume",
 "subtype":
 "#ISBN978-3-8353-1029-2",
 "color":
 "#1193CC",
 "caption":
 "Traumtagebuch",
 "head":
 "Traum vom 26. Oktober 1921",
 "source":
 "Arthur Schnitzler: Träume. Das Traumtagebuch 1875–1931. Herausgegeben von Peter Michael Braunwarth und Leo A. Lensing. Göttingen: Wallstein 2012 (Bibliothek Janowitz, Bd. 20)"
}] 