[{
 "type":
 "schnitzler-tagebuch",
 "color":
 "#037a33",
 "filename":
 "entry__1921-01-16",
 "caption":
 "Tagebuch",
 "idno":
 "https://schnitzler-tagebuch.acdh.oeaw.ac.at/entry__1921-01-16.html",
 "head":
 "Tagebuch, 16. Januar 1921",
 "desc":
{"listPerson":
  [
{
 "persName":
 "Ludwig Altmann",
 "ref":
 "person_13173"},
 {
 "persName":
 "Eugenie Bachrach",
 "ref":
 "person_13355"},
 {
 "persName":
 "Fritz Löhner",
 "ref":
 "person_13521"},
 {
 "persName":
 "Richard Beer-Hofmann",
 "ref":
 "person_13551"},
 {
 "persName":
 "Felix Salten",
 "ref":
 "person_19542"},
 {
 "persName":
 "Josefine Schipper",
 "ref":
 "person_19707"},
 {
 "persName":
 "Maximilian Sladek",
 "ref":
 "person_20161"},
 {
 "persName":
 "Ruth Lindberg",
 "ref":
 "person_17562"},
 {
 "persName":
 "Paula Beer-Hofmann",
 "ref":
 "person_13550"}],
 "listBibl":
  [
 {
 "title":
 "Reigen. Zehn Dialoge",
 "ref":
 "pmb29855"}
 ],
 "listPlace":
  [
 {
 "placeName":
 "Berlin",
 "ref":
 "pmb168"}
 ]
}
}, {
 "type":
 "wienerschnitzler",
 "color":
 "#ECDA98",
 "caption":
 "Wiener Schnitzler",
 "idno":
 "https://wienerschnitzler.org/tag.html#1921-01-16",
 "head":
 "Wien",
 "desc":
{"listPlace":
  [
 {
 "placeName":
 "I., Innere Stadt",
 "ref":
 ""}
 ,  {
 "placeName":
 "XVIII., Währing",
 "ref":
 ""}
 ]
}
}, {
 "type":
 "schnitzler-kultur",
 "color":
 "#6B4C5A",
 "filename":
 "pmb291393",
 "caption":
 "Kulturveranstaltungen",
 "idno":
 "https://schnitzler-kultur.acdh.oeaw.ac.at/pmb291393.html",
 "head":
 "Sitzung der Genossenschaft dramatischer Autoren
                        und Komponisten in Österreich, 16.1.1921",
 "desc":
{"listOrg":
  [
 {
 "orgName":
 "Genossenschaft dramatischer Autoren und Komponisten in Österreich",
 "ref":
 ""}
 ],
 "listPerson":
  [
{
 "persName":
 "Arthur Schnitzler",
 "ref":
 ""}],
 "listPlace":
  [
 {
 "placeName":
 "Wipplingerstraße 20",
 "ref":
 ""}
 ]
}
}, {
 "type":
 "schnitzler-bahr",
 "color":
 "#639FF9",
 "filename":
 "T030083",
 "caption":
 "Schnitzler/Bahr",
 "idno":
 "https://schnitzler-bahr.acdh.oeaw.ac.at/T030083.html",
 "head":
 "Bahr: Tagebuch. 1. Januar [1921], 16. 1. 1921",
 "desc":
{"listPerson":
  [
{
 "persName":
 "Hermann Bahr",
 "ref":
 "pmb10815"},
 {
 "persName":
 "Fedor Mamroth",
 "ref":
 "pmb4986"},
 {
 "persName":
 "Eduard Michael Kafka",
 "ref":
 "pmb2563"},
 {
 "persName":
 "Richard Beer-Hofmann",
 "ref":
 "pmb10863"},
 {
 "persName":
 "Hugo von Hofmannsthal",
 "ref":
 "pmb11740"},
 {
 "persName":
 "Emanuel Reicher",
 "ref":
 "pmb12491"},
 {
 "persName":
 "Marie Conrad-Ramlo",
 "ref":
 "pmb4983"},
 {
 "persName":
 "Eleonora Duse",
 "ref":
 "pmb11201"},
 {
 "persName":
 "Josef Kainz",
 "ref":
 "pmb11851"},
 {
 "persName":
 "?? [Agent von Eleonore Duse]",
 "ref":
 "pmb27729"}],
 "listBibl":
  [
 {
 "title":
 "Die neuen Menschen. Ein Schauspiel",
 "ref":
 "pmb31707"}
 ,  {
 "title":
 "Die Wunderkur",
 "ref":
 "pmb32686"}
 ,  {
 "title":
 "Eleonora Duse",
 "ref":
 "pmb31703"}
 ,  {
 "title":
 "Tagebuch. 1. Januar [1921]",
 "ref":
 "pmb32682"}
 ,  {
 "title":
 "Neues Wiener Journal",
 "ref":
 "pmb36376"}
 ,  {
 "title":
 "Liebe der Lebenden",
 "ref":
 "pmb32684"}
 ],
 "listPlace":
  [
 {
 "placeName":
 "Berchtesgaden",
 "ref":
 "pmb797"}
 ,  {
 "placeName":
 "Wien",
 "ref":
 "pmb50"}
 ,  {
 "placeName":
 "Universität Wien",
 "ref":
 "pmb386"}
 ,  {
 "placeName":
 "Berlin",
 "ref":
 "pmb168"}
 ,  {
 "placeName":
 "Paris",
 "ref":
 "pmb182"}
 ,  {
 "placeName":
 "Madrid",
 "ref":
 "pmb914"}
 ,  {
 "placeName":
 "Tanger",
 "ref":
 "pmb951"}
 ,  {
 "placeName":
 "Sankt Petersburg",
 "ref":
 "pmb433"}
 ,  {
 "placeName":
 "Brünn",
 "ref":
 "pmb833"}
 ,  {
 "placeName":
 "Linz",
 "ref":
 "pmb332"}
 ,  {
 "placeName":
 "Italien",
 "ref":
 "pmb40306"}
 ,  {
 "placeName":
 "Carl-Theater",
 "ref":
 "pmb118"}
 ],
 "listOrg":
  [
 {
 "orgName":
 "Salzburger Nachrichten",
 "ref":
 "pmb29298"}
 ,  {
 "orgName":
 "Salzburger Volksblatt",
 "ref":
 "pmb29686"}
 ,  {
 "orgName":
 "Deutsche Zeitung",
 "ref":
 "pmb29424"}
 ,  {
 "orgName":
 "Moderne Dichtung/Moderne Rundschau",
 "ref":
 "pmb29417"}
 ,  {
 "orgName":
 "Frankfurter Zeitung",
 "ref":
 "pmb29442"}
 ]
}
}] 