[{
 "type":
 "schnitzler-tagebuch",
 "color":
 "#037a33",
 "filename":
 "entry__1921-06-23",
 "caption":
 "Tagebuch",
 "idno":
 "https://schnitzler-tagebuch.acdh.oeaw.ac.at/entry__1921-06-23.html",
 "head":
 "Tagebuch, 23. Juni 1921",
 "desc":
{"listPerson":
  [
{
 "persName":
 "Lili Schnitzler",
 "ref":
 "person_14130"},
 {
 "persName":
 "Hans Jacob",
 "ref":
 "person_16462"},
 {
 "persName":
 "Heinrich Schnitzler",
 "ref":
 "person_19822"},
 {
 "persName":
 "Olga Schnitzler",
 "ref":
 "person_19832"}],
 "listPlace":
  [
 {
 "placeName":
 "Starnberg",
 "ref":
 "pmb40951"}
 ,  {
 "placeName":
 "Possenhofen",
 "ref":
 "pmb34896"}
 ,  {
 "placeName":
 "München",
 "ref":
 "pmb45258"}
 ]
}
}, {
 "type":
 "wienerschnitzler",
 "color":
 "#6F5106",
 "caption":
 "Wiener Schnitzler",
 "idno":
 "https://wienerschnitzler.org/tag.html#1921-06-23",
 "head":
 "München",
 "desc":
{"listPlace":
  [
 {
 "placeName":
 "Hotel Vier Jahreszeiten",
 "ref":
 ""}
 ,  {
 "placeName":
 "Spatenbräu",
 "ref":
 ""}
 ,  {
 "placeName":
 "Alte Pinakothek",
 "ref":
 ""}
 ,  {
 "placeName":
 "Hauptbahnhof München",
 "ref":
 ""}
 ,  {
 "placeName":
 "Bayerisches Armeemuseum",
 "ref":
 ""}
 ,  {
 "placeName":
 "Alt Wien, Gasthaus zum Kaiser Friedrich",
 "ref":
 ""}
 ]
}
}, {
 "type":
 "wienerschnitzler",
 "color":
 "#6F5106",
 "caption":
 "Wiener Schnitzler",
 "idno":
 "https://wienerschnitzler.org/tag.html#1921-06-23",
 "head":
 "Possenhofen"
}, {
 "type":
 "wienerschnitzler",
 "color":
 "#6F5106",
 "caption":
 "Wiener Schnitzler",
 "idno":
 "https://wienerschnitzler.org/tag.html#1921-06-23",
 "head":
 "Starnberger See"
}, {
 "type":
 "wienerschnitzler",
 "color":
 "#6F5106",
 "caption":
 "Wiener Schnitzler",
 "idno":
 "https://wienerschnitzler.org/tag.html#1921-06-23",
 "head":
 "Starnberg",
 "desc":
{"listPlace":
  [
 {
 "placeName":
 "Bahnhof Starnberg",
 "ref":
 ""}
 ]
}
}, {
 "type":
 "schnitzler-kultur",
 "color":
 "#6B4C5A",
 "filename":
 "pmb298212",
 "caption":
 "Kulturveranstaltungen",
 "idno":
 "https://schnitzler-kultur.acdh.oeaw.ac.at/pmb298212.html",
 "head":
 "Besuch des Bayerischen Armeemuseums, 23.6.1921",
 "desc":
{"listPerson":
  [
{
 "persName":
 "Arthur Schnitzler",
 "ref":
 ""}],
 "listPlace":
  [
 {
 "placeName":
 "Bayerisches Armeemuseum",
 "ref":
 ""}
 ]
}
}, {
 "type":
 "schnitzler-kultur",
 "color":
 "#6B4C5A",
 "filename":
 "pmb297141",
 "caption":
 "Kulturveranstaltungen",
 "idno":
 "https://schnitzler-kultur.acdh.oeaw.ac.at/pmb297141.html",
 "head":
 "Besuch der Alten Pinakothek, 23.6.1921",
 "desc":
{"listPerson":
  [
{
 "persName":
 "Arthur Schnitzler",
 "ref":
 ""}],
 "listPlace":
  [
 {
 "placeName":
 "Alte Pinakothek",
 "ref":
 ""}
 ]
}
}, {
 "type":
 "schnitzler-kultur",
 "color":
 "#6B4C5A",
 "filename":
 "pmb210555",
 "caption":
 "Kulturveranstaltungen",
 "idno":
 "https://schnitzler-kultur.acdh.oeaw.ac.at/pmb210555.html",
 "head":
 "Filmvorführung, 23.6.1921",
 "desc":
{"listPerson":
  [
{
 "persName":
 "Arthur Schnitzler",
 "ref":
 ""}],
 "listPlace":
  [
 {
 "placeName":
 "München",
 "ref":
 ""}
 ]
}
}, {
 "type":
 "schnitzler-kino-buch",
 "subtype":
 "#ISBN978-3205787464",
 "color":
 "#B43C9C",
 "caption":
 "Kino",
 "head":
 "Schnitzler geht ins Kino in München, 23. Juni 1921",
 "source":
 "»A. ist manchmal wie ein kleines Kind«. Clara Katharina Pollaczek und Arthur Schnitzler gehen ins Kino. Herausgegeben von Stephan Kurz und Michael Rohrwasser unter Mitarbeit von Daniel Schopper. Wien, Köln, Weimar: Böhlau Verlag 2012."
}, {
 "type":
 "schnitzler-kempny-buch",
 "subtype":
 "#ISBN3-499-154-57-9",
 "color":
 "#7B3F00",
 "caption":
 "Kempny Tagebuch",
 "head":
 "Hedy Kempny, Tagebucheintrag vom 23. Juni 1921",
 "source":
 "Hedy Kempny und Arthur Schnitzler: Das Mädchen mit den dreizehn Seelen. Eine Korrespondenz ergänzt durch Blätter aus Hedy Kempnys Tagebuch sowie durch eine Auswahl ihrer Erzählungen. Hg. v. Heinz P. Adamek. Reinbek bei Hamburg: Rowohlt 1984. (Neue Frau)"
}] 