[{
 "type":
 "schnitzler-tagebuch",
 "color":
 "#037a33",
 "filename":
 "entry__1921-05-27",
 "caption":
 "Tagebuch",
 "idno":
 "https://schnitzler-tagebuch.acdh.oeaw.ac.at/entry__1921-05-27.html",
 "head":
 "Tagebuch, 27. Mai 1921",
 "desc":
{"listPerson":
  [
{
 "persName":
 "Richard Beer-Hofmann",
 "ref":
 "person_13551"},
 {
 "persName":
 "Helene Binder",
 "ref":
 "person_13733"},
 {
 "persName":
 "Ossip Dymow",
 "ref":
 "person_14588"},
 {
 "persName":
 "Dorit Herz",
 "ref":
 "person_16143"},
 {
 "persName":
 "Wilhelm Karczag",
 "ref":
 "person_16715"},
 {
 "persName":
 "Vilma Lichtenstern",
 "ref":
 "person_17510"},
 {
 "persName":
 "Rudolf Müller",
 "ref":
 "person_18308"},
 {
 "persName":
 "Emanuel Reicher",
 "ref":
 "person_19126"},
 {
 "persName":
 "Gertrude Felice von Landesberger",
 "ref":
 "person_19227"},
 {
 "persName":
 "Josefine Schipper",
 "ref":
 "person_19707"},
 {
 "persName":
 "Heinrich Schnitzler",
 "ref":
 "person_19822"},
 {
 "persName":
 "Isaak Deutsch",
 "ref":
 "person_14427"},
 {
 "persName":
 "Marcel Dunan",
 "ref":
 "person_14551"},
 {
 "persName":
 "Olga Schnitzler",
 "ref":
 "person_19832"},
 {
 "persName":
 "Moriz Stekel",
 "ref":
 "person_20391"}],
 "listBibl":
  [
 {
 "title":
 "Der Gang zum Weiher. Dramatische Dichtung",
 "ref":
 "pmb30775"}
 ,  {
 "title":
 "L’Autriche",
 "ref":
 "pmb80388"}
 ],
 "listPlace":
  [
 {
 "placeName":
 "Feldafing",
 "ref":
 "pmb53150"}
 ,  {
 "placeName":
 "Possenhofen",
 "ref":
 "pmb34896"}
 ]
}
}, {
 "type":
 "URL",
 "subtype":
 "wienerschnitzler",
 "head":
 "Wien",
 "desc":
{"listPlace":
  [
 {
 "placeName":
 "II., Leopoldstadt",
 "ref":
 ""}
 ,  {
 "placeName":
 "IV., Wieden",
 "ref":
 ""}
 ,  {
 "placeName":
 "VI., Mariahilf",
 "ref":
 ""}
 ,  {
 "placeName":
 "VIII., Josefstadt",
 "ref":
 ""}
 ,  {
 "placeName":
 "XVIII., Währing",
 "ref":
 ""}
 ]
}
}, {
 "type":
 "schnitzler-events",
 "color":
 "#9BC53D",
 "filename":
 "entity/210098/",
 "caption":
 "Ereignisse in der PMB",
 "idno":
 "https://pmb.acdh.oeaw.ac.at/entity/210098/",
 "head":
 "Aufführung von Schm’a Jisroël, 27.5.1921",
 "desc":
{"listOrg":
  [
 {
 "orgName":
 "Freie Jüdische Volksbühne",
 "ref":
 ""}
 ],
 "listBibl":
  [
 {
 "title":
 "Schm’a Jisroël",
 "ref":
 ""}
 ],
 "listPerson":
  [
{
 "persName":
 "Arthur Schnitzler",
 "ref":
 ""}],
 "listPlace":
  [
 {
 "placeName":
 "Unter Augartenstraße 8",
 "ref":
 ""}
 ]
}
}] 