[{
 "type":
 "schnitzler-tagebuch",
 "color":
 "#037a33",
 "filename":
 "entry__1921-06-17",
 "caption":
 "Tagebuch",
 "idno":
 "https://schnitzler-tagebuch.acdh.oeaw.ac.at/entry__1921-06-17.html",
 "head":
 "Tagebuch, 17. Juni 1921",
 "desc":
{"listPerson":
  [
{
 "persName":
 "Eugenie Bachrach",
 "ref":
 "person_13355"},
 {
 "persName":
 "Vilma Lichtenstern",
 "ref":
 "person_17510"},
 {
 "persName":
 "Marianne Giustiniani",
 "ref":
 "person_21600"},
 {
 "persName":
 "Arthur Kaufmann",
 "ref":
 "person_16770"},
 {
 "persName":
 "Olga Schnitzler",
 "ref":
 "person_19832"},
 {
 "persName":
 "Victor Zuckerkandl",
 "ref":
 "person_21602"}],
 "listPlace":
  [
 {
 "placeName":
 "Altaussee",
 "ref":
 "pmb90229"}
 ,  {
 "placeName":
 "Tressenstein",
 "ref":
 "pmb91938"}
 ,  {
 "placeName":
 "Bad Aussee",
 "ref":
 "pmb415"}
 ]
}
}, {
 "type":
 "schnitzler-orte",
 "color":
 "#045344",
 "caption":
 "Aufenthaltsorte",
 "head":
 "Altaussee",
 "desc":
{"listPlace":
  [
 {
 "placeName":
 "Hotel am See",
 "ref":
 ""}
 ,  {
 "placeName":
 "Villa Schöneck",
 "ref":
 ""}
 ,  {
 "placeName":
 "?? [Wohngebäude von Roman Resch]",
 "ref":
 ""}
 ,  {
 "placeName":
 "?? [Unterkunft von Robert und Vilma Lichtenstern, Altaussee 1921]",
 "ref":
 ""}
 ]
}
}, {
 "type":
 "schnitzler-orte",
 "color":
 "#045344",
 "caption":
 "Aufenthaltsorte",
 "head":
 "Bad Aussee",
 "desc":
{"listPlace":
  [
 {
 "placeName":
 "Obertressen",
 "ref":
 ""}
 ,  {
 "placeName":
 "Tauscherin",
 "ref":
 ""}
 ]
}
}] 