[{
 "type":
 "schnitzler-tagebuch",
 "color":
 "#037a33",
 "filename":
 "entry__1921-04-10",
 "caption":
 "Tagebuch",
 "idno":
 "https://schnitzler-tagebuch.acdh.oeaw.ac.at/entry__1921-04-10.html",
 "head":
 "Tagebuch, 10. April 1921",
 "desc":
{"listPerson":
  [
{
 "persName":
 "Raoul Auernheimer",
 "ref":
 "person_13305"},
 {
 "persName":
 "Richard Beer-Hofmann",
 "ref":
 "person_13551"},
 {
 "persName":
 "Leonie Guttmann",
 "ref":
 "person_15781"},
 {
 "persName":
 "Therese Rethy",
 "ref":
 "person_19203"},
 {
 "persName":
 "Marianne Giustiniani",
 "ref":
 "person_21600"},
 {
 "persName":
 "Paula Beer-Hofmann",
 "ref":
 "person_13550"}],
 "listPlace":
  [
 {
 "placeName":
 "Penzing",
 "ref":
 "pmb90913"}
 ,  {
 "placeName":
 "Neuwaldegg",
 "ref":
 "pmb170"}
 ]
}
}, {
 "type":
 "wienerschnitzler",
 "color":
 "#ECDA98",
 "caption":
 "Wiener Schnitzler",
 "head":
 "Wien",
 "desc":
{"listPlace":
  [
 {
 "placeName":
 "XIV., Penzing",
 "ref":
 ""}
 ,  {
 "placeName":
 "XVII., Hernals",
 "ref":
 ""}
 ,  {
 "placeName":
 "XVIII., Währing",
 "ref":
 ""}
 ]
}
}, {
 "type":
 "schnitzler-interviews",
 "color":
 "#3D5A80",
 "filename":
 "I104",
 "caption":
 "Interviews, Meinungen, Proteste",
 "idno":
 "https://schnitzler-interviews.acdh.oeaw.ac.at/I104.html",
 "head":
 "Julius Bangert: Arthur Schnitzler. En Samtale med en beremt Wiener,
                            10. 4. 1921",
 "desc":
{"listPerson":
  [
{
 "persName":
 "Julius Bangert",
 "ref":
 "pmb13714"},
 {
 "persName":
 "Lili Schnitzler",
 "ref":
 "pmb2238"},
 {
 "persName":
 "Heinrich Schnitzler",
 "ref":
 "pmb12692"},
 {
 "persName":
 "Carl Julius Salomonsen",
 "ref":
 "pmb58260"},
 {
 "persName":
 "Eugen Steinach",
 "ref":
 "pmb5257"}],
 "listBibl":
  [
 {
 "title":
 "Professor Bernhardi. Komödie in fünf Akten",
 "ref":
 "pmb30203"}
 ,  {
 "title":
 "Der junge Medardus. Dramatische Historie in einem Vorspiel und fünf Aufzügen",
 "ref":
 "pmb29937"}
 ,  {
 "title":
 "Der Weg ins Freie. Roman",
 "ref":
 "pmb29923"}
 ,  {
 "title":
 "Große Szene",
 "ref":
 "pmb31429"}
 ,  {
 "title":
 "Reigen. Zehn Dialoge",
 "ref":
 "pmb29855"}
 ,  {
 "title":
 "Das weite Land. Tragikomödie in fünf Akten",
 "ref":
 "pmb30207"}
 ,  {
 "title":
 "Der Gang zum Weiher. Dramatische Dichtung",
 "ref":
 "pmb30775"}
 ,  {
 "title":
 "Arthur Schnitzler. En Samtale med en beremt Wiener [1921]",
 "ref":
 "pmb33388"}
 ,  {
 "title":
 "København",
 "ref":
 "pmb58592"}
 ],
 "listPlace":
  [
 {
 "placeName":
 "Wien",
 "ref":
 "pmb50"}
 ,  {
 "placeName":
 "Österreich",
 "ref":
 "pmb41240"}
 ,  {
 "placeName":
 "Sternwartestraße",
 "ref":
 "pmb150"}
 ,  {
 "placeName":
 "Deutschland",
 "ref":
 "pmb151"}
 ,  {
 "placeName":
 "Palästina",
 "ref":
 "pmb815"}
 ,  {
 "placeName":
 "Dänemark",
 "ref":
 "pmb43570"}
 ,  {
 "placeName":
 "Skodsborg",
 "ref":
 "pmb958"}
 ,  {
 "placeName":
 "Marienlyst",
 "ref":
 "pmb959"}
 ,  {
 "placeName":
 "Kulla Gunnarstorp",
 "ref":
 "pmb58265"}
 ,  {
 "placeName":
 "Sanatorium Loew",
 "ref":
 "pmb89"}
 ,  {
 "placeName":
 "IX., Alsergrund",
 "ref":
 "pmb59"}
 ,  {
 "placeName":
 "Kopenhagen",
 "ref":
 "pmb36300"}
 ,  {
 "placeName":
 "Hotel Krantz",
 "ref":
 "pmb1120"}
 ],
 "listOrg":
  [
 {
 "orgName":
 "Deutschösterreichischer Autorenverband",
 "ref":
 "pmb29594"}
 ,  {
 "orgName":
 "Burgtheater",
 "ref":
 "pmb36247"}
 ]
}
}] 