[{
 "type":
 "schnitzler-tagebuch",
 "color":
 "#037a33",
 "filename":
 "entry__1921-03-21",
 "caption":
 "Tagebuch",
 "idno":
 "https://schnitzler-tagebuch.acdh.oeaw.ac.at/entry__1921-03-21.html",
 "head":
 "Tagebuch, 21. März 1921",
 "desc":
{"listPerson":
  [
{
 "persName":
 "Rudolf Heinrich Brettschneider",
 "ref":
 "person_13958"},
 {
 "persName":
 "Lili Schnitzler",
 "ref":
 "person_14130"},
 {
 "persName":
 "Else Speidel-Haeberle",
 "ref":
 "person_15833"},
 {
 "persName":
 "Lucy von Jacobi",
 "ref":
 "person_16469"},
 {
 "persName":
 "Emanuel Pospischil",
 "ref":
 "person_18930"},
 {
 "persName":
 "Kurt Sonnenfeld",
 "ref":
 "person_20201"},
 {
 "persName":
 "Else Speidel",
 "ref":
 "person_20241"},
 {
 "persName":
 "Marcel Vertész",
 "ref":
 "person_20954"},
 {
 "persName":
 "Hans Meid",
 "ref":
 "person_18041"},
 {
 "persName":
 "Anton Orel",
 "ref":
 "person_18574"},
 {
 "persName":
 "Friedrich Geiringer",
 "ref":
 "person_15369"},
 {
 "persName":
 "Olga Schnitzler",
 "ref":
 "person_19832"}],
 "listBibl":
  [
 {
 "title":
 "Casanovas Heimfahrt",
 "ref":
 "pmb30971"}
 ,  {
 "title":
 "Liebelei (Filmplan, 1921)",
 "ref":
 "pmb36043"}
 ,  {
 "title":
 "Reigen. Zehn Dialoge",
 "ref":
 "pmb29855"}
 ],
 "listPlace":
  [
 {
 "placeName":
 "München",
 "ref":
 "pmb45258"}
 ,  {
 "placeName":
 "Wien Mauer",
 "ref":
 "pmb91217"}
 ,  {
 "placeName":
 "Baden bei Wien",
 "ref":
 "pmb662"}
 ]
}
}, {
 "type":
 "schnitzler-briefe",
 "color":
 "#A63437",
 "filename":
 "L03571",
 "caption":
 "Briefe mit Autorinnen und Autoren",
 "idno":
 "https://schnitzler-briefe.acdh.oeaw.ac.at/L03571.html",
 "head":
 "Felix Salten, Julius Wollf an Arthur Schnitzler, 31. 3. 1921",
 "desc":
{"listPerson":
  [
{
 "persName":
 "Felix Salten",
 "ref":
 "pmb2167"},
 {
 "persName":
 "Julius Ferdinand Wollf",
 "ref":
 "pmb10608"},
 {
 "persName":
 "Frieda Pollak",
 "ref":
 "pmb22728"}],
 "listPlace":
  [
 {
 "placeName":
 "Hannover",
 "ref":
 "pmb890"}
 ,  {
 "placeName":
 "Wien",
 "ref":
 "pmb50"}
 ,  {
 "placeName":
 "Sternwartestraße",
 "ref":
 "pmb150"}
 ,  {
 "placeName":
 "Klostergang",
 "ref":
 "pmb143688"}
 ]
}
}, {
 "type":
 "wienerschnitzler",
 "color":
 "#ECDA98",
 "caption":
 "Wiener Schnitzler",
 "head":
 "Wien",
 "desc":
{"listPlace":
  [
 {
 "placeName":
 "I., Innere Stadt",
 "ref":
 ""}
 ,  {
 "placeName":
 "XVIII., Währing",
 "ref":
 ""}
 ]
}
}, {
 "type":
 "kalliope-verbund",
 "color":
 "#003574",
 "caption":
 "Kalliope Verbundkatalog",
 "idno":
 "http://kalliope-verbund.info/DE-2498-HS00046481",
 "head":
 "Schnitzler, Arthur an Honig, D. [Briefe]",
 "text":
 "1 Bl. Mit 1 weit. Ex. 1 Bl.Durchschl."
}] 