[{
 "type":
 "schnitzler-tagebuch",
 "color":
 "#037a33",
 "filename":
 "entry__1921-02-11",
 "caption":
 "Tagebuch",
 "idno":
 "https://schnitzler-tagebuch.acdh.oeaw.ac.at/entry__1921-02-11.html",
 "head":
 "Tagebuch, 11. Februar 1921",
 "desc":
{"listPerson":
  [
{
 "persName":
 "Gabriel Beer-Hofmann",
 "ref":
 "person_13547"},
 {
 "persName":
 "Lili Schnitzler",
 "ref":
 "person_14130"},
 {
 "persName":
 "Eugen Deimel",
 "ref":
 "person_14386"},
 {
 "persName":
 "Wilhelmine Deimel",
 "ref":
 "person_14391"},
 {
 "persName":
 "Egon von Glanz-Eicha",
 "ref":
 "person_15456"},
 {
 "persName":
 "Vilma Lichtenstern",
 "ref":
 "person_17510"},
 {
 "persName":
 "Alma Maria Mahler",
 "ref":
 "person_17784"},
 {
 "persName":
 "Jakob Reumann",
 "ref":
 "person_19209"},
 {
 "persName":
 "Josefine Schipper",
 "ref":
 "person_19707"},
 {
 "persName":
 "Hans Schnitzler",
 "ref":
 "person_19821"},
 {
 "persName":
 "Heinrich Schnitzler",
 "ref":
 "person_19822"},
 {
 "persName":
 "Julius Schnitzler",
 "ref":
 "person_19827"},
 {
 "persName":
 "Berta Zuckerkandl",
 "ref":
 "person_21594"},
 {
 "persName":
 "Stefan Zweig",
 "ref":
 "person_21614"},
 {
 "persName":
 "Karl Seitz",
 "ref":
 "person_20044"},
 {
 "persName":
 "Wilhelm Grosz",
 "ref":
 "person_15685"},
 {
 "persName":
 "Olga Schnitzler",
 "ref":
 "person_19832"}],
 "listBibl":
  [
 {
 "title":
 "Reigen. Zehn Dialoge",
 "ref":
 "pmb29855"}
 ],
 "listPlace":
  [
 {
 "placeName":
 "Roseggergasse",
 "ref":
 "pmb92491"}
 ,  {
 "placeName":
 "Deutsches Volkstheater",
 "ref":
 "pmb92202"}
 ,  {
 "placeName":
 "Salzburg",
 "ref":
 "pmb30"}
 ,  {
 "placeName":
 "Baden bei Wien",
 "ref":
 "pmb662"}
 ]
}
}, {
 "type":
 "wienerschnitzler",
 "color":
 "#ECDA98",
 "caption":
 "Wiener Schnitzler",
 "head":
 "Wien",
 "desc":
{"listPlace":
  [
 {
 "placeName":
 "VII., Neubau",
 "ref":
 ""}
 ,  {
 "placeName":
 "XVI., Ottakring",
 "ref":
 ""}
 ,  {
 "placeName":
 "I., Innere Stadt",
 "ref":
 ""}
 ,  {
 "placeName":
 "VIII., Josefstadt",
 "ref":
 ""}
 ,  {
 "placeName":
 "XVIII., Währing",
 "ref":
 ""}
 ]
}
}, {
 "type":
 "schnitzler-cmif",
 "subtype":
 "#sf764ae3-dd0e-4189-99ce-df42a712c689",
 "color":
 "#654321",
 "caption":
 "Gedruckte Briefwechsel",
 "head":
 "Olga Schnitzler an Arthur Schnitzler, 11.2.1921",
 "source":
 "Max Haberich: Arthur Schnitzler. Anatom des Fin de Siècle. Die Biografie. Wien: Kremayr und Scheriau 2017, ISBN 13: 9783218010641, Anhang: Korrespondenz Arthur und Olga Schnitzler, S. 277–293."
}] 