[{
 "type":
 "schnitzler-tagebuch",
 "color":
 "#037a33",
 "filename":
 "entry__1921-07-19",
 "caption":
 "Tagebuch",
 "idno":
 "https://schnitzler-tagebuch.acdh.oeaw.ac.at/entry__1921-07-19.html",
 "head":
 "Tagebuch, 19. Juli 1921",
 "desc":
{"listPerson":
  [
{
 "persName":
 "Hedy Kempny",
 "ref":
 "person_16807"},
 {
 "persName":
 "Adolf Pollak",
 "ref":
 "person_18875"},
 {
 "persName":
 "Hermine Simandt",
 "ref":
 "person_20112"},
 {
 "persName":
 "Stefan Stauber",
 "ref":
 "person_20335"},
 {
 "persName":
 "Arthur Stern",
 "ref":
 "person_20405"},
 {
 "persName":
 "Franz Peter Schubert",
 "ref":
 "person_19902"}],
 "listBibl":
  [
 {
 "title":
 "Der Schleier der Beatrice. Schauspiel in fünf Akten",
 "ref":
 "pmb29857"}
 ,  {
 "title":
 "Der Schleier der Pierrette",
 "ref":
 "pmb46127"}
 ,  {
 "title":
 "Ein Sommernachtstraum, Hochzeitsmarsch op. 61",
 "ref":
 "pmb80991"}
 ,  {
 "title":
 "Symphonie Nr. 7 h-Moll D 759 (Unvollendete)",
 "ref":
 "pmb77658"}
 ],
 "listPlace":
  [
 {
 "placeName":
 "Hollabrunn",
 "ref":
 "pmb36639"}
 ,  {
 "placeName":
 "Sommerhaidenweg",
 "ref":
 "pmb243"}
 ,  {
 "placeName":
 "Wien",
 "ref":
 "pmb50"}
 ,  {
 "placeName":
 "Bern",
 "ref":
 "pmb1223"}
 ]
}
}, {
 "type":
 "schnitzler-briefe",
 "color":
 "#A63437",
 "filename":
 "L03572",
 "caption":
 "Briefe mit Autorinnen und Autoren",
 "idno":
 "https://schnitzler-briefe.acdh.oeaw.ac.at/L03572.html",
 "head":
 "Felix Salten an Arthur Schnitzler, 19. 7. 1921",
 "desc":
{"listPerson":
  [
{
 "persName":
 "Felix Salten",
 "ref":
 "pmb2167"},
 {
 "persName":
 "Frieda Pollak",
 "ref":
 "pmb22728"}],
 "listPlace":
  [
 {
 "placeName":
 "Unterach am Attersee",
 "ref":
 "pmb877"}
 ,  {
 "placeName":
 "Wien",
 "ref":
 "pmb50"}
 ,  {
 "placeName":
 "Berghof",
 "ref":
 "pmb411"}
 ,  {
 "placeName":
 "Weißenbach am Attersee",
 "ref":
 "pmb34344"}
 ]
}
}, {
 "type":
 "schnitzler-orte",
 "color":
 "#045344",
 "caption":
 "Aufenthaltsorte",
 "head":
 "Wien",
 "desc":
{"listPlace":
  [
 {
 "placeName":
 "XVIII., Währing",
 "ref":
 ""}
 ,  {
 "placeName":
 "XIX., Döbling",
 "ref":
 ""}
 ]
}
}] 