[{
 "type":
 "schnitzler-tagebuch",
 "color":
 "#037a33",
 "filename":
 "entry__1921-06-27",
 "caption":
 "Tagebuch",
 "idno":
 "https://schnitzler-tagebuch.acdh.oeaw.ac.at/entry__1921-06-27.html",
 "head":
 "Tagebuch, 27. Juni 1921",
 "desc":
{"listPerson":
  [
{
 "persName":
 "Leo Baerwald",
 "ref":
 "person_13371"},
 {
 "persName":
 "Lili Schnitzler",
 "ref":
 "person_14130"},
 {
 "persName":
 "Lucy von Jacobi",
 "ref":
 "person_16469"},
 {
 "persName":
 "Alma Maria Mahler",
 "ref":
 "person_17784"},
 {
 "persName":
 "Therese Rethy",
 "ref":
 "person_19203"},
 {
 "persName":
 "Heinrich Schnitzler",
 "ref":
 "person_19822"},
 {
 "persName":
 "Karl Schnitzler",
 "ref":
 "person_19828"},
 {
 "persName":
 "Hermine Simandt",
 "ref":
 "person_20112"},
 {
 "persName":
 "Franz Werfel",
 "ref":
 "person_21243"},
 {
 "persName":
 "Wilhelm Grosz",
 "ref":
 "person_15685"},
 {
 "persName":
 "Henri de Régnier",
 "ref":
 "person_19106"},
 {
 "persName":
 "Olga Schnitzler",
 "ref":
 "person_19832"}],
 "listBibl":
  [
 {
 "title":
 "Le passé vivant",
 "ref":
 "pmb79455"}
 ],
 "listPlace":
  [
 {
 "placeName":
 "Oberammergau",
 "ref":
 "pmb925"}
 ,  {
 "placeName":
 "Salzburg",
 "ref":
 "pmb30"}
 ,  {
 "placeName":
 "Bad Aussee",
 "ref":
 "pmb415"}
 ,  {
 "placeName":
 "Wien",
 "ref":
 "pmb50"}
 ,  {
 "placeName":
 "Hollabrunn",
 "ref":
 "pmb36639"}
 ,  {
 "placeName":
 "Krems",
 "ref":
 "pmb36545"}
 ,  {
 "placeName":
 "München",
 "ref":
 "pmb45258"}
 ]
}
}, {
 "type":
 "wienerschnitzler",
 "color":
 "#ECDA98",
 "caption":
 "Wiener Schnitzler",
 "head":
 "München"
}, {
 "type":
 "wienerschnitzler",
 "color":
 "#ECDA98",
 "caption":
 "Wiener Schnitzler",
 "head":
 "Wien",
 "desc":
{"listPlace":
  [
 {
 "placeName":
 "XVIII., Währing",
 "ref":
 ""}
 ]
}
}, {
 "type":
 "wienerschnitzler",
 "color":
 "#ECDA98",
 "caption":
 "Wiener Schnitzler",
 "head":
 "Salzburg"
}] 