[{
 "type":
 "schnitzler-tagebuch",
 "color":
 "#037a33",
 "filename":
 "entry__1921-10-02",
 "caption":
 "Tagebuch",
 "idno":
 "https://schnitzler-tagebuch.acdh.oeaw.ac.at/entry__1921-10-02.html",
 "head":
 "Tagebuch, 2. Oktober 1921",
 "desc":
{"listPerson":
  [
{
 "persName":
 "Hans Beerli",
 "ref":
 "person_13552"},
 {
 "persName":
 "Lili Schnitzler",
 "ref":
 "person_14130"},
 {
 "persName":
 "Paul Friedmann",
 "ref":
 "person_15234"},
 {
 "persName":
 "Moritz Heimann",
 "ref":
 "person_16041"},
 {
 "persName":
 "Hedy Kempny",
 "ref":
 "person_16807"},
 {
 "persName":
 "Lisa Mautner",
 "ref":
 "person_18001"},
 {
 "persName":
 "Walter Pfund",
 "ref":
 "person_18748"},
 {
 "persName":
 "Felix Salten",
 "ref":
 "person_19542"},
 {
 "persName":
 "Heinrich Schnitzler",
 "ref":
 "person_19822"},
 {
 "persName":
 "Franz Peter Schubert",
 "ref":
 "person_19902"}],
 "listBibl":
  [
 {
 "title":
 "Theaterroman",
 "ref":
 "pmb30321"}
 ,  {
 "title":
 "Einen Jux will er sich machen",
 "ref":
 "pmb77429"}
 ,  {
 "title":
 "Streichquartett Nr. 13 a-Moll op. 29 D 804",
 "ref":
 "pmb30739"}
 ],
 "listPlace":
  [
 {
 "placeName":
 "Gersthof",
 "ref":
 "pmb90705"}
 ,  {
 "placeName":
 "Schafberg (St. Gilgen)",
 "ref":
 "pmb59367"}
 ,  {
 "placeName":
 "Schweiz",
 "ref":
 "pmb43435"}
 ,  {
 "placeName":
 "Italien",
 "ref":
 "pmb40306"}
 ,  {
 "placeName":
 "Ungarn",
 "ref":
 "pmb35512"}
 ,  {
 "placeName":
 "X., Favoriten",
 "ref":
 "pmb60"}
 ]
}
}, {
 "type":
 "wienerschnitzler",
 "color":
 "#6F5106",
 "caption":
 "Wiener Schnitzler",
 "idno":
 "https://wienerschnitzler.org/tag.html#1921-10-02",
 "head":
 "Wien",
 "desc":
{"listPlace":
  [
 {
 "placeName":
 "XVII., Hernals",
 "ref":
 ""}
 ,  {
 "placeName":
 "XVIII., WÃ¤hring",
 "ref":
 ""}
 ]
}
}] 