[{
 "type":
 "schnitzler-tagebuch",
 "color":
 "#037a33",
 "filename":
 "entry__1921-08-21",
 "caption":
 "Tagebuch",
 "idno":
 "https://schnitzler-tagebuch.acdh.oeaw.ac.at/entry__1921-08-21.html",
 "head":
 "Tagebuch, 21. August 1921",
 "desc":
{"listPerson":
  [
{
 "persName":
 "Carry Benedikt",
 "ref":
 "person_13586"},
 {
 "persName":
 "Camilla Br端nauer",
 "ref":
 "person_14018"},
 {
 "persName":
 "Markus Hajek",
 "ref":
 "person_15855"},
 {
 "persName":
 "Emilie Karlweis",
 "ref":
 "person_16731"},
 {
 "persName":
 "Gustav Schwarzkopf",
 "ref":
 "person_19986"},
 {
 "persName":
 "Robert Br端nauer",
 "ref":
 "person_14020"},
 {
 "persName":
 "Arthur Kaufmann",
 "ref":
 "person_16770"},
 {
 "persName":
 "Frieda Pollak",
 "ref":
 "person_18881"},
 {
 "persName":
 "Olga Schnitzler",
 "ref":
 "person_19832"}],
 "listBibl":
  [
 {
 "title":
 "Jedermann",
 "ref":
 "pmb76488"}
 ],
 "listPlace":
  [
 {
 "placeName":
 "Gorizia",
 "ref":
 "pmb64480"}
 ,  {
 "placeName":
 "Salzburg",
 "ref":
 "pmb30"}
 ]
}
}, {
 "type":
 "schnitzler-orte",
 "color":
 "#045344",
 "caption":
 "Aufenthaltsorte",
 "head":
 "Altaussee",
 "desc":
{"listPlace":
  [
 {
 "placeName":
 "Hotel am See",
 "ref":
 ""}
 ,  {
 "placeName":
 "Promenadenweg [Nordufer]",
 "ref":
 ""}
 ,  {
 "placeName":
 "Promenadenweg [Ostufer]",
 "ref":
 ""}
 ,  {
 "placeName":
 "Promenadenweg [S端dufer]",
 "ref":
 ""}
 ,  {
 "placeName":
 "?? [Unterkunft von Camilla Br端nauer, Altaussee, August 1921]",
 "ref":
 ""}
 ,  {
 "placeName":
 "Villa Gisela und Markus Hajek",
 "ref":
 ""}
 ]
}
}] 