[{
 "type":
 "schnitzler-tagebuch",
 "color":
 "#037a33",
 "filename":
 "entry__1921-06-16",
 "caption":
 "Tagebuch",
 "idno":
 "https://schnitzler-tagebuch.acdh.oeaw.ac.at/entry__1921-06-16.html",
 "head":
 "Tagebuch, 16. Juni 1921",
 "desc":
{"listPerson":
  [
{
 "persName":
 "Arthur Kaufmann",
 "ref":
 "person_16770"}],
 "listBibl":
  [
 {
 "title":
 "Le rouge et le noir. Chronique du XIXe siècle",
 "ref":
 "pmb77822"}
 ],
 "listPlace":
  [
 {
 "placeName":
 "Wien",
 "ref":
 "pmb50"}
 ,  {
 "placeName":
 "Bad Aussee",
 "ref":
 "pmb415"}
 ,  {
 "placeName":
 "Altaussee",
 "ref":
 "pmb90229"}
 ]
}
}, {
 "type":
 "wienerschnitzler",
 "color":
 "#6F5106",
 "caption":
 "Wiener Schnitzler",
 "idno":
 "https://wienerschnitzler.org/tag.html#1921-06-16",
 "head":
 "Bad Aussee",
 "desc":
{"listPlace":
  [
 {
 "placeName":
 "Bahnhof Bad Aussee",
 "ref":
 ""}
 ]
}
}, {
 "type":
 "wienerschnitzler",
 "color":
 "#6F5106",
 "caption":
 "Wiener Schnitzler",
 "idno":
 "https://wienerschnitzler.org/tag.html#1921-06-16",
 "head":
 "Altaussee",
 "desc":
{"listPlace":
  [
 {
 "placeName":
 "Hotel am See",
 "ref":
 ""}
 ]
}
}, {
 "type":
 "wienerschnitzler",
 "color":
 "#6F5106",
 "caption":
 "Wiener Schnitzler",
 "idno":
 "https://wienerschnitzler.org/tag.html#1921-06-16",
 "head":
 "Wien",
 "desc":
{"listPlace":
  [
 {
 "placeName":
 "XV., Rudolfsheim-Fünfhaus",
 "ref":
 ""}
 ,  {
 "placeName":
 "XVIII., Währing",
 "ref":
 ""}
 ]
}
}, {
 "type":
 "wienerschnitzler",
 "color":
 "#6F5106",
 "caption":
 "Wiener Schnitzler",
 "idno":
 "https://wienerschnitzler.org/tag.html#1921-06-16",
 "head":
 "Salzburg",
 "desc":
{"listPlace":
  [
 {
 "placeName":
 "Hauptbahnhof Salzburg",
 "ref":
 ""}
 ]
}
}] 