[{
 "type":
 "schnitzler-tagebuch",
 "color":
 "#037a33",
 "filename":
 "entry__1921-05-31",
 "caption":
 "Tagebuch",
 "idno":
 "https://schnitzler-tagebuch.acdh.oeaw.ac.at/entry__1921-05-31.html",
 "head":
 "Tagebuch, 31. Mai 1921",
 "desc":
{"listPerson":
  [
{
 "persName":
 "Richard Beer-Hofmann",
 "ref":
 "person_13551"},
 {
 "persName":
 "Gisela Hajek",
 "ref":
 "person_15854"},
 {
 "persName":
 "Josef Popper-Lynkeus",
 "ref":
 "person_18916"},
 {
 "persName":
 "Siegfried Trebitsch",
 "ref":
 "person_20796"},
 {
 "persName":
 "Hella Maria Vallo",
 "ref":
 "person_20916"},
 {
 "persName":
 "Else Heims",
 "ref":
 "person_16042"},
 {
 "persName":
 "Eduard Vallo",
 "ref":
 "person_20915"}],
 "listPlace":
  [
 {
 "placeName":
 "Parsch",
 "ref":
 "pmb49759"}
 ,  {
 "placeName":
 "Regensburg",
 "ref":
 "pmb58684"}
 ,  {
 "placeName":
 "Rio de Janeiro",
 "ref":
 "pmb50017"}
 ,  {
 "placeName":
 "XIII., Hietzing",
 "ref":
 "pmb63"}
 ]
}
}, {
 "type":
 "wienerschnitzler",
 "color":
 "#ECDA98",
 "caption":
 "Wiener Schnitzler",
 "head":
 "Wien",
 "desc":
{"listPlace":
  [
 {
 "placeName":
 "IX., Alsergrund",
 "ref":
 ""}
 ,  {
 "placeName":
 "XVIII., Währing",
 "ref":
 ""}
 ,  {
 "placeName":
 "XIII., Hietzing",
 "ref":
 ""}
 ]
}
}, {
 "type":
 "schnitzler-events",
 "color":
 "#9BC53D",
 "filename":
 "entity/292990/",
 "caption":
 "Ereignisse in der PMB",
 "idno":
 "https://pmb.acdh.oeaw.ac.at/entity/292990/",
 "head":
 "Sitzung der Genossenschaft dramatischer Autoren und Komponisten in Österreich, 31.5.1921",
 "desc":
{"listOrg":
  [
 {
 "orgName":
 "Genossenschaft dramatischer Autoren und Komponisten in Österreich",
 "ref":
 ""}
 ],
 "listPerson":
  [
{
 "persName":
 "Arthur Schnitzler",
 "ref":
 ""}],
 "listPlace":
  [
 {
 "placeName":
 "Wien",
 "ref":
 ""}
 ]
}
}] 