[{
 "type":
 "schnitzler-tagebuch",
 "color":
 "#037a33",
 "filename":
 "entry__1921-08-31",
 "caption":
 "Tagebuch",
 "idno":
 "https://schnitzler-tagebuch.acdh.oeaw.ac.at/entry__1921-08-31.html",
 "head":
 "Tagebuch, 31. August 1921",
 "desc":
{"listPerson":
  [
{
 "persName":
 "Lili Schnitzler",
 "ref":
 "person_14130"},
 {
 "persName":
 "Matthias Erzberger",
 "ref":
 "person_14810"},
 {
 "persName":
 "Therese Fried",
 "ref":
 "person_15205"},
 {
 "persName":
 "Lucy von Jacobi",
 "ref":
 "person_16469"},
 {
 "persName":
 "Alma Maria Mahler",
 "ref":
 "person_17784"},
 {
 "persName":
 "Julius Wolfgang Schülein",
 "ref":
 "person_19909"},
 {
 "persName":
 "Wilhelm Grosz",
 "ref":
 "person_15685"},
 {
 "persName":
 "Olga Schnitzler",
 "ref":
 "person_19832"}],
 "listPlace":
  [
 {
 "placeName":
 "G.",
 "ref":
 "pmb92248"}
 ,  {
 "placeName":
 "Englischer Garten",
 "ref":
 "pmb90589"}
 ]
}
}, {
 "type":
 "URL",
 "subtype":
 "wienerschnitzler",
 "head":
 "München",
 "desc":
{"listPlace":
  [
 {
 "placeName":
 "Hotel Marienbad [München]",
 "ref":
 ""}
 ,  {
 "placeName":
 "Englischer Garten [München]",
 "ref":
 ""}
 ,  {
 "placeName":
 "Mauerkircherstraße 24",
 "ref":
 ""}
 ,  {
 "placeName":
 "Restaurant Schwarz",
 "ref":
 ""}
 ,  {
 "placeName":
 "Bräu [München]",
 "ref":
 ""}
 ,  {
 "placeName":
 "Atelier von Leopold Wolfgang Schülein und Suzanne Schülein",
 "ref":
 ""}
 ]
}
}] 