[{
 "type":
 "schnitzler-tagebuch",
 "color":
 "#037a33",
 "filename":
 "entry__1921-08-17",
 "caption":
 "Tagebuch",
 "idno":
 "https://schnitzler-tagebuch.acdh.oeaw.ac.at/entry__1921-08-17.html",
 "head":
 "Tagebuch, 17. August 1921",
 "desc":
{"listPerson":
  [
{
 "persName":
 "Irene Auernheimer",
 "ref":
 "person_13304"},
 {
 "persName":
 "Raoul Auernheimer",
 "ref":
 "person_13305"},
 {
 "persName":
 "Eugenie Bachrach",
 "ref":
 "person_13355"},
 {
 "persName":
 "Vilma Lichtenstern",
 "ref":
 "person_17510"},
 {
 "persName":
 "Edmund Gustav Schwarz",
 "ref":
 "person_19964"},
 {
 "persName":
 "Ulrich Strasser",
 "ref":
 "person_20479"},
 {
 "persName":
 "Hermine Zuckerkandl",
 "ref":
 "person_21599"},
 {
 "persName":
 "Marianne Giustiniani",
 "ref":
 "person_21600"},
 {
 "persName":
 "Frieda Pollak",
 "ref":
 "person_18881"},
 {
 "persName":
 "Olga Schnitzler",
 "ref":
 "person_19832"}],
 "listBibl":
  [
 {
 "title":
 "Komödie der Verführung. In drei Akten",
 "ref":
 "pmb30205"}
 ],
 "listPlace":
  [
 {
 "placeName":
 "Moosberg",
 "ref":
 "pmb92411"}
 ,  {
 "placeName":
 "Blastraße",
 "ref":
 "pmb92169"}
 ,  {
 "placeName":
 "Sandling",
 "ref":
 "pmb91653"}
 ,  {
 "placeName":
 "Bad Gastein",
 "ref":
 "pmb521"}
 ,  {
 "placeName":
 "Possenhofen",
 "ref":
 "pmb34896"}
 ]
}
}, {
 "type":
 "schnitzler-briefe",
 "color":
 "#A63437",
 "filename":
 "L03574",
 "caption":
 "Briefe mit Autorinnen und Autoren",
 "idno":
 "https://schnitzler-briefe.acdh.oeaw.ac.at/L03574.html",
 "head":
 "Felix Salten, Ottilie Salten an Arthur Schnitzler, 17. [8.?] 1921",
 "desc":
{"listPerson":
  [
{
 "persName":
 "Felix Salten",
 "ref":
 "pmb2167"},
 {
 "persName":
 "Ottilie Salten",
 "ref":
 "pmb23918"},
 {
 "persName":
 "Frieda Pollak",
 "ref":
 "pmb22728"}],
 "listPlace":
  [
 {
 "placeName":
 "Unterach am Attersee",
 "ref":
 "pmb877"}
 ,  {
 "placeName":
 "Altaussee",
 "ref":
 "pmb34401"}
 ,  {
 "placeName":
 "Seewirt",
 "ref":
 "pmb106"}
 ,  {
 "placeName":
 "Berghof",
 "ref":
 "pmb411"}
 ,  {
 "placeName":
 "München",
 "ref":
 "pmb45258"}
 ]
}
}, {
 "type":
 "schnitzler-orte",
 "color":
 "#045344",
 "caption":
 "Aufenthaltsorte",
 "head":
 "Bad Aussee"
}, {
 "type":
 "schnitzler-orte",
 "color":
 "#045344",
 "caption":
 "Aufenthaltsorte",
 "head":
 "Altaussee",
 "desc":
{"listPlace":
  [
 {
 "placeName":
 "Seewirt",
 "ref":
 ""}
 ,  {
 "placeName":
 "Moosberg",
 "ref":
 ""}
 ]
}
}] 