[{
 "type":
 "schnitzler-tagebuch",
 "color":
 "#037a33",
 "filename":
 "entry__1921-10-01",
 "caption":
 "Tagebuch",
 "idno":
 "https://schnitzler-tagebuch.acdh.oeaw.ac.at/entry__1921-10-01.html",
 "head":
 "Tagebuch, 1. Oktober 1921",
 "desc":
{"listPerson":
  [
{
 "persName":
 "Lili Schnitzler",
 "ref":
 "person_14130"},
 {
 "persName":
 "Bruno Klein",
 "ref":
 "person_16883"},
 {
 "persName":
 "Vilma Lichtenstern",
 "ref":
 "person_17510"},
 {
 "persName":
 "Josef Popper-Lynkeus",
 "ref":
 "person_18916"},
 {
 "persName":
 "Charles Augustin de Sainte-Beuve",
 "ref":
 "person_19526"},
 {
 "persName":
 "Fritz Wittels",
 "ref":
 "person_21406"},
 {
 "persName":
 "Ruth Lindberg",
 "ref":
 "person_17562"}],
 "listBibl":
  [
 {
 "title":
 "Causeries du lundi",
 "ref":
 "pmb81226"}
 ],
 "listPlace":
  [
 {
 "placeName":
 "Frankreich",
 "ref":
 "pmb166"}
 ,  {
 "placeName":
 "Kairo",
 "ref":
 "pmb839"}
 ]
}
}, {
 "type":
 "URL",
 "subtype":
 "wienerschnitzler",
 "head":
 "Wien",
 "desc":
{"listPlace":
  [
 {
 "placeName":
 "XIII., Hietzing",
 "ref":
 ""}
 ,  {
 "placeName":
 "VIII., Josefstadt",
 "ref":
 ""}
 ,  {
 "placeName":
 "XVIII., Währing",
 "ref":
 ""}
 ,  {
 "placeName":
 "I., Innere Stadt",
 "ref":
 ""}
 ]
}
}, {
 "type":
 "schnitzler-interviews",
 "color":
 "#3D5A80",
 "filename":
 "I035",
 "caption":
 "Interviews, Meinungen, Proteste",
 "idno":
 "https://schnitzler-interviews.acdh.oeaw.ac.at/I035.html",
 "head":
 "Henriette Célarié: Impressions de Vienne, 1. 10. 1921",
 "desc":
{"listPerson":
  [
{
 "persName":
 "Henriette Celarié",
 "ref":
 "pmb29023"},
 {
 "persName":
 "Olga Schnitzler",
 "ref":
 "pmb2173"}],
 "listBibl":
  [
 {
 "title":
 "Impressions de Vienne",
 "ref":
 "pmb33011"}
 ,  {
 "title":
 "Revue des Deux Mondes",
 "ref":
 "pmb58335"}
 ],
 "listPlace":
  [
 {
 "placeName":
 "Wien",
 "ref":
 "pmb50"}
 ,  {
 "placeName":
 "Prater",
 "ref":
 "pmb8"}
 ,  {
 "placeName":
 "Bois de Boulogne",
 "ref":
 "pmb611"}
 ,  {
 "placeName":
 "Jahrmarkt",
 "ref":
 "pmb1041"}
 ],
 "listOrg":
  [
 {
 "orgName":
 "Revue des Deux Mondes",
 "ref":
 "pmb29426"}
 ]
}
}, {
 "type":
 "pollaczek",
 "color":
 "#1e81b0",
 "filename":
 "ckp060",
 "caption":
 "Pollaczek: Schnitzler und ich",
 "idno":
 "https://pollaczek.acdh.oeaw.ac.at/ckp060.html",
 "head":
 "Clara Katharina Pollaczek an Arthur Schnitzler, 1. Oktober 1921"
}] 