[{
 "type":
 "schnitzler-tagebuch",
 "color":
 "#037a33",
 "filename":
 "entry__1921-09-03",
 "caption":
 "Tagebuch",
 "idno":
 "https://schnitzler-tagebuch.acdh.oeaw.ac.at/entry__1921-09-03.html",
 "head":
 "Tagebuch, 3. September 1921",
 "desc":
{"listPerson":
  [
{
 "persName":
 "Lili Schnitzler",
 "ref":
 "person_14130"},
 {
 "persName":
 "Hans Jacob",
 "ref":
 "person_16462"},
 {
 "persName":
 "Lucy von Jacobi",
 "ref":
 "person_16469"},
 {
 "persName":
 "Heinrich Mann",
 "ref":
 "person_17834"},
 {
 "persName":
 "Olga Schnitzler",
 "ref":
 "person_19832"}],
 "listPlace":
  [
 {
 "placeName":
 "München",
 "ref":
 "pmb45258"}
 ]
}
}, {
 "type":
 "wienerschnitzler",
 "color":
 "#ECDA98",
 "caption":
 "Wiener Schnitzler",
 "head":
 "München",
 "desc":
{"listPlace":
  [
 {
 "placeName":
 "Hotel Marienbad [München]",
 "ref":
 ""}
 ,  {
 "placeName":
 "Hauptbahnhof München",
 "ref":
 ""}
 ,  {
 "placeName":
 "Hotel Vier Jahreszeiten",
 "ref":
 ""}
 ,  {
 "placeName":
 "Mauerkircherstraße 24",
 "ref":
 ""}
 ,  {
 "placeName":
 "Restaurant Schwarz",
 "ref":
 ""}
 ]
}
}, {
 "type":
 "wienerschnitzler",
 "color":
 "#ECDA98",
 "caption":
 "Wiener Schnitzler",
 "head":
 "Oberammergau",
 "desc":
{"listPlace":
  [
 {
 "placeName":
 "Bahnhofshotel [Oberammergau]",
 "ref":
 ""}
 ]
}
}, {
 "type":
 "wienerschnitzler",
 "color":
 "#ECDA98",
 "caption":
 "Wiener Schnitzler",
 "head":
 "Murnau am Staffelsee",
 "desc":
{"listPlace":
  [
 {
 "placeName":
 "Bahnhof Murnau",
 "ref":
 ""}
 ,  {
 "placeName":
 "Hotel Post [Murnau am Staffelsee]",
 "ref":
 ""}
 ]
}
}, {
 "type":
 "wienerschnitzler",
 "color":
 "#ECDA98",
 "caption":
 "Wiener Schnitzler",
 "head":
 "Staffelsee"
}] 