[{
 "type":
 "schnitzler-tagebuch",
 "color":
 "#037a33",
 "filename":
 "entry__1921-08-25",
 "caption":
 "Tagebuch",
 "idno":
 "https://schnitzler-tagebuch.acdh.oeaw.ac.at/entry__1921-08-25.html",
 "head":
 "Tagebuch, 25. August 1921",
 "desc":
{"listPerson":
  [
{
 "persName":
 "Lena Amsel",
 "ref":
 "person_13185"},
 {
 "persName":
 "Margarethe Kainz",
 "ref":
 "person_16647"},
 {
 "persName":
 "Richard Metzl",
 "ref":
 "person_18104"},
 {
 "persName":
 "Alexander Moissi",
 "ref":
 "person_18209"},
 {
 "persName":
 "Max Reinhardt",
 "ref":
 "person_19154"},
 {
 "persName":
 "Felix Salten",
 "ref":
 "person_19542"},
 {
 "persName":
 "Heinrich Schnitzler",
 "ref":
 "person_19822"},
 {
 "persName":
 "Karl Gustav Vollmoeller",
 "ref":
 "person_20986"},
 {
 "persName":
 "Frank Wedekind",
 "ref":
 "person_21130"},
 {
 "persName":
 "Julius Ferdinand Wollf",
 "ref":
 "person_21461"},
 {
 "persName":
 "Berta Zuckerkandl",
 "ref":
 "person_21594"},
 {
 "persName":
 "Stefan Zweig",
 "ref":
 "person_21614"},
 {
 "persName":
 "Ottilie Salten",
 "ref":
 "person_19543"},
 {
 "persName":
 "Olga Schnitzler",
 "ref":
 "person_19832"}],
 "listPlace":
  [
 {
 "placeName":
 "Salzburg",
 "ref":
 "pmb30"}
 ,  {
 "placeName":
 "Kapuzinerberg",
 "ref":
 "pmb297"}
 ,  {
 "placeName":
 "München",
 "ref":
 "pmb45258"}
 ,  {
 "placeName":
 "Possenhofen",
 "ref":
 "pmb34896"}
 ,  {
 "placeName":
 "Dresden",
 "ref":
 "pmb90550"}
 ,  {
 "placeName":
 "Unterach am Attersee",
 "ref":
 "pmb91973"}
 ]
}
}, {
 "type":
 "schnitzler-orte",
 "color":
 "#045344",
 "caption":
 "Aufenthaltsorte",
 "head":
 "Salzburg",
 "desc":
{"listPlace":
  [
 {
 "placeName":
 "Österreichischer Hof",
 "ref":
 ""}
 ,  {
 "placeName":
 "Kapuzinerberg",
 "ref":
 ""}
 ,  {
 "placeName":
 "Hauptbahnhof Salzburg",
 "ref":
 ""}
 ,  {
 "placeName":
 "Grand Hotel de L’Europe, G. Jung",
 "ref":
 ""}
 ]
}
}, {
 "type":
 "schnitzler-events",
 "color":
 "#9BC53D",
 "filename":
 "entity/210557/",
 "caption":
 "Ereignisse in der PMB",
 "idno":
 "https://pmb.acdh.oeaw.ac.at/entity/210557/",
 "head":
 "Filmvorführung, 25.8.1921",
 "desc":
{"listPerson":
  [
{
 "persName":
 "Arthur Schnitzler",
 "ref":
 ""}],
 "listPlace":
  [
 {
 "placeName":
 "Salzburg",
 "ref":
 ""}
 ]
}
}, {
 "type":
 "schnitzler-kino-buch",
 "subtype":
 "#ISBN978-3205787464",
 "color":
 "#B43C9C",
 "caption":
 "Kino",
 "head":
 "Schnitzler geht ins Kino in Salzburg, 25. August 1921",
 "source":
 "»A. ist manchmal wie ein kleines Kind«. Clara Katharina Pollaczek und Arthur Schnitzler gehen ins Kino. Herausgegeben von Stephan Kurz und Michael Rohrwasser unter Mitarbeit von Daniel Schopper. Wien, Köln, Weimar: Böhlau Verlag 2012."
}] 