[{
 "type":
 "schnitzler-tagebuch",
 "color":
 "#037a33",
 "filename":
 "entry__1922-11-03",
 "caption":
 "Tagebuch",
 "idno":
 "https://schnitzler-tagebuch.acdh.oeaw.ac.at/entry__1922-11-03.html",
 "head":
 "Tagebuch, 3. November 1922",
 "desc":
{"listPerson":
  [
{
 "persName":
 "Joachim Gasquet",
 "ref":
 "person_15353"},
 {
 "persName":
 "Hedy Kempny",
 "ref":
 "person_16807"},
 {
 "persName":
 "Heinrich Schnitzler",
 "ref":
 "person_19822"},
 {
 "persName":
 "Louise Schnitzler",
 "ref":
 "person_19831"},
 {
 "persName":
 "Else Speidel",
 "ref":
 "person_20241"},
 {
 "persName":
 "Rudolf Wantoch",
 "ref":
 "person_21093"},
 {
 "persName":
 "Max Leitner",
 "ref":
 "person_17425"}],
 "listBibl":
  [
 {
 "title":
 "Weihnachts-Einkäufe",
 "ref":
 "pmb30163"}
 ,  {
 "title":
 "Liebelei. Schauspiel in drei Akten",
 "ref":
 "pmb29917"}
 ,  {
 "title":
 "Zum großen Wurstel",
 "ref":
 "pmb29951"}
 ,  {
 "title":
 "Reigen. Zehn Dialoge",
 "ref":
 "pmb29855"}
 ,  {
 "title":
 "Die letzten Masken",
 "ref":
 "pmb29877"}
 ,  {
 "title":
 "Il y a une volupté dans la douleur",
 "ref":
 "pmb79338"}
 ],
 "listPlace":
  [
 {
 "placeName":
 "Burgring",
 "ref":
 "pmb274"}
 ,  {
 "placeName":
 "Teplice",
 "ref":
 "pmb955"}
 ,  {
 "placeName":
 "Leipzig",
 "ref":
 "pmb864"}
 ,  {
 "placeName":
 "Europa",
 "ref":
 "pmb468"}
 ]
}
}, {
 "type":
 "wienerschnitzler",
 "color":
 "#ECDA98",
 "caption":
 "Wiener Schnitzler",
 "idno":
 "https://wienerschnitzler.org/tag.html#1922-11-03",
 "head":
 "Liberec",
 "desc":
{"listPlace":
  [
 {
 "placeName":
 "Grandhotel Zlatý Lev",
 "ref":
 ""}
 ,  {
 "placeName":
 "Bahnhof Liberec",
 "ref":
 ""}
 ]
}
}, {
 "type":
 "wienerschnitzler",
 "color":
 "#ECDA98",
 "caption":
 "Wiener Schnitzler",
 "idno":
 "https://wienerschnitzler.org/tag.html#1922-11-03",
 "head":
 "Teplice",
 "desc":
{"listPlace":
  [
 {
 "placeName":
 "Lipový dvůr",
 "ref":
 ""}
 ,  {
 "placeName":
 "Hotel altes Ratshaus",
 "ref":
 ""}
 ,  {
 "placeName":
 "Bahnhof Teplice v Čechách",
 "ref":
 ""}
 ]
}
}, {
 "type":
 "schnitzler-events",
 "color":
 "#9BC53D",
 "filename":
 "entity/62703/",
 "caption":
 "Ereignisse in der PMB",
 "idno":
 "https://pmb.acdh.oeaw.ac.at/entity/62703/",
 "head":
 "Lesung von Die letzten Masken, Weihnachts-Einkäufe, Zum großen Wurstl, abgebrochen, 3.11.1922",
 "desc":
{"listBibl":
  [
 {
 "title":
 "Die letzten Masken",
 "ref":
 ""}
 ,  {
 "title":
 "Weihnachts-Einkäufe",
 "ref":
 ""}
 ,  {
 "title":
 "Zum großen Wurstel. Burleske in einem Akt",
 "ref":
 ""}
 ],
 "listPerson":
  [
{
 "persName":
 "Arthur Schnitzler",
 "ref":
 ""},
 {
 "persName":
 "Rudolf Wantoch",
 "ref":
 ""}],
 "listPlace":
  [
 {
 "placeName":
 "Lipový dvůr",
 "ref":
 ""}
 ]
}
}, {
 "type":
 "schnitzler-traeume",
 "subtype":
 "#ISBN978-3-8353-1029-2",
 "color":
 "#1193CC",
 "caption":
 "Traumtagebuch",
 "head":
 "Traum vom 3. November 1922",
 "source":
 "Arthur Schnitzler: Träume. Das Traumtagebuch 1875–1931. Herausgegeben von Peter Michael Braunwarth und Leo A. Lensing. Göttingen: Wallstein 2012 (Bibliothek Janowitz, Bd. 20)"
}] 