[{
 "type":
 "schnitzler-tagebuch",
 "color":
 "#037a33",
 "filename":
 "entry__1922-04-13",
 "caption":
 "Tagebuch",
 "idno":
 "https://schnitzler-tagebuch.acdh.oeaw.ac.at/entry__1922-04-13.html",
 "head":
 "Tagebuch, 13. April 1922",
 "desc":
{"listPerson":
  [
{
 "persName":
 "Hans Bodmer",
 "ref":
 "person_13824"},
 {
 "persName":
 "Marie Herzberg-Fränkel",
 "ref":
 "person_16151"},
 {
 "persName":
 "Ludwig Klinenberger",
 "ref":
 "person_16911"},
 {
 "persName":
 "Albert Leitzmann",
 "ref":
 "person_17426"},
 {
 "persName":
 "Robert Lichtenstern",
 "ref":
 "person_17509"},
 {
 "persName":
 "Alfred von Winterstein",
 "ref":
 "person_21387"},
 {
 "persName":
 "Arnold Pressburger",
 "ref":
 "person_18958"}],
 "listBibl":
  [
 {
 "title":
 "Der junge Medardus",
 "ref":
 "pmb32294"}
 ],
 "listPlace":
  [
 {
 "placeName":
 "Schweden",
 "ref":
 "pmb44335"}
 ,  {
 "placeName":
 "Hottingen",
 "ref":
 "pmb17142"}
 ,  {
 "placeName":
 "Schweiz",
 "ref":
 "pmb43435"}
 ,  {
 "placeName":
 "Jena",
 "ref":
 "pmb876"}
 ,  {
 "placeName":
 "Graz",
 "ref":
 "pmb860"}
 ,  {
 "placeName":
 "Tschechoslowakei",
 "ref":
 "pmb38444"}
 ,  {
 "placeName":
 "Semmering",
 "ref":
 "pmb91735"}
 ]
}
}, {
 "type":
 "wienerschnitzler",
 "color":
 "#6F5106",
 "caption":
 "Wiener Schnitzler",
 "idno":
 "https://wienerschnitzler.org/tag.html#1922-04-13",
 "head":
 "Wien",
 "desc":
{"listPlace":
  [
 {
 "placeName":
 "VIII., Josefstadt",
 "ref":
 ""}
 ,  {
 "placeName":
 "XVIII., Währing",
 "ref":
 ""}
 ]
}
}, {
 "type":
 "schnitzler-kempny-buch",
 "subtype":
 "#ISBN3-499-154-57-9",
 "color":
 "#7B3F00",
 "caption":
 "Kempny Tagebuch",
 "head":
 "Hedy Kempny, Tagebucheintrag vom 13. April 1922",
 "source":
 "Hedy Kempny und Arthur Schnitzler: Das Mädchen mit den dreizehn Seelen. Eine Korrespondenz ergänzt durch Blätter aus Hedy Kempnys Tagebuch sowie durch eine Auswahl ihrer Erzählungen. Hg. v. Heinz P. Adamek. Reinbek bei Hamburg: Rowohlt 1984. (Neue Frau)"
}, {
 "type":
 "kalliope-verbund",
 "color":
 "#003574",
 "caption":
 "Kalliope Verbundkatalog",
 "idno":
 "http://kalliope-verbund.info/DE-2498-HS00080129",
 "head":
 "Schnitzler, Arthur an Greiner, Leo [Briefe]",
 "text":
 "2 Bl.Kopie",
 "desc":
{"listPerson":
  [
{
 "persName":
 "Leo (1876-1928) Greiner",
 "ref":
 "http://d-nb.info/gnd/116830980"},
 {
 "persName":
 "S.-Fischer-Verlag &lt;Berlin&gt; (1886-1942)",
 "ref":
 "http://d-nb.info/gnd/35741-8"}]
}
}] 