[{
 "type":
 "schnitzler-tagebuch",
 "color":
 "#037a33",
 "filename":
 "entry__1922-09-11",
 "caption":
 "Tagebuch",
 "idno":
 "https://schnitzler-tagebuch.acdh.oeaw.ac.at/entry__1922-09-11.html",
 "head":
 "Tagebuch, 11. September 1922",
 "desc":
{"listPerson":
  [
{
 "persName":
 "Lili Schnitzler",
 "ref":
 "person_14130"},
 {
 "persName":
 "Karl Gagstatter",
 "ref":
 "person_15323"},
 {
 "persName":
 "Lucy von Jacobi",
 "ref":
 "person_16469"},
 {
 "persName":
 "Margarethe Lichtenstein",
 "ref":
 "person_17505"},
 {
 "persName":
 "Alma Maria Mahler",
 "ref":
 "person_17784"},
 {
 "persName":
 "Louise Schnitzler",
 "ref":
 "person_19831"},
 {
 "persName":
 "Berta Zuckerkandl",
 "ref":
 "person_21594"},
 {
 "persName":
 "Olga Schnitzler",
 "ref":
 "person_19832"}],
 "listBibl":
  [
 {
 "title":
 "Komödie der Verführung. In drei Akten",
 "ref":
 "pmb30205"}
 ],
 "listPlace":
  [
 {
 "placeName":
 "Berchtesgaden",
 "ref":
 "pmb797"}
 ,  {
 "placeName":
 "Königssee",
 "ref":
 "pmb91054"}
 ,  {
 "placeName":
 "Obersee",
 "ref":
 "pmb91379"}
 ,  {
 "placeName":
 "Gremsmühlen",
 "ref":
 "pmb90765"}
 ,  {
 "placeName":
 "Wien",
 "ref":
 "pmb50"}
 ]
}
}, {
 "type":
 "URL",
 "subtype":
 "wienerschnitzler",
 "head":
 "Berchtesgaden",
 "desc":
{"listPlace":
  [
 {
 "placeName":
 "Hotel Bellevue [Berchtesgaden]",
 "ref":
 ""}
 ,  {
 "placeName":
 "Hotel Wittelsbach [Berchtesgaden]",
 "ref":
 ""}
 ]
}
}, {
 "type":
 "URL",
 "subtype":
 "wienerschnitzler",
 "head":
 "Königssee"
}, {
 "type":
 "URL",
 "subtype":
 "wienerschnitzler",
 "head":
 "Obersee"
}, {
 "type":
 "URL",
 "subtype":
 "wienerschnitzler",
 "head":
 "Schönau am Königssee",
 "desc":
{"listPlace":
  [
 {
 "placeName":
 "Saletalm",
 "ref":
 ""}
 ]
}
}] 