[{
 "type":
 "schnitzler-tagebuch",
 "color":
 "#037a33",
 "filename":
 "entry__1922-05-11",
 "caption":
 "Tagebuch",
 "idno":
 "https://schnitzler-tagebuch.acdh.oeaw.ac.at/entry__1922-05-11.html",
 "head":
 "Tagebuch, 11. Mai 1922",
 "desc":
{"listPerson":
  [
{
 "persName":
 "George Altmann",
 "ref":
 "person_13170"},
 {
 "persName":
 "Ludwig Fulda",
 "ref":
 "person_15306"},
 {
 "persName":
 "Dora Michaelis",
 "ref":
 "person_18137"},
 {
 "persName":
 "Karl Michaelis",
 "ref":
 "person_18140"},
 {
 "persName":
 "Lorenz Michaelis",
 "ref":
 "person_18141"},
 {
 "persName":
 "Alfred Rotter",
 "ref":
 "person_19435"},
 {
 "persName":
 "Fritz Rotter",
 "ref":
 "person_19436"},
 {
 "persName":
 "Siegfried Trebitsch",
 "ref":
 "person_20796"},
 {
 "persName":
 "Isabella Vengerova",
 "ref":
 "person_21231"},
 {
 "persName":
 "Christian Dietrich Grabbe",
 "ref":
 "person_15605"},
 {
 "persName":
 "Heinrich Glücksmann",
 "ref":
 "person_15483"},
 {
 "persName":
 "Leopold Jessner",
 "ref":
 "person_16550"},
 {
 "persName":
 "Olga Schnitzler",
 "ref":
 "person_19832"}],
 "listBibl":
  [
 {
 "title":
 "Komödie der Worte. Drei Einakter",
 "ref":
 "pmb30717"}
 ,  {
 "title":
 "Professor Bernhardi. Komödie in fünf Akten",
 "ref":
 "pmb30203"}
 ,  {
 "title":
 "Napoleon oder die hundert Tage",
 "ref":
 "pmb30231"}
 ,  {
 "title":
 "Der Geliebte",
 "ref":
 "pmb77054"}
 ],
 "listPlace":
  [
 {
 "placeName":
 "Berlin",
 "ref":
 "pmb168"}
 ,  {
 "placeName":
 "Lutherstr.",
 "ref":
 "pmb92383"}
 ]
}
}, {
 "type":
 "wienerschnitzler",
 "color":
 "#6F5106",
 "caption":
 "Wiener Schnitzler",
 "idno":
 "https://wienerschnitzler.org/tag.html#1922-05-11",
 "head":
 "Berlin",
 "desc":
{"listPlace":
  [
 {
 "placeName":
 "Hotel Esplanade [Berlin]",
 "ref":
 ""}
 ,  {
 "placeName":
 "Schauspielhaus Berlin",
 "ref":
 ""}
 ,  {
 "placeName":
 "Bode-Museum",
 "ref":
 ""}
 ,  {
 "placeName":
 "Horcher",
 "ref":
 ""}
 ,  {
 "placeName":
 "Lutherstraße",
 "ref":
 ""}
 ,  {
 "placeName":
 "Kleines Theater",
 "ref":
 ""}
 ,  {
 "placeName":
 "Restaurant Stallmann",
 "ref":
 ""}
 ]
}
}, {
 "type":
 "URL",
 "subtype":
 "pmb",
 "filename":
 "entity/210165/",
 "idno":
 "https://pmb.acdh.oeaw.ac.at/entity/210165/",
 "head":
 "Aufführung von Napoleon oder die hundert Tage, 11.5.1922",
 "desc":
{"listBibl":
  [
 {
 "title":
 "Napoleon oder die hundert Tage",
 "ref":
 ""}
 ],
 "listPerson":
  [
{
 "persName":
 "Leopold Jessner",
 "ref":
 ""},
 {
 "persName":
 "Arthur Schnitzler",
 "ref":
 ""}],
 "listPlace":
  [
 {
 "placeName":
 "Schauspielhaus Berlin",
 "ref":
 ""}
 ]
}
}] 