[{
 "type":
 "schnitzler-tagebuch",
 "color":
 "#037a33",
 "filename":
 "entry__1922-04-19",
 "caption":
 "Tagebuch",
 "idno":
 "https://schnitzler-tagebuch.acdh.oeaw.ac.at/entry__1922-04-19.html",
 "head":
 "Tagebuch, 19. April 1922",
 "desc":
{"listPerson":
  [
{
 "persName":
 "Hanna Askonas",
 "ref":
 "person_13282"},
 {
 "persName":
 "Rudolf Askonas",
 "ref":
 "person_13285"},
 {
 "persName":
 "von Korff",
 "ref":
 "person_17044"},
 {
 "persName":
 "Heinrich Schnitzler",
 "ref":
 "person_19822"},
 {
 "persName":
 "Hermine Simandt",
 "ref":
 "person_20112"},
 {
 "persName":
 "Else Wohlgemuth",
 "ref":
 "person_21423"},
 {
 "persName":
 "Olga Schnitzler",
 "ref":
 "person_19832"},
 {
 "persName":
 "Erika Wagner",
 "ref":
 "person_21024"}],
 "listBibl":
  [
 {
 "title":
 "Der Ehrentag",
 "ref":
 "pmb29831"}
 ,  {
 "title":
 "Der junge Medardus. Dramatische Historie in einem Vorspiel und fünf Aufzügen",
 "ref":
 "pmb29937"}
 ,  {
 "title":
 "Die letzten Masken",
 "ref":
 "pmb29877"}
 ,  {
 "title":
 "Die Toten schweigen",
 "ref":
 "pmb29833"}
 ,  {
 "title":
 "Traumnovelle",
 "ref":
 "pmb30851"}
 ,  {
 "title":
 "Wilhelm Tell",
 "ref":
 "pmb77042"}
 ],
 "listPlace":
  [
 {
 "placeName":
 "Wien",
 "ref":
 "pmb50"}
 ,  {
 "placeName":
 "München",
 "ref":
 "pmb45258"}
 ]
}
}, {
 "type":
 "schnitzler-briefe",
 "color":
 "#A63437",
 "filename":
 "L03578",
 "caption":
 "Briefe mit Autorinnen und Autoren",
 "idno":
 "https://schnitzler-briefe.acdh.oeaw.ac.at/L03578.html",
 "head":
 "Felix Salten an Arthur Schnitzler, [19?]. 4. 1922",
 "desc":
{"listPerson":
  [
{
 "persName":
 "Felix Salten",
 "ref":
 "pmb2167"},
 {
 "persName":
 "Frieda Pollak",
 "ref":
 "pmb22728"}],
 "listPlace":
  [
 {
 "placeName":
 "Neapel",
 "ref":
 "pmb595"}
 ,  {
 "placeName":
 "Wien",
 "ref":
 "pmb50"}
 ,  {
 "placeName":
 "Österreich",
 "ref":
 "pmb41240"}
 ,  {
 "placeName":
 "Sternwartestraße 71",
 "ref":
 "pmb168815"}
 ,  {
 "placeName":
 "via San Carlo",
 "ref":
 "pmb143716"}
 ,  {
 "placeName":
 "Galleria Umberto I",
 "ref":
 "pmb143718"}
 ]
}
}, {
 "type":
 "wienerschnitzler",
 "color":
 "#ECDA98",
 "caption":
 "Wiener Schnitzler",
 "idno":
 "https://wienerschnitzler.org/tag.html#1922-04-19",
 "head":
 "München",
 "desc":
{"listPlace":
  [
 {
 "placeName":
 "Hauptbahnhof München",
 "ref":
 ""}
 ,  {
 "placeName":
 "Hotel Marienbad [München]",
 "ref":
 ""}
 ]
}
}, {
 "type":
 "schnitzler-traeume",
 "subtype":
 "#ISBN978-3-8353-1029-2",
 "color":
 "#1193CC",
 "caption":
 "Traumtagebuch",
 "head":
 "Traum vom 19. April 1922",
 "source":
 "Arthur Schnitzler: Träume. Das Traumtagebuch 1875–1931. Herausgegeben von Peter Michael Braunwarth und Leo A. Lensing. Göttingen: Wallstein 2012 (Bibliothek Janowitz, Bd. 20)"
}] 