[{
 "type":
 "schnitzler-tagebuch",
 "color":
 "#037a33",
 "filename":
 "entry__1922-08-18",
 "caption":
 "Tagebuch",
 "idno":
 "https://schnitzler-tagebuch.acdh.oeaw.ac.at/entry__1922-08-18.html",
 "head":
 "Tagebuch, 18. August 1922",
 "desc":
{"listPerson":
  [
{
 "persName":
 "Sigmund Freud",
 "ref":
 "person_15172"},
 {
 "persName":
 "Alma Maria Mahler",
 "ref":
 "person_17784"},
 {
 "persName":
 "Marie Mahler",
 "ref":
 "person_17787"},
 {
 "persName":
 "Marie Reinhard",
 "ref":
 "person_19150"},
 {
 "persName":
 "Gustav Mahler",
 "ref":
 "person_17786"}],
 "listBibl":
  [
 {
 "title":
 "Komödie der Verführung. In drei Akten",
 "ref":
 "pmb30205"}
 ],
 "listPlace":
  [
 {
 "placeName":
 "Hintersee",
 "ref":
 "pmb90883"}
 ,  {
 "placeName":
 "Ramsau",
 "ref":
 "pmb91562"}
 ,  {
 "placeName":
 "Wimbachklamm",
 "ref":
 "pmb92083"}
 ,  {
 "placeName":
 "Restaurant Wimbach",
 "ref":
 "pmb92757"}
 ]
}
}, {
 "type":
 "wienerschnitzler",
 "color":
 "#ECDA98",
 "caption":
 "Wiener Schnitzler",
 "head":
 "Berchtesgaden",
 "desc":
{"listPlace":
  [
 {
 "placeName":
 "Hotel Bellevue [Berchtesgaden]",
 "ref":
 ""}
 ]
}
}, {
 "type":
 "wienerschnitzler",
 "color":
 "#ECDA98",
 "caption":
 "Wiener Schnitzler",
 "head":
 "Ramsau bei Berchtesgaden",
 "desc":
{"listPlace":
  [
 {
 "placeName":
 "Restaurant Wimbach",
 "ref":
 ""}
 ,  {
 "placeName":
 "Gletscherquellen [Ramsau bei Berchtesgaden]",
 "ref":
 ""}
 ,  {
 "placeName":
 "Wimbachklamm",
 "ref":
 ""}
 ,  {
 "placeName":
 "Wimbachtal",
 "ref":
 ""}
 ]
}
}, {
 "type":
 "wienerschnitzler",
 "color":
 "#ECDA98",
 "caption":
 "Wiener Schnitzler",
 "head":
 "Hintersee"
}] 