[{
 "type":
 "schnitzler-tagebuch",
 "color":
 "#037a33",
 "filename":
 "entry__1922-10-31",
 "caption":
 "Tagebuch",
 "idno":
 "https://schnitzler-tagebuch.acdh.oeaw.ac.at/entry__1922-10-31.html",
 "head":
 "Tagebuch, 31. Oktober 1922",
 "desc":
{"listPerson":
  [
{
 "persName":
 "Paul Kisch",
 "ref":
 "person_16859"},
 {
 "persName":
 "Robert Lichtenstern",
 "ref":
 "person_17509"},
 {
 "persName":
 "Josef Martin",
 "ref":
 "person_17944"},
 {
 "persName":
 "Mizi Schiller",
 "ref":
 "person_19696"},
 {
 "persName":
 "Steiner",
 "ref":
 "person_20367"},
 {
 "persName":
 "Möser",
 "ref":
 "person_18205"},
 {
 "persName":
 "Paul Lincke",
 "ref":
 "person_17554"},
 {
 "persName":
 "Fritz Schwabacher",
 "ref":
 "person_19951"}],
 "listBibl":
  [
 {
 "title":
 "Weihnachts-Einkäufe",
 "ref":
 "pmb30163"}
 ,  {
 "title":
 "Das Schicksal des Freiherrn von Leisenbohg. Novellette",
 "ref":
 "pmb30057"}
 ,  {
 "title":
 "Die letzten Masken",
 "ref":
 "pmb29877"}
 ,  {
 "title":
 "Die dreifache Warnung",
 "ref":
 "pmb33061"}
 ],
 "listPlace":
  [
 {
 "placeName":
 "Prag",
 "ref":
 "pmb652"}
 ,  {
 "placeName":
 "Außig",
 "ref":
 "pmb90286"}
 ]
}
}, {
 "type":
 "wienerschnitzler",
 "color":
 "#ECDA98",
 "caption":
 "Wiener Schnitzler",
 "head":
 "Prag",
 "desc":
{"listPlace":
  [
 {
 "placeName":
 "Praha hlavní nádraží",
 "ref":
 ""}
 ]
}
}, {
 "type":
 "wienerschnitzler",
 "color":
 "#ECDA98",
 "caption":
 "Wiener Schnitzler",
 "head":
 "Ústí nad Labem",
 "desc":
{"listPlace":
  [
 {
 "placeName":
 "Weinmanneum",
 "ref":
 ""}
 ,  {
 "placeName":
 "Ústí nad Labem hlavní nádraží",
 "ref":
 ""}
 ,  {
 "placeName":
 "Hotel Englischer Hof [Ústí nad Laben]",
 "ref":
 ""}
 ,  {
 "placeName":
 "Hotel Hohes Haus",
 "ref":
 ""}
 ,  {
 "placeName":
 "Hrad Střekov",
 "ref":
 ""}
 ]
}
}, {
 "type":
 "schnitzler-events",
 "color":
 "#9BC53D",
 "filename":
 "entity/183472/",
 "caption":
 "Ereignisse in der PMB",
 "idno":
 "https://pmb.acdh.oeaw.ac.at/entity/183472/",
 "head":
 "Lesung von Die dreifache Warnung, Die letzten Masken, Weihnachts-Einkäufe, Excentric, 31.10.1922",
 "desc":
{"listBibl":
  [
 {
 "title":
 "Die dreifache Warnung",
 "ref":
 ""}
 ,  {
 "title":
 "Die letzten Masken",
 "ref":
 ""}
 ,  {
 "title":
 "Weihnachts-Einkäufe",
 "ref":
 ""}
 ,  {
 "title":
 "Excentric",
 "ref":
 ""}
 ],
 "listPerson":
  [
{
 "persName":
 "Arthur Schnitzler",
 "ref":
 ""}],
 "listPlace":
  [
 {
 "placeName":
 "Weinmanneum",
 "ref":
 ""}
 ]
}
}, {
 "type":
 "schnitzler-cmif",
 "subtype":
 "#jf7cbca5-b0b6-4bcf-adbf-38e94eed3cb3",
 "color":
 "#654321",
 "caption":
 "Gedruckte Briefwechsel",
 "head":
 "Arthur Schnitzler an Heinrich Schnitzler, 31. 10. 1922",
 "source":
 "Arthur Schnitzler: Briefe 1913–1931. Hrsg. v. Peter Michael Braunwarth, Richard Miklin, Susanne Pertlik und Heinrich Schnitzler. Frankfurt am Main: S. Fischer 1984. (PDF unter: https://schnitzler-briefe.acdh.oeaw.ac.at/)"
}] 