[{
 "type":
 "schnitzler-tagebuch",
 "color":
 "#037a33",
 "filename":
 "entry__1922-08-13",
 "caption":
 "Tagebuch",
 "idno":
 "https://schnitzler-tagebuch.acdh.oeaw.ac.at/entry__1922-08-13.html",
 "head":
 "Tagebuch, 13. August 1922",
 "desc":
{"listPerson":
  [
{
 "persName":
 "Hedy Kempny",
 "ref":
 "person_16807"},
 {
 "persName":
 "Helene Schnitzler",
 "ref":
 "person_19823"},
 {
 "persName":
 "Julius Schnitzler",
 "ref":
 "person_19827"},
 {
 "persName":
 "Karl Schnitzler",
 "ref":
 "person_19828"},
 {
 "persName":
 "Siegfried Trebitsch",
 "ref":
 "person_20796"},
 {
 "persName":
 "Anna Donath",
 "ref":
 "person_14481"},
 {
 "persName":
 "Dora Breuer",
 "ref":
 "person_13959"},
 {
 "persName":
 "Arthur Kaufmann",
 "ref":
 "person_16770"},
 {
 "persName":
 "Olga Schnitzler",
 "ref":
 "person_19832"},
 {
 "persName":
 "Victor Zuckerkandl",
 "ref":
 "person_21602"}],
 "listBibl":
  [
 {
 "title":
 "Komödie der Verführung. In drei Akten",
 "ref":
 "pmb30205"}
 ],
 "listPlace":
  [
 {
 "placeName":
 "Königssee",
 "ref":
 "pmb91054"}
 ,  {
 "placeName":
 "Lermoos",
 "ref":
 "pmb91139"}
 ,  {
 "placeName":
 "Sylt",
 "ref":
 "pmb91863"}
 ,  {
 "placeName":
 "Hamburg",
 "ref":
 "pmb506"}
 ]
}
}, {
 "type":
 "wienerschnitzler",
 "color":
 "#ECDA98",
 "caption":
 "Wiener Schnitzler",
 "head":
 "Berchtesgaden",
 "desc":
{"listPlace":
  [
 {
 "placeName":
 "Hotel Bellevue [Berchtesgaden]",
 "ref":
 ""}
 ,  {
 "placeName":
 "Grand Hotel Auguste Victoria",
 "ref":
 ""}
 ,  {
 "placeName":
 "Hotel Wittelsbach [Berchtesgaden]",
 "ref":
 ""}
 ]
}
}, {
 "type":
 "wienerschnitzler",
 "color":
 "#ECDA98",
 "caption":
 "Wiener Schnitzler",
 "head":
 "Königssee"
}, {
 "type":
 "wienerschnitzler",
 "color":
 "#ECDA98",
 "caption":
 "Wiener Schnitzler",
 "head":
 "Schönau am Königssee",
 "desc":
{"listPlace":
  [
 {
 "placeName":
 "Malerwinkel",
 "ref":
 ""}
 ,  {
 "placeName":
 "Königsseer Fußweg",
 "ref":
 ""}
 ]
}
}] 