[{
 "type":
 "schnitzler-tagebuch",
 "color":
 "#037a33",
 "filename":
 "entry__1922-02-22",
 "caption":
 "Tagebuch",
 "idno":
 "https://schnitzler-tagebuch.acdh.oeaw.ac.at/entry__1922-02-22.html",
 "head":
 "Tagebuch, 22. Februar 1922",
 "desc":
{"listPerson":
  [
{
 "persName":
 "Helene Binder",
 "ref":
 "person_13733"},
 {
 "persName":
 "Ludwig Hirschfeld",
 "ref":
 "person_16225"},
 {
 "persName":
 "K.",
 "ref":
 "person_16611"},
 {
 "persName":
 "Vilma Lichtenstern",
 "ref":
 "person_17510"},
 {
 "persName":
 "Maurice Maeterlinck",
 "ref":
 "person_17779"},
 {
 "persName":
 "Heinrich Schnitzler",
 "ref":
 "person_19822"},
 {
 "persName":
 "Julius Schnitzler",
 "ref":
 "person_19827"},
 {
 "persName":
 "Hans Schwarz",
 "ref":
 "person_19971"},
 {
 "persName":
 "Anton Wildgans",
 "ref":
 "person_21328"},
 {
 "persName":
 "Berta Zuckerkandl",
 "ref":
 "person_21594"},
 {
 "persName":
 "Gertrude Zuckerkandl",
 "ref":
 "person_21598"},
 {
 "persName":
 "Wilhelm Stekel",
 "ref":
 "person_20392"},
 {
 "persName":
 "Mimi Schnabel",
 "ref":
 "person_19792"},
 {
 "persName":
 "Olga Schnitzler",
 "ref":
 "person_19832"}],
 "listBibl":
  [
 {
 "title":
 "Intérieur",
 "ref":
 "pmb76832"}
 ],
 "listPlace":
  [
 {
 "placeName":
 "Burgtheater",
 "ref":
 "pmb14"}
 ,  {
 "placeName":
 "Berlin",
 "ref":
 "pmb168"}
 ,  {
 "placeName":
 "Salzburg",
 "ref":
 "pmb30"}
 ]
}
}, {
 "type":
 "schnitzler-briefe",
 "color":
 "#A63437",
 "filename":
 "L03595",
 "caption":
 "Briefe mit Autorinnen und Autoren",
 "idno":
 "https://schnitzler-briefe.acdh.oeaw.ac.at/L03595.html",
 "head":
 "Felix Salten an Arthur Schnitzler, [22. 2. 1922?]",
 "desc":
{"listPerson":
  [
{
 "persName":
 "Felix Salten",
 "ref":
 "pmb2167"},
 {
 "persName":
 "Arthur Schnitzler",
 "ref":
 "pmb2121"},
 {
 "persName":
 "Felix Salten",
 "ref":
 "pmb2167"},
 {
 "persName":
 "Ellis O. Jones",
 "ref":
 "pmb148309"},
 {
 "persName":
 "Paul Claudel",
 "ref":
 "pmb6660"}],
 "listBibl":
  [
 {
 "title":
 "Der Tausch. Drama in drei Akten",
 "ref":
 "pmb148336"}
 ],
 "listPlace":
  [
 {
 "placeName":
 "Wien",
 "ref":
 "pmb50"}
 ,  {
 "placeName":
 "Berlin",
 "ref":
 "pmb168"}
 ,  {
 "placeName":
 "Vereinigte Staaten von Amerika [USA]",
 "ref":
 "pmb43406"}
 ],
 "listOrg":
  [
 {
 "orgName":
 "Foreign Press Service",
 "ref":
 "pmb148317"}
 ]
}
}, {
 "type":
 "wienerschnitzler",
 "color":
 "#6F5106",
 "caption":
 "Wiener Schnitzler",
 "idno":
 "https://wienerschnitzler.org/tag.html#1922-02-22",
 "head":
 "Wien",
 "desc":
{"listPlace":
  [
 {
 "placeName":
 "VIII., Josefstadt",
 "ref":
 ""}
 ,  {
 "placeName":
 "I., Innere Stadt",
 "ref":
 ""}
 ,  {
 "placeName":
 "XVIII., Währing",
 "ref":
 ""}
 ]
}
}] 