[{
 "type":
 "schnitzler-tagebuch",
 "color":
 "#037a33",
 "filename":
 "entry__1922-08-16",
 "caption":
 "Tagebuch",
 "idno":
 "https://schnitzler-tagebuch.acdh.oeaw.ac.at/entry__1922-08-16.html",
 "head":
 "Tagebuch, 16. August 1922",
 "desc":
{"listPerson":
  [
{
 "persName":
 "Lola Beeth",
 "ref":
 "person_13553"},
 {
 "persName":
 "Helene Binder",
 "ref":
 "person_13733"},
 {
 "persName":
 "Sigmund Freud",
 "ref":
 "person_15172"},
 {
 "persName":
 "Georg Groddeck",
 "ref":
 "person_15670"},
 {
 "persName":
 "Mathilda Hollitscher",
 "ref":
 "person_16328"},
 {
 "persName":
 "Vilma Lichtenstern",
 "ref":
 "person_17510"},
 {
 "persName":
 "Leo Van-Jung",
 "ref":
 "person_20925"},
 {
 "persName":
 "Wilhelm von Wymetal",
 "ref":
 "person_21486"},
 {
 "persName":
 "Salomon Ehrmann",
 "ref":
 "person_14657"},
 {
 "persName":
 "Arthur Kaufmann",
 "ref":
 "person_16770"},
 {
 "persName":
 "Gustav Mahler",
 "ref":
 "person_17786"},
 {
 "persName":
 "Olga Schnitzler",
 "ref":
 "person_19832"}],
 "listBibl":
  [
 {
 "title":
 "Das Ich und das Es",
 "ref":
 "pmb78439"}
 ,  {
 "title":
 "Das Buch vom Es",
 "ref":
 "pmb78781"}
 ,  {
 "title":
 "Der Seelensucher. Ein psychoanalytischer Roman",
 "ref":
 "pmb78782"}
 ],
 "listPlace":
  [
 {
 "placeName":
 "Kärntnerstraße",
 "ref":
 "pmb92330"}
 ,  {
 "placeName":
 "IV., Wieden",
 "ref":
 "pmb54"}
 ,  {
 "placeName":
 "Sandling",
 "ref":
 "pmb91653"}
 ,  {
 "placeName":
 "Leiden",
 "ref":
 "pmb91129"}
 ,  {
 "placeName":
 "Niederlande",
 "ref":
 "pmb44016"}
 ,  {
 "placeName":
 "Salzbergstraße",
 "ref":
 "pmb39784"}
 ,  {
 "placeName":
 "Berchtesgaden",
 "ref":
 "pmb797"}
 ,  {
 "placeName":
 "Kaltenleutgeben",
 "ref":
 "pmb44102"}
 ]
}
}, {
 "type":
 "schnitzler-orte",
 "color":
 "#045344",
 "caption":
 "Aufenthaltsorte",
 "head":
 "Berchtesgaden"
}, {
 "type":
 "schnitzler-traeume",
 "subtype":
 "#ISBN978-3-8353-1029-2",
 "head":
 "Traum vom 16. August 1922",
 "source":
 "Arthur Schnitzler: Träume. Das Traumtagebuch 1875–1931. Herausgegeben von Peter Michael Braunwarth und Leo A. Lensing. Göttingen: Wallstein 2012 (Bibliothek Janowitz, Bd. 20)"
}] 