[{
 "type":
 "schnitzler-tagebuch",
 "color":
 "#037a33",
 "filename":
 "entry__1922-01-28",
 "caption":
 "Tagebuch",
 "idno":
 "https://schnitzler-tagebuch.acdh.oeaw.ac.at/entry__1922-01-28.html",
 "head":
 "Tagebuch, 28. Januar 1922",
 "desc":
{"listPerson":
  [
{
 "persName":
 "Max Eugen Burckhard",
 "ref":
 "person_14065"},
 {
 "persName":
 "Lili Schnitzler",
 "ref":
 "person_14130"},
 {
 "persName":
 "Vilma Lichtenstern",
 "ref":
 "person_17510"},
 {
 "persName":
 "Alma Maria Mahler",
 "ref":
 "person_17784"},
 {
 "persName":
 "Carl Moll",
 "ref":
 "person_18218"},
 {
 "persName":
 "Arnold Rosé",
 "ref":
 "person_19351"},
 {
 "persName":
 "Justine Rosé",
 "ref":
 "person_19352"},
 {
 "persName":
 "Heinrich Schnitzler",
 "ref":
 "person_19822"},
 {
 "persName":
 "Franz Werfel",
 "ref":
 "person_21243"},
 {
 "persName":
 "Gustav Mahler",
 "ref":
 "person_17786"},
 {
 "persName":
 "Olga Schnitzler",
 "ref":
 "person_19832"}],
 "listPlace":
  [
 {
 "placeName":
 "Salzburg",
 "ref":
 "pmb30"}
 ]
}
}, {
 "type":
 "schnitzler-briefe",
 "color":
 "#A63437",
 "filename":
 "L02374",
 "caption":
 "Briefe mit Autorinnen und Autoren",
 "idno":
 "https://schnitzler-briefe.acdh.oeaw.ac.at/L02374.html",
 "head":
 "Christiane von Hofmannsthal an Arthur Schnitzler, 28. 1. 192[2]",
 "desc":
{"listPerson":
  [
{
 "persName":
 "Hugo von Hofmannsthal",
 "ref":
 "pmb11740"},
 {
 "persName":
 "Frieda Pollak",
 "ref":
 "pmb22728"},
 {
 "persName":
 "Berta Zuckerkandl",
 "ref":
 "pmb2312"},
 {
 "persName":
 "Christiane Zimmer",
 "ref":
 "pmb3220"}],
 "listBibl":
  [
 {
 "title":
 "Das Salzburger große Welttheater",
 "ref":
 "pmb30839"}
 ],
 "listPlace":
  [
 {
 "placeName":
 "Sternwartestraße 71",
 "ref":
 "pmb168815"}
 ,  {
 "placeName":
 "Rodaun",
 "ref":
 "pmb173"}
 ,  {
 "placeName":
 "Wien",
 "ref":
 "pmb50"}
 ,  {
 "placeName":
 "XVIII., Währing",
 "ref":
 "pmb68"}
 ]
}
}, {
 "type":
 "schnitzler-briefe",
 "color":
 "#A63437",
 "filename":
 "L02375",
 "caption":
 "Briefe mit Autorinnen und Autoren",
 "idno":
 "https://schnitzler-briefe.acdh.oeaw.ac.at/L02375.html",
 "head":
 "Hugo von Hofmannsthal an Arthur Schnitzler, 28. 1. 192[2]",
 "desc":
{"listPerson":
  [
{
 "persName":
 "Hugo von Hofmannsthal",
 "ref":
 "pmb11740"},
 {
 "persName":
 "Frieda Pollak",
 "ref":
 "pmb22728"},
 {
 "persName":
 "Berta Zuckerkandl",
 "ref":
 "pmb2312"}],
 "listBibl":
  [
 {
 "title":
 "Tod und Verklärung op. 24",
 "ref":
 "pmb30841"}
 ],
 "listOrg":
  [
 {
 "orgName":
 "Rikola Verlag",
 "ref":
 "pmb29758"}
 ],
 "listPlace":
  [
 {
 "placeName":
 "Rodaun",
 "ref":
 "pmb173"}
 ,  {
 "placeName":
 "Salzburg",
 "ref":
 "pmb30"}
 ,  {
 "placeName":
 "Stallburggasse",
 "ref":
 "pmb34024"}
 ,  {
 "placeName":
 "Wien",
 "ref":
 "pmb50"}
 ]
}
}, {
 "type":
 "wienerschnitzler",
 "color":
 "#ECDA98",
 "caption":
 "Wiener Schnitzler",
 "idno":
 "https://wienerschnitzler.org/tag.html#1922-01-28",
 "head":
 "Wien",
 "desc":
{"listPlace":
  [
 {
 "placeName":
 "VIII., Josefstadt",
 "ref":
 ""}
 ,  {
 "placeName":
 "I., Innere Stadt",
 "ref":
 ""}
 ,  {
 "placeName":
 "XVIII., Währing",
 "ref":
 ""}
 ]
}
}] 