[{
 "type":
 "schnitzler-tagebuch",
 "color":
 "#037a33",
 "filename":
 "entry__1922-08-21",
 "caption":
 "Tagebuch",
 "idno":
 "https://schnitzler-tagebuch.acdh.oeaw.ac.at/entry__1922-08-21.html",
 "head":
 "Tagebuch, 21. August 1922",
 "desc":
{"listPerson":
  [
{
 "persName":
 "Arthur Wilheim",
 "ref":
 "person_21332"},
 {
 "persName":
 "Wilhelm von Wymetal",
 "ref":
 "person_21486"},
 {
 "persName":
 "Maria Theresia Husserl",
 "ref":
 "person_16422"},
 {
 "persName":
 "Olga Schnitzler",
 "ref":
 "person_19832"}],
 "listBibl":
  [
 {
 "title":
 "Komödie der Verführung. In drei Akten",
 "ref":
 "pmb30205"}
 ],
 "listPlace":
  [
 {
 "placeName":
 "Berchtesgaden",
 "ref":
 "pmb797"}
 ,  {
 "placeName":
 "Lermoos",
 "ref":
 "pmb91139"}
 ,  {
 "placeName":
 "Schönau am Königsee",
 "ref":
 "pmb91693"}
 ,  {
 "placeName":
 "Königssee",
 "ref":
 "pmb91054"}
 ]
}
}, {
 "type":
 "wienerschnitzler",
 "color":
 "#ECDA98",
 "caption":
 "Wiener Schnitzler",
 "head":
 "Berchtesgaden",
 "desc":
{"listPlace":
  [
 {
 "placeName":
 "Hotel Bellevue [Berchtesgaden]",
 "ref":
 ""}
 ,  {
 "placeName":
 "Hotel »Deutsches Haus«",
 "ref":
 ""}
 ,  {
 "placeName":
 "Hotel Wittelsbach [Berchtesgaden]",
 "ref":
 ""}
 ]
}
}, {
 "type":
 "wienerschnitzler",
 "color":
 "#ECDA98",
 "caption":
 "Wiener Schnitzler",
 "head":
 "Schönau am Königssee",
 "desc":
{"listPlace":
  [
 {
 "placeName":
 "?? [Villa in Schönau am Königssee]",
 "ref":
 ""}
 ]
}
}, {
 "type":
 "wienerschnitzler",
 "color":
 "#ECDA98",
 "caption":
 "Wiener Schnitzler",
 "head":
 "Königssee"
}, {
 "type":
 "schnitzler-cmif",
 "subtype":
 "#n0827e77-245d-4359-a0b0-5b601a5370ee",
 "color":
 "#654321",
 "caption":
 "Gedruckte Briefwechsel",
 "head":
 "Arthur Schnitzler an Hedy Kempny, 21.8.1922",
 "source":
 "Hedy Kempny und Arthur Schnitzler: Das Mädchen mit den dreizehn Seelen. Eine Korrespondenz ergänzt durch Blätter aus Hedy Kempnys Tagebuch sowie durch eine Auswahl ihrer Erzählungen. Hg. v. Heinz P. Adamek. Reinbek bei Hamburg: Rowohlt 1984. (Neue Frau)"
}] 