[{
 "type":
 "schnitzler-tagebuch",
 "color":
 "#037a33",
 "filename":
 "entry__1922-04-28",
 "caption":
 "Tagebuch",
 "idno":
 "https://schnitzler-tagebuch.acdh.oeaw.ac.at/entry__1922-04-28.html",
 "head":
 "Tagebuch, 28. April 1922",
 "desc":
{"listPerson":
  [
{
 "persName":
 "Egbertje Alida Brevée",
 "ref":
 "person_13969"},
 {
 "persName":
 "Geza de Koos",
 "ref":
 "person_17031"},
 {
 "persName":
 "Johan de Meester",
 "ref":
 "person_18038"},
 {
 "persName":
 "François Henri Jacques Mijnssen",
 "ref":
 "person_18158"},
 {
 "persName":
 "Henri Adolph Tels",
 "ref":
 "person_20660"},
 {
 "persName":
 "Eduard Rutger Verkade",
 "ref":
 "person_20947"},
 {
 "persName":
 "Olga Schnitzler",
 "ref":
 "person_19832"}],
 "listBibl":
  [
 {
 "title":
 "Der einsame Weg. Schauspiel in fünf Akten",
 "ref":
 "pmb29985"}
 ,  {
 "title":
 "The Yellow Jacket",
 "ref":
 "pmb80151"}
 ],
 "listPlace":
  [
 {
 "placeName":
 "Den Haag",
 "ref":
 "pmb58810"}
 ,  {
 "placeName":
 "Scheveningen",
 "ref":
 "pmb44313"}
 ,  {
 "placeName":
 "Amsterdam",
 "ref":
 "pmb40709"}
 ,  {
 "placeName":
 "Verhulststr.",
 "ref":
 "pmb92581"}
 ]
}
}, {
 "type":
 "wienerschnitzler",
 "color":
 "#ECDA98",
 "caption":
 "Wiener Schnitzler",
 "idno":
 "https://wienerschnitzler.org/tag.html#1922-04-28",
 "head":
 "Den Haag",
 "desc":
{"listPlace":
  [
 {
 "placeName":
 "Bezuidenhoutseweg 65",
 "ref":
 ""}
 ,  {
 "placeName":
 "Bahnhof Den Haag Centraal",
 "ref":
 ""}
 ]
}
}, {
 "type":
 "wienerschnitzler",
 "color":
 "#ECDA98",
 "caption":
 "Wiener Schnitzler",
 "idno":
 "https://wienerschnitzler.org/tag.html#1922-04-28",
 "head":
 "Amsterdam",
 "desc":
{"listPlace":
  [
 {
 "placeName":
 "Het Amsterdams Theaterhuis",
 "ref":
 ""}
 ,  {
 "placeName":
 "Amsterdam Centraal",
 "ref":
 ""}
 ,  {
 "placeName":
 "Johannes Verhulststraat 48",
 "ref":
 ""}
 ,  {
 "placeName":
 "Café Américain",
 "ref":
 ""}
 ]
}
}, {
 "type":
 "wienerschnitzler",
 "color":
 "#ECDA98",
 "caption":
 "Wiener Schnitzler",
 "idno":
 "https://wienerschnitzler.org/tag.html#1922-04-28",
 "head":
 "Scheveningen"
}, {
 "type":
 "schnitzler-events",
 "color":
 "#9BC53D",
 "filename":
 "entity/210162/",
 "caption":
 "Ereignisse in der PMB",
 "idno":
 "https://pmb.acdh.oeaw.ac.at/entity/210162/",
 "head":
 "Aufführung von The Yellow Jacket, 28.4.1922",
 "desc":
{"listBibl":
  [
 {
 "title":
 "The Yellow Jacket",
 "ref":
 ""}
 ],
 "listPerson":
  [
{
 "persName":
 "Bertha Brevée",
 "ref":
 ""},
 {
 "persName":
 "Arthur Schnitzler",
 "ref":
 ""}],
 "listPlace":
  [
 {
 "placeName":
 "Het Amsterdams Theaterhuis",
 "ref":
 ""}
 ]
}
}] 