[{
 "type":
 "schnitzler-tagebuch",
 "color":
 "#037a33",
 "filename":
 "entry__1922-06-02",
 "caption":
 "Tagebuch",
 "idno":
 "https://schnitzler-tagebuch.acdh.oeaw.ac.at/entry__1922-06-02.html",
 "head":
 "Tagebuch, 2. Juni 1922",
 "desc":
{"listPerson":
  [
{
 "persName":
 "Lili Schnitzler",
 "ref":
 "person_14130"},
 {
 "persName":
 "Hedy Kempny",
 "ref":
 "person_16807"},
 {
 "persName":
 "Theodor Kosaroff",
 "ref":
 "person_17066"},
 {
 "persName":
 "Alois Lorenzoni",
 "ref":
 "person_17686"},
 {
 "persName":
 "Gustav Wyneken",
 "ref":
 "person_21487"},
 {
 "persName":
 "Stefan Zweig",
 "ref":
 "person_21614"},
 {
 "persName":
 "Richard Specht",
 "ref":
 "person_20238"},
 {
 "persName":
 "Hermann Bahr",
 "ref":
 "person_13374"},
 {
 "persName":
 "Hugo von Hofmannsthal",
 "ref":
 "person_16293"},
 {
 "persName":
 "Olga Schnitzler",
 "ref":
 "person_19832"}],
 "listBibl":
  [
 {
 "title":
 "Lieutenant Gustl. Novelle",
 "ref":
 "pmb29853"}
 ,  {
 "title":
 "Das Salzburger große Welttheater",
 "ref":
 "pmb30839"}
 ,  {
 "title":
 "Arthur Schnitzler. Der Dichter und sein Werk. Eine Studie",
 "ref":
 "pmb30837"}
 ],
 "listPlace":
  [
 {
 "placeName":
 "Salzburg",
 "ref":
 "pmb30"}
 ,  {
 "placeName":
 "München",
 "ref":
 "pmb45258"}
 ,  {
 "placeName":
 "Sommerhaidenweg",
 "ref":
 "pmb243"}
 ]
}
}, {
 "type":
 "schnitzler-bahr",
 "color":
 "#F9BD63",
 "filename":
 "L041610",
 "caption":
 "Schnitzler/Bahr",
 "idno":
 "https://schnitzler-bahr.acdh.oeaw.ac.at/L041610.html",
 "head":
 "Stefan Zweig an Bahr, 2. 6. 1922",
 "desc":
{"listPerson":
  [
{
 "persName":
 "Stefan Zweig",
 "ref":
 "pmb13212"},
 {
 "persName":
 "Hermann Bahr",
 "ref":
 "pmb10815"},
 {
 "persName":
 "Paul Bourget",
 "ref":
 "pmb4026"},
 {
 "persName":
 "Carl Karlweis",
 "ref":
 "pmb13082"},
 {
 "persName":
 "Maurice Maeterlinck",
 "ref":
 "pmb12156"}],
 "listPlace":
  [
 {
 "placeName":
 "Wien",
 "ref":
 "pmb50"}
 ,  {
 "placeName":
 "München",
 "ref":
 "pmb45258"}
 ,  {
 "placeName":
 "Garnisongasse",
 "ref":
 "pmb731"}
 ,  {
 "placeName":
 "Barerstraße",
 "ref":
 "pmb161"}
 ,  {
 "placeName":
 "Salzburg",
 "ref":
 "pmb30"}
 ],
 "listOrg":
  [
 {
 "orgName":
 "Die Zeit. Wiener Wochenschrift",
 "ref":
 "pmb29209"}
 ]
}
}, {
 "type":
 "schnitzler-bahr",
 "color":
 "#F9BD63",
 "filename":
 "D041346",
 "caption":
 "Schnitzler/Bahr",
 "idno":
 "https://schnitzler-bahr.acdh.oeaw.ac.at/D041346.html",
 "head":
 "Tagebuch von Schnitzler, 2. 6. 1922",
 "desc":
{"listPerson":
  [
{
 "persName":
 "Olga Schnitzler",
 "ref":
 "pmb2173"},
 {
 "persName":
 "Alois Lorenzoni",
 "ref":
 "pmb20602"},
 {
 "persName":
 "Lili Schnitzler",
 "ref":
 "pmb2238"},
 {
 "persName":
 "Richard Specht",
 "ref":
 "pmb2456"},
 {
 "persName":
 "Stefan Zweig",
 "ref":
 "pmb13212"},
 {
 "persName":
 "Hermann Bahr",
 "ref":
 "pmb10815"},
 {
 "persName":
 "Hugo von Hofmannsthal",
 "ref":
 "pmb11740"},
 {
 "persName":
 "Gustav Wyneken",
 "ref":
 "pmb13173"},
 {
 "persName":
 "Hedwig Kempny",
 "ref":
 "pmb19262"},
 {
 "persName":
 "Theodor Kosaroff",
 "ref":
 "pmb19642"}],
 "listBibl":
  [
 {
 "title":
 "Arthur Schnitzler. Der Dichter und sein Werk. Eine Studie",
 "ref":
 "pmb30837"}
 ,  {
 "title":
 "Lieutenant Gustl. Novelle",
 "ref":
 "pmb29853"}
 ,  {
 "title":
 "Arthur Schnitzler zu seinem sechzigsten Geburtstag",
 "ref":
 "pmb31455"}
 ,  {
 "title":
 "Das Salzburger große Welttheater",
 "ref":
 "pmb30839"}
 ],
 "listPlace":
  [
 {
 "placeName":
 "Salzburg",
 "ref":
 "pmb30"}
 ,  {
 "placeName":
 "München",
 "ref":
 "pmb45258"}
 ,  {
 "placeName":
 "Pötzleinsdorf",
 "ref":
 "pmb169"}
 ,  {
 "placeName":
 "Sommerhaidenweg",
 "ref":
 "pmb243"}
 ,  {
 "placeName":
 "Kratzer",
 "ref":
 "pmb248"}
 ,  {
 "placeName":
 "Bulgarien",
 "ref":
 "pmb249"}
 ],
 "listOrg":
  [
 {
 "orgName":
 "Neue Rundschau, Neue Deutsche Rundschau, Freie Bühne",
 "ref":
 "pmb29212"}
 ]
}
}{
 "type":
 "schnitzler-orte",
 "color":
 "#045344",
 "filename":
 "entity/50/",
 "caption":
 "Aufenthaltsorte",
 "idno":
 "https://pmb.acdh.oeaw.ac.at/entity/50/",
 "head":
 "Wien",
 "desc":
{
}
}, ] 