[{
 "type":
 "schnitzler-tagebuch",
 "color":
 "#037a33",
 "filename":
 "entry__1922-07-12",
 "caption":
 "Tagebuch",
 "idno":
 "https://schnitzler-tagebuch.acdh.oeaw.ac.at/entry__1922-07-12.html",
 "head":
 "Tagebuch, 12. Juli 1922",
 "desc":
{"listPerson":
  [
{
 "persName":
 "Hans Altmann",
 "ref":
 "person_13171"},
 {
 "persName":
 "Paul Altmann",
 "ref":
 "person_13175"},
 {
 "persName":
 "Hanna Askonas",
 "ref":
 "person_13282"},
 {
 "persName":
 "Rudolf Askonas",
 "ref":
 "person_13285"},
 {
 "persName":
 "Robert Lichtenstern",
 "ref":
 "person_17509"},
 {
 "persName":
 "Julius Schnitzler",
 "ref":
 "person_19827"},
 {
 "persName":
 "Georg von Seybel",
 "ref":
 "person_20071"},
 {
 "persName":
 "Sarah Bernhardt",
 "ref":
 "person_13673"},
 {
 "persName":
 "Herman Bernstein",
 "ref":
 "person_13681"},
 {
 "persName":
 "Frieda Pollak",
 "ref":
 "person_18881"}],
 "listBibl":
  [
 {
 "title":
 "Komödie der Verführung. In drei Akten",
 "ref":
 "pmb30205"}
 ,  {
 "title":
 "Der junge Medardus",
 "ref":
 "pmb32294"}
 ],
 "listPlace":
  [
 {
 "placeName":
 "Vereinigte Staaten von Amerika (USA)",
 "ref":
 "pmb43406"}
 ,  {
 "placeName":
 "Pötzleinsdorf",
 "ref":
 "pmb169"}
 ,  {
 "placeName":
 "Währing",
 "ref":
 "pmb90546"}
 ,  {
 "placeName":
 "Baden bei Wien",
 "ref":
 "pmb662"}
 ,  {
 "placeName":
 "Chicago",
 "ref":
 "pmb880"}
 ,  {
 "placeName":
 "Paris",
 "ref":
 "pmb182"}
 ]
}
}, {
 "type":
 "schnitzler-orte",
 "color":
 "#045344",
 "caption":
 "Aufenthaltsorte",
 "head":
 "Wien",
 "desc":
{"listPlace":
  [
 {
 "placeName":
 "XVII., Hernals",
 "ref":
 ""}
 ,  {
 "placeName":
 "XVIII., Währing",
 "ref":
 ""}
 ]
}
}] 