[{
 "type":
 "schnitzler-tagebuch",
 "color":
 "#037a33",
 "filename":
 "entry__1922-08-04",
 "caption":
 "Tagebuch",
 "idno":
 "https://schnitzler-tagebuch.acdh.oeaw.ac.at/entry__1922-08-04.html",
 "head":
 "Tagebuch, 4. August 1922",
 "desc":
{"listPerson":
  [
{
 "persName":
 "Woldemar Flodoard von Biedermann",
 "ref":
 "person_13717"},
 {
 "persName":
 "Gottfried Keller",
 "ref":
 "person_16794"},
 {
 "persName":
 "Marianne Pollaczek",
 "ref":
 "person_18868"},
 {
 "persName":
 "Heinrich Schnitzler",
 "ref":
 "person_19822"},
 {
 "persName":
 "Johannes Scherr",
 "ref":
 "person_19655"},
 {
 "persName":
 "Arthur Schopenhauer",
 "ref":
 "person_19866"},
 {
 "persName":
 "Olga Schnitzler",
 "ref":
 "person_19832"}],
 "listBibl":
  [
 {
 "title":
 "Komödie der Verführung. In drei Akten",
 "ref":
 "pmb30205"}
 ,  {
 "title":
 "Goethes Gespräche",
 "ref":
 "pmb80175"}
 ,  {
 "title":
 "Das Salzburger große Welttheater",
 "ref":
 "pmb30839"}
 ,  {
 "title":
 "Züricher Novellen",
 "ref":
 "pmb80788"}
 ,  {
 "title":
 "Deutsche Kultur- und Sittengeschichte",
 "ref":
 "pmb81255"}
 ,  {
 "title":
 "Aphorismen zur Lebensweisheit",
 "ref":
 "pmb76959"}
 ],
 "listPlace":
  [
 {
 "placeName":
 "München",
 "ref":
 "pmb45258"}
 ,  {
 "placeName":
 "Salzburg",
 "ref":
 "pmb30"}
 ,  {
 "placeName":
 "Starnberg",
 "ref":
 "pmb40951"}
 ,  {
 "placeName":
 "Lermoos",
 "ref":
 "pmb91139"}
 ,  {
 "placeName":
 "Österreich",
 "ref":
 "pmb41240"}
 ]
}
}, {
 "type":
 "URL",
 "subtype":
 "wienerschnitzler",
 "head":
 "Feldafing",
 "desc":
{"listPlace":
  [
 {
 "placeName":
 "Hotel Kaiserin Elisabeth [Feldafing]",
 "ref":
 ""}
 ,  {
 "placeName":
 "Bahnhof Feldafing",
 "ref":
 ""}
 ]
}
}, {
 "type":
 "URL",
 "subtype":
 "wienerschnitzler",
 "head":
 "Starnberg",
 "desc":
{"listPlace":
  [
 {
 "placeName":
 "Bahnhof Starnberg",
 "ref":
 ""}
 ]
}
}, {
 "type":
 "URL",
 "subtype":
 "wienerschnitzler",
 "head":
 "Possenhofen",
 "desc":
{"listPlace":
  [
 {
 "placeName":
 "Gasthaus »Zum Fischmeister« Karl Schauer",
 "ref":
 ""}
 ]
}
}, {
 "type":
 "schnitzler-cmif",
 "subtype":
 "#n0827e77-245d-4359-a0b0-5b601a5370ee",
 "color":
 "#654321",
 "caption":
 "Gedruckte Briefwechsel",
 "head":
 "Arthur Schnitzler an Hedy Kempny, 4.8.1922",
 "source":
 "Hedy Kempny und Arthur Schnitzler: Das Mädchen mit den dreizehn Seelen. Eine Korrespondenz ergänzt durch Blätter aus Hedy Kempnys Tagebuch sowie durch eine Auswahl ihrer Erzählungen. Hg. v. Heinz P. Adamek. Reinbek bei Hamburg: Rowohlt 1984. (Neue Frau)"
}] 