{
 "date":
 {
 "when-iso":
 "1922-06-26",
 "written":
 "Montag, 26. Juni 1922"
},
"listEvent":
 [{
 "type":
 "schnitzler-orte",
 "idno":
 "https://pmb.acdh.oeaw.ac.at/entity/50/",
 "head":
 "Wien"
}, {
 "type":
 "schnitzler-briefe",
 "idno":
 "https://schnitzler-briefe.acdh.oeaw.ac.at/L02389.html",
 "head":
 "Arthur Schnitzler an Hermann Bahr, 26. 6. 192[2]",
 "desc":
{"listPerson":
  [
{
 "persName":
 "Hermann Bahr",
 "ref":
 "pmb10815"},
 {
 "persName":
 "Scofield Thayer",
 "ref":
 "pmb2276"}],
 "listOrg":
  [
 {
 "orgName":
 "The Dial",
 "ref":
 "pmb29371"}
 ],
 "listPlace":
  [
 {
 "placeName":
 "Wien",
 "ref":
 "pmb50"}
 ,  {
 "placeName":
 "Amerika",
 "ref":
 "pmb175"}
 ]}

}, {
 "type":
 "schnitzler-briefe",
 "idno":
 "https://schnitzler-briefe.acdh.oeaw.ac.at/L02390.html",
 "head":
 "Arthur Schnitzler an Thomas Mann, 26. 6. 1922",
 "desc":
{"listPerson":
  [
{
 "persName":
 "Thomas Mann",
 "ref":
 "pmb12176"},
 {
 "persName":
 "Scofield Thayer",
 "ref":
 "pmb2276"}],
 "listBibl":
  [
 {
 "title":
 "Arthur Schnitzler zu seinem sechzigsten Geburtstag",
 "ref":
 "pmb31455"}
 ,  {
 "title":
 "Die neue Rundschau",
 "ref":
 "pmb36156"}
 ],
 "listOrg":
  [
 {
 "orgName":
 "The Dial",
 "ref":
 "pmb29371"}
 ],
 "listPlace":
  [
 {
 "placeName":
 "Wien",
 "ref":
 "pmb50"}
 ,  {
 "placeName":
 "München",
 "ref":
 "pmb45258"}
 ,  {
 "placeName":
 "Amerika",
 "ref":
 "pmb175"}
 ]}

}, {
 "type":
 "schnitzler-cmif",
 "subtype":
 "#hbas_0a380dfe-61d4-4b9e-8641-01eba8e50777",
 "head":
 "Arthur Schnitzler an Olga Schnitzler, 26.6.1922",
 "desc":
{"listPerson":
  [
{
 "persName":
 "Schnitzler, Olga",
 "ref":
 "https://d-nb.info/gnd/116848723"}],
 "bibl":
 "Hermann Bahr, Arthur Schnitzler. Briefwechsel, Aufzeichnungen, Dokumente 1891–1931. Herausgegeben von Kurt Ifkovits, Martin Anton Müller. Göttingen: Wallstein Verlag 2018"}

}, {
 "type":
 "schnitzler-cmif",
 "subtype":
 "#m5ca120f-450d-4a59-9a44-d5822a34aee9",
 "head":
 "Arthur Schnitzler an Gustaf Linden, 26.6.1922",
 "desc":
{"listPerson":
  [
{
 "persName":
 "Linden, Gustaf",
 "ref":
 "https://d-nb.info/gnd/117024562"}],
 "bibl":
 "Arthur Schnitzler, Gustaf Linden: Ein Briefwechsel. 1907–1929, Wien: Edition Praesens 2005 (Wechselbeziehungen Österreich-Norden, Band 7)."}

}, {
 "type":
 "schnitzler-tagebuch",
 "idno":
 "https://schnitzler-tagebuch.acdh.oeaw.ac.at/entry__1922-06-26.html",
 "head":
 "Tagebuch, 26. Juni 1922",
 "desc":
{"listPerson":
  [
{
 "persName":
 "Johann Wolfgang von Goethe",
 "ref":
 "person_15499"},
 {
 "persName":
 "Lili Oppenheimer",
 "ref":
 "person_18571"},
 {
 "persName":
 "Felix Salten",
 "ref":
 "person_19542"},
 {
 "persName":
 "Ferdinand Schmutzer",
 "ref":
 "person_19784"},
 {
 "persName":
 "Ernst von Seidler-Feuchtenegg",
 "ref":
 "person_20031"},
 {
 "persName":
 "Siegfried von Strakosch-Feldringen",
 "ref":
 "person_20469"},
 {
 "persName":
 "Rudolf Urbantschitsch",
 "ref":
 "person_20892"},
 {
 "persName":
 "Julie Wassermann",
 "ref":
 "person_21109"},
 {
 "persName":
 "Nathan? Eidinger",
 "ref":
 "person_14666"},
 {
 "persName":
 "Jakob Wassermann",
 "ref":
 "person_21107"},
 {
 "persName":
 "Olga Schnitzler",
 "ref":
 "person_19832"}],
 "listBibl":
  [
 {
 "title":
 "Komödie der Verführung. In drei Akten",
 "ref":
 "pmb30205"}
 ]}

}, {
 "type":
 "schnitzler-bahr",
 "idno":
 "https://schnitzler-bahr.acdh.oeaw.ac.at/L041136.html",
 "head":
 "Schnitzler an Bahr, 26. 6. 192[2]",
 "desc":
{"listPerson":
  [
{
 "persName":
 "Hermann Bahr",
 "ref":
 "pmb10815"},
 {
 "persName":
 "Scofield Thayer",
 "ref":
 "pmb2276"}],
 "listPlace":
  [
 {
 "placeName":
 "Wien",
 "ref":
 "pmb50"}
 ,  {
 "placeName":
 "Amerika",
 "ref":
 "pmb175"}
 ],
 "listOrg":
  [
 {
 "orgName":
 "The Dial",
 "ref":
 "pmb29371"}
 ]}

}, {
 "type":
 "schnitzler-bahr",
 "idno":
 "https://schnitzler-bahr.acdh.oeaw.ac.at/L041657.html",
 "head":
 "Arthur an Olga Schnitzler, 26. 6. 1922",
 "desc":
{"listPerson":
  [
{
 "persName":
 "Olga Schnitzler",
 "ref":
 "pmb2173"},
 {
 "persName":
 "Lili Schnitzler",
 "ref":
 "pmb2238"},
 {
 "persName":
 "Heinrich Schnitzler",
 "ref":
 "pmb12692"},
 {
 "persName":
 "Victor Zuckerkandl",
 "ref":
 "pmb27549"},
 {
 "persName":
 "Julius Schnitzler",
 "ref":
 "pmb12698"},
 {
 "persName":
 "Sigmund Freud",
 "ref":
 "pmb11370"},
 {
 "persName":
 "David Josef Bach",
 "ref":
 "pmb10803"},
 {
 "persName":
 "Friederike Stößler",
 "ref":
 "pmb27990"},
 {
 "persName":
 "Hermann Bahr",
 "ref":
 "pmb10815"},
 {
 "persName":
 "Heinrich Mann",
 "ref":
 "pmb12170"},
 {
 "persName":
 "Siegfried Trebitsch",
 "ref":
 "pmb12968"},
 {
 "persName":
 "Käthe Dorsch",
 "ref":
 "pmb15449"},
 {
 "persName":
 "Mitsunobu Yamagishi",
 "ref":
 "pmb4847"},
 {
 "persName":
 "Morikazu Ida",
 "ref":
 "pmb18675"},
 {
 "persName":
 "Hans Hugo Sokol",
 "ref":
 "pmb4826"},
 {
 "persName":
 "Johanna Helene Kollmorgen",
 "ref":
 "pmb28838"}],
 "listBibl":
  [
 {
 "title":
 "Vor Sonnenaufgang",
 "ref":
 "pmb31939"}
 ,  {
 "title":
 "Kiki",
 "ref":
 "pmb32384"}
 ,  {
 "title":
 "Der einsame Weg. Schauspiel in fünf Akten",
 "ref":
 "pmb29985"}
 ,  {
 "title":
 "Der blinde Geronimo und sein Bruder",
 "ref":
 "pmb30649"}
 ],
 "listPlace":
  [
 {
 "placeName":
 "Wien",
 "ref":
 "pmb50"}
 ,  {
 "placeName":
 "Österreich",
 "ref":
 "pmb41240"}
 ,  {
 "placeName":
 "Saint-Germain-en-Laye",
 "ref":
 "pmb982"}
 ,  {
 "placeName":
 "Rheinischer Hof",
 "ref":
 "pmb806"}
 ,  {
 "placeName":
 "Bayern",
 "ref":
 "pmb314"}
 ,  {
 "placeName":
 "München",
 "ref":
 "pmb45258"}
 ,  {
 "placeName":
 "Garmisch-Partenkirchen",
 "ref":
 "pmb667"}
 ,  {
 "placeName":
 "Possenhofen",
 "ref":
 "pmb34896"}
 ,  {
 "placeName":
 "Berchtesgaden",
 "ref":
 "pmb797"}
 ,  {
 "placeName":
 "Amerika",
 "ref":
 "pmb175"}
 ,  {
 "placeName":
 "Japan",
 "ref":
 "pmb318"}
 ,  {
 "placeName":
 "Universität Tokio",
 "ref":
 "pmb805"}
 ,  {
 "placeName":
 "Berlin",
 "ref":
 "pmb168"}
 ,  {
 "placeName":
 "Luitpoldstraße",
 "ref":
 "pmb286"}
 ],
 "listOrg":
  [
 {
 "orgName":
 "Neue Freie Presse",
 "ref":
 "pmb29351"}
 ,  {
 "orgName":
 "Verein gegen Trunksucht",
 "ref":
 "pmb29237"}
 ]}

}] 
}