[{
 "type":
 "schnitzler-tagebuch",
 "color":
 "#037a33",
 "filename":
 "entry__1922-05-16",
 "caption":
 "Tagebuch",
 "idno":
 "https://schnitzler-tagebuch.acdh.oeaw.ac.at/entry__1922-05-16.html",
 "head":
 "Tagebuch, 16. Mai 1922",
 "desc":
{"listPerson":
  [
{
 "persName":
 "Egbertje Alida Brevée",
 "ref":
 "person_13969"},
 {
 "persName":
 "Max Pulver",
 "ref":
 "person_18994"},
 {
 "persName":
 "Julius Wolfgang Schülein",
 "ref":
 "person_19909"},
 {
 "persName":
 "Suzanne Schülein",
 "ref":
 "person_19911"},
 {
 "persName":
 "Franz Strauss",
 "ref":
 "person_20502"},
 {
 "persName":
 "Richard Strauss",
 "ref":
 "person_20509"},
 {
 "persName":
 "Olga Schnitzler",
 "ref":
 "person_19832"}],
 "listPlace":
  [
 {
 "placeName":
 "Nürnberg",
 "ref":
 "pmb44172"}
 ,  {
 "placeName":
 "München",
 "ref":
 "pmb45258"}
 ,  {
 "placeName":
 "Englischer Garten",
 "ref":
 "pmb90589"}
 ]
}
}, {
 "type":
 "URL",
 "subtype":
 "wienerschnitzler",
 "head":
 "Nürnberg",
 "desc":
{"listPlace":
  [
 {
 "placeName":
 "Hotel Württemberger Hof",
 "ref":
 ""}
 ]
}
}, {
 "type":
 "URL",
 "subtype":
 "wienerschnitzler",
 "head":
 "München",
 "desc":
{"listPlace":
  [
 {
 "placeName":
 "Englischer Garten [München]",
 "ref":
 ""}
 ,  {
 "placeName":
 "Hotel Rheinischer Hof München",
 "ref":
 ""}
 ,  {
 "placeName":
 "Leopoldstraße 21",
 "ref":
 ""}
 ,  {
 "placeName":
 "Franziskanerkeller",
 "ref":
 ""}
 ]
}
}] 