[{
 "type":
 "schnitzler-tagebuch",
 "color":
 "#037a33",
 "filename":
 "entry__1922-09-17",
 "caption":
 "Tagebuch",
 "idno":
 "https://schnitzler-tagebuch.acdh.oeaw.ac.at/entry__1922-09-17.html",
 "head":
 "Tagebuch, 17. September 1922",
 "desc":
{"listPerson":
  [
{
 "persName":
 "Markus Hajek",
 "ref":
 "person_15855"},
 {
 "persName":
 "Bertha Kalich",
 "ref":
 "person_16661"},
 {
 "persName":
 "Alice Schmutzer",
 "ref":
 "person_19783"},
 {
 "persName":
 "Hans Schnitzler",
 "ref":
 "person_19821"},
 {
 "persName":
 "Heinrich Schnitzler",
 "ref":
 "person_19822"},
 {
 "persName":
 "Helene Schnitzler",
 "ref":
 "person_19823"},
 {
 "persName":
 "Julius Schnitzler",
 "ref":
 "person_19827"},
 {
 "persName":
 "Leopold Spachner",
 "ref":
 "person_20228"},
 {
 "persName":
 "Felix Speidel",
 "ref":
 "person_20242"},
 {
 "persName":
 "Anna Donath",
 "ref":
 "person_14481"}],
 "listBibl":
  [
 {
 "title":
 "Komödie der Verführung. In drei Akten",
 "ref":
 "pmb30205"}
 ,  {
 "title":
 "Zwischenspiel. Komödie in drei Akten",
 "ref":
 "pmb29903"}
 ]
}
}, {
 "type":
 "wienerschnitzler",
 "color":
 "#ECDA98",
 "caption":
 "Wiener Schnitzler",
 "idno":
 "https://wienerschnitzler.org/tag.html#1922-09-17",
 "head":
 "Wien",
 "desc":
{"listPlace":
  [
 {
 "placeName":
 "I., Innere Stadt",
 "ref":
 ""}
 ,  {
 "placeName":
 "XVIII., Währing",
 "ref":
 ""}
 ]
}
}, {
 "type":
 "schnitzler-interviews",
 "color":
 "#3D5A80",
 "filename":
 "I022",
 "caption":
 "Interviews, Meinungen, Proteste",
 "idno":
 "https://schnitzler-interviews.acdh.oeaw.ac.at/I022.html",
 "head":
 "Herman Bernstein: Nations Must Check the Spread of Hate Declares Noted
                            Austrian, 17. 9. 1922",
 "desc":
{"listPerson":
  [
{
 "persName":
 "Herman Bernstein",
 "ref":
 "pmb5160"},
 {
 "persName":
 "Johann Wolfgang von Goethe",
 "ref":
 "pmb11461"},
 {
 "persName":
 "Gerhart Hauptmann",
 "ref":
 "pmb11617"},
 {
 "persName":
 "Hermann Bahr",
 "ref":
 "pmb10815"},
 {
 "persName":
 "Henrik Ibsen",
 "ref":
 "pmb11798"},
 {
 "persName":
 "August Strindberg",
 "ref":
 "pmb12877"},
 {
 "persName":
 "Anton Pavlovič Čechov",
 "ref":
 "pmb3603"},
 {
 "persName":
 "George Bernard Shaw",
 "ref":
 "pmb2381"},
 {
 "persName":
 "Maurice Maeterlinck",
 "ref":
 "pmb12156"},
 {
 "persName":
 "Julius Schnitzler",
 "ref":
 "pmb12698"},
 {
 "persName":
 "Lili Schnitzler",
 "ref":
 "pmb2238"},
 {
 "persName":
 "Olga Schnitzler",
 "ref":
 "pmb2173"},
 {
 "persName":
 "?? [Olga Schnitzlers Krankenschwester während der Scharlacherkrankung Dezember 1907]",
 "ref":
 "pmb27740"}],
 "listBibl":
  [
 {
 "title":
 "Mona Lisa",
 "ref":
 "pmb31935"}
 ,  {
 "title":
 "Goethe im Hausrock",
 "ref":
 "pmb33013"}
 ,  {
 "title":
 "Arthur Schnitzler. Zu seinem sechzigsten Geburtstag (15. Mai 1922)",
 "ref":
 "pmb31455"}
 ,  {
 "title":
 "Die neue Rundschau",
 "ref":
 "pmb36156"}
 ,  {
 "title":
 "Reigen. Zehn Dialoge",
 "ref":
 "pmb29855"}
 ,  {
 "title":
 "Nations Must Check the Spread of Hate Declares Noted Austrian",
 "ref":
 "pmb32969"}
 ,  {
 "title":
 "New York American",
 "ref":
 "pmb58339"}
 ],
 "listPlace":
  [
 {
 "placeName":
 "Österreich",
 "ref":
 "pmb41240"}
 ,  {
 "placeName":
 "Wien",
 "ref":
 "pmb50"}
 ,  {
 "placeName":
 "Europa",
 "ref":
 "pmb468"}
 ,  {
 "placeName":
 "Norwegen",
 "ref":
 "pmb64465"}
 ,  {
 "placeName":
 "Schweden",
 "ref":
 "pmb44335"}
 ,  {
 "placeName":
 "Russland",
 "ref":
 "pmb34438"}
 ,  {
 "placeName":
 "Deutschland",
 "ref":
 "pmb151"}
 ,  {
 "placeName":
 "England",
 "ref":
 "pmb254"}
 ,  {
 "placeName":
 "Frankreich",
 "ref":
 "pmb166"}
 ,  {
 "placeName":
 "Berlin",
 "ref":
 "pmb168"}
 ,  {
 "placeName":
 "Amerika",
 "ref":
 "pmb175"}
 ],
 "listOrg":
  [
 {
 "orgName":
 "Musée du Louvre",
 "ref":
 "pmb63428"}
 ,  {
 "orgName":
 "Neue Freie Presse",
 "ref":
 "pmb29351"}
 ,  {
 "orgName":
 "Authors League of America",
 "ref":
 "pmb29436"}
 ]
}
}, {
 "type":
 "kalliope-verbund",
 "color":
 "#003574",
 "caption":
 "Kalliope Verbundkatalog",
 "idno":
 "http://kalliope-verbund.info/DE-2498-HS00043206",
 "head":
 "Schostak, Oscar an Schnitzler, Arthur [Briefe]",
 "text":
 "1 Bl."
}] 