[{
 "type":
 "schnitzler-tagebuch",
 "color":
 "#037a33",
 "filename":
 "entry__1922-07-06",
 "caption":
 "Tagebuch",
 "idno":
 "https://schnitzler-tagebuch.acdh.oeaw.ac.at/entry__1922-07-06.html",
 "head":
 "Tagebuch, 6. Juli 1922",
 "desc":
{"listPerson":
  [
{
 "persName":
 "Franz Joseph I. von Österreich-Ungarn",
 "ref":
 "person_15150"},
 {
 "persName":
 "Josef Bratfisch",
 "ref":
 "person_13928"},
 {
 "persName":
 "Karl Mayerhofer",
 "ref":
 "person_18025"}],
 "listPlace":
  [
 {
 "placeName":
 "Sankt Peter am Wechsel",
 "ref":
 "pmb90172"}
 ,  {
 "placeName":
 "Kronau",
 "ref":
 "pmb91079"}
 ,  {
 "placeName":
 "Aspang Markt",
 "ref":
 "pmb90268"}
 ]
}
}, {
 "type":
 "schnitzler-orte",
 "color":
 "#045344",
 "caption":
 "Aufenthaltsorte",
 "head":
 "Mönichkirchen [Niederösterreich]",
 "desc":
{"listPlace":
  [
 {
 "placeName":
 "Hotel Binder",
 "ref":
 ""}
 ]
}
}, {
 "type":
 "schnitzler-orte",
 "color":
 "#045344",
 "caption":
 "Aufenthaltsorte",
 "head":
 "Sankt Peter am Wechsel"
}, {
 "type":
 "schnitzler-orte",
 "color":
 "#045344",
 "caption":
 "Aufenthaltsorte",
 "head":
 "Sankt Corona am Wechsel",
 "desc":
{"listPlace":
  [
 {
 "placeName":
 "Pfarrkirche St. Corona am Wechsel",
 "ref":
 ""}
 ]
}
}, {
 "type":
 "schnitzler-orte",
 "color":
 "#045344",
 "caption":
 "Aufenthaltsorte",
 "head":
 "Kronau"
}, {
 "type":
 "schnitzler-orte",
 "color":
 "#045344",
 "caption":
 "Aufenthaltsorte",
 "head":
 "Aspang-Markt",
 "desc":
{"listPlace":
  [
 {
 "placeName":
 "Hotel Post [Aspang-Markt]",
 "ref":
 ""}
 ,  {
 "placeName":
 "Aspang-Markt Bahnhof",
 "ref":
 ""}
 ]
}
}, {
 "type":
 "schnitzler-orte",
 "color":
 "#045344",
 "caption":
 "Aufenthaltsorte",
 "head":
 "Wien",
 "desc":
{"listPlace":
  [
 {
 "placeName":
 "III., Landstraße",
 "ref":
 ""}
 ,  {
 "placeName":
 "XVIII., Währing",
 "ref":
 ""}
 ]
}
}, {
 "type":
 "kalliope-verbund",
 "color":
 "#003574",
 "caption":
 "Kalliope Verbundkatalog",
 "idno":
 "http://kalliope-verbund.info/DE-2498-HS00043500",
 "head":
 "Stawski, Josef an Schnitzler, Arthur [Briefe]",
 "text":
 "1 Bl."
}, {
 "type":
 "kalliope-verbund",
 "color":
 "#003574",
 "caption":
 "Kalliope Verbundkatalog",
 "idno":
 "http://kalliope-verbund.info/DE-2498-HS00036398",
 "head":
 "Heller, Hugo an S.-Fischer-Verlag &lt;Berlin&gt; [Briefe]",
 "text":
 "3 Bl.Durchschl.",
 "desc":
{"listPerson":
  [
{
 "persName":
 "Hugo (1870-1923) Heller",
 "ref":
 "http://d-nb.info/gnd/116686499"},
 {
 "persName":
 "S.-Fischer-Verlag &lt;Berlin&gt; (1886-1942)",
 "ref":
 "http://d-nb.info/gnd/35741-8"}]
}
}] 