[{
 "type":
 "schnitzler-tagebuch",
 "color":
 "#037a33",
 "filename":
 "entry__1923-07-07",
 "caption":
 "Tagebuch",
 "idno":
 "https://schnitzler-tagebuch.acdh.oeaw.ac.at/entry__1923-07-07.html",
 "head":
 "Tagebuch, 7. Juli 1923",
 "desc":
{"listPerson":
  [
{
 "persName":
 "Kurt Münzer",
 "ref":
 "person_18317"},
 {
 "persName":
 "Hugo Schmidl",
 "ref":
 "person_19755"},
 {
 "persName":
 "Heinrich Schnitzler",
 "ref":
 "person_19822"},
 {
 "persName":
 "Otto Fränkl",
 "ref":
 "person_15106"},
 {
 "persName":
 "Olga Schnitzler",
 "ref":
 "person_19832"}],
 "listBibl":
  [
 {
 "title":
 "Esther Berg",
 "ref":
 "pmb79017"}
 ],
 "listPlace":
  [
 {
 "placeName":
 "Baden-Baden",
 "ref":
 "pmb228"}
 ,  {
 "placeName":
 "Lichtentaler Allee",
 "ref":
 "pmb92373"}
 ,  {
 "placeName":
 "Stuttgart",
 "ref":
 "pmb872"}
 ,  {
 "placeName":
 "Nürnberg",
 "ref":
 "pmb44172"}
 ]
}
}, {
 "type":
 "wienerschnitzler",
 "color":
 "#ECDA98",
 "caption":
 "Wiener Schnitzler",
 "head":
 "Baden-Baden",
 "desc":
{"listPlace":
  [
 {
 "placeName":
 "Herchenbachstraße 26",
 "ref":
 ""}
 ,  {
 "placeName":
 "Lichtentaler Allee",
 "ref":
 ""}
 ,  {
 "placeName":
 "Bahnhof Baden-Baden",
 "ref":
 ""}
 ]
}
}, {
 "type":
 "wienerschnitzler",
 "color":
 "#ECDA98",
 "caption":
 "Wiener Schnitzler",
 "head":
 "Nürnberg",
 "desc":
{"listPlace":
  [
 {
 "placeName":
 "Hotel Victoria [Nürnberg]",
 "ref":
 ""}
 ,  {
 "placeName":
 "Hotel Fürstenhof [Nürnberg]",
 "ref":
 ""}
 ,  {
 "placeName":
 "Nürnberg Hauptbahnhof",
 "ref":
 ""}
 ]
}
}, {
 "type":
 "wienerschnitzler",
 "color":
 "#ECDA98",
 "caption":
 "Wiener Schnitzler",
 "head":
 "Stuttgart",
 "desc":
{"listPlace":
  [
 {
 "placeName":
 "Rosensteinpark",
 "ref":
 ""}
 ,  {
 "placeName":
 "Hotel Marquardt",
 "ref":
 ""}
 ,  {
 "placeName":
 "Stuttgart Hauptbahnhof",
 "ref":
 ""}
 ]
}
}] 