[{
 "type":
 "schnitzler-tagebuch",
 "color":
 "#037a33",
 "filename":
 "entry__1923-07-22",
 "caption":
 "Tagebuch",
 "idno":
 "https://schnitzler-tagebuch.acdh.oeaw.ac.at/entry__1923-07-22.html",
 "head":
 "Tagebuch, 22. Juli 1923",
 "desc":
{"listPerson":
  [
{
 "persName":
 "Ernst Benedikt",
 "ref":
 "person_13589"}],
 "listBibl":
  [
 {
 "title":
 "Komödie der Verführung. In drei Akten",
 "ref":
 "pmb30205"}
 ,  {
 "title":
 "Das weite Land. Tragikomödie in fünf Akten",
 "ref":
 "pmb30207"}
 ,  {
 "title":
 "Der junge Medardus. Dramatische Historie in einem Vorspiel und fünf Aufzügen",
 "ref":
 "pmb29937"}
 ,  {
 "title":
 "Der Schleier der Beatrice. Schauspiel in fünf Akten",
 "ref":
 "pmb29857"}
 ],
 "listPlace":
  [
 {
 "placeName":
 "Grinzing",
 "ref":
 "pmb90771"}
 ]
}
}, {
 "type":
 "schnitzler-briefe",
 "color":
 "#A63437",
 "filename":
 "L03020",
 "caption":
 "Briefe mit Autorinnen und Autoren",
 "idno":
 "https://schnitzler-briefe.acdh.oeaw.ac.at/L03020.html",
 "head":
 "Arthur Schnitzler an Felix Salten, 22. 7. 1923",
 "desc":
{"listPerson":
  [
{
 "persName":
 "Heinrich Schnitzler",
 "ref":
 "pmb12692"},
 {
 "persName":
 "Felix Salten",
 "ref":
 "pmb2167"},
 {
 "persName":
 "Olga Schnitzler",
 "ref":
 "pmb2173"},
 {
 "persName":
 "Lili Cappellini",
 "ref":
 "pmb2238"},
 {
 "persName":
 "Voltaire",
 "ref":
 "pmb3124"}],
 "listBibl":
  [
 {
 "title":
 "Voltaire",
 "ref":
 "pmb31233"}
 ,  {
 "title":
 "Neue Freie Presse",
 "ref":
 "pmb36374"}
 ],
 "listPlace":
  [
 {
 "placeName":
 "Sternwartestraße 71",
 "ref":
 "pmb168815"}
 ,  {
 "placeName":
 "Baden-Baden",
 "ref":
 "pmb228"}
 ,  {
 "placeName":
 "Attersee",
 "ref":
 "pmb236"}
 ,  {
 "placeName":
 "Salzburg",
 "ref":
 "pmb30"}
 ,  {
 "placeName":
 "Berghof",
 "ref":
 "pmb411"}
 ,  {
 "placeName":
 "Schweiz",
 "ref":
 "pmb43435"}
 ,  {
 "placeName":
 "Wien",
 "ref":
 "pmb50"}
 ,  {
 "placeName":
 "Oberösterreich",
 "ref":
 "pmb519"}
 ,  {
 "placeName":
 "XVIII., Währing",
 "ref":
 "pmb68"}
 ,  {
 "placeName":
 "Unterach am Attersee",
 "ref":
 "pmb877"}
 ]
}
}, {
 "type":
 "wienerschnitzler",
 "color":
 "#ECDA98",
 "caption":
 "Wiener Schnitzler",
 "idno":
 "https://wienerschnitzler.org/tag.html#1923-07-22",
 "head":
 "Wien",
 "desc":
{"listPlace":
  [
 {
 "placeName":
 "XIX., Döbling",
 "ref":
 ""}
 ,  {
 "placeName":
 "XVIII., Währing",
 "ref":
 ""}
 ]
}
}, {
 "type":
 "pollaczek",
 "color":
 "#1e81b0",
 "filename":
 "ckp082",
 "caption":
 "Pollaczek: Schnitzler und ich",
 "idno":
 "https://pollaczek.acdh.oeaw.ac.at/ckp082.html",
 "head":
 "Arthur Schnitzler an Clara Katharina Pollaczek, 22. Juli 1923"
}, {
 "type":
 "schnitzler-cmif",
 "subtype":
 "#jf7cbca5-b0b6-4bcf-adbf-38e94eed3cb3",
 "color":
 "#654321",
 "caption":
 "Gedruckte Briefwechsel",
 "head":
 "Arthur Schnitzler an Felix Salten, 22. 7. 1923",
 "source":
 "Arthur Schnitzler: Briefe 1913–1931. Hrsg. v. Peter Michael Braunwarth, Richard Miklin, Susanne Pertlik und Heinrich Schnitzler. Frankfurt am Main: S. Fischer 1984. (PDF unter: https://schnitzler-briefe.acdh.oeaw.ac.at/)"
}] 