[{
 "type":
 "schnitzler-tagebuch",
 "color":
 "#037a33",
 "filename":
 "entry__1923-07-02",
 "caption":
 "Tagebuch",
 "idno":
 "https://schnitzler-tagebuch.acdh.oeaw.ac.at/entry__1923-07-02.html",
 "head":
 "Tagebuch, 2. Juli 1923",
 "desc":
{"listPerson":
  [
{
 "persName":
 "David Josef Bach",
 "ref":
 "person_13341"},
 {
 "persName":
 "Freund",
 "ref":
 "person_15179"},
 {
 "persName":
 "Margarethe Lichtenstein",
 "ref":
 "person_17505"},
 {
 "persName":
 "Robert Lichtenstern",
 "ref":
 "person_17509"},
 {
 "persName":
 "Sophie Salz",
 "ref":
 "person_19549"},
 {
 "persName":
 "Hermine von Schaffgotsch",
 "ref":
 "person_19611"},
 {
 "persName":
 "Olga Schnitzler",
 "ref":
 "person_19832"}],
 "listPlace":
  [
 {
 "placeName":
 "Baden-Baden",
 "ref":
 "pmb228"}
 ,  {
 "placeName":
 "Niederösterreich",
 "ref":
 "pmb1003"}
 ,  {
 "placeName":
 "Bühlerhöhe",
 "ref":
 "pmb90409"}
 ,  {
 "placeName":
 "Plättig",
 "ref":
 "pmb92450"}
 ,  {
 "placeName":
 "Lichtental",
 "ref":
 "pmb61100"}
 ,  {
 "placeName":
 "Garnisongasse",
 "ref":
 "pmb731"}
 ,  {
 "placeName":
 "Venedig",
 "ref":
 "pmb462"}
 ]
}
}, {
 "type":
 "wienerschnitzler",
 "color":
 "#ECDA98",
 "caption":
 "Wiener Schnitzler",
 "idno":
 "https://wienerschnitzler.org/tag.html#1923-07-02",
 "head":
 "Baden-Baden",
 "desc":
{"listPlace":
  [
 {
 "placeName":
 "Herchenbachstraße 26",
 "ref":
 ""}
 ,  {
 "placeName":
 "Lichtental [Baden-Baden]",
 "ref":
 ""}
 ,  {
 "placeName":
 "Geroldsauer Wasserfall",
 "ref":
 ""}
 ]
}
}, {
 "type":
 "wienerschnitzler",
 "color":
 "#ECDA98",
 "caption":
 "Wiener Schnitzler",
 "idno":
 "https://wienerschnitzler.org/tag.html#1923-07-02",
 "head":
 "Bühl",
 "desc":
{"listPlace":
  [
 {
 "placeName":
 "Bühlerhöhe",
 "ref":
 ""}
 ,  {
 "placeName":
 "Hundseck",
 "ref":
 ""}
 ,  {
 "placeName":
 "Kurhaus Sand",
 "ref":
 ""}
 ]
}
}, {
 "type":
 "schnitzler-traeume",
 "subtype":
 "#ISBN978-3-8353-1029-2",
 "color":
 "#1193CC",
 "caption":
 "Traumtagebuch",
 "head":
 "Traum vom 2. Juli 1923",
 "source":
 "Arthur Schnitzler: Träume. Das Traumtagebuch 1875–1931. Herausgegeben von Peter Michael Braunwarth und Leo A. Lensing. Göttingen: Wallstein 2012 (Bibliothek Janowitz, Bd. 20)"
}] 