[{
 "type":
 "schnitzler-tagebuch",
 "color":
 "#037a33",
 "filename":
 "entry__1923-05-17",
 "caption":
 "Tagebuch",
 "idno":
 "https://schnitzler-tagebuch.acdh.oeaw.ac.at/entry__1923-05-17.html",
 "head":
 "Tagebuch, 17. Mai 1923",
 "desc":
{"listPerson":
  [
{
 "persName":
 "Gustaf Linden",
 "ref":
 "person_17567"},
 {
 "persName":
 "Walter Singer",
 "ref":
 "person_20140"},
 {
 "persName":
 "Nils Oscar Svahn",
 "ref":
 "person_20586"},
 {
 "persName":
 "Elvira Beda Teller",
 "ref":
 "person_20657"},
 {
 "persName":
 "Anna Lisa Andersson",
 "ref":
 "person_13191"},
 {
 "persName":
 "Olga Linden",
 "ref":
 "person_17568"},
 {
 "persName":
 "Carl Nordberger",
 "ref":
 "person_18473"}],
 "listBibl":
  [
 {
 "title":
 "Reigen. Zehn Dialoge",
 "ref":
 "pmb29855"}
 ,  {
 "title":
 "Die Büchse der Pandora. Tragödie in drei Aufzügen",
 "ref":
 "pmb31393"}
 ],
 "listPlace":
  [
 {
 "placeName":
 "Stockholm",
 "ref":
 "pmb1119"}
 ,  {
 "placeName":
 "Östermalmsgatan",
 "ref":
 "pmb62679"}
 ,  {
 "placeName":
 "England",
 "ref":
 "pmb90593"}
 ,  {
 "placeName":
 "Djurgården",
 "ref":
 "pmb90529"}
 ,  {
 "placeName":
 "Wien",
 "ref":
 "pmb50"}
 ]
}
}, {
 "type":
 "schnitzler-orte",
 "color":
 "#045344",
 "filename":
 "entity/62679/",
 "caption":
 "Aufenthaltsorte",
 "idno":
 "https://pmb.acdh.oeaw.ac.at/entity/62679/",
 "head":
 "Östermalmsgatan"
}, {
 "type":
 "schnitzler-orte",
 "color":
 "#045344",
 "filename":
 "entity/1119/",
 "caption":
 "Aufenthaltsorte",
 "idno":
 "https://pmb.acdh.oeaw.ac.at/entity/1119/",
 "head":
 "Stockholm"
}, {
 "type":
 "schnitzler-interviews",
 "color":
 "#3D5A80",
 "filename":
 "I131",
 "caption":
 "Interviews, Meinungen, Proteste",
 "idno":
 "https://schnitzler-interviews.acdh.oeaw.ac.at/I131.html",
 "head":
 "Archi: Arthur Schnitzler nu i Stockholm, 17. 5. 1923",
 "desc":
{"listPerson":
  [
{
 "persName":
 "Archi",
 "ref":
 "pmb60060"},
 {
 "persName":
 "Gustaf Linden",
 "ref":
 "pmb20474"},
 {
 "persName":
 "Olga Linden",
 "ref":
 "pmb20478"},
 {
 "persName":
 "Carl Nordberger",
 "ref":
 "pmb21998"},
 {
 "persName":
 "?? [Portier des Hotel Phönix]",
 "ref":
 "pmb62310"},
 {
 "persName":
 "Georg Brandes",
 "ref":
 "pmb10992"},
 {
 "persName":
 "Walter Singer",
 "ref":
 "pmb24992"},
 {
 "persName":
 "Clara Katharina Pollaczek",
 "ref":
 "pmb12435"}],
 "listBibl":
  [
 {
 "title":
 "Reigen. Zehn Dialoge",
 "ref":
 "pmb29855"}
 ,  {
 "title":
 "Komödie der Verführung. In drei Akten",
 "ref":
 "pmb30205"}
 ,  {
 "title":
 "Die Büchse der Pandora. Tragödie in drei Aufzügen",
 "ref":
 "pmb31393"}
 ,  {
 "title":
 "Erdgeist. Tragödie in vier Aufzügen",
 "ref":
 "pmb31323"}
 ,  {
 "title":
 "Lulu. Tragödie in 5 Aufzügen mit einem Prolog",
 "ref":
 "pmb60117"}
 ,  {
 "title":
 "Anatol",
 "ref":
 "pmb29935"}
 ,  {
 "title":
 "Arthur Schnitzler nu i Stockholm",
 "ref":
 "pmb60058"}
 ,  {
 "title":
 "Aftonbladet",
 "ref":
 "pmb60056"}
 ],
 "listPlace":
  [
 {
 "placeName":
 "Stockholm",
 "ref":
 "pmb1119"}
 ,  {
 "placeName":
 "München",
 "ref":
 "pmb45258"}
 ,  {
 "placeName":
 "Österreich",
 "ref":
 "pmb41240"}
 ,  {
 "placeName":
 "Schweden",
 "ref":
 "pmb44335"}
 ,  {
 "placeName":
 "Hotel Phönix",
 "ref":
 "pmb58094"}
 ,  {
 "placeName":
 "Kopenhagen",
 "ref":
 "pmb36300"}
 ,  {
 "placeName":
 "Nordkap",
 "ref":
 "pmb41072"}
 ,  {
 "placeName":
 "Göteborg",
 "ref":
 "pmb40700"}
 ,  {
 "placeName":
 "Wien",
 "ref":
 "pmb50"}
 ,  {
 "placeName":
 "Deutschland",
 "ref":
 "pmb151"}
 ],
 "listOrg":
  [
 {
 "orgName":
 "Aftonbladet",
 "ref":
 "pmb62336"}
 ]
}
}, {
 "type":
 "schnitzler-interviews",
 "color":
 "#3D5A80",
 "filename":
 "I097",
 "caption":
 "Interviews, Meinungen, Proteste",
 "idno":
 "https://schnitzler-interviews.acdh.oeaw.ac.at/I097.html",
 "head":
 "Arthur Schnitzler om »Pandoras ask«, 17. 5. 1923",
 "desc":
{"listPerson":
  [
{
 "persName":
 "Carl Nordberger",
 "ref":
 "pmb21998"},
 {
 "persName":
 "Gustaf Linden",
 "ref":
 "pmb20474"},
 {
 "persName":
 "?? [Portier des Hotel Phönix]",
 "ref":
 "pmb62310"},
 {
 "persName":
 "Georg Brandes",
 "ref":
 "pmb10992"},
 {
 "persName":
 "Adele Sandrock",
 "ref":
 "pmb12618"},
 {
 "persName":
 "Gerda Frederika Marcus",
 "ref":
 "pmb3151"},
 {
 "persName":
 "Elsa Björkman-Goldschmidt",
 "ref":
 "pmb14254"},
 {
 "persName":
 "Frank Wedekind",
 "ref":
 "pmb13068"},
 {
 "persName":
 "Walter Singer",
 "ref":
 "pmb24992"},
 {
 "persName":
 "Karin Molander",
 "ref":
 "pmb21528"},
 {
 "persName":
 "Clara Katharina Pollaczek",
 "ref":
 "pmb12435"}],
 "listBibl":
  [
 {
 "title":
 "Die Büchse der Pandora. Tragödie in drei Aufzügen",
 "ref":
 "pmb31393"}
 ,  {
 "title":
 "Anatol",
 "ref":
 "pmb29935"}
 ,  {
 "title":
 "Abschiedssouper",
 "ref":
 "pmb30005"}
 ,  {
 "title":
 "Reigen. Zehn Dialoge",
 "ref":
 "pmb29855"}
 ,  {
 "title":
 "Erdgeist. Tragödie in vier Aufzügen",
 "ref":
 "pmb31323"}
 ,  {
 "title":
 "Lulu. Tragödie in 5 Aufzügen mit einem Prolog",
 "ref":
 "pmb60117"}
 ,  {
 "title":
 "Liebelei. Schauspiel in drei Akten",
 "ref":
 "pmb29917"}
 ,  {
 "title":
 "Die dreifache Warnung",
 "ref":
 "pmb33061"}
 ,  {
 "title":
 "Die letzten Masken",
 "ref":
 "pmb29877"}
 ,  {
 "title":
 "Das Schicksal des Freiherrn von Leisenbohg. Novellette",
 "ref":
 "pmb30057"}
 ,  {
 "title":
 "Weihnachts-Einkäufe",
 "ref":
 "pmb30163"}
 ,  {
 "title":
 "Arthur Schnitzler om »Pandoras ask«",
 "ref":
 "pmb58614"}
 ,  {
 "title":
 "Nya Dagligt Allehanda",
 "ref":
 "pmb58613"}
 ],
 "listPlace":
  [
 {
 "placeName":
 "Stockholm",
 "ref":
 "pmb1119"}
 ,  {
 "placeName":
 "Österreich",
 "ref":
 "pmb41240"}
 ,  {
 "placeName":
 "Schweden",
 "ref":
 "pmb44335"}
 ,  {
 "placeName":
 "Kopenhagen",
 "ref":
 "pmb36300"}
 ,  {
 "placeName":
 "Hotel Phönix",
 "ref":
 "pmb58094"}
 ,  {
 "placeName":
 "Wien",
 "ref":
 "pmb50"}
 ,  {
 "placeName":
 "Sofiensäle",
 "ref":
 "pmb107"}
 ,  {
 "placeName":
 "Östermalmsgatan",
 "ref":
 "pmb62679"}
 ,  {
 "placeName":
 "Hamburg",
 "ref":
 "pmb506"}
 ,  {
 "placeName":
 "Rädda-Barnen-Platz",
 "ref":
 "pmb62545"}
 ],
 "listOrg":
  [
 {
 "orgName":
 "Nya Dagligt Allehanda",
 "ref":
 "pmb62644"}
 ,  {
 "orgName":
 "Svenska teatern",
 "ref":
 "pmb62330"}
 ,  {
 "orgName":
 "Kungliga Musikaliska Akademien",
 "ref":
 "pmb62210"}
 ,  {
 "orgName":
 "Dramaten",
 "ref":
 "pmb62240"}
 ,  {
 "orgName":
 "Frankfurter Städtisches Schauspielhaus",
 "ref":
 "pmb34987"}
 ,  {
 "orgName":
 "Rädda Barnen",
 "ref":
 "pmb62529"}
 ]
}
}, {
 "type":
 "schnitzler-chronik-manuell",
 "head":
 "Filmaufnahme Arthur Schnitzler in Stockholm, 17.5.1923",
 "text":
 "https://www.youtube.com/watch?v=2E7vcyNnbFY"
}, {
 "type":
 "schnitzler-cmif",
 "subtype":
 "#asbw_0a380dfe-61d4-4b9e-8641-01eba8e50760",
 "color":
 "#654321",
 "caption":
 "Gedruckte Briefwechsel",
 "head":
 "Erhalt von Hugo von Hofmannsthal an Arthur Schnitzler, 15. 5. 1923",
 "source":
 "Arthur Schnitzler – Briefwechsel mit Autorinnen und Autoren. Digitale Edition herausgegeben von Martin Anton Müller, Gerd-Hermann Susen und Laura Untner, 2018–[2024]"
}] 