[{
 "type":
 "schnitzler-tagebuch",
 "color":
 "#037a33",
 "filename":
 "entry__1923-02-28",
 "caption":
 "Tagebuch",
 "idno":
 "https://schnitzler-tagebuch.acdh.oeaw.ac.at/entry__1923-02-28.html",
 "head":
 "Tagebuch, 28. Februar 1923",
 "desc":
{"listPerson":
  [
{
 "persName":
 "Gisela Hajek",
 "ref":
 "person_15854"},
 {
 "persName":
 "Robert Lichtenstern",
 "ref":
 "person_17509"},
 {
 "persName":
 "Vilma Lichtenstern",
 "ref":
 "person_17510"},
 {
 "persName":
 "Alfred Rotter",
 "ref":
 "person_19435"},
 {
 "persName":
 "Fritz Rotter",
 "ref":
 "person_19436"},
 {
 "persName":
 "Moriz Károlyi",
 "ref":
 "person_16735"},
 {
 "persName":
 "Johann Pollak",
 "ref":
 "person_18885"}],
 "listBibl":
  [
 {
 "title":
 "Professor Bernhardi. Komödie in fünf Akten",
 "ref":
 "pmb30203"}
 ],
 "listPlace":
  [
 {
 "placeName":
 "Breitenstein am Semmering",
 "ref":
 "pmb36503"}
 ,  {
 "placeName":
 "Java",
 "ref":
 "pmb90952"}
 ,  {
 "placeName":
 "Berlin",
 "ref":
 "pmb168"}
 ]
}
}, {
 "type":
 "wienerschnitzler",
 "color":
 "#ECDA98",
 "caption":
 "Wiener Schnitzler",
 "idno":
 "https://wienerschnitzler.org/tag.html#1923-02-28",
 "head":
 "Wien",
 "desc":
{"listPlace":
  [
 {
 "placeName":
 "IX., Alsergrund",
 "ref":
 ""}
 ,  {
 "placeName":
 "VIII., Josefstadt",
 "ref":
 ""}
 ,  {
 "placeName":
 "I., Innere Stadt",
 "ref":
 ""}
 ,  {
 "placeName":
 "XVIII., Währing",
 "ref":
 ""}
 ]
}
}, {
 "type":
 "schnitzler-events",
 "color":
 "#9BC53D",
 "filename":
 "entity/210608/",
 "caption":
 "Ereignisse in der PMB",
 "idno":
 "https://pmb.acdh.oeaw.ac.at/entity/210608/",
 "head":
 "Filmvorführung, 28.2.1923",
 "desc":
{"listPerson":
  [
{
 "persName":
 "Arthur Schnitzler",
 "ref":
 ""}],
 "listPlace":
  [
 {
 "placeName":
 "Wien",
 "ref":
 ""}
 ]
}
}, {
 "type":
 "schnitzler-kino-buch",
 "subtype":
 "#ISBN978-3205787464",
 "color":
 "#B43C9C",
 "caption":
 "Kino",
 "head":
 "Schnitzler geht ins Kino, 28. Februar 1923",
 "source":
 "»A. ist manchmal wie ein kleines Kind«. Clara Katharina Pollaczek und Arthur Schnitzler gehen ins Kino. Herausgegeben von Stephan Kurz und Michael Rohrwasser unter Mitarbeit von Daniel Schopper. Wien, Köln, Weimar: Böhlau Verlag 2012."
}] 