[{
 "type":
 "schnitzler-tagebuch",
 "color":
 "#037a33",
 "filename":
 "entry__1923-08-13",
 "caption":
 "Tagebuch",
 "idno":
 "https://schnitzler-tagebuch.acdh.oeaw.ac.at/entry__1923-08-13.html",
 "head":
 "Tagebuch, 13. August 1923",
 "desc":
{"listPerson":
  [
{
 "persName":
 "Lili Schnitzler",
 "ref":
 "person_14130"},
 {
 "persName":
 "Olga Schnitzler",
 "ref":
 "person_19832"}],
 "listBibl":
  [
 {
 "title":
 "Komödie der Verführung. In drei Akten",
 "ref":
 "pmb30205"}
 ],
 "listPlace":
  [
 {
 "placeName":
 "Baden-Baden",
 "ref":
 "pmb228"}
 ]
}
}, {
 "type":
 "schnitzler-briefe",
 "color":
 "#A63437",
 "filename":
 "L02402",
 "caption":
 "Briefe mit Autorinnen und Autoren",
 "idno":
 "https://schnitzler-briefe.acdh.oeaw.ac.at/L02402.html",
 "head":
 "Richard Beer-Hofmann an Arthur Schnitzler, 13. 8. 1923",
 "desc":
{"listPerson":
  [
{
 "persName":
 "Richard Beer-Hofmann",
 "ref":
 "pmb10863"},
 {
 "persName":
 "Arthur Schnitzler",
 "ref":
 "pmb2121"},
 {
 "persName":
 "Richard Beer-Hofmann",
 "ref":
 "pmb10863"}],
 "listPlace":
  [
 {
 "placeName":
 "St. Moritz",
 "ref":
 "pmb44374"}
 ,  {
 "placeName":
 "Baden-Baden",
 "ref":
 "pmb228"}
 ,  {
 "placeName":
 "Herchenbachstraße",
 "ref":
 "pmb491"}
 ,  {
 "placeName":
 "Hôtel La Margna",
 "ref":
 "pmb52175"}
 ,  {
 "placeName":
 "Kulm Hotel",
 "ref":
 "pmb52177"}
 ,  {
 "placeName":
 "Celerina",
 "ref":
 "pmb12589"}
 ]
}
}, {
 "type":
 "wienerschnitzler",
 "color":
 "#6F5106",
 "caption":
 "Wiener Schnitzler",
 "idno":
 "https://wienerschnitzler.org/tag.html#1923-08-13",
 "head":
 "Baden-Baden",
 "desc":
{"listPlace":
  [
 {
 "placeName":
 "Herchenbachstraße",
 "ref":
 ""}
 ,  {
 "placeName":
 "Gunzenbach-Hof",
 "ref":
 ""}
 ,  {
 "placeName":
 "Carl T. Herrmann &amp; Co.",
 "ref":
 ""}
 ]
}
}] 