[{
 "type":
 "schnitzler-tagebuch",
 "color":
 "#037a33",
 "filename":
 "entry__1923-05-18",
 "caption":
 "Tagebuch",
 "idno":
 "https://schnitzler-tagebuch.acdh.oeaw.ac.at/entry__1923-05-18.html",
 "head":
 "Tagebuch, 18. Mai 1923",
 "desc":
{"listPerson":
  [
{
 "persName":
 "Richard Beer-Hofmann",
 "ref":
 "person_13551"},
 {
 "persName":
 "Emilie Dinkelspiel",
 "ref":
 "person_14459"},
 {
 "persName":
 "Marcus Ehrenpreis",
 "ref":
 "person_14639"},
 {
 "persName":
 "Josef Kainz",
 "ref":
 "person_16646"},
 {
 "persName":
 "Dorothea Kohnberger",
 "ref":
 "person_16995"},
 {
 "persName":
 "Walter Singer",
 "ref":
 "person_20140"},
 {
 "persName":
 "Elvira Beda Teller",
 "ref":
 "person_20657"},
 {
 "persName":
 "Anders de Wahl",
 "ref":
 "person_21039"},
 {
 "persName":
 "Olga Waissnix",
 "ref":
 "person_21047"},
 {
 "persName":
 "Jakob Wassermann",
 "ref":
 "person_21107"},
 {
 "persName":
 "Olga Linden",
 "ref":
 "person_17568"},
 {
 "persName":
 "Carl Nordberger",
 "ref":
 "person_18473"}],
 "listBibl":
  [
 {
 "title":
 "Weihnachts-Einkäufe",
 "ref":
 "pmb30163"}
 ,  {
 "title":
 "Große Szene",
 "ref":
 "pmb31429"}
 ,  {
 "title":
 "Das Schicksal des Freiherrn von Leisenbohg. Novellette",
 "ref":
 "pmb30057"}
 ,  {
 "title":
 "Die letzten Masken",
 "ref":
 "pmb29877"}
 ,  {
 "title":
 "Die dreifache Warnung",
 "ref":
 "pmb33061"}
 ,  {
 "title":
 "Der Weg ins Freie. Roman",
 "ref":
 "pmb29923"}
 ,  {
 "title":
 "Gesammelte Werke",
 "ref":
 "pmb30313"}
 ],
 "listPlace":
  [
 {
 "placeName":
 "Stockholm",
 "ref":
 "pmb1119"}
 ,  {
 "placeName":
 "Skepparegatan",
 "ref":
 "pmb92532"}
 ,  {
 "placeName":
 "",
 "ref":
 "pmb91574"}
 ,  {
 "placeName":
 "Uppsala",
 "ref":
 "pmb91983"}
 ]
}
}, {
 "type":
 "schnitzler-orte",
 "color":
 "#045344",
 "filename":
 "entity/1119/",
 "caption":
 "Aufenthaltsorte",
 "idno":
 "https://pmb.acdh.oeaw.ac.at/entity/1119/",
 "text":
 "Stockholm"
}, {
 "type":
 "schnitzler-orte",
 "color":
 "#045344",
 "filename":
 "entity/62679/",
 "caption":
 "Aufenthaltsorte",
 "idno":
 "https://pmb.acdh.oeaw.ac.at/entity/62679/",
 "text":
 "Östermalmsgatan"
}, {
 "type":
 "schnitzler-interviews",
 "color":
 "#3D5A80",
 "filename":
 "I093",
 "caption":
 "Interviews, Meinungen, Proteste",
 "idno":
 "https://schnitzler-interviews.acdh.oeaw.ac.at/I093.html",
 "head":
 "[Guido Valentin]: Anatols diktare på besök i Stockholm,
                            18. 5. 1923",
 "desc":
{"listPerson":
  [
{
 "persName":
 "Guido Valentin",
 "ref":
 "pmb58598"},
 {
 "persName":
 "?? [Portier des Hotel Phönix]",
 "ref":
 "pmb62310"},
 {
 "persName":
 "Carl Nordberger",
 "ref":
 "pmb21998"},
 {
 "persName":
 "Georg Brandes",
 "ref":
 "pmb10992"},
 {
 "persName":
 "Adele Sandrock",
 "ref":
 "pmb12618"},
 {
 "persName":
 "Frank Wedekind",
 "ref":
 "pmb13068"},
 {
 "persName":
 "Heinrich Schnitzler",
 "ref":
 "pmb12692"},
 {
 "persName":
 "Gustaf Linden",
 "ref":
 "pmb20474"},
 {
 "persName":
 "Emil Hillberg",
 "ref":
 "pmb62689"},
 {
 "persName":
 "Anders de Wahl",
 "ref":
 "pmb10398"},
 {
 "persName":
 "Arnold Korff",
 "ref":
 "pmb2249"},
 {
 "persName":
 "Walter Singer",
 "ref":
 "pmb24992"},
 {
 "persName":
 "Clara Katharina Pollaczek",
 "ref":
 "pmb12435"}],
 "listBibl":
  [
 {
 "title":
 "Anatol",
 "ref":
 "pmb29935"}
 ,  {
 "title":
 "Abschiedssouper",
 "ref":
 "pmb30005"}
 ,  {
 "title":
 "Professor Bernhardi. Komödie in fünf Akten",
 "ref":
 "pmb30203"}
 ,  {
 "title":
 "Reigen. Zehn Dialoge",
 "ref":
 "pmb29855"}
 ,  {
 "title":
 "Fink und Fliederbusch. Komödie in drei Akten",
 "ref":
 "pmb30881"}
 ,  {
 "title":
 "Die Büchse der Pandora. Tragödie in drei Aufzügen",
 "ref":
 "pmb31393"}
 ,  {
 "title":
 "Erdgeist. Tragödie in vier Aufzügen",
 "ref":
 "pmb31323"}
 ,  {
 "title":
 "Liebelei. Schauspiel in drei Akten",
 "ref":
 "pmb29917"}
 ,  {
 "title":
 "Das weite Land. Tragikomödie in fünf Akten",
 "ref":
 "pmb30207"}
 ,  {
 "title":
 "Anatols diktare på besök i Stockholm",
 "ref":
 "pmb58603"}
 ,  {
 "title":
 "Svenska Dagbladet",
 "ref":
 "pmb41547"}
 ],
 "listPlace":
  [
 {
 "placeName":
 "Stockholm",
 "ref":
 "pmb1119"}
 ,  {
 "placeName":
 "Österreich",
 "ref":
 "pmb41240"}
 ,  {
 "placeName":
 "Kopenhagen",
 "ref":
 "pmb36300"}
 ,  {
 "placeName":
 "Frankreich",
 "ref":
 "pmb166"}
 ,  {
 "placeName":
 "Schweden",
 "ref":
 "pmb44335"}
 ,  {
 "placeName":
 "Europa",
 "ref":
 "pmb468"}
 ,  {
 "placeName":
 "Amerika",
 "ref":
 "pmb175"}
 ,  {
 "placeName":
 "Deutschland",
 "ref":
 "pmb151"}
 ,  {
 "placeName":
 "Wien",
 "ref":
 "pmb50"}
 ,  {
 "placeName":
 "Berlin",
 "ref":
 "pmb168"}
 ,  {
 "placeName":
 "Bratislava",
 "ref":
 "pmb39615"}
 ],
 "listOrg":
  [
 {
 "orgName":
 "Kungliga Musikaliska Akademien",
 "ref":
 "pmb62210"}
 ,  {
 "orgName":
 "Nordiska musikförlaget",
 "ref":
 "pmb62213"}
 ,  {
 "orgName":
 "Svensk Dagbladet",
 "ref":
 "pmb29517"}
 ,  {
 "orgName":
 "Volkstheater",
 "ref":
 "pmb36430"}
 ,  {
 "orgName":
 "Dramaten",
 "ref":
 "pmb62240"}
 ,  {
 "orgName":
 "Kleines Theater",
 "ref":
 "pmb45430"}
 ]
}
}, {
 "type":
 "schnitzler-interviews",
 "color":
 "#3D5A80",
 "filename":
 "I096",
 "caption":
 "Interviews, Meinungen, Proteste",
 "idno":
 "https://schnitzler-interviews.acdh.oeaw.ac.at/I096.html",
 "head":
 "Sir Guy: Arthur Schnitzler, Anatols författare, besöker Stockholm,
                            18. 5. 1923",
 "desc":
{"listPerson":
  [
{
 "persName":
 "Sir Guy",
 "ref":
 "pmb58611"},
 {
 "persName":
 "Paul Schlenther",
 "ref":
 "pmb12671"},
 {
 "persName":
 "Mauritz Stiller",
 "ref":
 "pmb10043"},
 {
 "persName":
 "Walter Singer",
 "ref":
 "pmb24992"},
 {
 "persName":
 "Clara Katharina Pollaczek",
 "ref":
 "pmb12435"}],
 "listBibl":
  [
 {
 "title":
 "Anatol",
 "ref":
 "pmb29935"}
 ,  {
 "title":
 "Professor Bernhardi. Komödie in fünf Akten",
 "ref":
 "pmb30203"}
 ,  {
 "title":
 "Lieutenant Gustl. Novelle",
 "ref":
 "pmb29853"}
 ,  {
 "title":
 "Liebelei. Schauspiel in drei Akten",
 "ref":
 "pmb29917"}
 ,  {
 "title":
 "Anatols Hochzeitsmorgen",
 "ref":
 "pmb30033"}
 ,  {
 "title":
 "The Affairs of Anatol",
 "ref":
 "pmb32808"}
 ,  {
 "title":
 "Erotikon",
 "ref":
 "pmb62328"}
 ,  {
 "title":
 "Reigen. Zehn Dialoge",
 "ref":
 "pmb29855"}
 ,  {
 "title":
 "Der grüne Kakadu. Groteske in einem Akt",
 "ref":
 "pmb29843"}
 ,  {
 "title":
 "Abschiedssouper",
 "ref":
 "pmb30005"}
 ,  {
 "title":
 "Lehmann’s Allgemeiner Wohnungs-Anzeiger",
 "ref":
 "pmb32580"}
 ,  {
 "title":
 "Elskovsleg",
 "ref":
 "pmb32800"}
 ,  {
 "title":
 "Der junge Medardus",
 "ref":
 "pmb32294"}
 ,  {
 "title":
 "Tagebuch",
 "ref":
 "pmb33243"}
 ,  {
 "title":
 "Die Büchse der Pandora. Tragödie in drei Aufzügen",
 "ref":
 "pmb31393"}
 ,  {
 "title":
 "Arthur Schnitzler, Anatols författare, besöker Stockholm",
 "ref":
 "pmb58609"}
 ,  {
 "title":
 "Stockholms-Tidingen",
 "ref":
 "pmb58610"}
 ],
 "listPlace":
  [
 {
 "placeName":
 "Stockholm",
 "ref":
 "pmb1119"}
 ,  {
 "placeName":
 "Österreich",
 "ref":
 "pmb41240"}
 ,  {
 "placeName":
 "Schweden",
 "ref":
 "pmb44335"}
 ,  {
 "placeName":
 "Wien",
 "ref":
 "pmb50"}
 ,  {
 "placeName":
 "Donau",
 "ref":
 "pmb59370"}
 ,  {
 "placeName":
 "Ringstraße",
 "ref":
 "pmb112"}
 ,  {
 "placeName":
 "Rathaus",
 "ref":
 "pmb373"}
 ,  {
 "placeName":
 "Deutschland",
 "ref":
 "pmb151"}
 ,  {
 "placeName":
 "Amerika",
 "ref":
 "pmb175"}
 ,  {
 "placeName":
 "Tschechische Republik",
 "ref":
 "pmb43430"}
 ,  {
 "placeName":
 "Teplice",
 "ref":
 "pmb955"}
 ,  {
 "placeName":
 "Bratislava",
 "ref":
 "pmb39615"}
 ,  {
 "placeName":
 "Ungarn",
 "ref":
 "pmb35512"}
 ,  {
 "placeName":
 "Vereinigte Staaten von Amerika (USA)",
 "ref":
 "pmb43406"}
 ,  {
 "placeName":
 "Slowakei",
 "ref":
 "pmb34478"}
 ,  {
 "placeName":
 "Berlin",
 "ref":
 "pmb168"}
 ],
 "listOrg":
  [
 {
 "orgName":
 "Burgtheater",
 "ref":
 "pmb36247"}
 ]
}
}, {
 "type":
 "schnitzler-interviews",
 "color":
 "#3D5A80",
 "filename":
 "I094",
 "caption":
 "Interviews, Meinungen, Proteste",
 "idno":
 "https://schnitzler-interviews.acdh.oeaw.ac.at/I094.html",
 "head":
 "O. N–ll: Arthur Schnitzler som charmör och som kåsör,
                            18. 5. 1923",
 "desc":
{"listPerson":
  [
{
 "persName":
 "O. N–ll",
 "ref":
 "pmb58585"},
 {
 "persName":
 "Georg Brandes",
 "ref":
 "pmb10992"},
 {
 "persName":
 "Theodor Fontane",
 "ref":
 "pmb11342"},
 {
 "persName":
 "Gustaf Linden",
 "ref":
 "pmb20474"},
 {
 "persName":
 "Olga Linden",
 "ref":
 "pmb20478"},
 {
 "persName":
 "Ruth Lindberg",
 "ref":
 "pmb20462"},
 {
 "persName":
 "Heinrich Schnitzler",
 "ref":
 "pmb12692"},
 {
 "persName":
 "Frank Wedekind",
 "ref":
 "pmb13068"},
 {
 "persName":
 "Walter Singer",
 "ref":
 "pmb24992"},
 {
 "persName":
 "Clara Katharina Pollaczek",
 "ref":
 "pmb12435"}],
 "listBibl":
  [
 {
 "title":
 "Anatol",
 "ref":
 "pmb29935"}
 ,  {
 "title":
 "Professor Bernhardi. Komödie in fünf Akten",
 "ref":
 "pmb30203"}
 ,  {
 "title":
 "Reigen. Zehn Dialoge",
 "ref":
 "pmb29855"}
 ,  {
 "title":
 "Fink und Fliederbusch. Komödie in drei Akten",
 "ref":
 "pmb30881"}
 ,  {
 "title":
 "Die Büchse der Pandora. Tragödie in drei Aufzügen",
 "ref":
 "pmb31393"}
 ,  {
 "title":
 "Arthur Schnitzler som charmör och som kåsör",
 "ref":
 "pmb58587"}
 ,  {
 "title":
 "Dagens Nyheter",
 "ref":
 "pmb58584"}
 ],
 "listPlace":
  [
 {
 "placeName":
 "Wien",
 "ref":
 "pmb50"}
 ,  {
 "placeName":
 "Stockholm",
 "ref":
 "pmb1119"}
 ,  {
 "placeName":
 "Teplice",
 "ref":
 "pmb955"}
 ,  {
 "placeName":
 "Tschechische Republik",
 "ref":
 "pmb43430"}
 ,  {
 "placeName":
 "Schweden",
 "ref":
 "pmb44335"}
 ,  {
 "placeName":
 "Donau",
 "ref":
 "pmb59370"}
 ,  {
 "placeName":
 "Amerika",
 "ref":
 "pmb175"}
 ],
 "listOrg":
  [
 {
 "orgName":
 "Svenska teatern",
 "ref":
 "pmb62330"}
 ]
}
}, {
 "type":
 "schnitzler-interviews",
 "color":
 "#3D5A80",
 "filename":
 "I095",
 "caption":
 "Interviews, Meinungen, Proteste",
 "idno":
 "https://schnitzler-interviews.acdh.oeaw.ac.at/I095.html",
 "head":
 "[Anna Lisa Andersson]: Arthur Schnitzler i Stockholm,
                            18. 5. 1923",
 "desc":
{"listPerson":
  [
{
 "persName":
 "Anna Lisa Andersson",
 "ref":
 "pmb5985"},
 {
 "persName":
 "Carl Nordberger",
 "ref":
 "pmb21998"},
 {
 "persName":
 "Gustaf Linden",
 "ref":
 "pmb20474"},
 {
 "persName":
 "?? [Portier des Hotel Phönix]",
 "ref":
 "pmb62310"},
 {
 "persName":
 "Henrik Ibsen",
 "ref":
 "pmb11798"},
 {
 "persName":
 "August Strindberg",
 "ref":
 "pmb12877"},
 {
 "persName":
 "Nils Oscar Svahn",
 "ref":
 "pmb25761"}],
 "listBibl":
  [
 {
 "title":
 "Die Wildente",
 "ref":
 "pmb29971"}
 ,  {
 "title":
 "Baumeister Solness",
 "ref":
 "pmb31157"}
 ,  {
 "title":
 "Anatol",
 "ref":
 "pmb29935"}
 ,  {
 "title":
 "Arthur Schnitzler i Stockholm",
 "ref":
 "pmb58606"}
 ,  {
 "title":
 "Social-Demokraten",
 "ref":
 "pmb58608"}
 ],
 "listPlace":
  [
 {
 "placeName":
 "Stockholm",
 "ref":
 "pmb1119"}
 ,  {
 "placeName":
 "Wien",
 "ref":
 "pmb50"}
 ,  {
 "placeName":
 "Kopenhagen",
 "ref":
 "pmb36300"}
 ,  {
 "placeName":
 "Schweden",
 "ref":
 "pmb44335"}
 ,  {
 "placeName":
 "Hotel Phönix",
 "ref":
 "pmb58094"}
 ,  {
 "placeName":
 "Österreich",
 "ref":
 "pmb41240"}
 ,  {
 "placeName":
 "Deutschland",
 "ref":
 "pmb151"}
 ,  {
 "placeName":
 "Skandinavien",
 "ref":
 "pmb745"}
 ]
}
}, {
 "type":
 "schnitzler-cmif",
 "subtype":
 "#jf7cbca5-b0b6-4bcf-adbf-38e94eed3cb3",
 "color":
 "#654321",
 "caption":
 "Gedruckte Briefwechsel",
 "head":
 "Arthur Schnitzler an Heinrich Schnitzler, 18. 5. 1923",
 "source":
 "Arthur Schnitzler: Briefe 1913–1931. Hrsg. v. Peter Michael Braunwarth, Richard Miklin, Susanne Pertlik und Heinrich Schnitzler. Frankfurt am Main: S. Fischer 1984. (PDF unter: https://schnitzler-briefe.acdh.oeaw.ac.at/)"
}] 