[{
 "type":
 "schnitzler-tagebuch",
 "color":
 "#037a33",
 "filename":
 "entry__1923-09-03",
 "caption":
 "Tagebuch",
 "idno":
 "https://schnitzler-tagebuch.acdh.oeaw.ac.at/entry__1923-09-03.html",
 "head":
 "Tagebuch, 3. September 1923",
 "desc":
{"listPerson":
  [
{
 "persName":
 "Clara Katharina Pollaczek",
 "ref":
 "person_18863"}],
 "listBibl":
  [
 {
 "title":
 "Komödie der Verführung. In drei Akten",
 "ref":
 "pmb30205"}
 ],
 "listPlace":
  [
 {
 "placeName":
 "Celerina",
 "ref":
 "pmb12589"}
 ,  {
 "placeName":
 "Scuol-Tarasp, staziun",
 "ref":
 "pmb91699"}
 ]
}
}, {
 "type":
 "schnitzler-briefe",
 "color":
 "#A63437",
 "filename":
 "L02403",
 "caption":
 "Briefe mit Autorinnen und Autoren",
 "idno":
 "https://schnitzler-briefe.acdh.oeaw.ac.at/L02403.html",
 "head":
 "Arthur Schnitzler an Hugo von Hofmannsthal, 3. 9. 1923",
 "desc":
{"listPerson":
  [
{
 "persName":
 "Hugo von Hofmannsthal",
 "ref":
 "pmb11740"},
 {
 "persName":
 "Lili Cappellini",
 "ref":
 "pmb2238"}],
 "listPlace":
  [
 {
 "placeName":
 "Niederösterreich",
 "ref":
 "pmb1003"}
 ,  {
 "placeName":
 "Engadin",
 "ref":
 "pmb1061"}
 ,  {
 "placeName":
 "Celerina",
 "ref":
 "pmb12589"}
 ,  {
 "placeName":
 "Südbahnhof",
 "ref":
 "pmb132"}
 ,  {
 "placeName":
 "Rodaun",
 "ref":
 "pmb173"}
 ,  {
 "placeName":
 "Bregenz",
 "ref":
 "pmb40321"}
 ,  {
 "placeName":
 "Bad Aussee",
 "ref":
 "pmb415"}
 ,  {
 "placeName":
 "Schweiz",
 "ref":
 "pmb43435"}
 ,  {
 "placeName":
 "Wien",
 "ref":
 "pmb50"}
 ,  {
 "placeName":
 "Bodensee",
 "ref":
 "pmb668"}
 ]
}
}, {
 "type":
 "wienerschnitzler",
 "color":
 "#6F5106",
 "caption":
 "Wiener Schnitzler",
 "idno":
 "https://wienerschnitzler.org/tag.html#1923-09-03",
 "head":
 "Celerina",
 "desc":
{"listPlace":
  [
 {
 "placeName":
 "Cresta Palace",
 "ref":
 ""}
 ]
}
}, {
 "type":
 "wienerschnitzler",
 "color":
 "#6F5106",
 "caption":
 "Wiener Schnitzler",
 "idno":
 "https://wienerschnitzler.org/tag.html#1923-09-03",
 "head":
 "Tarasp"
}, {
 "type":
 "wienerschnitzler",
 "color":
 "#6F5106",
 "caption":
 "Wiener Schnitzler",
 "idno":
 "https://wienerschnitzler.org/tag.html#1923-09-03",
 "head":
 "Scuol",
 "desc":
{"listPlace":
  [
 {
 "placeName":
 "Hotel Engadinerhof Tarasp Scuol",
 "ref":
 ""}
 ]
}
}] 