[{
 "type":
 "schnitzler-tagebuch",
 "color":
 "#037a33",
 "filename":
 "entry__1923-09-01",
 "caption":
 "Tagebuch",
 "idno":
 "https://schnitzler-tagebuch.acdh.oeaw.ac.at/entry__1923-09-01.html",
 "head":
 "Tagebuch, 1. September 1923",
 "desc":
{"listPerson":
  [
{
 "persName":
 "Hedwig Bleibtreu",
 "ref":
 "person_13776"},
 {
 "persName":
 "Ernst Hartmann",
 "ref":
 "person_15944"},
 {
 "persName":
 "Gerhart Hauptmann",
 "ref":
 "person_15980"},
 {
 "persName":
 "Arnold Korff",
 "ref":
 "person_17046"},
 {
 "persName":
 "Luise Osborne",
 "ref":
 "person_18586"},
 {
 "persName":
 "Johann Georg Rocco",
 "ref":
 "person_19307"},
 {
 "persName":
 "Werner Schott",
 "ref":
 "person_19874"},
 {
 "persName":
 "Rudolf Sieghart",
 "ref":
 "person_20094"},
 {
 "persName":
 "Fjodor Mihajlovič Dostojevskij",
 "ref":
 "person_14500"},
 {
 "persName":
 "Johann Schnitzler",
 "ref":
 "person_19824"}],
 "listBibl":
  [
 {
 "title":
 "Komödie der Verführung. In drei Akten",
 "ref":
 "pmb30205"}
 ,  {
 "title":
 "Das weite Land. Tragikomödie in fünf Akten",
 "ref":
 "pmb30207"}
 ,  {
 "title":
 "Tagebuch",
 "ref":
 "pmb33243"}
 ,  {
 "title":
 "Der einsame Weg. Schauspiel in fünf Akten",
 "ref":
 "pmb29985"}
 ,  {
 "title":
 "Erniedrigte und Beleidigte",
 "ref":
 "pmb77739"}
 ,  {
 "title":
 "Les deux rives",
 "ref":
 "pmb79518"}
 ],
 "listPlace":
  [
 {
 "placeName":
 "Celerina",
 "ref":
 "pmb12589"}
 ,  {
 "placeName":
 "Universitätsstraße",
 "ref":
 "pmb653"}
 ,  {
 "placeName":
 "Frankgasse",
 "ref":
 "pmb397"}
 ,  {
 "placeName":
 "Währingerstraße",
 "ref":
 "pmb312"}
 ,  {
 "placeName":
 "Josefsplatz",
 "ref":
 "pmb92310"}
 ,  {
 "placeName":
 "Burgtheater",
 "ref":
 "pmb14"}
 ,  {
 "placeName":
 "Sankt Moritz",
 "ref":
 "pmb44374"}
 ]
}
}, {
 "type":
 "wienerschnitzler",
 "color":
 "#ECDA98",
 "caption":
 "Wiener Schnitzler",
 "head":
 "Celerina",
 "desc":
{"listPlace":
  [
 {
 "placeName":
 "Cresta Palace",
 "ref":
 ""}
 ,  {
 "placeName":
 "Haus Rocco",
 "ref":
 ""}
 ]
}
}, {
 "type":
 "wienerschnitzler",
 "color":
 "#ECDA98",
 "caption":
 "Wiener Schnitzler",
 "head":
 "St. Moritz"
}, {
 "type":
 "schnitzler-cmif",
 "subtype":
 "#m5ca120f-450d-4a59-9a44-d5822a34aee9",
 "color":
 "#654321",
 "caption":
 "Gedruckte Briefwechsel",
 "head":
 "Gustaf Linden an Arthur Schnitzler, 1.9.1923",
 "source":
 "Arthur Schnitzler, Gustaf Linden: Ein Briefwechsel. 1907–1929, Wien: Edition Praesens 2005 (Wechselbeziehungen Österreich-Norden, Band 7)."
}, {
 "type":
 "schnitzler-traeume",
 "subtype":
 "#ISBN978-3-8353-1029-2",
 "color":
 "#1193CC",
 "caption":
 "Traumtagebuch",
 "head":
 "Traum vom 1. September 1923",
 "source":
 "Arthur Schnitzler: Träume. Das Traumtagebuch 1875–1931. Herausgegeben von Peter Michael Braunwarth und Leo A. Lensing. Göttingen: Wallstein 2012 (Bibliothek Janowitz, Bd. 20)"
}] 