[{
 "type":
 "schnitzler-tagebuch",
 "color":
 "#037a33",
 "filename":
 "entry__1923-05-14",
 "caption":
 "Tagebuch",
 "idno":
 "https://schnitzler-tagebuch.acdh.oeaw.ac.at/entry__1923-05-14.html",
 "head":
 "Tagebuch, 14. Mai 1923",
 "desc":
{"listPerson":
  [
{
 "persName":
 "Viggo Louis Cavling",
 "ref":
 "person_14164"},
 {
 "persName":
 "Louis Leonor Hammerich",
 "ref":
 "person_15885"},
 {
 "persName":
 "Marc Kalckar",
 "ref":
 "person_16657"},
 {
 "persName":
 "von Kooge",
 "ref":
 "person_17029"},
 {
 "persName":
 "Bertel Thorvaldsen",
 "ref":
 "person_20727"},
 {
 "persName":
 "Harald Frost",
 "ref":
 "person_15276"}],
 "listBibl":
  [
 {
 "title":
 "Weihnachts-Einkäufe",
 "ref":
 "pmb30163"}
 ,  {
 "title":
 "Der grüne Kakadu. Groteske in einem Akt",
 "ref":
 "pmb29843"}
 ,  {
 "title":
 "Liebelei. Schauspiel in drei Akten",
 "ref":
 "pmb29917"}
 ,  {
 "title":
 "Elskovsleg",
 "ref":
 "pmb32800"}
 ,  {
 "title":
 "Das Schicksal des Freiherrn von Leisenbohg. Novellette",
 "ref":
 "pmb30057"}
 ],
 "listPlace":
  [
 {
 "placeName":
 "Kopenhagen",
 "ref":
 "pmb36300"}
 ,  {
 "placeName":
 "Thorvaldsen-Museum",
 "ref":
 "pmb92567"}
 ]
}
}, {
 "type":
 "schnitzler-orte",
 "color":
 "#045344",
 "caption":
 "Aufenthaltsorte",
 "head":
 "Kopenhagen",
 "desc":
{"listPlace":
  [
 {
 "placeName":
 "Hotel Phönix",
 "ref":
 ""}
 ,  {
 "placeName":
 "Mosedalvej 14",
 "ref":
 ""}
 ,  {
 "placeName":
 "Thorvaldsen-Museum",
 "ref":
 ""}
 ,  {
 "placeName":
 "Københavns Havn",
 "ref":
 ""}
 ,  {
 "placeName":
 "Langelinie Pavilion",
 "ref":
 ""}
 ,  {
 "placeName":
 "Københavns Frihavn",
 "ref":
 ""}
 ,  {
 "placeName":
 "Nimb",
 "ref":
 ""}
 ]
}
}, {
 "type":
 "pollaczek",
 "color":
 "#1e81b0",
 "filename":
 "ckp062",
 "caption":
 "Pollaczek: Schnitzler und ich",
 "idno":
 "https://pollaczek.acdh.oeaw.ac.at/ckp062.html",
 "head":
 "Arthur Schnitzler an Clara Katharina Pollaczek, 8.–14. Mai 1923"
}, {
 "type":
 "schnitzler-events",
 "color":
 "#9BC53D",
 "filename":
 "entity/62185/",
 "caption":
 "Ereignisse in der PMB",
 "idno":
 "https://pmb.acdh.oeaw.ac.at/entity/62185/",
 "head":
 "Lesung von Das Schicksal des Freiherrn von Leisenbohg, Weihnachts-Einkäufe, Der grüne Kakadu, 14.5.1923",
 "desc":
{"listOrg":
  [
 {
 "orgName":
 "Politiken",
 "ref":
 ""}
 ],
 "listBibl":
  [
 {
 "title":
 "Das Schicksal des Freiherrn von Leisenbohg. Novellette",
 "ref":
 ""}
 ,  {
 "title":
 "Weihnachts-Einkäufe",
 "ref":
 ""}
 ,  {
 "title":
 "Der grüne Kakadu. Groteske in einem Akt",
 "ref":
 ""}
 ],
 "listPerson":
  [
{
 "persName":
 "Arthur Schnitzler",
 "ref":
 ""}],
 "listPlace":
  [
 {
 "placeName":
 "[Vortragssaal Politiken]",
 "ref":
 ""}
 ]
}
}] 