[{
 "type":
 "schnitzler-tagebuch",
 "color":
 "#037a33",
 "filename":
 "entry__1923-05-10",
 "caption":
 "Tagebuch",
 "idno":
 "https://schnitzler-tagebuch.acdh.oeaw.ac.at/entry__1923-05-10.html",
 "head":
 "Tagebuch, 10. Mai 1923",
 "desc":
{"listPerson":
  [
{
 "persName":
 "Viggo Andreas Barfoed",
 "ref":
 "person_13421"},
 {
 "persName":
 "Emil Bønnelycke",
 "ref":
 "person_13839"},
 {
 "persName":
 "Haagen Falkenfleth",
 "ref":
 "person_14880"},
 {
 "persName":
 "Louis Leonor Hammerich",
 "ref":
 "person_15885"},
 {
 "persName":
 "Marc Kalckar",
 "ref":
 "person_16657"},
 {
 "persName":
 "Paul August von Klenau",
 "ref":
 "person_16904"},
 {
 "persName":
 "Sophus Michaëlis",
 "ref":
 "person_18142"},
 {
 "persName":
 "Henrik Rechendorff",
 "ref":
 "person_19084"},
 {
 "persName":
 "Niels Thingberg Thomsen",
 "ref":
 "person_20724"},
 {
 "persName":
 "Torkild Vogel-Jörgensen",
 "ref":
 "person_20981"},
 {
 "persName":
 "Franz Werfel",
 "ref":
 "person_21243"},
 {
 "persName":
 "Hans Christian Huus",
 "ref":
 "person_16205"}],
 "listBibl":
  [
 {
 "title":
 "Schweiger",
 "ref":
 "pmb32019"}
 ],
 "listPlace":
  [
 {
 "placeName":
 "Berlin",
 "ref":
 "pmb168"}
 ,  {
 "placeName":
 "Warnemünde",
 "ref":
 "pmb49158"}
 ,  {
 "placeName":
 "Gedser",
 "ref":
 "pmb58984"}
 ,  {
 "placeName":
 "G.",
 "ref":
 "pmb92248"}
 ,  {
 "placeName":
 "Kopenhagen",
 "ref":
 "pmb36300"}
 ]
}
}, {
 "type":
 "wienerschnitzler",
 "color":
 "#6F5106",
 "caption":
 "Wiener Schnitzler",
 "idno":
 "https://wienerschnitzler.org/tag.html#1923-05-10",
 "head":
 "Berlin",
 "desc":
{"listPlace":
  [
 {
 "placeName":
 "Hotel Fürstenhof [Berlin]",
 "ref":
 ""}
 ]
}
}, {
 "type":
 "wienerschnitzler",
 "color":
 "#6F5106",
 "caption":
 "Wiener Schnitzler",
 "idno":
 "https://wienerschnitzler.org/tag.html#1923-05-10",
 "head":
 "Warnemünde"
}, {
 "type":
 "wienerschnitzler",
 "color":
 "#6F5106",
 "caption":
 "Wiener Schnitzler",
 "idno":
 "https://wienerschnitzler.org/tag.html#1923-05-10",
 "head":
 "Gedser"
}, {
 "type":
 "wienerschnitzler",
 "color":
 "#6F5106",
 "caption":
 "Wiener Schnitzler",
 "idno":
 "https://wienerschnitzler.org/tag.html#1923-05-10",
 "head":
 "Kopenhagen",
 "desc":
{"listPlace":
  [
 {
 "placeName":
 "Hotel Phönix",
 "ref":
 ""}
 ,  {
 "placeName":
 "Københavns Hovedbanegård",
 "ref":
 ""}
 ]
}
}, {
 "type":
 "pollaczek",
 "color":
 "#1e81b0",
 "filename":
 "ckp062",
 "caption":
 "Pollaczek: Schnitzler und ich",
 "idno":
 "https://pollaczek.acdh.oeaw.ac.at/ckp062.html",
 "head":
 "Arthur Schnitzler an Clara Katharina Pollaczek, 8.–14. Mai 1923"
}] 