[{
 "type":
 "schnitzler-tagebuch",
 "color":
 "#037a33",
 "filename":
 "entry__1923-11-27",
 "caption":
 "Tagebuch",
 "idno":
 "https://schnitzler-tagebuch.acdh.oeaw.ac.at/entry__1923-11-27.html",
 "head":
 "Tagebuch, 27. November 1923",
 "desc":
{"listPerson":
  [
{
 "persName":
 "Richard Beer-Hofmann",
 "ref":
 "person_13551"},
 {
 "persName":
 "Philipp Menczel",
 "ref":
 "person_18063"},
 {
 "persName":
 "Heinrich Schnitzler",
 "ref":
 "person_19822"},
 {
 "persName":
 "Berta Zuckerkandl",
 "ref":
 "person_21594"},
 {
 "persName":
 "Paula Beer-Hofmann",
 "ref":
 "person_13550"}],
 "listBibl":
  [
 {
 "title":
 "Casanovas Heimfahrt",
 "ref":
 "pmb30971"}
 ,  {
 "title":
 "Komödie der Verführung. In drei Akten",
 "ref":
 "pmb30205"}
 ,  {
 "title":
 "Gesammelte Werke",
 "ref":
 "pmb30313"}
 ]
}
}, {
 "type":
 "wienerschnitzler",
 "color":
 "#6F5106",
 "caption":
 "Wiener Schnitzler",
 "idno":
 "https://wienerschnitzler.org/tag.html#1923-11-27",
 "head":
 "Wien",
 "desc":
{"listPlace":
  [
 {
 "placeName":
 "XVIII., Währing",
 "ref":
 ""}
 ,  {
 "placeName":
 "I., Innere Stadt",
 "ref":
 ""}
 ]
}
}, {
 "type":
 "schnitzler-bahr",
 "color":
 "#639FF9",
 "filename":
 "L041458",
 "caption":
 "Schnitzler/Bahr",
 "idno":
 "https://schnitzler-bahr.acdh.oeaw.ac.at/L041458.html",
 "head":
 "Arthur an Olga Schnitzler, 27. 11. 1923",
 "desc":
{"listPerson":
  [
{
 "persName":
 "Olga Schnitzler",
 "ref":
 "pmb2173"},
 {
 "persName":
 "Hermine Simandt",
 "ref":
 "pmb24945"},
 {
 "persName":
 "Julius Schnitzler",
 "ref":
 "pmb12698"},
 {
 "persName":
 "Heinrich Schnitzler",
 "ref":
 "pmb12692"},
 {
 "persName":
 "Lili Schnitzler",
 "ref":
 "pmb2238"},
 {
 "persName":
 "Bernhard J. Janowitzer",
 "ref":
 "pmb28564"},
 {
 "persName":
 "Charles v. Irsel",
 "ref":
 "pmb28593"},
 {
 "persName":
 "Louis Untermeyer",
 "ref":
 "pmb12997"},
 {
 "persName":
 "Jean Untermeyer",
 "ref":
 "pmb4451"},
 {
 "persName":
 "Heinrich Heine",
 "ref":
 "pmb11640"},
 {
 "persName":
 "Edward Pierre Loving",
 "ref":
 "pmb20624"},
 {
 "persName":
 "Rudolf Ergas",
 "ref":
 "pmb3103"},
 {
 "persName":
 "Rudolf Lothar",
 "ref":
 "pmb2570"},
 {
 "persName":
 "Raoul Auernheimer",
 "ref":
 "pmb10788"},
 {
 "persName":
 "Adolph von Zsolnay",
 "ref":
 "pmb27525"},
 {
 "persName":
 "Andy von Zsolnay",
 "ref":
 "pmb28590"},
 {
 "persName":
 "Paul von Zsolnay",
 "ref":
 "pmb4455"},
 {
 "persName":
 "Franz Werfel",
 "ref":
 "pmb13094"},
 {
 "persName":
 "Alma Maria Mahler",
 "ref":
 "pmb12160"},
 {
 "persName":
 "Felix Salten",
 "ref":
 "pmb2167"},
 {
 "persName":
 "Ottilie Salten",
 "ref":
 "pmb23918"},
 {
 "persName":
 "Richard Nikolaus von Coudenhove-Kalergi",
 "ref":
 "pmb11113"},
 {
 "persName":
 "Ida Roland",
 "ref":
 "pmb12540"},
 {
 "persName":
 "Ernst Benedikt",
 "ref":
 "pmb10872"},
 {
 "persName":
 "Ernst Pisko",
 "ref":
 "pmb22604"},
 {
 "persName":
 "Viktor Pollitzer",
 "ref":
 "pmb22773"},
 {
 "persName":
 "Berta Zuckerkandl",
 "ref":
 "pmb2312"},
 {
 "persName":
 "Norbert Hoffmann",
 "ref":
 "pmb4401"},
 {
 "persName":
 "Thomas Seltzer",
 "ref":
 "pmb24825"},
 {
 "persName":
 "Samuel Fischer",
 "ref":
 "pmb11324"},
 {
 "persName":
 "Hans Jacob",
 "ref":
 "pmb4445"},
 {
 "persName":
 "Heinrich Mann",
 "ref":
 "pmb12170"},
 {
 "persName":
 "Marie Mann",
 "ref":
 "pmb4424"},
 {
 "persName":
 "Hermann Bahr",
 "ref":
 "pmb10815"},
 {
 "persName":
 "Rudolf Beer",
 "ref":
 "pmb13920"},
 {
 "persName":
 "Franz Herterich",
 "ref":
 "pmb11659"},
 {
 "persName":
 "Raoul Aslan",
 "ref":
 "pmb10780"},
 {
 "persName":
 "Lucy von Jacobi",
 "ref":
 "pmb11806"},
 {
 "persName":
 "??",
 "ref":
 "pmb27706"},
 {
 "persName":
 "Eugenie Bachrach",
 "ref":
 "pmb13644"},
 {
 "persName":
 "Gustav Waengler",
 "ref":
 "pmb26546"}],
 "listBibl":
  [
 {
 "title":
 "Heimg’funden",
 "ref":
 "pmb32107"}
 ,  {
 "title":
 "Carmen",
 "ref":
 "pmb30627"}
 ,  {
 "title":
 "Casanova in Wien",
 "ref":
 "pmb32109"}
 ,  {
 "title":
 "Der einsame Weg. Schauspiel in fünf Akten",
 "ref":
 "pmb29985"}
 ,  {
 "title":
 "Der Schleier der Beatrice. Schauspiel in fünf Akten",
 "ref":
 "pmb29857"}
 ],
 "listPlace":
  [
 {
 "placeName":
 "Wien",
 "ref":
 "pmb50"}
 ,  {
 "placeName":
 "Meinl am Graben",
 "ref":
 "pmb624"}
 ,  {
 "placeName":
 "Weißhappel Fleischselchwaren",
 "ref":
 "pmb601"}
 ,  {
 "placeName":
 "Der blaue Vogel (Moskauer Kunstspiele)",
 "ref":
 "pmb589"}
 ,  {
 "placeName":
 "Pan",
 "ref":
 "pmb588"}
 ,  {
 "placeName":
 "Niederlande",
 "ref":
 "pmb44016"}
 ,  {
 "placeName":
 "Leiden",
 "ref":
 "pmb947"}
 ,  {
 "placeName":
 "New York City",
 "ref":
 "pmb44053"}
 ,  {
 "placeName":
 "Griechenland",
 "ref":
 "pmb44293"}
 ,  {
 "placeName":
 "Ägypten",
 "ref":
 "pmb211"}
 ,  {
 "placeName":
 "Budapest",
 "ref":
 "pmb43471"}
 ,  {
 "placeName":
 "Ungarn",
 "ref":
 "pmb35512"}
 ,  {
 "placeName":
 "Tschechoslowakei",
 "ref":
 "pmb38444"}
 ,  {
 "placeName":
 "Vereinigte Staaten von Amerika (USA)",
 "ref":
 "pmb43406"}
 ,  {
 "placeName":
 "England",
 "ref":
 "pmb254"}
 ,  {
 "placeName":
 "Burgtheater",
 "ref":
 "pmb14"}
 ,  {
 "placeName":
 "Volkstheater",
 "ref":
 "pmb20"}
 ,  {
 "placeName":
 "Baden-Baden",
 "ref":
 "pmb228"}
 ,  {
 "placeName":
 "Lugano",
 "ref":
 "pmb885"}
 ,  {
 "placeName":
 "Österreich",
 "ref":
 "pmb41240"}
 ],
 "listOrg":
  [
 {
 "orgName":
 "Neue Freie Presse",
 "ref":
 "pmb29351"}
 ,  {
 "orgName":
 "Herz",
 "ref":
 "pmb29739"}
 ,  {
 "orgName":
 "Bukum A. G. (vormals Heller’sche Buchhandlung)",
 "ref":
 "pmb29740"}
 ,  {
 "orgName":
 "Stock",
 "ref":
 "pmb29741"}
 ,  {
 "orgName":
 "Sascha Filmgesellschaft",
 "ref":
 "pmb29734"}
 ,  {
 "orgName":
 "Knopf",
 "ref":
 "pmb29738"}
 ,  {
 "orgName":
 "Heinemann",
 "ref":
 "pmb29742"}
 ]
}
}, {
 "type":
 "URL",
 "subtype":
 "pmb",
 "filename":
 "entity/210248/",
 "idno":
 "https://pmb.acdh.oeaw.ac.at/entity/210248/",
 "head":
 "Moskauer Kunst-Spiele, 27.11.1923",
 "desc":
{"listOrg":
  [
 {
 "orgName":
 "Der Blaue Vogel",
 "ref":
 ""}
 ],
 "listPerson":
  [
{
 "persName":
 "Arthur Schnitzler",
 "ref":
 ""}],
 "listPlace":
  [
 {
 "placeName":
 "Pan",
 "ref":
 ""}
 ]
}
}, {
 "type":
 "schnitzler-cmif",
 "subtype":
 "#hbas_0a380dfe-61d4-4b9e-8641-01eba8e50777",
 "color":
 "#654321",
 "caption":
 "Gedruckte Briefwechsel",
 "head":
 "Arthur Schnitzler an Olga Schnitzler, 27.11.1923",
 "source":
 "Hermann Bahr, Arthur Schnitzler. Briefwechsel, Aufzeichnungen, Dokumente 1891–1931. Herausgegeben von Kurt Ifkovits, Martin Anton Müller. Göttingen: Wallstein Verlag 2018"
}, {
 "type":
 "schnitzler-cmif",
 "subtype":
 "#jf7cbca5-b0b6-4bcf-adbf-38e94eed3cb3",
 "color":
 "#654321",
 "caption":
 "Gedruckte Briefwechsel",
 "head":
 "Arthur Schnitzler an Olga Schnitzler, 27. 11. 1923",
 "source":
 "Arthur Schnitzler: Briefe 1913–1931. Hrsg. v. Peter Michael Braunwarth, Richard Miklin, Susanne Pertlik und Heinrich Schnitzler. Frankfurt am Main: S. Fischer 1984. (PDF unter: https://schnitzler-briefe.acdh.oeaw.ac.at/)"
}] 