[{
 "type":
 "schnitzler-tagebuch",
 "color":
 "#037a33",
 "filename":
 "entry__1923-05-24",
 "caption":
 "Tagebuch",
 "idno":
 "https://schnitzler-tagebuch.acdh.oeaw.ac.at/entry__1923-05-24.html",
 "head":
 "Tagebuch, 24. Mai 1923",
 "desc":
{"listPerson":
  [
{
 "persName":
 "Benjamin Harz",
 "ref":
 "person_15957"},
 {
 "persName":
 "Dora Michaelis",
 "ref":
 "person_18137"},
 {
 "persName":
 "Marianne Giustiniani",
 "ref":
 "person_21600"},
 {
 "persName":
 "Victor Zuckerkandl",
 "ref":
 "person_21602"}],
 "listBibl":
  [
 {
 "title":
 "Komödie der Verführung. In drei Akten",
 "ref":
 "pmb30205"}
 ],
 "listPlace":
  [
 {
 "placeName":
 "Trelleborg",
 "ref":
 "pmb91934"}
 ,  {
 "placeName":
 "Sassnitz",
 "ref":
 "pmb91661"}
 ,  {
 "placeName":
 "Berlin",
 "ref":
 "pmb168"}
 ]
}
}, {
 "type":
 "schnitzler-orte",
 "color":
 "#045344",
 "filename":
 "entity/168/",
 "caption":
 "Aufenthaltsorte",
 "idno":
 "https://pmb.acdh.oeaw.ac.at/entity/168/",
 "text":
 "Berlin"
}, {
 "type":
 "schnitzler-orte",
 "color":
 "#045344",
 "filename":
 "entity/91934/",
 "caption":
 "Aufenthaltsorte",
 "idno":
 "https://pmb.acdh.oeaw.ac.at/entity/91934/",
 "text":
 "Trelleborg"
}, {
 "type":
 "schnitzler-orte",
 "color":
 "#045344",
 "filename":
 "entity/91661/",
 "caption":
 "Aufenthaltsorte",
 "idno":
 "https://pmb.acdh.oeaw.ac.at/entity/91661/",
 "text":
 "Sassnitz"
}, {
 "type":
 "schnitzler-interviews",
 "color":
 "#3D5A80",
 "filename":
 "I133",
 "caption":
 "Interviews, Meinungen, Proteste",
 "idno":
 "https://schnitzler-interviews.acdh.oeaw.ac.at/I133.html",
 "head":
 "Arthur Schnitzler lämnade Stockholm i går, 24. 5. 1923",
 "desc":
{"listPerson":
  [
{
 "persName":
 "Karin Molander",
 "ref":
 "pmb21528"},
 {
 "persName":
 "Ivar Justus Tengbom",
 "ref":
 "pmb25930"}],
 "listBibl":
  [
 {
 "title":
 "The Affairs of Anatol",
 "ref":
 "pmb32808"}
 ,  {
 "title":
 "Liebelei. Schauspiel in drei Akten",
 "ref":
 "pmb29917"}
 ,  {
 "title":
 "Arthur Schnitzler lämnade Stockholm i går",
 "ref":
 "pmb60065"}
 ,  {
 "title":
 "Svenska Dagbladet",
 "ref":
 "pmb60066"}
 ],
 "listPlace":
  [
 {
 "placeName":
 "Stockholm",
 "ref":
 "pmb1119"}
 ,  {
 "placeName":
 "Kopenhagen",
 "ref":
 "pmb36300"}
 ,  {
 "placeName":
 "Dänemark",
 "ref":
 "pmb43570"}
 ,  {
 "placeName":
 "Österreich",
 "ref":
 "pmb41240"}
 ,  {
 "placeName":
 "Schweden",
 "ref":
 "pmb44335"}
 ,  {
 "placeName":
 "Drottningholm",
 "ref":
 "pmb62282"}
 ,  {
 "placeName":
 "Drottningholms Slottsteater",
 "ref":
 "pmb62289"}
 ],
 "listOrg":
  [
 {
 "orgName":
 "Dramaten",
 "ref":
 "pmb62240"}
 ,  {
 "orgName":
 "Burgtheater",
 "ref":
 "pmb36247"}
 ]
}
}, {
 "type":
 "pollaczek",
 "color":
 "#1e81b0",
 "filename":
 "ckp066",
 "caption":
 "Pollazczek: Schnitzler und ich",
 "idno":
 "https://pollaczek.acdh.oeaw.ac.at/ckp066.html",
 "head":
 "Arthur Schnitzler an Clara Katharina Pollaczek, 22.–24. Mai 1923"
}] 