[{
 "type":
 "schnitzler-tagebuch",
 "color":
 "#037a33",
 "filename":
 "entry__1923-05-13",
 "caption":
 "Tagebuch",
 "idno":
 "https://schnitzler-tagebuch.acdh.oeaw.ac.at/entry__1923-05-13.html",
 "head":
 "Tagebuch, 13. Mai 1923",
 "desc":
{"listPerson":
  [
{
 "persName":
 "B.",
 "ref":
 "person_13328"},
 {
 "persName":
 "Svend Borberg",
 "ref":
 "person_13871"},
 {
 "persName":
 "Georg Brandes",
 "ref":
 "person_13920"},
 {
 "persName":
 "Egbertje Alida Brevée",
 "ref":
 "person_13969"},
 {
 "persName":
 "Theodor Herzl",
 "ref":
 "person_16165"},
 {
 "persName":
 "Sophus Michaëlis",
 "ref":
 "person_18142"},
 {
 "persName":
 "Raymond Poincaré",
 "ref":
 "person_18852"},
 {
 "persName":
 "Romain Rolland",
 "ref":
 "person_19333"},
 {
 "persName":
 "Georges Clemenceau",
 "ref":
 "person_14238"},
 {
 "persName":
 "Valdemar Meisen",
 "ref":
 "person_18051"},
 {
 "persName":
 "Axel Fraenkel",
 "ref":
 "person_15098"},
 {
 "persName":
 "Karin Michaëlis",
 "ref":
 "person_18139"}],
 "listBibl":
  [
 {
 "title":
 "Das Lächeln von Reims",
 "ref":
 "pmb80213"}
 ],
 "listPlace":
  [
 {
 "placeName":
 "Kopenhagen",
 "ref":
 "pmb36300"}
 ,  {
 "placeName":
 "Stockholm",
 "ref":
 "pmb1119"}
 ]
}
}, {
 "type":
 "schnitzler-briefe",
 "color":
 "#A63437",
 "filename":
 "L03665",
 "caption":
 "Briefe mit Autorinnen und Autoren",
 "idno":
 "https://schnitzler-briefe.acdh.oeaw.ac.at/L03665.html",
 "head":
 "Stefan Zweig an Arthur Schnitzler, 13. 5. 1923",
 "desc":
{"listPerson":
  [
{
 "persName":
 "Stefan Zweig",
 "ref":
 "pmb13212"},
 {
 "persName":
 "Arthur Schnitzler",
 "ref":
 "pmb2121"},
 {
 "persName":
 "Stefan Zweig",
 "ref":
 "pmb13212"},
 {
 "persName":
 "Max Krell",
 "ref":
 "pmb11995"},
 {
 "persName":
 "Jakob Wassermann",
 "ref":
 "pmb13055"},
 {
 "persName":
 "Emil Hirsch",
 "ref":
 "pmb295084"},
 {
 "persName":
 "Olga Schnitzler",
 "ref":
 "pmb2173"},
 {
 "persName":
 "Elisabeth Steinrück",
 "ref":
 "pmb2315"}],
 "listBibl":
  [
 {
 "title":
 "Das Gänsemännchen. Roman",
 "ref":
 "pmb30899"}
 ,  {
 "title":
 "?? [Widmungsexemplar eines unbekannten Buchs an Stefan Zweig, 1923]",
 "ref":
 "pmb293719"}
 ,  {
 "title":
 "Das Märchen. Schauspiel in drei Aufzügen",
 "ref":
 "pmb29823"}
 ],
 "listPlace":
  [
 {
 "placeName":
 "Salzburg",
 "ref":
 "pmb30"}
 ,  {
 "placeName":
 "Wien",
 "ref":
 "pmb50"}
 ,  {
 "placeName":
 "Paschinger Schlössl",
 "ref":
 "pmb253003"}
 ,  {
 "placeName":
 "Berlin",
 "ref":
 "pmb168"}
 ,  {
 "placeName":
 "Karlstraße 10",
 "ref":
 "pmb298429"}
 ,  {
 "placeName":
 "München",
 "ref":
 "pmb45258"}
 ],
 "listOrg":
  [
 {
 "orgName":
 "Antiquariat Emil Hirsch",
 "ref":
 "pmb293717"}
 ,  {
 "orgName":
 "S. Fischer Verlag",
 "ref":
 "pmb29639"}
 ]
}
}, {
 "type":
 "wienerschnitzler",
 "color":
 "#6F5106",
 "caption":
 "Wiener Schnitzler",
 "idno":
 "https://wienerschnitzler.org/tag.html#1923-05-13",
 "head":
 "Kopenhagen",
 "desc":
{"listPlace":
  [
 {
 "placeName":
 "Hotel Phönix",
 "ref":
 ""}
 ,  {
 "placeName":
 "Langelinie Pavilion",
 "ref":
 ""}
 ,  {
 "placeName":
 "Meisen’s Klinik",
 "ref":
 ""}
 ,  {
 "placeName":
 "Københavns Hovedbanegård",
 "ref":
 ""}
 ]
}
}, {
 "type":
 "schnitzler-cmif",
 "subtype":
 "#jf7cbca5-b0b6-4bcf-adbf-38e94eed3cb3",
 "color":
 "#654321",
 "caption":
 "Gedruckte Briefwechsel",
 "head":
 "Arthur Schnitzler an Heinrich Schnitzler, 13. 5. 1923",
 "source":
 "Arthur Schnitzler: Briefe 1913–1931. Hrsg. v. Peter Michael Braunwarth, Richard Miklin, Susanne Pertlik und Heinrich Schnitzler. Frankfurt am Main: S. Fischer 1984. (PDF unter: https://schnitzler-briefe.acdh.oeaw.ac.at/)"
}] 