[{
 "type":
 "schnitzler-tagebuch",
 "color":
 "#037a33",
 "filename":
 "entry__1923-05-11",
 "caption":
 "Tagebuch",
 "idno":
 "https://schnitzler-tagebuch.acdh.oeaw.ac.at/entry__1923-05-11.html",
 "head":
 "Tagebuch, 11. Mai 1923",
 "desc":
{"listPerson":
  [
{
 "persName":
 "Louis Leonor Hammerich",
 "ref":
 "person_15885"},
 {
 "persName":
 "Marc Kalckar",
 "ref":
 "person_16657"},
 {
 "persName":
 "Elisabeth Steinrück",
 "ref":
 "person_20386"},
 {
 "persName":
 "Albert Steinrück",
 "ref":
 "person_20383"},
 {
 "persName":
 "Olga Schnitzler",
 "ref":
 "person_19832"}],
 "listPlace":
  [
 {
 "placeName":
 "Kopenhagen",
 "ref":
 "pmb36300"}
 ,  {
 "placeName":
 "Skodsborg",
 "ref":
 "pmb958"}
 ,  {
 "placeName":
 "Marienlyst",
 "ref":
 "pmb959"}
 ,  {
 "placeName":
 "Gilleleje",
 "ref":
 "pmb44252"}
 ,  {
 "placeName":
 "Hillerød",
 "ref":
 "pmb90877"}
 ]
}
}, {
 "type":
 "schnitzler-briefe",
 "color":
 "#A63437",
 "filename":
 "L02398",
 "caption":
 "Briefe mit Autorinnen und Autoren",
 "idno":
 "https://schnitzler-briefe.acdh.oeaw.ac.at/L02398.html",
 "head":
 "Georg Brandes an Arthur Schnitzler, [11. 5. 1923]",
 "desc":
{"listPerson":
  [
{
 "persName":
 "Georg Brandes",
 "ref":
 "pmb10992"},
 {
 "persName":
 "Valdemar Meisen",
 "ref":
 "pmb5530"}],
 "listPlace":
  [
 {
 "placeName":
 "Kopenhagen",
 "ref":
 "pmb36300"}
 ,  {
 "placeName":
 "Allégade",
 "ref":
 "pmb1151"}
 ,  {
 "placeName":
 "Meisen’s Klinik",
 "ref":
 "pmb1152"}
 ]
}
}, {
 "type":
 "schnitzler-orte",
 "color":
 "#045344",
 "filename":
 "entity/58094/",
 "caption":
 "Aufenthaltsorte",
 "idno":
 "https://pmb.acdh.oeaw.ac.at/entity/58094/",
 "head":
 "Hotel Phönix"
}, {
 "type":
 "schnitzler-orte",
 "color":
 "#045344",
 "filename":
 "entity/1153/",
 "caption":
 "Aufenthaltsorte",
 "idno":
 "https://pmb.acdh.oeaw.ac.at/entity/1153/",
 "head":
 "Gilleleje"
}, {
 "type":
 "schnitzler-orte",
 "color":
 "#045344",
 "filename":
 "entity/58010/",
 "caption":
 "Aufenthaltsorte",
 "idno":
 "https://pmb.acdh.oeaw.ac.at/entity/58010/",
 "head":
 "Tivoli [Kopenhagen]"
}, {
 "type":
 "schnitzler-interviews",
 "color":
 "#3D5A80",
 "filename":
 "I118",
 "caption":
 "Interviews, Meinungen, Proteste",
 "idno":
 "https://schnitzler-interviews.acdh.oeaw.ac.at/I118.html",
 "head":
 "Haagen [Falkenfleth]: Arthur Schnitzler i København. En Samtale med
                            den berømte østerrigkse Forfatter, 11. 5. 1923",
 "desc":
{"listPerson":
  [
{
 "persName":
 "Haagen Falkenfleth",
 "ref":
 "pmb16086"},
 {
 "persName":
 "Sophus Michaëlis",
 "ref":
 "pmb12251"},
 {
 "persName":
 "Hans Christian Huus",
 "ref":
 "pmb58959"},
 {
 "persName":
 "Louis Leonor Hammerich",
 "ref":
 "pmb17793"},
 {
 "persName":
 "Clara Augusta Hammerich",
 "ref":
 "pmb17789"},
 {
 "persName":
 "Peter Nansen",
 "ref":
 "pmb2357"},
 {
 "persName":
 "Johann Schnitzler",
 "ref":
 "pmb12695"},
 {
 "persName":
 "Phillip Markbreiter",
 "ref":
 "pmb2473"},
 {
 "persName":
 "Julius Schnitzler",
 "ref":
 "pmb12698"},
 {
 "persName":
 "Markus Hajek",
 "ref":
 "pmb2284"},
 {
 "persName":
 "Niels Thingberg Thomsen",
 "ref":
 "pmb26030"},
 {
 "persName":
 "Viggo Andreas Barfoed",
 "ref":
 "pmb13737"},
 {
 "persName":
 "Henrik Rechendorff",
 "ref":
 "pmb23112"},
 {
 "persName":
 "Torkild Vogel-Jörgensen",
 "ref":
 "pmb26494"}],
 "listBibl":
  [
 {
 "title":
 "Große Szene",
 "ref":
 "pmb31429"}
 ,  {
 "title":
 "Anatol",
 "ref":
 "pmb29935"}
 ,  {
 "title":
 "Arthur Schnitzler i København. En Samtale med den berømte østerrigkse Forfatter",
 "ref":
 "pmb58867"}
 ,  {
 "title":
 "Nationaltidene",
 "ref":
 "pmb58869"}
 ],
 "listPlace":
  [
 {
 "placeName":
 "Kopenhagen",
 "ref":
 "pmb36300"}
 ,  {
 "placeName":
 "Österreich",
 "ref":
 "pmb41240"}
 ,  {
 "placeName":
 "Hotel Phönix",
 "ref":
 "pmb58094"}
 ,  {
 "placeName":
 "Berlin",
 "ref":
 "pmb168"}
 ,  {
 "placeName":
 "Wien",
 "ref":
 "pmb50"}
 ,  {
 "placeName":
 "Københavns Hovedbanegård",
 "ref":
 "pmb58656"}
 ,  {
 "placeName":
 "Dänemark",
 "ref":
 "pmb43570"}
 ,  {
 "placeName":
 "Skodsborg",
 "ref":
 "pmb958"}
 ,  {
 "placeName":
 "Marienlyst",
 "ref":
 "pmb959"}
 ,  {
 "placeName":
 "Ven",
 "ref":
 "pmb36140"}
 ,  {
 "placeName":
 "Kullen",
 "ref":
 "pmb58871"}
 ,  {
 "placeName":
 "Gilleleje",
 "ref":
 "pmb44252"}
 ,  {
 "placeName":
 "Seeland",
 "ref":
 "pmb1154"}
 ,  {
 "placeName":
 "Det Kongelige Teater",
 "ref":
 "pmb1079"}
 ,  {
 "placeName":
 "Italien",
 "ref":
 "pmb40306"}
 ,  {
 "placeName":
 "Niederlande",
 "ref":
 "pmb44016"}
 ],
 "listOrg":
  [
 {
 "orgName":
 "Studentersamfundet",
 "ref":
 "pmb29482"}
 ,  {
 "orgName":
 "Dansk forfatterforening",
 "ref":
 "pmb58975"}
 ]
}
}, {
 "type":
 "schnitzler-interviews",
 "color":
 "#3D5A80",
 "filename":
 "I071",
 "caption":
 "Interviews, Meinungen, Proteste",
 "idno":
 "https://schnitzler-interviews.acdh.oeaw.ac.at/I071.html",
 "head":
 "Emil Bønnelycke: Digteren og Dramatikeren Arthur Schnitzler i
                            Kjøbenhavn, 11. 5. 1923",
 "desc":
{"listPerson":
  [
{
 "persName":
 "Emil Bønnelycke",
 "ref":
 "pmb5375"},
 {
 "persName":
 "Viggo Petersen",
 "ref":
 "pmb22464"},
 {
 "persName":
 "Georg Brandes",
 "ref":
 "pmb10992"},
 {
 "persName":
 "Voltaire",
 "ref":
 "pmb3124"},
 {
 "persName":
 "Karin Michaëlis",
 "ref":
 "pmb4408"},
 {
 "persName":
 "Sophus Michaëlis",
 "ref":
 "pmb12251"},
 {
 "persName":
 "Henrik Pontoppidan",
 "ref":
 "pmb5380"},
 {
 "persName":
 "Peter Nansen",
 "ref":
 "pmb2357"},
 {
 "persName":
 "Johannes Vilhelm Jensen",
 "ref":
 "pmb11820"},
 {
 "persName":
 "Oswald Spengler",
 "ref":
 "pmb12819"},
 {
 "persName":
 "Friedrich Nietzsche",
 "ref":
 "pmb12358"},
 {
 "persName":
 "Clara Augusta Hammerich",
 "ref":
 "pmb17789"},
 {
 "persName":
 "Louis Leonor Hammerich",
 "ref":
 "pmb17793"},
 {
 "persName":
 "Silman Jay Kaufman",
 "ref":
 "pmb19210"},
 {
 "persName":
 "Wendell Philipps Dodge",
 "ref":
 "pmb58295"},
 {
 "persName":
 "Gertrud Eysoldt",
 "ref":
 "pmb11284"},
 {
 "persName":
 "Maximilian Sladek",
 "ref":
 "pmb4441"}],
 "listBibl":
  [
 {
 "title":
 "Paracelsus. Versspiel in einem Akt",
 "ref":
 "pmb30403"}
 ,  {
 "title":
 "Af Livets Komedie. Udvalgte Noveller og Enaktere",
 "ref":
 "pmb33233"}
 ,  {
 "title":
 "Anatol",
 "ref":
 "pmb29935"}
 ,  {
 "title":
 "Reigen. Zehn Dialoge",
 "ref":
 "pmb29855"}
 ,  {
 "title":
 "Professor Bernhardi. Komödie in fünf Akten",
 "ref":
 "pmb30203"}
 ,  {
 "title":
 "Voltaire und sein Jahrhundert",
 "ref":
 "pmb33237"}
 ,  {
 "title":
 "Æbelø",
 "ref":
 "pmb33235"}
 ,  {
 "title":
 "Der Untergang des Abendlandes",
 "ref":
 "pmb33229"}
 ,  {
 "title":
 "Also sprach Zarathustra",
 "ref":
 "pmb30611"}
 ,  {
 "title":
 "Die dreifache Warnung",
 "ref":
 "pmb33061"}
 ,  {
 "title":
 "Die letzten Masken",
 "ref":
 "pmb29877"}
 ,  {
 "title":
 "Der Weg ins Freie. Roman",
 "ref":
 "pmb29923"}
 ,  {
 "title":
 "Zum großen Wurstel",
 "ref":
 "pmb29951"}
 ,  {
 "title":
 "Sobraniye sochineniy [Gesammelte Werke]",
 "ref":
 "pmb36067"}
 ,  {
 "title":
 "Gesammelte Werke",
 "ref":
 "pmb30313"}
 ,  {
 "title":
 "Ein Kirchenraub. Erzählungen",
 "ref":
 "pmb33231"}
 ,  {
 "title":
 "Tagebuch",
 "ref":
 "pmb33243"}
 ,  {
 "title":
 "Der Dichter und Dramatiker Arthur Schnitzler in Kopenhagen",
 "ref":
 "pmb33227"}
 ,  {
 "title":
 "Politiken",
 "ref":
 "pmb36357"}
 ],
 "listPlace":
  [
 {
 "placeName":
 "Kopenhagen",
 "ref":
 "pmb36300"}
 ,  {
 "placeName":
 "Dänemark",
 "ref":
 "pmb43570"}
 ,  {
 "placeName":
 "Österreich",
 "ref":
 "pmb41240"}
 ,  {
 "placeName":
 "Wien",
 "ref":
 "pmb50"}
 ,  {
 "placeName":
 "Warnemünde",
 "ref":
 "pmb49158"}
 ,  {
 "placeName":
 "Ostsee",
 "ref":
 "pmb44599"}
 ,  {
 "placeName":
 "Prater",
 "ref":
 "pmb8"}
 ,  {
 "placeName":
 "Falster",
 "ref":
 "pmb49217"}
 ,  {
 "placeName":
 "Berlin",
 "ref":
 "pmb168"}
 ,  {
 "placeName":
 "Masnedsundbrücke",
 "ref":
 "pmb1088"}
 ,  {
 "placeName":
 "Amerika",
 "ref":
 "pmb175"}
 ,  {
 "placeName":
 "Russland",
 "ref":
 "pmb34438"}
 ,  {
 "placeName":
 "England",
 "ref":
 "pmb254"}
 ,  {
 "placeName":
 "Skandinavien",
 "ref":
 "pmb745"}
 ,  {
 "placeName":
 "Niederlande",
 "ref":
 "pmb44016"}
 ,  {
 "placeName":
 "Finnland",
 "ref":
 "pmb44244"}
 ,  {
 "placeName":
 "Deutschland",
 "ref":
 "pmb151"}
 ,  {
 "placeName":
 "München",
 "ref":
 "pmb45258"}
 ,  {
 "placeName":
 "Belasco Theatre",
 "ref":
 "pmb1080"}
 ,  {
 "placeName":
 "The Green Room Club",
 "ref":
 "pmb1081"}
 ,  {
 "placeName":
 "Gedser",
 "ref":
 "pmb58984"}
 ],
 "listOrg":
  [
 {
 "orgName":
 "Kammerspiele Berlin",
 "ref":
 "pmb37177"}
 ,  {
 "orgName":
 "Studentersamfundet",
 "ref":
 "pmb29482"}
 ,  {
 "orgName":
 "Det Kongelige Teater",
 "ref":
 "pmb58993"}
 ,  {
 "orgName":
 "Burgtheater",
 "ref":
 "pmb36247"}
 ,  {
 "orgName":
 "Kleines Schauspielhaus",
 "ref":
 "pmb61824"}
 ,  {
 "orgName":
 "Residenz-Theater Berlin",
 "ref":
 "pmb61685"}
 ,  {
 "orgName":
 "Trianon-Theater",
 "ref":
 "pmb61673"}
 ,  {
 "orgName":
 "R. Ioganson",
 "ref":
 "pmb59843"}
 ,  {
 "orgName":
 "V. M. Sablin",
 "ref":
 "pmb59870"}
 ,  {
 "orgName":
 "Münchner Schauspielhaus",
 "ref":
 "pmb47085"}
 ,  {
 "orgName":
 "Politiken",
 "ref":
 "pmb29628"}
 ]
}
}, {
 "type":
 "schnitzler-interviews",
 "color":
 "#3D5A80",
 "filename":
 "I115",
 "caption":
 "Interviews, Meinungen, Proteste",
 "idno":
 "https://schnitzler-interviews.acdh.oeaw.ac.at/I115.html",
 "head":
 "Ucello [=Henrik Rechendorff]: En Samtale med Arthur Schnitzler,
                            11. 5. 1923",
 "desc":
{"listPerson":
  [
{
 "persName":
 "Henrik Rechendorff",
 "ref":
 "pmb23112"},
 {
 "persName":
 "Arthur Conan Doyle",
 "ref":
 "pmb3490"},
 {
 "persName":
 "Louis Leonor Hammerich",
 "ref":
 "pmb17793"},
 {
 "persName":
 "Clara Augusta Hammerich",
 "ref":
 "pmb17789"},
 {
 "persName":
 "Marc Kalckar",
 "ref":
 "pmb19016"},
 {
 "persName":
 "Peter Nansen",
 "ref":
 "pmb2357"},
 {
 "persName":
 "Olga Schnitzler",
 "ref":
 "pmb2173"},
 {
 "persName":
 "Sophus Michaëlis",
 "ref":
 "pmb12251"},
 {
 "persName":
 "Hans Christian Huus",
 "ref":
 "pmb58959"},
 {
 "persName":
 "Niels Thingberg Thomsen",
 "ref":
 "pmb26030"},
 {
 "persName":
 "Viggo Andreas Barfoed",
 "ref":
 "pmb13737"},
 {
 "persName":
 "Torkild Vogel-Jörgensen",
 "ref":
 "pmb26494"},
 {
 "persName":
 "Haagen Falkenfleth",
 "ref":
 "pmb16086"}],
 "listBibl":
  [
 {
 "title":
 "Die Frau des Weisen. Erzählung",
 "ref":
 "pmb30075"}
 ,  {
 "title":
 "Anatol",
 "ref":
 "pmb29935"}
 ,  {
 "title":
 "Weihnachts-Einkäufe",
 "ref":
 "pmb30163"}
 ,  {
 "title":
 "Die Hirtenflöte. Novelle",
 "ref":
 "pmb30213"}
 ,  {
 "title":
 "Das Schicksal des Freiherrn von Leisenbohg. Novellette",
 "ref":
 "pmb30057"}
 ,  {
 "title":
 "Der Weg ins Freie. Roman",
 "ref":
 "pmb29923"}
 ,  {
 "title":
 "Große Szene",
 "ref":
 "pmb31429"}
 ,  {
 "title":
 "En Samtale med Arthur Schnitzler",
 "ref":
 "pmb58627"}
 ,  {
 "title":
 "Berlingske",
 "ref":
 "pmb58625"}
 ],
 "listPlace":
  [
 {
 "placeName":
 "Hotel Phönix",
 "ref":
 "pmb58094"}
 ,  {
 "placeName":
 "Wien",
 "ref":
 "pmb50"}
 ,  {
 "placeName":
 "Berlin",
 "ref":
 "pmb168"}
 ,  {
 "placeName":
 "Niederlande",
 "ref":
 "pmb44016"}
 ,  {
 "placeName":
 "Kopenhagen",
 "ref":
 "pmb36300"}
 ,  {
 "placeName":
 "Marienlyst",
 "ref":
 "pmb959"}
 ,  {
 "placeName":
 "Skodsborg",
 "ref":
 "pmb958"}
 ,  {
 "placeName":
 "Schweden",
 "ref":
 "pmb44335"}
 ,  {
 "placeName":
 "Ven",
 "ref":
 "pmb36140"}
 ,  {
 "placeName":
 "Gilleleje",
 "ref":
 "pmb44252"}
 ,  {
 "placeName":
 "Dänemark",
 "ref":
 "pmb43570"}
 ,  {
 "placeName":
 "Det Kongelige Teater",
 "ref":
 "pmb1079"}
 ,  {
 "placeName":
 "Dolomiten",
 "ref":
 "pmb58636"}
 ,  {
 "placeName":
 "Italien",
 "ref":
 "pmb40306"}
 ,  {
 "placeName":
 "Baden bei Wien",
 "ref":
 "pmb662"}
 ],
 "listOrg":
  [
 {
 "orgName":
 "Studentersamfundet",
 "ref":
 "pmb29482"}
 ]
}
}, {
 "type":
 "schnitzler-interviews",
 "color":
 "#3D5A80",
 "filename":
 "I116",
 "caption":
 "Interviews, Meinungen, Proteste",
 "idno":
 "https://schnitzler-interviews.acdh.oeaw.ac.at/I116.html",
 "head":
 "Thor [=Torkild Vogel-Jörgensen]: Arthur Schnitzler. En Samtale med en
                            beremt Wiener, 11. 5. 1923",
 "desc":
{"listPerson":
  [
{
 "persName":
 "Torkild Vogel-Jörgensen",
 "ref":
 "pmb26494"},
 {
 "persName":
 "Betty Nansen",
 "ref":
 "pmb2910"},
 {
 "persName":
 "Louis Leonor Hammerich",
 "ref":
 "pmb17793"},
 {
 "persName":
 "Hans Christian Huus",
 "ref":
 "pmb58959"},
 {
 "persName":
 "Vibeke Inger Mackeprang",
 "ref":
 "pmb58962"},
 {
 "persName":
 "Sophus Michaëlis",
 "ref":
 "pmb12251"},
 {
 "persName":
 "Peter Nansen",
 "ref":
 "pmb2357"},
 {
 "persName":
 "Clara Augusta Hammerich",
 "ref":
 "pmb17789"},
 {
 "persName":
 "Marc Kalckar",
 "ref":
 "pmb19016"},
 {
 "persName":
 "Niels Thingberg Thomsen",
 "ref":
 "pmb26030"},
 {
 "persName":
 "Viggo Andreas Barfoed",
 "ref":
 "pmb13737"},
 {
 "persName":
 "Henrik Rechendorff",
 "ref":
 "pmb23112"},
 {
 "persName":
 "Haagen Falkenfleth",
 "ref":
 "pmb16086"}],
 "listBibl":
  [
 {
 "title":
 "Anatol",
 "ref":
 "pmb29935"}
 ,  {
 "title":
 "Liebelei. Schauspiel in drei Akten",
 "ref":
 "pmb29917"}
 ,  {
 "title":
 "Reigen. Zehn Dialoge",
 "ref":
 "pmb29855"}
 ,  {
 "title":
 "Große Szene",
 "ref":
 "pmb31429"}
 ,  {
 "title":
 "Anatol. Fem enaktere",
 "ref":
 "pmb63610"}
 ,  {
 "title":
 "Arthur Schnitzler. En Samtale med en beremt Wiener [1923]",
 "ref":
 "pmb58648"}
 ,  {
 "title":
 "København",
 "ref":
 "pmb58592"}
 ],
 "listPlace":
  [
 {
 "placeName":
 "Københavns Hovedbanegård",
 "ref":
 "pmb58656"}
 ,  {
 "placeName":
 "Österreich",
 "ref":
 "pmb41240"}
 ,  {
 "placeName":
 "Kopenhagen",
 "ref":
 "pmb36300"}
 ,  {
 "placeName":
 "Dänemark",
 "ref":
 "pmb43570"}
 ,  {
 "placeName":
 "Deutschland",
 "ref":
 "pmb151"}
 ,  {
 "placeName":
 "Det Kongelige Teater",
 "ref":
 "pmb1079"}
 ,  {
 "placeName":
 "Dagmar Teatret",
 "ref":
 "pmb1144"}
 ,  {
 "placeName":
 "Berlin",
 "ref":
 "pmb168"}
 ,  {
 "placeName":
 "Hotel Phönix",
 "ref":
 "pmb58094"}
 ,  {
 "placeName":
 "Skodsborg",
 "ref":
 "pmb958"}
 ],
 "listOrg":
  [
 {
 "orgName":
 "København",
 "ref":
 "pmb58652"}
 ,  {
 "orgName":
 "Studentersamfundet",
 "ref":
 "pmb29482"}
 ,  {
 "orgName":
 "Betty Nansen-Teatret",
 "ref":
 "pmb58660"}
 ]
}
}, {
 "type":
 "pollaczek",
 "color":
 "#1e81b0",
 "filename":
 "ckp062",
 "caption":
 "Pollaczek: Schnitzler und ich",
 "idno":
 "https://pollaczek.acdh.oeaw.ac.at/ckp062.html",
 "head":
 "Arthur Schnitzler an Clara Katharina Pollaczek, 8.–14. Mai 1923"
}, {
 "type":
 "schnitzler-cmif",
 "subtype":
 "#n0827e77-245d-4359-a0b0-5b601a5370ee",
 "color":
 "#654321",
 "caption":
 "Gedruckte Briefwechsel",
 "head":
 "Arthur Schnitzler an Hedy Kempny, 11.5.1923",
 "source":
 "Hedy Kempny und Arthur Schnitzler: Das Mädchen mit den dreizehn Seelen. Eine Korrespondenz ergänzt durch Blätter aus Hedy Kempnys Tagebuch sowie durch eine Auswahl ihrer Erzählungen. Hg. v. Heinz P. Adamek. Reinbek bei Hamburg: Rowohlt 1984. (Neue Frau)"
}, {
 "type":
 "kalliope-verbund",
 "color":
 "#003574",
 "caption":
 "Kalliope Verbundkatalog",
 "idno":
 "http://kalliope-verbund.info/DE-2498-HS00037104",
 "head":
 "Jacoby, Siegfried an Schnitzler, Arthur [Briefe]",
 "text":
 "2 Bl."
}] 