[{
 "type":
 "schnitzler-tagebuch",
 "color":
 "#037a33",
 "filename":
 "entry__1923-01-26",
 "caption":
 "Tagebuch",
 "idno":
 "https://schnitzler-tagebuch.acdh.oeaw.ac.at/entry__1923-01-26.html",
 "head":
 "Tagebuch, 26. Januar 1923",
 "desc":
{"listPerson":
  [
{
 "persName":
 "Gustav Bellak",
 "ref":
 "person_13569"},
 {
 "persName":
 "Walter Braunfels",
 "ref":
 "person_13940"},
 {
 "persName":
 "Lili Schnitzler",
 "ref":
 "person_14130"},
 {
 "persName":
 "Gertrude Grün",
 "ref":
 "person_15696"},
 {
 "persName":
 "Gisela Hajek",
 "ref":
 "person_15854"},
 {
 "persName":
 "Vilma Lichtenstern",
 "ref":
 "person_17510"},
 {
 "persName":
 "Alexander Moissi",
 "ref":
 "person_18209"},
 {
 "persName":
 "Hansi Niese",
 "ref":
 "person_18450"},
 {
 "persName":
 "Max Reinhardt",
 "ref":
 "person_19154"},
 {
 "persName":
 "Heinrich Schnitzler",
 "ref":
 "person_19822"},
 {
 "persName":
 "Julius Schnitzler",
 "ref":
 "person_19827"},
 {
 "persName":
 "Louise Schnitzler",
 "ref":
 "person_19831"},
 {
 "persName":
 "William Shakespeare",
 "ref":
 "person_20078"},
 {
 "persName":
 "Josef Werkmann",
 "ref":
 "person_21245"},
 {
 "persName":
 "Johann Schnitzler",
 "ref":
 "person_19824"},
 {
 "persName":
 "Wilhelm Thaller",
 "ref":
 "person_20690"},
 {
 "persName":
 "Thomas Carlyle",
 "ref":
 "person_14137"},
 {
 "persName":
 "Olga Schnitzler",
 "ref":
 "person_19832"}],
 "listBibl":
  [
 {
 "title":
 "Traumnovelle",
 "ref":
 "pmb30851"}
 ,  {
 "title":
 "Te Deum op. 32",
 "ref":
 "pmb80227"}
 ,  {
 "title":
 "Die Französische Revolution",
 "ref":
 "pmb80278"}
 ,  {
 "title":
 "Liebessünden. Ländliches Drama",
 "ref":
 "pmb31387"}
 ],
 "listPlace":
  [
 {
 "placeName":
 "Berlin",
 "ref":
 "pmb168"}
 ,  {
 "placeName":
 "München",
 "ref":
 "pmb45258"}
 ,  {
 "placeName":
 "Teplice",
 "ref":
 "pmb955"}
 ,  {
 "placeName":
 "Paris",
 "ref":
 "pmb182"}
 ,  {
 "placeName":
 "Chur",
 "ref":
 "pmb2448"}
 ,  {
 "placeName":
 "Baden-Baden",
 "ref":
 "pmb228"}
 ,  {
 "placeName":
 "London",
 "ref":
 "pmb224"}
 ]
}
}, {
 "type":
 "wienerschnitzler",
 "color":
 "#ECDA98",
 "caption":
 "Wiener Schnitzler",
 "idno":
 "https://wienerschnitzler.org/tag.html#1923-01-26",
 "head":
 "Wien",
 "desc":
{"listPlace":
  [
 {
 "placeName":
 "VI., Mariahilf",
 "ref":
 ""}
 ,  {
 "placeName":
 "VIII., Josefstadt",
 "ref":
 ""}
 ,  {
 "placeName":
 "XVIII., Währing",
 "ref":
 ""}
 ]
}
}, {
 "type":
 "schnitzler-kultur",
 "color":
 "#6B4C5A",
 "filename":
 "pmb210205",
 "caption":
 "Kulturveranstaltungen",
 "idno":
 "https://schnitzler-kultur.acdh.oeaw.ac.at/pmb210205.html",
 "head":
 "Aufführung von Liebessünden,
                        26.1.1923",
 "desc":
{"listOrg":
  [
 {
 "orgName":
 "Raimund-Theater",
 "ref":
 ""}
 ],
 "listBibl":
  [
 {
 "title":
 "Liebessünden. Ländliches Drama",
 "ref":
 ""}
 ],
 "listPerson":
  [
{
 "persName":
 "Heinrich Schnitzler",
 "ref":
 ""},
 {
 "persName":
 "Arthur Schnitzler",
 "ref":
 ""}],
 "listPlace":
  [
 {
 "placeName":
 "Raimund-Theater",
 "ref":
 ""}
 ]
}
}, {
 "type":
 "schnitzler-traeume",
 "subtype":
 "#ISBN978-3-8353-1029-2",
 "color":
 "#1193CC",
 "caption":
 "Traumtagebuch",
 "head":
 "Traum vom 26. Januar 1923",
 "source":
 "Arthur Schnitzler: Träume. Das Traumtagebuch 1875–1931. Herausgegeben von Peter Michael Braunwarth und Leo A. Lensing. Göttingen: Wallstein 2012 (Bibliothek Janowitz, Bd. 20)"
}] 