[{
 "type":
 "schnitzler-tagebuch",
 "color":
 "#037a33",
 "filename":
 "entry__1923-02-23",
 "caption":
 "Tagebuch",
 "idno":
 "https://schnitzler-tagebuch.acdh.oeaw.ac.at/entry__1923-02-23.html",
 "head":
 "Tagebuch, 23. Februar 1923",
 "desc":
{"listPerson":
  [
{
 "persName":
 "Arnold Korff",
 "ref":
 "person_17046"},
 {
 "persName":
 "Vilma Lichtenstern",
 "ref":
 "person_17510"},
 {
 "persName":
 "Heinrich Schnitzler",
 "ref":
 "person_19822"},
 {
 "persName":
 "Oscar Wilde",
 "ref":
 "person_21325"}],
 "listBibl":
  [
 {
 "title":
 "Komödie der Worte. Drei Einakter",
 "ref":
 "pmb30717"}
 ,  {
 "title":
 "Eine Frau ohne Bedeutung",
 "ref":
 "pmb77596"}
 ],
 "listPlace":
  [
 {
 "placeName":
 "Edlach",
 "ref":
 "pmb470"}
 ]
}
}, {
 "type":
 "URL",
 "subtype":
 "wienerschnitzler",
 "head":
 "Wien",
 "desc":
{"listPlace":
  [
 {
 "placeName":
 "IX., Alsergrund",
 "ref":
 ""}
 ,  {
 "placeName":
 "XVIII., Währing",
 "ref":
 ""}
 ]
}
}, {
 "type":
 "schnitzler-bahr",
 "color":
 "#639FF9",
 "filename":
 "L041674",
 "caption":
 "Schnitzler/Bahr",
 "idno":
 "https://schnitzler-bahr.acdh.oeaw.ac.at/L041674.html",
 "head":
 "Olga an Arthur Schnitzler, 23. 2. 1923",
 "desc":
{"listPerson":
  [
{
 "persName":
 "Olga Schnitzler",
 "ref":
 "pmb2173"},
 {
 "persName":
 "Heinrich Schnitzler",
 "ref":
 "pmb12692"},
 {
 "persName":
 "Lili Schnitzler",
 "ref":
 "pmb2238"},
 {
 "persName":
 "Margarethe Lichtenstein",
 "ref":
 "pmb27973"},
 {
 "persName":
 "??",
 "ref":
 "pmb27736"},
 {
 "persName":
 "Sophie Salz",
 "ref":
 "pmb23923"},
 {
 "persName":
 "Julius Wolfgang Schülein",
 "ref":
 "pmb12753"},
 {
 "persName":
 "Suzanne Schülein",
 "ref":
 "pmb24710"},
 {
 "persName":
 "Friedrich Gundolf",
 "ref":
 "pmb3824"},
 {
 "persName":
 "Hermann Bahr",
 "ref":
 "pmb10815"},
 {
 "persName":
 "Stefan George",
 "ref":
 "pmb2437"},
 {
 "persName":
 "Aristoteles",
 "ref":
 "pmb13474"},
 {
 "persName":
 "Kurt Hildebrandt",
 "ref":
 "pmb5088"},
 {
 "persName":
 "Platon",
 "ref":
 "pmb4336"},
 {
 "persName":
 "Sigmund Freud",
 "ref":
 "pmb11370"},
 {
 "persName":
 "Hugo von Hofmannsthal",
 "ref":
 "pmb11740"},
 {
 "persName":
 "Richard Beer-Hofmann",
 "ref":
 "pmb10863"},
 {
 "persName":
 "Arnold Schönberg",
 "ref":
 "pmb12743"},
 {
 "persName":
 "Felix von Weingartner",
 "ref":
 "pmb13075"},
 {
 "persName":
 "Jens Peter Jacobsen",
 "ref":
 "pmb11809"}],
 "listBibl":
  [
 {
 "title":
 "Grillparzer",
 "ref":
 "pmb30015"}
 ,  {
 "title":
 "Norm und Verfall des Staates",
 "ref":
 "pmb32882"}
 ,  {
 "title":
 "Der Thor und der Tod",
 "ref":
 "pmb30279"}
 ,  {
 "title":
 "Frau Fönss",
 "ref":
 "pmb32880"}
 ],
 "listPlace":
  [
 {
 "placeName":
 "Baden-Baden",
 "ref":
 "pmb228"}
 ,  {
 "placeName":
 "Wien",
 "ref":
 "pmb50"}
 ,  {
 "placeName":
 "Bühlerhöhe",
 "ref":
 "pmb1016"}
 ,  {
 "placeName":
 "Italien",
 "ref":
 "pmb40306"}
 ,  {
 "placeName":
 "Österreich",
 "ref":
 "pmb41240"}
 ,  {
 "placeName":
 "Pension Jaeger",
 "ref":
 "pmb811"}
 ,  {
 "placeName":
 "Pension Zeppelin",
 "ref":
 "pmb1017"}
 ,  {
 "placeName":
 "München",
 "ref":
 "pmb45258"}
 ,  {
 "placeName":
 "Dänemark",
 "ref":
 "pmb43570"}
 ]
}
}, {
 "type":
 "schnitzler-events",
 "color":
 "#9BC53D",
 "filename":
 "entity/210215/",
 "caption":
 "Ereignisse in der PMB",
 "idno":
 "https://pmb.acdh.oeaw.ac.at/entity/210215/",
 "head":
 "Aufführung von Eine Frau ohne Bedeutung, 23.2.1923",
 "desc":
{"listOrg":
  [
 {
 "orgName":
 "Neue Wiener Bühne",
 "ref":
 ""}
 ],
 "listBibl":
  [
 {
 "title":
 "Eine Frau ohne Bedeutung",
 "ref":
 ""}
 ],
 "listPerson":
  [
{
 "persName":
 "Arnold Korff",
 "ref":
 ""},
 {
 "persName":
 "Arthur Schnitzler",
 "ref":
 ""}],
 "listPlace":
  [
 {
 "placeName":
 "Neue Wiener Bühne",
 "ref":
 ""}
 ]
}
}, {
 "type":
 "schnitzler-cmif",
 "subtype":
 "#hbas_0a380dfe-61d4-4b9e-8641-01eba8e50777",
 "color":
 "#654321",
 "caption":
 "Gedruckte Briefwechsel",
 "head":
 "Olga Schnitzler an Arthur Schnitzler, 23.2.1923",
 "source":
 "Hermann Bahr, Arthur Schnitzler. Briefwechsel, Aufzeichnungen, Dokumente 1891–1931. Herausgegeben von Kurt Ifkovits, Martin Anton Müller. Göttingen: Wallstein Verlag 2018"
}] 