[{
 "type":
 "schnitzler-tagebuch",
 "color":
 "#037a33",
 "filename":
 "entry__1923-12-08",
 "caption":
 "Tagebuch",
 "idno":
 "https://schnitzler-tagebuch.acdh.oeaw.ac.at/entry__1923-12-08.html",
 "head":
 "Tagebuch, 8. Dezember 1923",
 "desc":
{"listPerson":
  [
{
 "persName":
 "Raoul Auernheimer",
 "ref":
 "person_13305"},
 {
 "persName":
 "Ernst Benedikt",
 "ref":
 "person_13589"},
 {
 "persName":
 "Georges Duhamel",
 "ref":
 "person_14540"},
 {
 "persName":
 "Ernst Lothar",
 "ref":
 "person_17694"},
 {
 "persName":
 "Hans Müller",
 "ref":
 "person_18297"},
 {
 "persName":
 "Raymond Poincaré",
 "ref":
 "person_18852"},
 {
 "persName":
 "Josef Redlich",
 "ref":
 "person_19096"},
 {
 "persName":
 "Grete von Urbanitzky-Passini",
 "ref":
 "person_20890"},
 {
 "persName":
 "Edmund Wengraf",
 "ref":
 "person_21234"},
 {
 "persName":
 "Berta Zuckerkandl",
 "ref":
 "person_21594"},
 {
 "persName":
 "Theodor Reik",
 "ref":
 "person_19135"},
 {
 "persName":
 "Gisela von Berger",
 "ref":
 "person_13628"}],
 "listBibl":
  [
 {
 "title":
 "Komödie der Verführung. In drei Akten",
 "ref":
 "pmb30205"}
 ,  {
 "title":
 "Arthur Schnitzler als Psycholog",
 "ref":
 "pmb81159"}
 ,  {
 "title":
 "Der eigene und der fremde Gott",
 "ref":
 "pmb81160"}
 ]
}
}, {
 "type":
 "schnitzler-orte",
 "color":
 "#045344",
 "caption":
 "Aufenthaltsorte",
 "head":
 "Wien",
 "desc":
{"listPlace":
  [
 {
 "placeName":
 "I., Innere Stadt",
 "ref":
 ""}
 ,  {
 "placeName":
 "XVIII., Währing",
 "ref":
 ""}
 ]
}
}, {
 "type":
 "schnitzler-interviews",
 "color":
 "#3D5A80",
 "filename":
 "I026",
 "caption":
 "Interviews, Meinungen, Proteste",
 "idno":
 "https://schnitzler-interviews.acdh.oeaw.ac.at/I026.html",
 "head":
 "Paul Wertheimer: Begegnung mit Artur Schnitzler, 8. 12. 1923",
 "desc":
{"listPerson":
  [
{
 "persName":
 "Paul Wertheimer",
 "ref":
 "pmb2888"},
 {
 "persName":
 "Johann Strauss",
 "ref":
 "pmb12867"},
 {
 "persName":
 "Franz Peter Schubert",
 "ref":
 "pmb12729"},
 {
 "persName":
 "Karl Schönherr",
 "ref":
 "pmb12749"},
 {
 "persName":
 "Theodor Herzl",
 "ref":
 "pmb11673"},
 {
 "persName":
 "Franz Grillparzer",
 "ref":
 "pmb11518"},
 {
 "persName":
 "Ferdinand Raimund",
 "ref":
 "pmb12468"},
 {
 "persName":
 "Anna Wertheimer",
 "ref":
 "pmb29041"},
 {
 "persName":
 "Siegfried Trebitsch",
 "ref":
 "pmb12968"},
 {
 "persName":
 "Hedy Kempny",
 "ref":
 "pmb19262"}],
 "listBibl":
  [
 {
 "title":
 "Brüder im Geiste. Ein Kulturbilderbuch",
 "ref":
 "pmb32991"}
 ,  {
 "title":
 "Der Weg ins Freie. Roman",
 "ref":
 "pmb29923"}
 ,  {
 "title":
 "Liebelei. Schauspiel in drei Akten",
 "ref":
 "pmb29917"}
 ,  {
 "title":
 "Das neue Lied",
 "ref":
 "pmb30655"}
 ,  {
 "title":
 "Lieutenant Gustl. Novelle",
 "ref":
 "pmb29853"}
 ,  {
 "title":
 "Anatol",
 "ref":
 "pmb29935"}
 ,  {
 "title":
 "Casanovas Heimfahrt",
 "ref":
 "pmb30971"}
 ,  {
 "title":
 "Der blinde Geronimo und sein Bruder",
 "ref":
 "pmb30649"}
 ,  {
 "title":
 "Sterben. Novelle",
 "ref":
 "pmb30117"}
 ,  {
 "title":
 "Das Vermächtnis. Schauspiel in drei Akten",
 "ref":
 "pmb30219"}
 ,  {
 "title":
 "Der Schleier der Beatrice. Schauspiel in fünf Akten",
 "ref":
 "pmb29857"}
 ,  {
 "title":
 "Der grüne Kakadu. Groteske in einem Akt",
 "ref":
 "pmb29843"}
 ,  {
 "title":
 "Der Ruf des Lebens. Schauspiel in drei Akten",
 "ref":
 "pmb29905"}
 ,  {
 "title":
 "Die letzten Masken",
 "ref":
 "pmb29877"}
 ,  {
 "title":
 "Frau Bertha Garlan. Roman",
 "ref":
 "pmb30486"}
 ,  {
 "title":
 "Komödie der Worte. Drei Einakter",
 "ref":
 "pmb30717"}
 ,  {
 "title":
 "Das weite Land. Tragikomödie in fünf Akten",
 "ref":
 "pmb30207"}
 ,  {
 "title":
 "Der junge Medardus. Dramatische Historie in einem Vorspiel und fünf Aufzügen",
 "ref":
 "pmb29937"}
 ,  {
 "title":
 "König Ottokars Glück und Ende",
 "ref":
 "pmb31633"}
 ,  {
 "title":
 "Der einsame Weg. Schauspiel in fünf Akten",
 "ref":
 "pmb29985"}
 ,  {
 "title":
 "Buch der Sprüche und Bedenken",
 "ref":
 "pmb30053"}
 ,  {
 "title":
 "Begegnung mit Artur Schnitzler",
 "ref":
 "pmb32989"}
 ,  {
 "title":
 "Neue Freie Presse",
 "ref":
 "pmb36374"}
 ],
 "listPlace":
  [
 {
 "placeName":
 "Pötzleinsdorf",
 "ref":
 "pmb169"}
 ,  {
 "placeName":
 "Salmannsdorf",
 "ref":
 "pmb242"}
 ,  {
 "placeName":
 "Wienerwald",
 "ref":
 "pmb40876"}
 ,  {
 "placeName":
 "Sommerhaidenweg",
 "ref":
 "pmb243"}
 ,  {
 "placeName":
 "Donau",
 "ref":
 "pmb59370"}
 ,  {
 "placeName":
 "Wien",
 "ref":
 "pmb50"}
 ,  {
 "placeName":
 "Stilfser Joch",
 "ref":
 "pmb41945"}
 ,  {
 "placeName":
 "Hotel Genziana",
 "ref":
 "pmb59380"}
 ,  {
 "placeName":
 "Neustifter Friedhof (aufgelassener Standort)",
 "ref":
 "pmb1037"}
 ,  {
 "placeName":
 "Riesenrad",
 "ref":
 "pmb1035"}
 ,  {
 "placeName":
 "Prater",
 "ref":
 "pmb8"}
 ,  {
 "placeName":
 "Döblinger Friedhof",
 "ref":
 "pmb841"}
 ,  {
 "placeName":
 "Stephansdom",
 "ref":
 "pmb567"}
 ,  {
 "placeName":
 "Stadtpark",
 "ref":
 "pmb575"}
 ,  {
 "placeName":
 "Währinger Cottage",
 "ref":
 "pmb533"}
 ,  {
 "placeName":
 "Israel",
 "ref":
 "pmb45508"}
 ,  {
 "placeName":
 "Bologna",
 "ref":
 "pmb896"}
 ,  {
 "placeName":
 "Augarten",
 "ref":
 "pmb124"}
 ,  {
 "placeName":
 "Ringstraße",
 "ref":
 "pmb112"}
 ,  {
 "placeName":
 "Gutenstein",
 "ref":
 "pmb1036"}
 ,  {
 "placeName":
 "Österreich",
 "ref":
 "pmb41240"}
 ],
 "listOrg":
  [
 {
 "orgName":
 "Deutschösterreichischer Verlag",
 "ref":
 "pmb29405"}
 ,  {
 "orgName":
 "Neue Freie Presse",
 "ref":
 "pmb29351"}
 ]
}
}, {
 "type":
 "schnitzler-events",
 "color":
 "#9BC53D",
 "filename":
 "entity/268046/",
 "caption":
 "Ereignisse in der PMB",
 "idno":
 "https://pmb.acdh.oeaw.ac.at/entity/268046/",
 "head":
 "Souper für Georges Duhamel, 8.12.1923",
 "desc":
{"listOrg":
  [
 {
 "orgName":
 "Österreichischer PEN-Club",
 "ref":
 ""}
 ],
 "listPerson":
  [
{
 "persName":
 "Georges Duhamel",
 "ref":
 ""},
 {
 "persName":
 "Arthur Schnitzler",
 "ref":
 ""}],
 "listPlace":
  [
 {
 "placeName":
 "Annagasse 5",
 "ref":
 ""}
 ]
}
}] 