[{
 "type":
 "schnitzler-tagebuch",
 "color":
 "#037a33",
 "filename":
 "entry__1924-03-21",
 "caption":
 "Tagebuch",
 "idno":
 "https://schnitzler-tagebuch.acdh.oeaw.ac.at/entry__1924-03-21.html",
 "head":
 "Tagebuch, 21. März 1924",
 "desc":
{"listPerson":
  [
{
 "persName":
 "Eugen Klöpfer",
 "ref":
 "person_16918"},
 {
 "persName":
 "Philipp Menczel",
 "ref":
 "person_18063"},
 {
 "persName":
 "Josef Pohl",
 "ref":
 "person_18846"},
 {
 "persName":
 "Clara Katharina Pollaczek",
 "ref":
 "person_18863"},
 {
 "persName":
 "Heinrich Schnitzler",
 "ref":
 "person_19822"}],
 "listBibl":
  [
 {
 "title":
 "Die Frau des Richters. Novelle",
 "ref":
 "pmb30751"}
 ,  {
 "title":
 "Ein Volksfeind",
 "ref":
 "pmb30445"}
 ]
}
}, {
 "type":
 "schnitzler-interviews",
 "color":
 "#3D5A80",
 "filename":
 "I028",
 "caption":
 "Interviews, Meinungen, Proteste",
 "idno":
 "https://schnitzler-interviews.acdh.oeaw.ac.at/I028.html",
 "head":
 "J. L. Benvenisti: Arthur Schnitzler. A Snap Shot, 29. 2. 1924",
 "desc":
{"listPerson":
  [
{
 "persName":
 "James Lincoln Benvenisti",
 "ref":
 "pmb14026"},
 {
 "persName":
 "Upton Sinclair",
 "ref":
 "pmb5182"},
 {
 "persName":
 "Richard Strauss",
 "ref":
 "pmb12870"},
 {
 "persName":
 "Gustav Mahler",
 "ref":
 "pmb12163"},
 {
 "persName":
 "Max Liebermann",
 "ref":
 "pmb12068"},
 {
 "persName":
 "Oswald Spengler",
 "ref":
 "pmb12819"},
 {
 "persName":
 "Ernst Benedikt",
 "ref":
 "pmb10872"},
 {
 "persName":
 "Otto Zoff",
 "ref":
 "pmb13191"}],
 "listBibl":
  [
 {
 "title":
 "Anatol",
 "ref":
 "pmb29935"}
 ,  {
 "title":
 "Der Weg ins Freie. Roman",
 "ref":
 "pmb29923"}
 ,  {
 "title":
 "Casanova’s Homecoming",
 "ref":
 "pmb42883"}
 ,  {
 "title":
 "Doktor Gräsler, Badearzt",
 "ref":
 "pmb30201"}
 ,  {
 "title":
 "Professor Bernhardi. Komödie in fünf Akten",
 "ref":
 "pmb30203"}
 ,  {
 "title":
 "Lieutenant Gustl. Novelle",
 "ref":
 "pmb29853"}
 ,  {
 "title":
 "Arthur Schnitzler. A Snap Shot [Arthur Schnitzler Foretells Jewish Renaissance]",
 "ref":
 "pmb32995"}
 ,  {
 "title":
 "The American Hebrew",
 "ref":
 "pmb56601"}
 ],
 "listPlace":
  [
 {
 "placeName":
 "Wien",
 "ref":
 "pmb50"}
 ,  {
 "placeName":
 "Europa",
 "ref":
 "pmb468"}
 ,  {
 "placeName":
 "Deutschland",
 "ref":
 "pmb151"}
 ,  {
 "placeName":
 "Salzburg",
 "ref":
 "pmb30"}
 ,  {
 "placeName":
 "Ungarn",
 "ref":
 "pmb35512"}
 ,  {
 "placeName":
 "Palästina",
 "ref":
 "pmb815"}
 ,  {
 "placeName":
 "London",
 "ref":
 "pmb224"}
 ,  {
 "placeName":
 "Amerika",
 "ref":
 "pmb175"}
 ,  {
 "placeName":
 "Lourdes",
 "ref":
 "pmb49133"}
 ],
 "listOrg":
  [
 {
 "orgName":
 "The American Hebrew",
 "ref":
 "pmb29410"}
 ]
}
}, {
 "type":
 "pmb",
 "color":
 "#9B5F98",
 "filename":
 "entity/50/",
 "caption":
 "PMB",
 "idno":
 "https://pmb.acdh.oeaw.ac.at/entity/50/",
 "text":
 "Wien"
}] 