[{
 "type":
 "schnitzler-tagebuch",
 "color":
 "#037a33",
 "filename":
 "entry__1924-02-29",
 "caption":
 "Tagebuch",
 "idno":
 "https://schnitzler-tagebuch.acdh.oeaw.ac.at/entry__1924-02-29.html",
 "head":
 "Tagebuch, 29. Februar 1924",
 "desc":
{"listPerson":
  [
{
 "persName":
 "Helene Binder",
 "ref":
 "person_13733"},
 {
 "persName":
 "Sybille Binder",
 "ref":
 "person_13735"},
 {
 "persName":
 "Lili Schnitzler",
 "ref":
 "person_14130"},
 {
 "persName":
 "Clara Katharina Pollaczek",
 "ref":
 "person_18863"},
 {
 "persName":
 "Max Reinhardt",
 "ref":
 "person_19154"},
 {
 "persName":
 "Heinrich Schnitzler",
 "ref":
 "person_19822"},
 {
 "persName":
 "Anton Spigl",
 "ref":
 "person_20264"},
 {
 "persName":
 "Elisabeth Steinrück",
 "ref":
 "person_20386"},
 {
 "persName":
 "Victor Barnowsky",
 "ref":
 "person_13428"},
 {
 "persName":
 "Albert Steinrück",
 "ref":
 "person_20383"},
 {
 "persName":
 "Olga Schnitzler",
 "ref":
 "person_19832"}],
 "listBibl":
  [
 {
 "title":
 "Große Szene",
 "ref":
 "pmb31429"}
 ,  {
 "title":
 "Der Wetterwart",
 "ref":
 "pmb80552"}
 ]
}
}, {
 "type":
 "wienerschnitzler",
 "color":
 "#6F5106",
 "caption":
 "Wiener Schnitzler",
 "idno":
 "https://wienerschnitzler.org/tag.html#1924-02-29",
 "head":
 "Wien",
 "desc":
{"listPlace":
  [
 {
 "placeName":
 "XVIII., Währing",
 "ref":
 ""}
 ,  {
 "placeName":
 "XIX., Döbling",
 "ref":
 ""}
 ,  {
 "placeName":
 "IV., Wieden",
 "ref":
 ""}
 ]
}
}, {
 "type":
 "schnitzler-interviews",
 "color":
 "#3D5A80",
 "filename":
 "I028",
 "caption":
 "Interviews, Meinungen, Proteste",
 "idno":
 "https://schnitzler-interviews.acdh.oeaw.ac.at/I028.html",
 "head":
 "J. L. Benvenisti: Arthur Schnitzler. A Snap Shot, 29. 2. 1924",
 "desc":
{"listPerson":
  [
{
 "persName":
 "James Lincoln Benvenisti",
 "ref":
 "pmb14026"},
 {
 "persName":
 "Upton Sinclair",
 "ref":
 "pmb5182"},
 {
 "persName":
 "Richard Strauss",
 "ref":
 "pmb12870"},
 {
 "persName":
 "Gustav Mahler",
 "ref":
 "pmb12163"},
 {
 "persName":
 "Max Liebermann",
 "ref":
 "pmb12068"},
 {
 "persName":
 "Oswald Spengler",
 "ref":
 "pmb12819"},
 {
 "persName":
 "Ernst Benedikt",
 "ref":
 "pmb10872"},
 {
 "persName":
 "Otto Zoff",
 "ref":
 "pmb13191"}],
 "listBibl":
  [
 {
 "title":
 "Anatol",
 "ref":
 "pmb29935"}
 ,  {
 "title":
 "Der Weg ins Freie. Roman",
 "ref":
 "pmb29923"}
 ,  {
 "title":
 "Casanova’s Homecoming",
 "ref":
 "pmb42883"}
 ,  {
 "title":
 "Doktor Gräsler, Badearzt",
 "ref":
 "pmb30201"}
 ,  {
 "title":
 "Professor Bernhardi. Komödie in fünf Akten",
 "ref":
 "pmb30203"}
 ,  {
 "title":
 "Lieutenant Gustl. Novelle",
 "ref":
 "pmb29853"}
 ,  {
 "title":
 "Arthur Schnitzler. A Snap Shot [Arthur Schnitzler Foretells Jewish Renaissance]",
 "ref":
 "pmb32995"}
 ,  {
 "title":
 "The American Hebrew",
 "ref":
 "pmb56601"}
 ],
 "listPlace":
  [
 {
 "placeName":
 "Wien",
 "ref":
 "pmb50"}
 ,  {
 "placeName":
 "Europa",
 "ref":
 "pmb468"}
 ,  {
 "placeName":
 "Deutschland",
 "ref":
 "pmb151"}
 ,  {
 "placeName":
 "Salzburg",
 "ref":
 "pmb30"}
 ,  {
 "placeName":
 "Ungarn",
 "ref":
 "pmb35512"}
 ,  {
 "placeName":
 "Palästina",
 "ref":
 "pmb815"}
 ,  {
 "placeName":
 "London",
 "ref":
 "pmb224"}
 ,  {
 "placeName":
 "Amerika",
 "ref":
 "pmb175"}
 ,  {
 "placeName":
 "Lourdes",
 "ref":
 "pmb49133"}
 ],
 "listOrg":
  [
 {
 "orgName":
 "The American Hebrew",
 "ref":
 "pmb29410"}
 ]
}
}, {
 "type":
 "URL",
 "subtype":
 "pmb",
 "filename":
 "entity/210652/",
 "idno":
 "https://pmb.acdh.oeaw.ac.at/entity/210652/",
 "head":
 "Filmvorführung von Der Wetterwart, 29.2.1924",
 "desc":
{"listBibl":
  [
 {
 "title":
 "Der Wetterwart",
 "ref":
 ""}
 ],
 "listPerson":
  [
{
 "persName":
 "Arthur Schnitzler",
 "ref":
 ""},
 {
 "persName":
 "Clara Katharina Pollaczek",
 "ref":
 ""}],
 "listPlace":
  [
 {
 "placeName":
 "Gersthofer Elitetheater",
 "ref":
 ""}
 ]
}
}, {
 "type":
 "schnitzler-kino-buch",
 "subtype":
 "#ISBN978-3205787464",
 "color":
 "#B43C9C",
 "caption":
 "Kino",
 "head":
 "Schnitzler im Gersthofer Elitetheater, 29. Februar 1924",
 "source":
 "»A. ist manchmal wie ein kleines Kind«. Clara Katharina Pollaczek und Arthur Schnitzler gehen ins Kino. Herausgegeben von Stephan Kurz und Michael Rohrwasser unter Mitarbeit von Daniel Schopper. Wien, Köln, Weimar: Böhlau Verlag 2012."
}] 