{
 "date":
 {
 "when-iso":
 "1924-08-18",
 "written":
 "Montag, 18. August 1924"
},
"listEvent":
 [{
 "type":
 "pollaczek pollaczek",
 "idno":
 "https://pollaczek.acdh.oeaw.ac.at/ckp147.html https://pollaczek.acdh.oeaw.ac.at/ckp148.html",
 "head":
 "Clara Katharina Pollaczek an Arthur Schnitzler, 18. August 1924"
}, {
 "type":
 "schnitzler-orte",
 "idno":
 "https://pmb.acdh.oeaw.ac.at/entity/12589/",
 "head":
 "Celerina"
}, {
 "type":
 "schnitzler-briefe",
 "idno":
 "https://schnitzler-briefe.acdh.oeaw.ac.at/L02414.html",
 "head":
 "Arthur Schnitzler an Richard Beer-Hofmann, 18. 8. 1924",
 "desc":
{"listPerson":
  [
{
 "persName":
 "Richard Beer-Hofmann",
 "ref":
 "pmb10863"},
 {
 "persName":
 "Samuel Fischer",
 "ref":
 "pmb11324"},
 {
 "persName":
 "Hedwig Fischer",
 "ref":
 "pmb2657"},
 {
 "persName":
 "Lili Schnitzler",
 "ref":
 "pmb2238"},
 {
 "persName":
 "Olga Schnitzler",
 "ref":
 "pmb2173"},
 {
 "persName":
 "Heinrich Schnitzler",
 "ref":
 "pmb12692"}],
 "listPlace":
  [
 {
 "placeName":
 "Celerina",
 "ref":
 "pmb12589"}
 ,  {
 "placeName":
 "Wien",
 "ref":
 "pmb50"}
 ,  {
 "placeName":
 "Österreich",
 "ref":
 "pmb41240"}
 ,  {
 "placeName":
 "XVIII., Währing",
 "ref":
 "pmb68"}
 ,  {
 "placeName":
 "Hasenauerstraße",
 "ref":
 "pmb383"}
 ,  {
 "placeName":
 "Luzern",
 "ref":
 "pmb967"}
 ,  {
 "placeName":
 "Berner Oberland",
 "ref":
 "pmb40405"}
 ,  {
 "placeName":
 "Lugano",
 "ref":
 "pmb885"}
 ,  {
 "placeName":
 "Flims",
 "ref":
 "pmb40407"}
 ,  {
 "placeName":
 "Zuoz",
 "ref":
 "pmb41063"}
 ]}

}, {
 "type":
 "schnitzler-tagebuch",
 "idno":
 "https://schnitzler-tagebuch.acdh.oeaw.ac.at/entry__1924-08-18.html",
 "head":
 "Tagebuch, 18. August 1924",
 "desc":
{"listPerson":
  [
{
 "persName":
 "Lili Schnitzler",
 "ref":
 "person_14130"},
 {
 "persName":
 "Marianne Koppel",
 "ref":
 "person_17038"},
 {
 "persName":
 "Robert Lichtenstern",
 "ref":
 "person_17509"},
 {
 "persName":
 "Vilma Lichtenstern",
 "ref":
 "person_17510"},
 {
 "persName":
 "Adolfo Rossi",
 "ref":
 "person_19402"},
 {
 "persName":
 "Samuel Fischer",
 "ref":
 "person_15009"},
 {
 "persName":
 "Louise Koppel",
 "ref":
 "person_17037"},
 {
 "persName":
 "Olga Schnitzler",
 "ref":
 "person_19832"}],
 "listPlace":
  [
 {
 "placeName":
 "Celerina",
 "ref":
 "pmb12589"}
 ,  {
 "placeName":
 "Sankt Moritz",
 "ref":
 "pmb44374"}
 ,  {
 "placeName":
 "Innschlucht",
 "ref":
 "pmb92303"}
 ]}

}] 
}