[{
 "type":
 "schnitzler-tagebuch",
 "color":
 "#037a33",
 "filename":
 "entry__1924-08-11",
 "caption":
 "Tagebuch",
 "idno":
 "https://schnitzler-tagebuch.acdh.oeaw.ac.at/entry__1924-08-11.html",
 "head":
 "Tagebuch, 11. August 1924",
 "desc":
{"listPerson":
  [
{
 "persName":
 "Raoul Auernheimer",
 "ref":
 "person_13305"},
 {
 "persName":
 "Lili Schnitzler",
 "ref":
 "person_14130"},
 {
 "persName":
 "Vilma Lichtenstern",
 "ref":
 "person_17510"},
 {
 "persName":
 "Dora Michaelis",
 "ref":
 "person_18137"},
 {
 "persName":
 "Karl Michaelis",
 "ref":
 "person_18140"},
 {
 "persName":
 "Clara Katharina Pollaczek",
 "ref":
 "person_18863"},
 {
 "persName":
 "Heinrich Schnitzler",
 "ref":
 "person_19822"},
 {
 "persName":
 "Olga Schnitzler",
 "ref":
 "person_19832"}],
 "listPlace":
  [
 {
 "placeName":
 "Celerina",
 "ref":
 "pmb12589"}
 ,  {
 "placeName":
 "Sankt Moritz",
 "ref":
 "pmb44374"}
 ,  {
 "placeName":
 "Kulm Hotel",
 "ref":
 "pmb52177"}
 ,  {
 "placeName":
 "Zuoz",
 "ref":
 "pmb41063"}
 ,  {
 "placeName":
 "Samedan",
 "ref":
 "pmb44306"}
 ,  {
 "placeName":
 "Seelisberg",
 "ref":
 "pmb91723"}
 ,  {
 "placeName":
 "Locarno",
 "ref":
 "pmb49781"}
 ]
}
}, {
 "type":
 "wienerschnitzler",
 "color":
 "#ECDA98",
 "caption":
 "Wiener Schnitzler",
 "idno":
 "https://wienerschnitzler.org/tag.html#1924-08-11",
 "head":
 "Celerina",
 "desc":
{"listPlace":
  [
 {
 "placeName":
 "Bahnhof Celerina",
 "ref":
 ""}
 ]
}
}, {
 "type":
 "wienerschnitzler",
 "color":
 "#ECDA98",
 "caption":
 "Wiener Schnitzler",
 "idno":
 "https://wienerschnitzler.org/tag.html#1924-08-11",
 "head":
 "St. Moritz",
 "desc":
{"listPlace":
  [
 {
 "placeName":
 "Kulm Hotel",
 "ref":
 ""}
 ]
}
}, {
 "type":
 "wienerschnitzler",
 "color":
 "#ECDA98",
 "caption":
 "Wiener Schnitzler",
 "idno":
 "https://wienerschnitzler.org/tag.html#1924-08-11",
 "head":
 "Samedan"
}, {
 "type":
 "schnitzler-interviews",
 "color":
 "#3D5A80",
 "filename":
 "I119",
 "caption":
 "Interviews, Meinungen, Proteste",
 "idno":
 "https://schnitzler-interviews.acdh.oeaw.ac.at/I119.html",
 "head":
 "Niels Th. Thomsen: Forførelsens Komedie, 11. 8. 1924",
 "desc":
{"listPerson":
  [
{
 "persName":
 "Niels Thingberg Thomsen",
 "ref":
 "pmb26030"},
 {
 "persName":
 "William Norrie",
 "ref":
 "pmb58998"},
 {
 "persName":
 "Georg Brandes",
 "ref":
 "pmb10992"},
 {
 "persName":
 "Voltaire",
 "ref":
 "pmb3124"},
 {
 "persName":
 "Friedrich Gundolf",
 "ref":
 "pmb3824"},
 {
 "persName":
 "Robert Musil",
 "ref":
 "pmb8994"},
 {
 "persName":
 "Heinrich Schnitzler",
 "ref":
 "pmb12692"},
 {
 "persName":
 "Sophus Michaëlis",
 "ref":
 "pmb12251"},
 {
 "persName":
 "Friedrich von Schiller",
 "ref":
 "pmb12654"},
 {
 "persName":
 "Eden Paul",
 "ref":
 "pmb5027"},
 {
 "persName":
 "Cedar Paul",
 "ref":
 "pmb5030"},
 {
 "persName":
 "Thomas Seltzer",
 "ref":
 "pmb24825"}],
 "listBibl":
  [
 {
 "title":
 "Komödie der Verführung. In drei Akten",
 "ref":
 "pmb30205"}
 ,  {
 "title":
 "Das weite Land. Tragikomödie in fünf Akten",
 "ref":
 "pmb30207"}
 ,  {
 "title":
 "Fräulein Else",
 "ref":
 "pmb29941"}
 ,  {
 "title":
 "Der Gang zum Weiher. Dramatische Dichtung",
 "ref":
 "pmb30775"}
 ,  {
 "title":
 "Buch der Sprüche und Bedenken",
 "ref":
 "pmb30053"}
 ,  {
 "title":
 "Voltaire und sein Jahrhundert",
 "ref":
 "pmb33237"}
 ,  {
 "title":
 "Hauptströmungen der Literatur des neunzehnten Jahrhunderts",
 "ref":
 "pmb31977"}
 ,  {
 "title":
 "Shakespeare und der deutsche Geist",
 "ref":
 "pmb58658"}
 ,  {
 "title":
 "Casanova’s Homecoming",
 "ref":
 "pmb42883"}
 ,  {
 "title":
 "[Japanische Auswahlausgabe]",
 "ref":
 "pmb58190"}
 ,  {
 "title":
 "Bibel",
 "ref":
 "pmb31849"}
 ,  {
 "title":
 "[Liebelei (japanisch)]",
 "ref":
 "pmb58182"}
 ,  {
 "title":
 "Forførelsens Komedie",
 "ref":
 "pmb58978"}
 ,  {
 "title":
 "Politiken",
 "ref":
 "pmb36357"}
 ],
 "listPlace":
  [
 {
 "placeName":
 "Gilleleje",
 "ref":
 "pmb44252"}
 ,  {
 "placeName":
 "Währinger Cottage",
 "ref":
 "pmb533"}
 ,  {
 "placeName":
 "Österreich",
 "ref":
 "pmb41240"}
 ,  {
 "placeName":
 "Wien",
 "ref":
 "pmb50"}
 ,  {
 "placeName":
 "Kopenhagen",
 "ref":
 "pmb36300"}
 ,  {
 "placeName":
 "Bayern",
 "ref":
 "pmb314"}
 ,  {
 "placeName":
 "Sternwartestraße",
 "ref":
 "pmb150"}
 ,  {
 "placeName":
 "Berlin",
 "ref":
 "pmb168"}
 ,  {
 "placeName":
 "Amerika",
 "ref":
 "pmb175"}
 ,  {
 "placeName":
 "Japan",
 "ref":
 "pmb318"}
 ,  {
 "placeName":
 "Dänemark",
 "ref":
 "pmb43570"}
 ,  {
 "placeName":
 "Vereinigte Staaten von Amerika (USA)",
 "ref":
 "pmb43406"}
 ],
 "listOrg":
  [
 {
 "orgName":
 "S. Fischer Verlag",
 "ref":
 "pmb29639"}
 ,  {
 "orgName":
 "Det Kongelige Teater",
 "ref":
 "pmb58993"}
 ,  {
 "orgName":
 "Thomas Seltzer",
 "ref":
 "pmb29336"}
 ,  {
 "orgName":
 "Studentersamfundet",
 "ref":
 "pmb29482"}
 ,  {
 "orgName":
 "Bayerischer Landtag",
 "ref":
 "pmb58990"}
 ]
}
}, {
 "type":
 "pollaczek",
 "color":
 "#1e81b0",
 "filename":
 "ckp136",
 "caption":
 "Pollaczek: Schnitzler und ich",
 "idno":
 "https://pollaczek.acdh.oeaw.ac.at/ckp136.html",
 "head":
 "Clara Katharina Pollaczek an Arthur Schnitzler, 11. August 1924"
}, {
 "type":
 "pollaczek",
 "color":
 "#1e81b0",
 "filename":
 "ckp137",
 "caption":
 "Pollaczek: Schnitzler und ich",
 "idno":
 "https://pollaczek.acdh.oeaw.ac.at/ckp137.html",
 "head":
 "Arthur Schnitzler an Clara Katharina Pollaczek, 11. August 1924"
}, {
 "type":
 "schnitzler-traeume",
 "subtype":
 "#ISBN978-3-8353-1029-2",
 "color":
 "#1193CC",
 "caption":
 "Traumtagebuch",
 "head":
 "Traum vom 11. August 1924",
 "source":
 "Arthur Schnitzler: Träume. Das Traumtagebuch 1875–1931. Herausgegeben von Peter Michael Braunwarth und Leo A. Lensing. Göttingen: Wallstein 2012 (Bibliothek Janowitz, Bd. 20)"
}] 