[{
 "type":
 "schnitzler-orte",
 "color":
 "#045344",
 "filename":
 "entity/50/",
 "caption":
 "Aufenthaltsorte",
 "idno":
 "https://pmb.acdh.oeaw.ac.at/entity/50/",
 "head":
 "Wien"
}, {
 "type":
 "schnitzler-briefe",
 "color":
 "#A63437",
 "filename":
 "L02422",
 "caption":
 "Briefe mit Autorinnen und Autoren",
 "idno":
 "https://schnitzler-briefe.acdh.oeaw.ac.at/L02422.html",
 "head":
 "Georg Brandes an Arthur Schnitzler, 10. 12. 1924",
 "desc":
{"listPerson":
  [
{
 "persName":
 "Georg Brandes",
 "ref":
 "pmb10992"},
 {
 "persName":
 "Charles Maurice de Talleyrand-Périgord",
 "ref":
 "pmb5533"},
 {
 "persName":
 "Armand-Louis de Gontaut de Biron",
 "ref":
 "pmb5536"},
 {
 "persName":
 "Jesus",
 "ref":
 "pmb5539"},
 {
 "persName":
 "Gaius Iulius Caesar",
 "ref":
 "pmb14796"},
 {
 "persName":
 "Erwin Magnus",
 "ref":
 "pmb5543"}],
 "listBibl":
  [
 {
 "title":
 "Fräulein Else",
 "ref":
 "pmb29941"}
 ,  {
 "title":
 "Komödie der Verführung. In drei Akten",
 "ref":
 "pmb30205"}
 ,  {
 "title":
 "Lieutenant Gustl. Novelle",
 "ref":
 "pmb29853"}
 ,  {
 "title":
 "Hertuginden af Dino og Fyrsten af Talleyrand",
 "ref":
 "pmb33400"}
 ,  {
 "title":
 "Uimodstaaelige: (Attende aarhundrede, Frankrig)",
 "ref":
 "pmb33402"}
 ,  {
 "title":
 "Urkristendom",
 "ref":
 "pmb33404"}
 ,  {
 "title":
 "Gaius Julius Cæsar",
 "ref":
 "pmb33376"}
 ],
 "listOrg":
  [
 {
 "orgName":
 "Erich Reiß",
 "ref":
 "pmb65371"}
 ],
 "listPlace":
  [
 {
 "placeName":
 "Kopenhagen",
 "ref":
 "pmb36300"}
 ,  {
 "placeName":
 "Wien",
 "ref":
 "pmb50"}
 ,  {
 "placeName":
 "Dänemark",
 "ref":
 "pmb43570"}
 ,  {
 "placeName":
 "Gilleleje",
 "ref":
 "pmb44252"}
 ,  {
 "placeName":
 "Seeland",
 "ref":
 "pmb1154"}
 ,  {
 "placeName":
 "Skandinavien",
 "ref":
 "pmb745"}
 ,  {
 "placeName":
 "Russland",
 "ref":
 "pmb34438"}
 ,  {
 "placeName":
 "Österreich",
 "ref":
 "pmb41240"}
 ,  {
 "placeName":
 "Frankreich",
 "ref":
 "pmb166"}
 ]
}
}, {
 "type":
 "schnitzler-briefe",
 "color":
 "#A63437",
 "filename":
 "L02653",
 "caption":
 "Briefe mit Autorinnen und Autoren",
 "idno":
 "https://schnitzler-briefe.acdh.oeaw.ac.at/L02653.html",
 "head":
 "Else Lasker-Schüler an Arthur Schnitzler, 10. 12. 1924",
 "desc":
{"listPerson":
  [
{
 "persName":
 "Else Lasker-Schüler",
 "ref":
 "pmb38973"},
 {
 "persName":
 "Paul Lasker-Schüler",
 "ref":
 "pmb88324"},
 {
 "persName":
 "Elise Schiedlbauer",
 "ref":
 "pmb88431"},
 {
 "persName":
 "[?? Freund 1 von Paul Lasker Schüler]",
 "ref":
 "pmb88461"},
 {
 "persName":
 "Frank Wedekind",
 "ref":
 "pmb13068"},
 {
 "persName":
 "Albert Einstein",
 "ref":
 "pmb11237"},
 {
 "persName":
 "[?? Freund 2 von Paul Lasker Schüler]",
 "ref":
 "pmb88464"}],
 "listPlace":
  [
 {
 "placeName":
 "Berlin",
 "ref":
 "pmb168"}
 ,  {
 "placeName":
 "Wien",
 "ref":
 "pmb50"}
 ,  {
 "placeName":
 "Motzstraße",
 "ref":
 "pmb52928"}
 ,  {
 "placeName":
 "Hotel Koschel",
 "ref":
 "pmb88435"}
 ,  {
 "placeName":
 "Florianigasse",
 "ref":
 "pmb818"}
 ,  {
 "placeName":
 "Gastwirtschaft Schiedlbauer",
 "ref":
 "pmb88429"}
 ,  {
 "placeName":
 "Café Central",
 "ref":
 "pmb262"}
 ,  {
 "placeName":
 "München",
 "ref":
 "pmb45258"}
 ,  {
 "placeName":
 "Zürich",
 "ref":
 "pmb484"}
 ,  {
 "placeName":
 "Haberlandstraße",
 "ref":
 "pmb88409"}
 ]
}
}, {
 "type":
 "schnitzler-tagebuch",
 "color":
 "#037a33",
 "filename":
 "entry__1924-12-10",
 "caption":
 "Tagebuch",
 "idno":
 "https://schnitzler-tagebuch.acdh.oeaw.ac.at/entry__1924-12-10.html",
 "head":
 "Tagebuch, 10. Dezember 1924",
 "desc":
{"listPerson":
  [
{
 "persName":
 "Bettina Bauer",
 "ref":
 "person_13466"},
 {
 "persName":
 "Rosa Hochsinger",
 "ref":
 "person_16245"},
 {
 "persName":
 "Clara Katharina Pollaczek",
 "ref":
 "person_18863"},
 {
 "persName":
 "Heinrich Schnitzler",
 "ref":
 "person_19822"},
 {
 "persName":
 "Olga Schnitzler",
 "ref":
 "person_19832"}],
 "listBibl":
  [
 {
 "title":
 "Aphoristisches",
 "ref":
 "pmb35745"}
 ,  {
 "title":
 "Die Schmuggler von Lugano",
 "ref":
 "pmb80737"}
 ],
 "listPlace":
  [
 {
 "placeName":
 "Berlin",
 "ref":
 "pmb168"}
 ]
}
}] 