[{
 "type":
 "schnitzler-tagebuch",
 "color":
 "#037a33",
 "filename":
 "entry__1924-09-08",
 "caption":
 "Tagebuch",
 "idno":
 "https://schnitzler-tagebuch.acdh.oeaw.ac.at/entry__1924-09-08.html",
 "head":
 "Tagebuch, 8. September 1924",
 "desc":
{"listPerson":
  [
{
 "persName":
 "Felix Costa",
 "ref":
 "person_14284"},
 {
 "persName":
 "Ferdinand Kende",
 "ref":
 "person_16811"},
 {
 "persName":
 "Vilma Lichtenstern",
 "ref":
 "person_17510"},
 {
 "persName":
 "Alfred Lohner",
 "ref":
 "person_17667"},
 {
 "persName":
 "Clara Katharina Pollaczek",
 "ref":
 "person_18863"},
 {
 "persName":
 "Adolfo Rossi",
 "ref":
 "person_19402"},
 {
 "persName":
 "Sigmund Zeisler",
 "ref":
 "person_21527"},
 {
 "persName":
 "Hermann Bahr",
 "ref":
 "person_13374"}],
 "listBibl":
  [
 {
 "title":
 "Fräulein Else",
 "ref":
 "pmb29941"}
 ,  {
 "title":
 "Die Kinder. Eine Komödie in drei Akten",
 "ref":
 "pmb30269"}
 ],
 "listPlace":
  [
 {
 "placeName":
 "Wien",
 "ref":
 "pmb50"}
 ,  {
 "placeName":
 "Chicago",
 "ref":
 "pmb880"}
 ]
}
}, {
 "type":
 "wienerschnitzler",
 "color":
 "#ECDA98",
 "caption":
 "Wiener Schnitzler",
 "idno":
 "https://wienerschnitzler.org/tag.html#1924-09-08",
 "head":
 "Wien",
 "desc":
{"listPlace":
  [
 {
 "placeName":
 "XIII., Hietzing",
 "ref":
 ""}
 ,  {
 "placeName":
 "VIII., Josefstadt",
 "ref":
 ""}
 ,  {
 "placeName":
 "XVIII., Währing",
 "ref":
 ""}
 ,  {
 "placeName":
 "IX., Alsergrund",
 "ref":
 ""}
 ]
}
}, {
 "type":
 "schnitzler-kultur",
 "color":
 "#6B4C5A",
 "filename":
 "pmb210301",
 "caption":
 "Kulturveranstaltungen",
 "idno":
 "https://schnitzler-kultur.acdh.oeaw.ac.at/pmb210301.html",
 "head":
 "Aufführung von Die Kinder, 8.9.1924",
 "desc":
{"listOrg":
  [
 {
 "orgName":
 "Burgtheater",
 "ref":
 ""}
 ],
 "listBibl":
  [
 {
 "title":
 "Die Kinder. Komödie",
 "ref":
 ""}
 ],
 "listPerson":
  [
{
 "persName":
 "Arthur Schnitzler",
 "ref":
 ""}],
 "listPlace":
  [
 {
 "placeName":
 "Schlosstheater Schönbrunn",
 "ref":
 ""}
 ]
}
}, {
 "type":
 "schnitzler-bahr",
 "color":
 "#639FF9",
 "filename":
 "D041336",
 "caption":
 "Schnitzler/Bahr",
 "idno":
 "https://schnitzler-bahr.acdh.oeaw.ac.at/D041336.html",
 "head":
 "Tagebuch von Schnitzler, 8. 9. 1924",
 "desc":
{"listPerson":
  [
{
 "persName":
 "Vilma Lichtenstern",
 "ref":
 "pmb20400"},
 {
 "persName":
 "Ferdinand Kende",
 "ref":
 "pmb19273"},
 {
 "persName":
 "Adolfo Rossi",
 "ref":
 "pmb23619"},
 {
 "persName":
 "Clara Katharina Pollaczek",
 "ref":
 "pmb12435"},
 {
 "persName":
 "Felix Costa",
 "ref":
 "pmb15108"},
 {
 "persName":
 "Hermann Bahr",
 "ref":
 "pmb10815"},
 {
 "persName":
 "Alfred Lohner",
 "ref":
 "pmb12104"},
 {
 "persName":
 "Joseph Zeisler",
 "ref":
 "pmb27442"},
 {
 "persName":
 "Teresa Zeisler",
 "ref":
 "pmb27980"}],
 "listBibl":
  [
 {
 "title":
 "Fräulein Else",
 "ref":
 "pmb29941"}
 ,  {
 "title":
 "Die Kinder. Eine Komödie in drei Akten",
 "ref":
 "pmb30269"}
 ],
 "listPlace":
  [
 {
 "placeName":
 "Wien",
 "ref":
 "pmb50"}
 ,  {
 "placeName":
 "Schloßtheater",
 "ref":
 "pmb233"}
 ,  {
 "placeName":
 "Chicago",
 "ref":
 "pmb880"}
 ,  {
 "placeName":
 "Krautstofl",
 "ref":
 "pmb234"}
 ],
 "listOrg":
  [
 {
 "orgName":
 "Paul Zsolnay Verlag",
 "ref":
 "pmb36907"}
 ]
}
}] 