[{
 "type":
 "schnitzler-tagebuch",
 "color":
 "#037a33",
 "filename":
 "entry__1924-06-18",
 "caption":
 "Tagebuch",
 "idno":
 "https://schnitzler-tagebuch.acdh.oeaw.ac.at/entry__1924-06-18.html",
 "head":
 "Tagebuch, 18. Juni 1924",
 "desc":
{"listPerson":
  [
{
 "persName":
 "Lili Schnitzler",
 "ref":
 "person_14130"},
 {
 "persName":
 "Walter Hasenclever",
 "ref":
 "person_15961"},
 {
 "persName":
 "Franz Herterich",
 "ref":
 "person_16125"},
 {
 "persName":
 "Franz Lederer",
 "ref":
 "person_17388"},
 {
 "persName":
 "Paula Schmidl",
 "ref":
 "person_19756"},
 {
 "persName":
 "Wilhelm Schmieger",
 "ref":
 "person_19775"},
 {
 "persName":
 "Hugo Thimig",
 "ref":
 "person_20714"},
 {
 "persName":
 "Frank Wedekind",
 "ref":
 "person_21130"}],
 "listBibl":
  [
 {
 "title":
 "Komödie der Verführung. In drei Akten",
 "ref":
 "pmb30205"}
 ,  {
 "title":
 "Der Sohn",
 "ref":
 "pmb80665"}
 ,  {
 "title":
 "Mr. Pim will nicht stören",
 "ref":
 "pmb81019"}
 ,  {
 "title":
 "König Nikolo oder So ist das Leben",
 "ref":
 "pmb76466"}
 ],
 "listPlace":
  [
 {
 "placeName":
 "Rimini",
 "ref":
 "pmb44523"}
 ,  {
 "placeName":
 "Brünn",
 "ref":
 "pmb833"}
 ,  {
 "placeName":
 "VIII., Josefstadt",
 "ref":
 "pmb58"}
 ]
}
}, {
 "type":
 "wienerschnitzler",
 "color":
 "#6F5106",
 "caption":
 "Wiener Schnitzler",
 "idno":
 "https://wienerschnitzler.org/tag.html#1924-06-18",
 "head":
 "Wien",
 "desc":
{"listPlace":
  [
 {
 "placeName":
 "VIII., Josefstadt",
 "ref":
 ""}
 ,  {
 "placeName":
 "I., Innere Stadt",
 "ref":
 ""}
 ,  {
 "placeName":
 "XIX., Döbling",
 "ref":
 ""}
 ,  {
 "placeName":
 "XVIII., Währing",
 "ref":
 ""}
 ]
}
}, {
 "type":
 "URL",
 "subtype":
 "pmb",
 "filename":
 "entity/210295/",
 "idno":
 "https://pmb.acdh.oeaw.ac.at/entity/210295/",
 "head":
 "Premiere von Mr. Pim will nicht stören, 18.6.1924",
 "desc":
{"listOrg":
  [
 {
 "orgName":
 "Theater in der Josefstadt",
 "ref":
 ""}
 ],
 "listBibl":
  [
 {
 "title":
 "Mr. Pim will nicht stören",
 "ref":
 ""}
 ],
 "listPerson":
  [
{
 "persName":
 "Arthur Schnitzler",
 "ref":
 ""}],
 "listPlace":
  [
 {
 "placeName":
 "Theater in der Josefstadt",
 "ref":
 ""}
 ]
}
}] 