[{
 "type":
 "schnitzler-tagebuch",
 "color":
 "#037a33",
 "filename":
 "entry__1924-07-04",
 "caption":
 "Tagebuch",
 "idno":
 "https://schnitzler-tagebuch.acdh.oeaw.ac.at/entry__1924-07-04.html",
 "head":
 "Tagebuch, 4. Juli 1924",
 "desc":
{"listPerson":
  [
{
 "persName":
 "Bettina Bauer",
 "ref":
 "person_13466"},
 {
 "persName":
 "Klobasser",
 "ref":
 "person_16915"},
 {
 "persName":
 "Heinrich Mann",
 "ref":
 "person_17834"},
 {
 "persName":
 "Joseph Anthony Marcus",
 "ref":
 "person_17861"},
 {
 "persName":
 "Heinrich Schnitzler",
 "ref":
 "person_19822"},
 {
 "persName":
 "Stefan Zweig",
 "ref":
 "person_21614"},
 {
 "persName":
 "Andreas Latzko",
 "ref":
 "person_17350"}],
 "listBibl":
  [
 {
 "title":
 "Der einsame Weg. Schauspiel in fünf Akten",
 "ref":
 "pmb29985"}
 ],
 "listPlace":
  [
 {
 "placeName":
 "Salzburg",
 "ref":
 "pmb30"}
 ,  {
 "placeName":
 "Parsch",
 "ref":
 "pmb49759"}
 ,  {
 "placeName":
 "Aigen",
 "ref":
 "pmb90200"}
 ,  {
 "placeName":
 "Wien",
 "ref":
 "pmb50"}
 ,  {
 "placeName":
 "Salzach",
 "ref":
 "pmb91647"}
 ,  {
 "placeName":
 "Mirabellgarten",
 "ref":
 "pmb92405"}
 ]
}
}, {
 "type":
 "wienerschnitzler",
 "color":
 "#6F5106",
 "caption":
 "Wiener Schnitzler",
 "idno":
 "https://wienerschnitzler.org/tag.html#1924-07-04",
 "head":
 "Salzburg",
 "desc":
{"listPlace":
  [
 {
 "placeName":
 "Österreichischer Hof",
 "ref":
 ""}
 ,  {
 "placeName":
 "Schloss Mirabell",
 "ref":
 ""}
 ,  {
 "placeName":
 "Café Bazar",
 "ref":
 ""}
 ,  {
 "placeName":
 "Salzach [Stadtgebiet Salzburg]",
 "ref":
 ""}
 ,  {
 "placeName":
 "Parsch",
 "ref":
 ""}
 ,  {
 "placeName":
 "Aigen",
 "ref":
 ""}
 ]
}
}, {
 "type":
 "pollaczek",
 "color":
 "#1e81b0",
 "filename":
 "ckp123",
 "caption":
 "Pollaczek: Schnitzler und ich",
 "idno":
 "https://pollaczek.acdh.oeaw.ac.at/ckp123.html",
 "head":
 "Clara Katharina Pollaczek an Arthur Schnitzler, 4. Juli 1924"
}, {
 "type":
 "pollaczek",
 "color":
 "#1e81b0",
 "filename":
 "ckp124",
 "caption":
 "Pollaczek: Schnitzler und ich",
 "idno":
 "https://pollaczek.acdh.oeaw.ac.at/ckp124.html",
 "head":
 "Arthur Schnitzler an Clara Katharina Pollaczek, 4. Juli 1924"
}] 