[{
 "type":
 "schnitzler-tagebuch",
 "color":
 "#037a33",
 "filename":
 "entry__1924-08-07",
 "caption":
 "Tagebuch",
 "idno":
 "https://schnitzler-tagebuch.acdh.oeaw.ac.at/entry__1924-08-07.html",
 "head":
 "Tagebuch, 7. August 1924",
 "desc":
{"listPerson":
  [
{
 "persName":
 "Lili Schnitzler",
 "ref":
 "person_14130"},
 {
 "persName":
 "Clara Katharina Pollaczek",
 "ref":
 "person_18863"},
 {
 "persName":
 "Heinrich Schnitzler",
 "ref":
 "person_19822"},
 {
 "persName":
 "Sophie Salz",
 "ref":
 "person_19549"},
 {
 "persName":
 "Olga Schnitzler",
 "ref":
 "person_19832"}],
 "listPlace":
  [
 {
 "placeName":
 "Luzern",
 "ref":
 "pmb967"}
 ,  {
 "placeName":
 "Seelisberg",
 "ref":
 "pmb91723"}
 ,  {
 "placeName":
 "Chur",
 "ref":
 "pmb2448"}
 ,  {
 "placeName":
 "Baden-Baden",
 "ref":
 "pmb228"}
 ,  {
 "placeName":
 "Engadin",
 "ref":
 "pmb1061"}
 ,  {
 "placeName":
 "Bever",
 "ref":
 "pmb90346"}
 ,  {
 "placeName":
 "Celerina",
 "ref":
 "pmb12589"}
 ]
}
}, {
 "type":
 "wienerschnitzler",
 "color":
 "#ECDA98",
 "caption":
 "Wiener Schnitzler",
 "head":
 "Bad Ragaz",
 "desc":
{"listPlace":
  [
 {
 "placeName":
 "Grand Hotel Hof Ragaz",
 "ref":
 ""}
 ]
}
}, {
 "type":
 "wienerschnitzler",
 "color":
 "#ECDA98",
 "caption":
 "Wiener Schnitzler",
 "head":
 "Chur",
 "desc":
{"listPlace":
  [
 {
 "placeName":
 "Hotel Steinbock",
 "ref":
 ""}
 ]
}
}, {
 "type":
 "wienerschnitzler",
 "color":
 "#ECDA98",
 "caption":
 "Wiener Schnitzler",
 "head":
 "Engadin",
 "desc":
{"listPlace":
  [
 {
 "placeName":
 "Celerina",
 "ref":
 ""}
 ]
}
}, {
 "type":
 "schnitzler-cmif",
 "subtype":
 "#dc95034c-3e70-47e1-9072-3fc75d84b47a",
 "color":
 "#654321",
 "caption":
 "Gedruckte Briefwechsel",
 "head":
 "Fritz Unruh an Arthur Schnitzler, 7.8.1924",
 "source":
 "Ulrich K. Goldsmith: Der Briefwechsel Fritz von Unruhs mit Arthur Schnitzler. In: Modern Austrian Literature, Jg. 10, 1977, H. 3/4, S. 69-128."
}] 