[{
 "type":
 "schnitzler-tagebuch",
 "color":
 "#037a33",
 "filename":
 "entry__1924-05-13",
 "caption":
 "Tagebuch",
 "idno":
 "https://schnitzler-tagebuch.acdh.oeaw.ac.at/entry__1924-05-13.html",
 "head":
 "Tagebuch, 13. Mai 1924",
 "desc":
{"listPerson":
  [
{
 "persName":
 "Raoul Auernheimer",
 "ref":
 "person_13305"},
 {
 "persName":
 "Ernst Benedikt",
 "ref":
 "person_13589"},
 {
 "persName":
 "Erna Fleischer",
 "ref":
 "person_15033"},
 {
 "persName":
 "Marion Hoffmann",
 "ref":
 "person_16276"},
 {
 "persName":
 "Grete Jacques",
 "ref":
 "person_16485"},
 {
 "persName":
 "Arthur Kollitsch",
 "ref":
 "person_17009"},
 {
 "persName":
 "Josef Pohl",
 "ref":
 "person_18846"},
 {
 "persName":
 "Clara Katharina Pollaczek",
 "ref":
 "person_18863"},
 {
 "persName":
 "Romain Rolland",
 "ref":
 "person_19333"},
 {
 "persName":
 "Helene Schnitzler",
 "ref":
 "person_19823"},
 {
 "persName":
 "Paul Stefan",
 "ref":
 "person_20339"},
 {
 "persName":
 "Siegfried Trebitsch",
 "ref":
 "person_20796"},
 {
 "persName":
 "Stefan Zweig",
 "ref":
 "person_21614"},
 {
 "persName":
 "Felix Braun",
 "ref":
 "person_13929"},
 {
 "persName":
 "Clemens von Franckenstein",
 "ref":
 "person_15115"},
 {
 "persName":
 "Norbert Jacques",
 "ref":
 "person_16486"},
 {
 "persName":
 "Erwin Rieger",
 "ref":
 "person_19260"},
 {
 "persName":
 "Clara Samuely",
 "ref":
 "person_19558"}],
 "listPlace":
  [
 {
 "placeName":
 "Klagenfurt",
 "ref":
 "pmb91030"}
 ,  {
 "placeName":
 "Graz",
 "ref":
 "pmb860"}
 ,  {
 "placeName":
 "Teplice",
 "ref":
 "pmb955"}
 ,  {
 "placeName":
 "Füssen",
 "ref":
 "pmb596"}
 ,  {
 "placeName":
 "Bodensee",
 "ref":
 "pmb90374"}
 ,  {
 "placeName":
 "Vereinigte Staaten von Amerika (USA)",
 "ref":
 "pmb43406"}
 ,  {
 "placeName":
 "Meissl &amp; Schadn",
 "ref":
 "pmb96"}
 ]
}
}, {
 "type":
 "schnitzler-orte",
 "color":
 "#045344",
 "caption":
 "Aufenthaltsorte",
 "head":
 "Wien",
 "desc":
{"listPlace":
  [
 {
 "placeName":
 "I., Innere Stadt",
 "ref":
 ""}
 ,  {
 "placeName":
 "IX., Alsergrund",
 "ref":
 ""}
 ,  {
 "placeName":
 "XVIII., Währing",
 "ref":
 ""}
 ]
}
}, {
 "type":
 "schnitzler-events",
 "color":
 "#9BC53D",
 "filename":
 "entity/210670/",
 "caption":
 "Ereignisse in der PMB",
 "idno":
 "https://pmb.acdh.oeaw.ac.at/entity/210670/",
 "head":
 "Filmvorführung, 13.5.1924",
 "desc":
{"listPerson":
  [
{
 "persName":
 "Arthur Schnitzler",
 "ref":
 ""},
 {
 "persName":
 "Clara Katharina Pollaczek",
 "ref":
 ""}],
 "listPlace":
  [
 {
 "placeName":
 "Wien",
 "ref":
 ""}
 ]
}
}, {
 "type":
 "schnitzler-kino-buch",
 "subtype":
 "#ISBN978-3205787464",
 "color":
 "#B43C9C",
 "caption":
 "Kino",
 "head":
 "Schnitzler geht ins Kino, 13. Mai 1924",
 "source":
 "»A. ist manchmal wie ein kleines Kind«. Clara Katharina Pollaczek und Arthur Schnitzler gehen ins Kino. Herausgegeben von Stephan Kurz und Michael Rohrwasser unter Mitarbeit von Daniel Schopper. Wien, Köln, Weimar: Böhlau Verlag 2012."
}] 