[{
 "type":
 "schnitzler-tagebuch",
 "color":
 "#037a33",
 "filename":
 "entry__1924-08-10",
 "caption":
 "Tagebuch",
 "idno":
 "https://schnitzler-tagebuch.acdh.oeaw.ac.at/entry__1924-08-10.html",
 "head":
 "Tagebuch, 10. August 1924",
 "desc":
{"listPerson":
  [
{
 "persName":
 "Lili Schnitzler",
 "ref":
 "person_14130"},
 {
 "persName":
 "Alfred Eckmann",
 "ref":
 "person_14609"},
 {
 "persName":
 "Karl Frank",
 "ref":
 "person_15124"},
 {
 "persName":
 "Bernhard Janowitzer",
 "ref":
 "person_16505"},
 {
 "persName":
 "Bertha Janowitzer",
 "ref":
 "person_16506"},
 {
 "persName":
 "Dora Michaelis",
 "ref":
 "person_18137"},
 {
 "persName":
 "Karl Michaelis",
 "ref":
 "person_18140"},
 {
 "persName":
 "Heinrich Schnitzler",
 "ref":
 "person_19822"},
 {
 "persName":
 "Ilse Dernburg",
 "ref":
 "person_14412"},
 {
 "persName":
 "Wilhelm Leicht",
 "ref":
 "person_17413"},
 {
 "persName":
 "Johann Schnitzler",
 "ref":
 "person_19824"},
 {
 "persName":
 "Olga Schnitzler",
 "ref":
 "person_19832"}],
 "listBibl":
  [
 {
 "title":
 "Anatols Hochzeitsmorgen",
 "ref":
 "pmb30033"}
 ,  {
 "title":
 "Fink und Fliederbusch. Komödie in drei Akten",
 "ref":
 "pmb30881"}
 ],
 "listPlace":
  [
 {
 "placeName":
 "Celerina",
 "ref":
 "pmb12589"}
 ,  {
 "placeName":
 "Sils-Segl Maria",
 "ref":
 "pmb91753"}
 ,  {
 "placeName":
 "Sternwartestraße",
 "ref":
 "pmb150"}
 ,  {
 "placeName":
 "Burgtheater",
 "ref":
 "pmb14"}
 ,  {
 "placeName":
 "Berlin",
 "ref":
 "pmb168"}
 ,  {
 "placeName":
 "Sankt Moritz",
 "ref":
 "pmb44374"}
 ,  {
 "placeName":
 "Innschlucht",
 "ref":
 "pmb92303"}
 ,  {
 "placeName":
 "Zuoz",
 "ref":
 "pmb41063"}
 ]
}
}, {
 "type":
 "URL",
 "subtype":
 "wienerschnitzler",
 "head":
 "Celerina"
}, {
 "type":
 "URL",
 "subtype":
 "wienerschnitzler",
 "head":
 "Sils Maria",
 "desc":
{"listPlace":
  [
 {
 "placeName":
 "Barblan Hotel",
 "ref":
 ""}
 ]
}
}, {
 "type":
 "URL",
 "subtype":
 "wienerschnitzler",
 "head":
 "St. Moritz"
}, {
 "type":
 "URL",
 "subtype":
 "wienerschnitzler",
 "head":
 "Innschlucht"
}, {
 "type":
 "pollaczek",
 "color":
 "#1e81b0",
 "filename":
 "ckp134",
 "caption":
 "Pollaczek: Schnitzler und ich",
 "idno":
 "https://pollaczek.acdh.oeaw.ac.at/ckp134.html",
 "head":
 "Clara Katharina Pollaczek an Arthur Schnitzler, 10. August 1924"
}, {
 "type":
 "schnitzler-traeume",
 "subtype":
 "#ISBN978-3-8353-1029-2",
 "color":
 "#1193CC",
 "caption":
 "Traumtagebuch",
 "head":
 "Traum vom 10. August 1924",
 "source":
 "Arthur Schnitzler: Träume. Das Traumtagebuch 1875–1931. Herausgegeben von Peter Michael Braunwarth und Leo A. Lensing. Göttingen: Wallstein 2012 (Bibliothek Janowitz, Bd. 20)"
}, {
 "type":
 "kalliope-verbund",
 "color":
 "#003574",
 "caption":
 "Kalliope Verbundkatalog",
 "idno":
 "http://kalliope-verbund.info/DE-2498-HS00043582",
 "head":
 "Sternberg, Blanche an Schnitzler, Arthur [Briefe]",
 "text":
 "2 Bl."
}] 