[{
 "type":
 "schnitzler-orte",
 "idno":
 "https://pmb.acdh.oeaw.ac.at/entity/50/",
 "head":
 "Wien"
}, {
 "type":
 "schnitzler-briefe",
 "idno":
 "https://schnitzler-briefe.acdh.oeaw.ac.at/L02412.html",
 "head":
 "Hugo von Hofmannsthal, Gerty von Hofmannsthal, Christiane von Hofmannsthal an Arthur Schnitzler, 8. 5. 1924",
 "desc":
{"listPerson":
  [
{
 "persName":
 "Hugo von Hofmannsthal",
 "ref":
 "pmb11740"},
 {
 "persName":
 "Gertrude von Hofmannsthal",
 "ref":
 "pmb2292"},
 {
 "persName":
 "Christiane von Hofmannsthal",
 "ref":
 "pmb3220"}],
 "listPlace":
  [
 {
 "placeName":
 "Palermo",
 "ref":
 "pmb901"}
 ,  {
 "placeName":
 "Wien",
 "ref":
 "pmb50"}
 ,  {
 "placeName":
 "Sternwartestraße",
 "ref":
 "pmb150"}
 ,  {
 "placeName":
 "Österreich",
 "ref":
 "pmb41240"}
 ,  {
 "placeName":
 "Maria Santissima Assunta",
 "ref":
 "pmb44846"}
 ,  {
 "placeName":
 "Monte Pellegrino",
 "ref":
 "pmb44844"}
 ,  {
 "placeName":
 "Mittelmeer",
 "ref":
 "pmb41016"}
 ,  {
 "placeName":
 "Dubrovnik",
 "ref":
 "pmb682"}
 ]}

}, {
 "type":
 "Arthur-Schnitzler-digital",
 "idno":
 "https://www.schnitzler-edition.net",
 "head":
 "Spiel im Morgengrauen, Typoskript",
 "desc":
{}

}, {
 "type":
 "schnitzler-tagebuch",
 "idno":
 "https://schnitzler-tagebuch.acdh.oeaw.ac.at/entry__1924-05-08.html",
 "head":
 "Tagebuch, 8. Mai 1924",
 "desc":
{"listPerson":
  [
{
 "persName":
 "Elisabeth Bergner",
 "ref":
 "person_13643"},
 {
 "persName":
 "Aristides Blank",
 "ref":
 "person_13768"},
 {
 "persName":
 "Clara Katharina Pollaczek",
 "ref":
 "person_18863"},
 {
 "persName":
 "Heinrich Schnitzler",
 "ref":
 "person_19822"},
 {
 "persName":
 "Viola Gabriele Schlesinger",
 "ref":
 "person_19738"}],
 "listBibl":
  [
 {
 "title":
 "Fräulein Else",
 "ref":
 "pmb29941"}
 ,  {
 "title":
 "Spiel im Morgengrauen. Novelle",
 "ref":
 "pmb32131"}
 ,  {
 "title":
 "Tagebuch",
 "ref":
 "pmb33243"}
 ,  {
 "title":
 "Debet und Kredit",
 "ref":
 "pmb77064"}
 ,  {
 "title":
 "Fräulein Julie",
 "ref":
 "pmb77072"}
 ],
 "listPlace":
  [
 {
 "placeName":
 "Bucharest",
 "ref":
 "pmb90411"}
 ]}

}] 