[{
 "type":
 "schnitzler-tagebuch",
 "color":
 "#037a33",
 "filename":
 "entry__1924-08-30",
 "caption":
 "Tagebuch",
 "idno":
 "https://schnitzler-tagebuch.acdh.oeaw.ac.at/entry__1924-08-30.html",
 "head":
 "Tagebuch, 30. August 1924",
 "desc":
{"listPerson":
  [
{
 "persName":
 "Efraim Frisch",
 "ref":
 "person_15253"},
 {
 "persName":
 "Clara Katharina Pollaczek",
 "ref":
 "person_18863"},
 {
 "persName":
 "Samuel Fischer",
 "ref":
 "person_15009"},
 {
 "persName":
 "Max Weinberg",
 "ref":
 "person_21163"}],
 "listPlace":
  [
 {
 "placeName":
 "Lugano",
 "ref":
 "pmb885"}
 ,  {
 "placeName":
 "Porlezza",
 "ref":
 "pmb91506"}
 ,  {
 "placeName":
 "Menaggio",
 "ref":
 "pmb91227"}
 ,  {
 "placeName":
 "Cadenabbia",
 "ref":
 "pmb90426"}
 ,  {
 "placeName":
 "Lake Como",
 "ref":
 "pmb90490"}
 ,  {
 "placeName":
 "Lake Maggiore",
 "ref":
 "pmb89836"}
 ,  {
 "placeName":
 "Bellagio",
 "ref":
 "pmb90322"}
 ]
}
}, {
 "type":
 "wienerschnitzler",
 "color":
 "#ECDA98",
 "caption":
 "Wiener Schnitzler",
 "idno":
 "https://wienerschnitzler.org/tag.html#1924-08-30",
 "head":
 "Lugano"
}, {
 "type":
 "wienerschnitzler",
 "color":
 "#ECDA98",
 "caption":
 "Wiener Schnitzler",
 "idno":
 "https://wienerschnitzler.org/tag.html#1924-08-30",
 "head":
 "Cadenabbia",
 "desc":
{"listPlace":
  [
 {
 "placeName":
 "Grand Hotel Cadenabbia",
 "ref":
 ""}
 ]
}
}, {
 "type":
 "wienerschnitzler",
 "color":
 "#ECDA98",
 "caption":
 "Wiener Schnitzler",
 "idno":
 "https://wienerschnitzler.org/tag.html#1924-08-30",
 "head":
 "Porlezza",
 "desc":
{"listPlace":
  [
 {
 "placeName":
 "Bahnhof Porlezza",
 "ref":
 ""}
 ]
}
}, {
 "type":
 "wienerschnitzler",
 "color":
 "#ECDA98",
 "caption":
 "Wiener Schnitzler",
 "idno":
 "https://wienerschnitzler.org/tag.html#1924-08-30",
 "head":
 "Menaggio",
 "desc":
{"listPlace":
  [
 {
 "placeName":
 "Bahnhof Menaggio",
 "ref":
 ""}
 ]
}
}, {
 "type":
 "wienerschnitzler",
 "color":
 "#ECDA98",
 "caption":
 "Wiener Schnitzler",
 "idno":
 "https://wienerschnitzler.org/tag.html#1924-08-30",
 "head":
 "Bellagio"
}] 