[{
 "type":
 "schnitzler-tagebuch",
 "color":
 "#037a33",
 "filename":
 "entry__1925-12-26",
 "caption":
 "Tagebuch",
 "idno":
 "https://schnitzler-tagebuch.acdh.oeaw.ac.at/entry__1925-12-26.html",
 "head":
 "Tagebuch, 26. Dezember 1925",
 "desc":
{"listPerson":
  [
{
 "persName":
 "Egbertje Alida Brevée",
 "ref":
 "person_13969"},
 {
 "persName":
 "Lili Schnitzler",
 "ref":
 "person_14130"},
 {
 "persName":
 "Hedy Kempny",
 "ref":
 "person_16807"},
 {
 "persName":
 "Vilma Lichtenstern",
 "ref":
 "person_17510"},
 {
 "persName":
 "Clara Katharina Pollaczek",
 "ref":
 "person_18863"},
 {
 "persName":
 "Clara Soltau",
 "ref":
 "person_20191"},
 {
 "persName":
 "Siegmund Byk",
 "ref":
 "person_14099"},
 {
 "persName":
 "Olga Schnitzler",
 "ref":
 "person_19832"}],
 "listPlace":
  [
 {
 "placeName":
 "Döbling",
 "ref":
 "pmb64219"}
 ,  {
 "placeName":
 "Grinzing",
 "ref":
 "pmb90771"}
 ,  {
 "placeName":
 "Venedig",
 "ref":
 "pmb462"}
 ,  {
 "placeName":
 "Würzburg",
 "ref":
 "pmb852"}
 ,  {
 "placeName":
 "Berlin",
 "ref":
 "pmb168"}
 ]
}
}, {
 "type":
 "schnitzler-briefe",
 "color":
 "#A63437",
 "filename":
 "L02460",
 "caption":
 "Briefe mit Autorinnen und Autoren",
 "idno":
 "https://schnitzler-briefe.acdh.oeaw.ac.at/L02460.html",
 "head":
 "Arthur Schnitzler an Felix Braun, 26. 12. 1925",
 "desc":
{"listPerson":
  [
{
 "persName":
 "Felix Braun",
 "ref":
 "pmb11002"}],
 "listBibl":
  [
 {
 "title":
 "Die Frau des Richters. Novelle",
 "ref":
 "pmb30751"}
 ],
 "listPlace":
  [
 {
 "placeName":
 "Sieveringer Straße",
 "ref":
 "pmb1092"}
 ,  {
 "placeName":
 "Sternwartestraße 71",
 "ref":
 "pmb168815"}
 ,  {
 "placeName":
 "Wien",
 "ref":
 "pmb50"}
 ,  {
 "placeName":
 "XVIII., Währing",
 "ref":
 "pmb68"}
 ,  {
 "placeName":
 "XIX., Döbling",
 "ref":
 "pmb69"}
 ]
}
}, {
 "type":
 "schnitzler-briefe",
 "color":
 "#A63437",
 "filename":
 "L02461",
 "caption":
 "Briefe mit Autorinnen und Autoren",
 "idno":
 "https://schnitzler-briefe.acdh.oeaw.ac.at/L02461.html",
 "head":
 "Arthur Schnitzler an Hugo von Hofmannsthal, 26. 12. 1925",
 "desc":
{"listPerson":
  [
{
 "persName":
 "Hugo von Hofmannsthal",
 "ref":
 "pmb11740"},
 {
 "persName":
 "Friedrich von Schiller",
 "ref":
 "pmb12654"},
 {
 "persName":
 "Richard Strauss",
 "ref":
 "pmb12870"}],
 "listBibl":
  [
 {
 "title":
 "Briefwechsel mit Hugo von Hofmannsthal",
 "ref":
 "pmb31253"}
 ,  {
 "title":
 "Schiller",
 "ref":
 "pmb33718"}
 ,  {
 "title":
 "Neue Freie Presse",
 "ref":
 "pmb36374"}
 ],
 "listOrg":
  [
 {
 "orgName":
 "Paul Zsolnay Verlag",
 "ref":
 "pmb36907"}
 ],
 "listPlace":
  [
 {
 "placeName":
 "Wien",
 "ref":
 "pmb50"}
 ]
}
}, {
 "type":
 "wienerschnitzler",
 "color":
 "#6F5106",
 "caption":
 "Wiener Schnitzler",
 "idno":
 "https://wienerschnitzler.org/tag.html#1925-12-26",
 "head":
 "Wien",
 "desc":
{"listPlace":
  [
 {
 "placeName":
 "XIX., Döbling",
 "ref":
 ""}
 ,  {
 "placeName":
 "XVIII., Währing",
 "ref":
 ""}
 ]
}
}] 