[{
 "type":
 "schnitzler-tagebuch",
 "color":
 "#037a33",
 "filename":
 "entry__1925-05-15",
 "caption":
 "Tagebuch",
 "idno":
 "https://schnitzler-tagebuch.acdh.oeaw.ac.at/entry__1925-05-15.html",
 "head":
 "Tagebuch, 15. Mai 1925",
 "desc":
{"listPerson":
  [
{
 "persName":
 "Herta Boss",
 "ref":
 "person_13888"},
 {
 "persName":
 "Lili Schnitzler",
 "ref":
 "person_14130"},
 {
 "persName":
 "Ferdinand Gregorovius",
 "ref":
 "person_15641"},
 {
 "persName":
 "Heinrich Hubert Houben",
 "ref":
 "person_16393"},
 {
 "persName":
 "Hedy Kempny",
 "ref":
 "person_16807"},
 {
 "persName":
 "Dora Michaelis",
 "ref":
 "person_18137"},
 {
 "persName":
 "Clara Katharina Pollaczek",
 "ref":
 "person_18863"},
 {
 "persName":
 "Heinrich Schnitzler",
 "ref":
 "person_19822"},
 {
 "persName":
 "Anna Loew",
 "ref":
 "person_17633"},
 {
 "persName":
 "Franz Löwy",
 "ref":
 "person_17662"},
 {
 "persName":
 "Viola Gabriele Schlesinger",
 "ref":
 "person_19738"},
 {
 "persName":
 "Olga Schnitzler",
 "ref":
 "person_19832"}],
 "listBibl":
  [
 {
 "title":
 "Der Gang zum Weiher. Dramatische Dichtung",
 "ref":
 "pmb30775"}
 ,  {
 "title":
 "L’atlantide",
 "ref":
 "pmb80150"}
 ,  {
 "title":
 "Die Grabdenkmäler der Päpste",
 "ref":
 "pmb80626"}
 ,  {
 "title":
 "Eckermann. Sein Leben für Goethe",
 "ref":
 "pmb80721"}
 ],
 "listPlace":
  [
 {
 "placeName":
 "Semmering",
 "ref":
 "pmb91735"}
 ,  {
 "placeName":
 "Sonnwendstein",
 "ref":
 "pmb91776"}
 ,  {
 "placeName":
 "Wien",
 "ref":
 "pmb50"}
 ,  {
 "placeName":
 "Breslau",
 "ref":
 "pmb677"}
 ]
}
}, {
 "type":
 "schnitzler-orte",
 "color":
 "#045344",
 "caption":
 "Aufenthaltsorte",
 "head":
 "Semmering",
 "desc":
{"listPlace":
  [
 {
 "placeName":
 "Südbahnhotel [Semmering]",
 "ref":
 ""}
 ,  {
 "placeName":
 "Bahnhof Semmering",
 "ref":
 ""}
 ]
}
}, {
 "type":
 "schnitzler-orte",
 "color":
 "#045344",
 "caption":
 "Aufenthaltsorte",
 "head":
 "Sonnwendstein",
 "desc":
{"listPlace":
  [
 {
 "placeName":
 "Friedrich Schüler-Alpenhaus",
 "ref":
 ""}
 ]
}
}, {
 "type":
 "schnitzler-orte",
 "color":
 "#045344",
 "caption":
 "Aufenthaltsorte",
 "head":
 "Wien",
 "desc":
{"listPlace":
  [
 {
 "placeName":
 "IV., Wieden",
 "ref":
 ""}
 ,  {
 "placeName":
 "XVIII., Währing",
 "ref":
 ""}
 ]
}
}] 