[{
 "type":
 "schnitzler-tagebuch",
 "color":
 "#037a33",
 "filename":
 "entry__1925-07-01",
 "caption":
 "Tagebuch",
 "idno":
 "https://schnitzler-tagebuch.acdh.oeaw.ac.at/entry__1925-07-01.html",
 "head":
 "Tagebuch, 1. Juli 1925",
 "desc":
{"listPerson":
  [
{
 "persName":
 "Clara Katharina Pollaczek",
 "ref":
 "person_18863"},
 {
 "persName":
 "Max Reinhardt",
 "ref":
 "person_19154"},
 {
 "persName":
 "Alois Dominik von Stefenelli",
 "ref":
 "person_20340"},
 {
 "persName":
 "Mirjam Horwitz",
 "ref":
 "person_21546"},
 {
 "persName":
 "Wilhelm Krauss",
 "ref":
 "person_17121"},
 {
 "persName":
 "Olga Schnitzler",
 "ref":
 "person_19832"}],
 "listPlace":
  [
 {
 "placeName":
 "Bozen",
 "ref":
 "pmb40260"}
 ,  {
 "placeName":
 "Passo della Mendola",
 "ref":
 "pmb91229"}
 ,  {
 "placeName":
 "Molveno",
 "ref":
 "pmb91265"}
 ,  {
 "placeName":
 "Wien",
 "ref":
 "pmb50"}
 ,  {
 "placeName":
 "Trient",
 "ref":
 "pmb954"}
 ,  {
 "placeName":
 "Seis am Schlern",
 "ref":
 "pmb988"}
 ]
}
}, {
 "type":
 "schnitzler-orte",
 "color":
 "#045344",
 "caption":
 "Aufenthaltsorte",
 "head":
 "Bozen",
 "desc":
{"listPlace":
  [
 {
 "placeName":
 "Hotel Greif",
 "ref":
 ""}
 ]
}
}, {
 "type":
 "schnitzler-orte",
 "color":
 "#045344",
 "caption":
 "Aufenthaltsorte",
 "head":
 "Trient",
 "desc":
{"listPlace":
  [
 {
 "placeName":
 "Café Ristorante Europe",
 "ref":
 ""}
 ,  {
 "placeName":
 "Bahnhof Trient",
 "ref":
 ""}
 ,  {
 "placeName":
 "Dom von Trient",
 "ref":
 ""}
 ]
}
}, {
 "type":
 "schnitzler-orte",
 "color":
 "#045344",
 "caption":
 "Aufenthaltsorte",
 "head":
 "Molveno"
}, {
 "type":
 "schnitzler-orte",
 "color":
 "#045344",
 "caption":
 "Aufenthaltsorte",
 "head":
 "Mendelpass"
}, {
 "type":
 "pollaczek",
 "color":
 "#1e81b0",
 "filename":
 "ckp223",
 "caption":
 "Pollaczek: Schnitzler und ich",
 "idno":
 "https://pollaczek.acdh.oeaw.ac.at/ckp223.html",
 "head":
 "Tagebuch von Clara Katharina Pollaczek, 25. Juni – 1. Juli 1925"
}, {
 "type":
 "pollaczek",
 "color":
 "#1e81b0",
 "filename":
 "ckp224",
 "caption":
 "Pollaczek: Schnitzler und ich",
 "idno":
 "https://pollaczek.acdh.oeaw.ac.at/ckp224.html",
 "head":
 "Tagebuch von Clara Katharina Pollaczek, 1.–4. Juli 1925"
}, {
 "type":
 "pollaczek",
 "color":
 "#1e81b0",
 "filename":
 "ckp226",
 "caption":
 "Pollaczek: Schnitzler und ich",
 "idno":
 "https://pollaczek.acdh.oeaw.ac.at/ckp226.html",
 "head":
 "Zwischenbemerkung, Sommer 1925"
}] 