[{
 "type":
 "schnitzler-tagebuch",
 "color":
 "#037a33",
 "filename":
 "entry__1925-06-21",
 "caption":
 "Tagebuch",
 "idno":
 "https://schnitzler-tagebuch.acdh.oeaw.ac.at/entry__1925-06-21.html",
 "head":
 "Tagebuch, 21. Juni 1925",
 "desc":
{"listPerson":
  [
{
 "persName":
 "Clara Katharina Pollaczek",
 "ref":
 "person_18863"},
 {
 "persName":
 "Joseph Schwarz",
 "ref":
 "person_19974"},
 {
 "persName":
 "Carl Friedberg",
 "ref":
 "person_15207"},
 {
 "persName":
 "Wilhelm Grosz",
 "ref":
 "person_15685"},
 {
 "persName":
 "Olga Schnitzler",
 "ref":
 "person_19832"}],
 "listBibl":
  [
 {
 "title":
 "Kaiser Josef II.",
 "ref":
 "pmb30843"}
 ],
 "listPlace":
  [
 {
 "placeName":
 "Baden-Baden",
 "ref":
 "pmb228"}
 ,  {
 "placeName":
 "Fremersberg",
 "ref":
 "pmb90651"}
 ,  {
 "placeName":
 "New York City",
 "ref":
 "pmb44053"}
 ]
}
}{
 "type":
 "schnitzler-briefe",
 "color":
 "#A63437",
 "filename":
 "L02443",
 "caption":
 "Briefe mit Autorinnen und Autoren",
 "idno":
 "https://schnitzler-briefe.acdh.oeaw.ac.at/L02443.html",
 "head":
 "Georg Brandes an Arthur Schnitzler, 21. 6. 1925",
 "desc":
{"listPerson":
  [
{
 "persName":
 "Georg Brandes",
 "ref":
 "pmb10992"},
 {
 "persName":
 "Gertrud Rung",
 "ref":
 "pmb5558"},
 {
 "persName":
 "Otto Rung",
 "ref":
 "pmb5561"},
 {
 "persName":
 "?? [Kusine von Gertrud Rung]",
 "ref":
 "pmb27753"}],
 "listBibl":
  [
 {
 "title":
 "Hellas",
 "ref":
 "pmb33392"}
 ,  {
 "title":
 "Der Schleier der Beatrice. Schauspiel in fünf Akten",
 "ref":
 "pmb29857"}
 ],
 "listOrg":
  [
 {
 "orgName":
 "Akademie der Wissenschaften",
 "ref":
 "pmb29549"}
 ],
 "listPlace":
  [
 {
 "placeName":
 "Kopenhagen",
 "ref":
 "pmb36300"}
 ,  {
 "placeName":
 "Wien",
 "ref":
 "pmb50"}
 ,  {
 "placeName":
 "Salzburg",
 "ref":
 "pmb30"}
 ,  {
 "placeName":
 "Burgtheater",
 "ref":
 "pmb14"}
 ,  {
 "placeName":
 "Sankt Petersburg",
 "ref":
 "pmb433"}
 ,  {
 "placeName":
 "Moskau",
 "ref":
 "pmb869"}
 ,  {
 "placeName":
 "Russland",
 "ref":
 "pmb34438"}
 ,  {
 "placeName":
 "Italien",
 "ref":
 "pmb40306"}
 ]
}
}, {
 "type":
 "pollaczek",
 "color":
 "#1e81b0",
 "filename":
 "ckp220",
 "caption":
 "Pollazczek: Schnitzler und ich",
 "idno":
 "https://pollaczek.acdh.oeaw.ac.at/ckp220.html",
 "head":
 "Tagebuch von Clara Katharina Pollaczek, 20.–21. Juni 1925",
 "desc":
{
}
}, {
 "type":
 "pollaczek",
 "color":
 "#1e81b0",
 "filename":
 "ckp221",
 "caption":
 "Pollazczek: Schnitzler und ich",
 "idno":
 "https://pollaczek.acdh.oeaw.ac.at/ckp221.html",
 "head":
 "Tagebuch von Clara Katharina Pollaczek, 21.–23. Juni 1925",
 "desc":
{
}
}, {
 "type":
 "schnitzler-orte",
 "color":
 "#045344",
 "filename":
 "entity/50/",
 "caption":
 "Aufenthaltsorte",
 "idno":
 "https://pmb.acdh.oeaw.ac.at/entity/50/",
 "head":
 "Wien",
 "desc":
{
}
}, ] 