[{
 "type":
 "schnitzler-tagebuch",
 "color":
 "#037a33",
 "filename":
 "entry__1925-05-31",
 "caption":
 "Tagebuch",
 "idno":
 "https://schnitzler-tagebuch.acdh.oeaw.ac.at/entry__1925-05-31.html",
 "head":
 "Tagebuch, 31. Mai 1925",
 "desc":
{"listPerson":
  [
{
 "persName":
 "Hedy Kempny",
 "ref":
 "person_16807"},
 {
 "persName":
 "Clara Katharina Pollaczek",
 "ref":
 "person_18863"}],
 "listBibl":
  [
 {
 "title":
 "Therese. Chronik eines Frauenlebens",
 "ref":
 "pmb30817"}
 ],
 "listPlace":
  [
 {
 "placeName":
 "Galitzinberg",
 "ref":
 "pmb90687"}
 ]
}
}, {
 "type":
 "wienerschnitzler",
 "color":
 "#6F5106",
 "caption":
 "Wiener Schnitzler",
 "idno":
 "https://wienerschnitzler.org/tag.html#1925-05-31",
 "head":
 "Wien",
 "desc":
{"listPlace":
  [
 {
 "placeName":
 "XVII., Hernals",
 "ref":
 ""}
 ,  {
 "placeName":
 "XVI., Ottakring",
 "ref":
 ""}
 ,  {
 "placeName":
 "XIV., Penzing",
 "ref":
 ""}
 ,  {
 "placeName":
 "XVIII., Währing",
 "ref":
 ""}
 ]
}
}, {
 "type":
 "schnitzler-interviews",
 "color":
 "#3D5A80",
 "filename":
 "M084",
 "caption":
 "Interviews, Meinungen, Proteste",
 "idno":
 "https://schnitzler-interviews.acdh.oeaw.ac.at/M084.html",
 "head":
 "Ein Brief Artur Schnitzlers an den Herausgeber des Neuen Wiener
                            Journals, 31. 5. 1925",
 "desc":
{"listPerson":
  [
{
 "persName":
 "Jakob Lippowitz",
 "ref":
 "pmb4054"},
 {
 "persName":
 "Arthur Kürschner",
 "ref":
 "pmb58102"},
 {
 "persName":
 "Hermann Menkes",
 "ref":
 "pmb2553"}],
 "listBibl":
  [
 {
 "title":
 "Neues Wiener Journal",
 "ref":
 "pmb36376"}
 ,  {
 "title":
 "Abbau des Rassen- und Klassenhasses. Schaffet ein internationales Schulamt",
 "ref":
 "pmb63383"}
 ,  {
 "title":
 "Ein Brief Artur Schnitzlers an den Herausgeber des Neuen Wiener Journals",
 "ref":
 "pmb58388"}
 ],
 "listPlace":
  [
 {
 "placeName":
 "Europa",
 "ref":
 "pmb468"}
 ,  {
 "placeName":
 "Genf",
 "ref":
 "pmb562"}
 ,  {
 "placeName":
 "Biberstraße",
 "ref":
 "pmb52670"}
 ],
 "listOrg":
  [
 {
 "orgName":
 "Lippowitz-Preis der »Concordia«",
 "ref":
 "pmb63386"}
 ,  {
 "orgName":
 "Neues Wiener Journal",
 "ref":
 "pmb29320"}
 ]
}
}] 