[{
 "type":
 "schnitzler-tagebuch",
 "color":
 "#037a33",
 "filename":
 "entry__1925-04-07",
 "caption":
 "Tagebuch",
 "idno":
 "https://schnitzler-tagebuch.acdh.oeaw.ac.at/entry__1925-04-07.html",
 "head":
 "Tagebuch, 7. April 1925",
 "desc":
{"listPerson":
  [
{
 "persName":
 "Ernst Benedikt",
 "ref":
 "person_13589"},
 {
 "persName":
 "Georg Brandes",
 "ref":
 "person_13920"},
 {
 "persName":
 "Lili Schnitzler",
 "ref":
 "person_14130"},
 {
 "persName":
 "Anna Eisenmenger",
 "ref":
 "person_14682"},
 {
 "persName":
 "Louis Philipp Friedmann",
 "ref":
 "person_15229"},
 {
 "persName":
 "Helene Louise Jaeger",
 "ref":
 "person_16489"},
 {
 "persName":
 "Karl König",
 "ref":
 "person_16967"},
 {
 "persName":
 "Clara Katharina Pollaczek",
 "ref":
 "person_18863"},
 {
 "persName":
 "Paul Wertheimer",
 "ref":
 "person_21264"},
 {
 "persName":
 "Richard Smekal",
 "ref":
 "person_20170"}],
 "listBibl":
  [
 {
 "title":
 "Der Gang zum Weiher. Dramatische Dichtung",
 "ref":
 "pmb30775"}
 ],
 "listPlace":
  [
 {
 "placeName":
 "Gutenstein",
 "ref":
 "pmb1036"}
 ,  {
 "placeName":
 "Blaasstraße",
 "ref":
 "pmb92168"}
 ,  {
 "placeName":
 "Sacher",
 "ref":
 "pmb92506"}
 ,  {
 "placeName":
 "Elisabethpromenade",
 "ref":
 "pmb92225"}
 ]
}
}, {
 "type":
 "wienerschnitzler",
 "color":
 "#ECDA98",
 "caption":
 "Wiener Schnitzler",
 "idno":
 "https://wienerschnitzler.org/tag.html#1925-04-07",
 "head":
 "Wien",
 "desc":
{"listPlace":
  [
 {
 "placeName":
 "I., Innere Stadt",
 "ref":
 ""}
 ,  {
 "placeName":
 "IX., Alsergrund",
 "ref":
 ""}
 ,  {
 "placeName":
 "XVIII., Währing",
 "ref":
 ""}
 ,  {
 "placeName":
 "Rossauer Lände",
 "ref":
 ""}
 ]
}
}, {
 "type":
 "schnitzler-events",
 "color":
 "#9BC53D",
 "filename":
 "entity/210748/",
 "caption":
 "Ereignisse in der PMB",
 "idno":
 "https://pmb.acdh.oeaw.ac.at/entity/210748/",
 "head":
 "Filmvorführung, 7.4.1925",
 "desc":
{"listPerson":
  [
{
 "persName":
 "Arthur Schnitzler",
 "ref":
 ""},
 {
 "persName":
 "Clara Katharina Pollaczek",
 "ref":
 ""}],
 "listPlace":
  [
 {
 "placeName":
 "Wien",
 "ref":
 ""}
 ]
}
}, {
 "type":
 "schnitzler-kino-buch",
 "subtype":
 "#ISBN978-3205787464",
 "color":
 "#B43C9C",
 "caption":
 "Kino",
 "head":
 "Schnitzler geht ins Kino, 7. April 1925",
 "source":
 "»A. ist manchmal wie ein kleines Kind«. Clara Katharina Pollaczek und Arthur Schnitzler gehen ins Kino. Herausgegeben von Stephan Kurz und Michael Rohrwasser unter Mitarbeit von Daniel Schopper. Wien, Köln, Weimar: Böhlau Verlag 2012."
}, {
 "type":
 "schnitzler-kempny-buch",
 "subtype":
 "#ISBN3-499-154-57-9",
 "color":
 "#7B3F00",
 "caption":
 "Kempny Tagebuch",
 "head":
 "Hedy Kempny, Tagebucheintrag vom 7. April 1925",
 "source":
 "Hedy Kempny und Arthur Schnitzler: Das Mädchen mit den dreizehn Seelen. Eine Korrespondenz ergänzt durch Blätter aus Hedy Kempnys Tagebuch sowie durch eine Auswahl ihrer Erzählungen. Hg. v. Heinz P. Adamek. Reinbek bei Hamburg: Rowohlt 1984. (Neue Frau)"
}] 