[{
 "type":
 "schnitzler-tagebuch",
 "color":
 "#037a33",
 "filename":
 "entry__1925-01-27",
 "caption":
 "Tagebuch",
 "idno":
 "https://schnitzler-tagebuch.acdh.oeaw.ac.at/entry__1925-01-27.html",
 "head":
 "Tagebuch, 27. Januar 1925",
 "desc":
{"listPerson":
  [
{
 "persName":
 "Anita Gonzala",
 "ref":
 "person_15570"},
 {
 "persName":
 "Margarethe Lichtenstein",
 "ref":
 "person_17505"},
 {
 "persName":
 "Franz Josef Lichtenstern",
 "ref":
 "person_17507"},
 {
 "persName":
 "Robert Lichtenstern",
 "ref":
 "person_17509"},
 {
 "persName":
 "Clara Katharina Pollaczek",
 "ref":
 "person_18863"},
 {
 "persName":
 "Frank Heller",
 "ref":
 "person_16066"},
 {
 "persName":
 "Olga Schnitzler",
 "ref":
 "person_19832"}],
 "listBibl":
  [
 {
 "title":
 "Der Geist im Wort und der Geist in der Tat",
 "ref":
 "pmb30051"}
 ,  {
 "title":
 "Große Szene",
 "ref":
 "pmb31429"}
 ,  {
 "title":
 "Therese. Chronik eines Frauenlebens",
 "ref":
 "pmb30817"}
 ,  {
 "title":
 "Traumnovelle",
 "ref":
 "pmb30851"}
 ,  {
 "title":
 "Hamlet",
 "ref":
 "pmb30009"}
 ],
 "listPlace":
  [
 {
 "placeName":
 "Sankt Moritz",
 "ref":
 "pmb44374"}
 ,  {
 "placeName":
 "Locarno",
 "ref":
 "pmb49781"}
 ,  {
 "placeName":
 "Burgtheater",
 "ref":
 "pmb14"}
 ,  {
 "placeName":
 "IV., Wieden",
 "ref":
 "pmb54"}
 ,  {
 "placeName":
 "Campfer",
 "ref":
 "pmb90434"}
 ,  {
 "placeName":
 "Italien",
 "ref":
 "pmb40306"}
 ,  {
 "placeName":
 "Baden-Baden",
 "ref":
 "pmb228"}
 ]
}
}, {
 "type":
 "wienerschnitzler",
 "color":
 "#ECDA98",
 "caption":
 "Wiener Schnitzler",
 "head":
 "St. Moritz",
 "desc":
{"listPlace":
  [
 {
 "placeName":
 "Privat-Hotel Badrutt",
 "ref":
 ""}
 ]
}
}, {
 "type":
 "wienerschnitzler",
 "color":
 "#ECDA98",
 "caption":
 "Wiener Schnitzler",
 "head":
 "Champfèr",
 "desc":
{"listPlace":
  [
 {
 "placeName":
 "Julierhof",
 "ref":
 ""}
 ]
}
}, {
 "type":
 "pollaczek",
 "color":
 "#1e81b0",
 "filename":
 "ckp180",
 "caption":
 "Pollaczek: Schnitzler und ich",
 "idno":
 "https://pollaczek.acdh.oeaw.ac.at/ckp180.html",
 "head":
 "Clara Katharina Pollaczek an Arthur Schnitzler, 27. Januar 1925"
}, {
 "type":
 "schnitzler-events",
 "color":
 "#9BC53D",
 "filename":
 "entity/184387/",
 "caption":
 "Ereignisse in der PMB",
 "idno":
 "https://pmb.acdh.oeaw.ac.at/entity/184387/",
 "head":
 "Private Lesung von Der Geist im Wort und der Geist in der Tat, 27.1.1925",
 "desc":
{"listBibl":
  [
 {
 "title":
 "Der Geist im Wort und der Geist in der Tat",
 "ref":
 ""}
 ],
 "listPerson":
  [
{
 "persName":
 "Arthur Schnitzler",
 "ref":
 ""},
 {
 "persName":
 "Olga Schnitzler",
 "ref":
 ""}],
 "listPlace":
  [
 {
 "placeName":
 "Champfèr",
 "ref":
 ""}
 ,  {
 "placeName":
 "Julierhof",
 "ref":
 ""}
 ]
}
}, {
 "type":
 "schnitzler-traeume",
 "subtype":
 "#ISBN978-3-8353-1029-2",
 "color":
 "#1193CC",
 "caption":
 "Traumtagebuch",
 "head":
 "Traum vom 27. Januar 1925",
 "source":
 "Arthur Schnitzler: Träume. Das Traumtagebuch 1875–1931. Herausgegeben von Peter Michael Braunwarth und Leo A. Lensing. Göttingen: Wallstein 2012 (Bibliothek Janowitz, Bd. 20)"
}, {
 "type":
 "kalliope-verbund",
 "color":
 "#003574",
 "caption":
 "Kalliope Verbundkatalog",
 "idno":
 "http://kalliope-verbund.info/DE-2498-HS00032421",
 "head":
 "Birnbaum, Paul an Schnitzler, Arthur [Briefe]",
 "text":
 "2 Bl."
}, {
 "type":
 "kalliope-verbund",
 "color":
 "#003574",
 "caption":
 "Kalliope Verbundkatalog",
 "idno":
 "http://kalliope-verbund.info/DE-2498-HS00076022",
 "head":
 "Ujfalussy, Anton an Schnitzler, Arthur [Briefe]",
 "text":
 "1 Bl."
}] 