[{
 "type":
 "schnitzler-tagebuch",
 "color":
 "#037a33",
 "filename":
 "entry__1925-09-08",
 "caption":
 "Tagebuch",
 "idno":
 "https://schnitzler-tagebuch.acdh.oeaw.ac.at/entry__1925-09-08.html",
 "head":
 "Tagebuch, 8. September 1925",
 "desc":
{"listPerson":
  [
{
 "persName":
 "Lili Schnitzler",
 "ref":
 "person_14130"},
 {
 "persName":
 "Clara Katharina Pollaczek",
 "ref":
 "person_18863"},
 {
 "persName":
 "Adolf R. Worringer",
 "ref":
 "person_21470"},
 {
 "persName":
 "Louise Koppel",
 "ref":
 "person_17037"},
 {
 "persName":
 "Olga Schnitzler",
 "ref":
 "person_19832"}],
 "listPlace":
  [
 {
 "placeName":
 "Mailand",
 "ref":
 "pmb886"}
 ,  {
 "placeName":
 "Wien",
 "ref":
 "pmb50"}
 ,  {
 "placeName":
 "Genua",
 "ref":
 "pmb994"}
 ,  {
 "placeName":
 "Viareggio",
 "ref":
 "pmb1174"}
 ,  {
 "placeName":
 "Forte dei Marmi",
 "ref":
 "pmb44248"}
 ]
}
}, {
 "type":
 "wienerschnitzler",
 "color":
 "#6F5106",
 "caption":
 "Wiener Schnitzler",
 "idno":
 "https://wienerschnitzler.org/tag.html#1925-09-08",
 "head":
 "Mailand",
 "desc":
{"listPlace":
  [
 {
 "placeName":
 "Hotel de la Ville [Mailand]",
 "ref":
 ""}
 ,  {
 "placeName":
 "Bahnhof Milano Centrale",
 "ref":
 ""}
 ]
}
}, {
 "type":
 "wienerschnitzler",
 "color":
 "#6F5106",
 "caption":
 "Wiener Schnitzler",
 "idno":
 "https://wienerschnitzler.org/tag.html#1925-09-08",
 "head":
 "Genua"
}, {
 "type":
 "wienerschnitzler",
 "color":
 "#6F5106",
 "caption":
 "Wiener Schnitzler",
 "idno":
 "https://wienerschnitzler.org/tag.html#1925-09-08",
 "head":
 "Forte dei Marmi",
 "desc":
{"listPlace":
  [
 {
 "placeName":
 "Grand Hotel Forte dei Marmi",
 "ref":
 ""}
 ]
}
}, {
 "type":
 "wienerschnitzler",
 "color":
 "#6F5106",
 "caption":
 "Wiener Schnitzler",
 "idno":
 "https://wienerschnitzler.org/tag.html#1925-09-08",
 "head":
 "Viareggio"
}] 