[{
 "type":
 "schnitzler-tagebuch",
 "color":
 "#037a33",
 "filename":
 "entry__1926-05-24",
 "caption":
 "Tagebuch",
 "idno":
 "https://schnitzler-tagebuch.acdh.oeaw.ac.at/entry__1926-05-24.html",
 "head":
 "Tagebuch, 24. Mai 1926",
 "desc":
{"listPerson":
  [
{
 "persName":
 "Richard Beer-Hofmann",
 "ref":
 "person_13551"},
 {
 "persName":
 "Lili Schnitzler",
 "ref":
 "person_14130"},
 {
 "persName":
 "Hedy Kempny",
 "ref":
 "person_16807"},
 {
 "persName":
 "Paul Liebesny",
 "ref":
 "person_17518"},
 {
 "persName":
 "Thomas Mann",
 "ref":
 "person_17838"},
 {
 "persName":
 "Philipp Menczel",
 "ref":
 "person_18063"},
 {
 "persName":
 "Rosa Menczel",
 "ref":
 "person_18064"},
 {
 "persName":
 "Paula Beer-Hofmann",
 "ref":
 "person_13550"},
 {
 "persName":
 "Oskar Loerke",
 "ref":
 "person_17625"}],
 "listPlace":
  [
 {
 "placeName":
 "Währing",
 "ref":
 "pmb90546"}
 ,  {
 "placeName":
 "Galitzinberg",
 "ref":
 "pmb90687"}
 ,  {
 "placeName":
 "XVI., Ottakring",
 "ref":
 "pmb66"}
 ]
}
}, {
 "type":
 "schnitzler-briefe",
 "color":
 "#A63437",
 "filename":
 "L03890",
 "caption":
 "Briefe mit Autorinnen und Autoren",
 "idno":
 "https://schnitzler-briefe.acdh.oeaw.ac.at/L03890.html",
 "head":
 "Sigmund Freud an Arthur Schnitzler, 24. 5. 1926",
 "desc":
{"listPerson":
  [
{
 "persName":
 "Sigmund Freud",
 "ref":
 "pmb11370"},
 {
 "persName":
 "Arthur Schnitzler",
 "ref":
 "pmb2121"},
 {
 "persName":
 "Sigmund Freud",
 "ref":
 "pmb11370"},
 {
 "persName":
 "Heinrich Schnitzler",
 "ref":
 "pmb12692"},
 {
 "persName":
 "Lili Cappellini",
 "ref":
 "pmb2238"},
 {
 "persName":
 "Ludwig Anzengruber",
 "ref":
 "pmb10772"},
 {
 "persName":
 "Martha Bernays",
 "ref":
 "pmb259642"}],
 "listBibl":
  [
 {
 "title":
 "Zwangshandlungen und Religionsübungen",
 "ref":
 "pmb298590"}
 ,  {
 "title":
 "Zeitschrift für Religionspsychologie",
 "ref":
 "pmb298592"}
 ,  {
 "title":
 "Totem und Tabu",
 "ref":
 "pmb298575"}
 ,  {
 "title":
 "Die Kreuzelschreiber",
 "ref":
 "pmb76761"}
 ,  {
 "title":
 "Traumnovelle",
 "ref":
 "pmb30851"}
 ],
 "listPlace":
  [
 {
 "placeName":
 "Wien",
 "ref":
 "pmb50"}
 ,  {
 "placeName":
 "Berggasse 19",
 "ref":
 "pmb253790"}
 ,  {
 "placeName":
 "Mittelmeer",
 "ref":
 "pmb41016"}
 ,  {
 "placeName":
 "Atlantischer Ozean",
 "ref":
 "pmb12376"}
 ,  {
 "placeName":
 "Las Palmas de Gran Canaria",
 "ref":
 "pmb44097"}
 ,  {
 "placeName":
 "Hamburg",
 "ref":
 "pmb506"}
 ,  {
 "placeName":
 "Berlin",
 "ref":
 "pmb168"}
 ,  {
 "placeName":
 "Semmering",
 "ref":
 "pmb189"}
 ]
}
}, {
 "type":
 "wienerschnitzler",
 "color":
 "#6F5106",
 "caption":
 "Wiener Schnitzler",
 "idno":
 "https://wienerschnitzler.org/tag.html#1926-05-24",
 "head":
 "Wien",
 "desc":
{"listPlace":
  [
 {
 "placeName":
 "XVII., Hernals",
 "ref":
 ""}
 ,  {
 "placeName":
 "XVI., Ottakring",
 "ref":
 ""}
 ,  {
 "placeName":
 "XIV., Penzing",
 "ref":
 ""}
 ,  {
 "placeName":
 "XVIII., Währing",
 "ref":
 ""}
 ]
}
}, {
 "type":
 "URL",
 "subtype":
 "pmb",
 "filename":
 "entity/210818/",
 "idno":
 "https://pmb.acdh.oeaw.ac.at/entity/210818/",
 "head":
 "Filmvorführung, 24.5.1926",
 "desc":
{"listPerson":
  [
{
 "persName":
 "Arthur Schnitzler",
 "ref":
 ""},
 {
 "persName":
 "Lili Cappellini",
 "ref":
 ""},
 {
 "persName":
 "Richard Beer-Hofmann",
 "ref":
 ""},
 {
 "persName":
 "Paula Beer-Hofmann",
 "ref":
 ""},
 {
 "persName":
 "Philipp Menczel",
 "ref":
 ""},
 {
 "persName":
 "Rosa Menczel",
 "ref":
 ""}],
 "listPlace":
  [
 {
 "placeName":
 "Wien",
 "ref":
 ""}
 ]
}
}, {
 "type":
 "schnitzler-cmif",
 "subtype":
 "#v149ca80-1848-4eff-991d-4c2560c2e17b",
 "color":
 "#654321",
 "caption":
 "Gedruckte Briefwechsel",
 "head":
 "Sigmund Freud an Arthur Schnitzler, 24.5.1926",
 "source":
 "Freud, Sigmund: Briefe an Arthur Schnitzler. Hg. v. Heinrich Schnitzler. In: Neue deutsche Rundschau, Jg. 66/1(1955), S. 95–106. https://shared.acdh.oeaw.ac.at/schnitzler-briefe/1955_Freud-an-Schnitzler.pdf"
}, {
 "type":
 "schnitzler-kino-buch",
 "subtype":
 "#ISBN978-3205787464",
 "color":
 "#B43C9C",
 "caption":
 "Kino",
 "head":
 "Schnitzler geht ins Kino, 24. Mai 1926",
 "source":
 "»A. ist manchmal wie ein kleines Kind«. Clara Katharina Pollaczek und Arthur Schnitzler gehen ins Kino. Herausgegeben von Stephan Kurz und Michael Rohrwasser unter Mitarbeit von Daniel Schopper. Wien, Köln, Weimar: Böhlau Verlag 2012."
}] 