[{
 "type":
 "schnitzler-tagebuch",
 "color":
 "#037a33",
 "filename":
 "entry__1926-04-05",
 "caption":
 "Tagebuch",
 "idno":
 "https://schnitzler-tagebuch.acdh.oeaw.ac.at/entry__1926-04-05.html",
 "head":
 "Tagebuch, 5. April 1926",
 "desc":
{"listPerson":
  [
{
 "persName":
 "Rudolf Askonas",
 "ref":
 "person_13285"},
 {
 "persName":
 "Lili Schnitzler",
 "ref":
 "person_14130"},
 {
 "persName":
 "Melitta Eger",
 "ref":
 "person_14625"},
 {
 "persName":
 "Hans Mihaly",
 "ref":
 "person_18157"},
 {
 "persName":
 "Paula Schmidl",
 "ref":
 "person_19756"},
 {
 "persName":
 "Agnes Ulmann",
 "ref":
 "person_20872"},
 {
 "persName":
 "Johanna Schmidl",
 "ref":
 "person_16852"},
 {
 "persName":
 "Frieda Pollak",
 "ref":
 "person_18881"}],
 "listPlace":
  [
 {
 "placeName":
 "Steinriegl",
 "ref":
 "pmb49210"}
 ,  {
 "placeName":
 "Mauerbach",
 "ref":
 "pmb942"}
 ,  {
 "placeName":
 "Sieghartskirchen",
 "ref":
 "pmb58825"}
 ,  {
 "placeName":
 "Hochstrass",
 "ref":
 "pmb90891"}
 ,  {
 "placeName":
 "Eichgraben",
 "ref":
 "pmb56157"}
 ]
}
}, {
 "type":
 "wienerschnitzler",
 "color":
 "#ECDA98",
 "caption":
 "Wiener Schnitzler",
 "idno":
 "https://wienerschnitzler.org/tag.html#1926-04-05",
 "head":
 "Wien",
 "desc":
{"listPlace":
  [
 {
 "placeName":
 "XIX., Döbling",
 "ref":
 ""}
 ,  {
 "placeName":
 "XVIII., Währing",
 "ref":
 ""}
 ]
}
}, {
 "type":
 "wienerschnitzler",
 "color":
 "#ECDA98",
 "caption":
 "Wiener Schnitzler",
 "idno":
 "https://wienerschnitzler.org/tag.html#1926-04-05",
 "head":
 "Steinriegl"
}, {
 "type":
 "wienerschnitzler",
 "color":
 "#ECDA98",
 "caption":
 "Wiener Schnitzler",
 "idno":
 "https://wienerschnitzler.org/tag.html#1926-04-05",
 "head":
 "Mauerbach",
 "desc":
{"listPlace":
  [
 {
 "placeName":
 "Kartause Mauerbach",
 "ref":
 ""}
 ]
}
}, {
 "type":
 "wienerschnitzler",
 "color":
 "#ECDA98",
 "caption":
 "Wiener Schnitzler",
 "idno":
 "https://wienerschnitzler.org/tag.html#1926-04-05",
 "head":
 "Sieghartskirchen"
}, {
 "type":
 "wienerschnitzler",
 "color":
 "#ECDA98",
 "caption":
 "Wiener Schnitzler",
 "idno":
 "https://wienerschnitzler.org/tag.html#1926-04-05",
 "head":
 "Hochstrass"
}, {
 "type":
 "wienerschnitzler",
 "color":
 "#ECDA98",
 "caption":
 "Wiener Schnitzler",
 "idno":
 "https://wienerschnitzler.org/tag.html#1926-04-05",
 "head":
 "Eichgraben"
}] 