[{
 "type":
 "schnitzler-tagebuch",
 "color":
 "#037a33",
 "filename":
 "entry__1926-05-25",
 "caption":
 "Tagebuch",
 "idno":
 "https://schnitzler-tagebuch.acdh.oeaw.ac.at/entry__1926-05-25.html",
 "head":
 "Tagebuch, 25. Mai 1926",
 "desc":
{"listPerson":
  [
{
 "persName":
 "Egbertje Alida Brevée",
 "ref":
 "person_13969"},
 {
 "persName":
 "David Feuchtwang",
 "ref":
 "person_14959"},
 {
 "persName":
 "Gizela Marcus",
 "ref":
 "person_17860"},
 {
 "persName":
 "Clara Katharina Pollaczek",
 "ref":
 "person_18863"},
 {
 "persName":
 "Julius Schnitzler",
 "ref":
 "person_19827"},
 {
 "persName":
 "Hermann Reuther",
 "ref":
 "person_19215"}],
 "listPlace":
  [
 {
 "placeName":
 "",
 "ref":
 "place_sanatoriumloew"}
 ,  {
 "placeName":
 "Brahmsplatz",
 "ref":
 "pmb92177"}
 ]
}
}, {
 "type":
 "schnitzler-briefe",
 "color":
 "#A63437",
 "filename":
 "L02475",
 "caption":
 "Briefe mit Autorinnen und Autoren",
 "idno":
 "https://schnitzler-briefe.acdh.oeaw.ac.at/L02475.html",
 "head":
 "Stefan Großmann an Arthur Schnitzler, 25. 5. 1926",
 "desc":
{"listPerson":
  [
{
 "persName":
 "Stefan Großmann",
 "ref":
 "pmb11527"},
 {
 "persName":
 "Leopold Schwarzschild",
 "ref":
 "pmb46596"}],
 "listBibl":
  [
 {
 "title":
 "Neue Freie Presse",
 "ref":
 "pmb36374"}
 ,  {
 "title":
 "Bemerkungen. (Aus dem noch unveröffentlichten „Buch der Sprüche und Bedenken“.)",
 "ref":
 "pmb47158"}
 ,  {
 "title":
 "Buch der Sprüche und Bedenken",
 "ref":
 "pmb30053"}
 ,  {
 "title":
 "Das Tage-Buch",
 "ref":
 "pmb46493"}
 ,  {
 "title":
 "Bemerkungen",
 "ref":
 "pmb47162"}
 ],
 "listOrg":
  [
 {
 "orgName":
 "Das Tage-Buch",
 "ref":
 "pmb37544"}
 ],
 "listPlace":
  [
 {
 "placeName":
 "Berlin",
 "ref":
 "pmb168"}
 ,  {
 "placeName":
 "Wien",
 "ref":
 "pmb50"}
 ,  {
 "placeName":
 "Beuthstrasse",
 "ref":
 "pmb46598"}
 ,  {
 "placeName":
 "XVIII., Währing",
 "ref":
 "pmb68"}
 ,  {
 "placeName":
 "Sternwartestraße",
 "ref":
 "pmb150"}
 ,  {
 "placeName":
 "Deutschland",
 "ref":
 "pmb151"}
 ]
}
}, {
 "type":
 "schnitzler-orte",
 "color":
 "#045344",
 "caption":
 "Aufenthaltsorte",
 "head":
 "Wien",
 "desc":
{"listPlace":
  [
 {
 "placeName":
 "IX., Alsergrund",
 "ref":
 ""}
 ,  {
 "placeName":
 "VIII., Josefstadt",
 "ref":
 ""}
 ,  {
 "placeName":
 "XVIII., Währing",
 "ref":
 ""}
 ,  {
 "placeName":
 "IV., Wieden",
 "ref":
 ""}
 ]
}
}] 