[{
 "type":
 "schnitzler-tagebuch",
 "color":
 "#037a33",
 "filename":
 "entry__1926-08-30",
 "caption":
 "Tagebuch",
 "idno":
 "https://schnitzler-tagebuch.acdh.oeaw.ac.at/entry__1926-08-30.html",
 "head":
 "Tagebuch, 30. August 1926",
 "desc":
{"listPerson":
  [
{
 "persName":
 "Dora Michaelis",
 "ref":
 "person_18137"},
 {
 "persName":
 "Karl Michaelis",
 "ref":
 "person_18140"},
 {
 "persName":
 "Clara Katharina Pollaczek",
 "ref":
 "person_18863"}],
 "listPlace":
  [
 {
 "placeName":
 "Grindelwald",
 "ref":
 "pmb90769"}
 ,  {
 "placeName":
 "Kleine Scheidegg",
 "ref":
 "pmb91679"}
 ,  {
 "placeName":
 "Wengen",
 "ref":
 "pmb92075"}
 ,  {
 "placeName":
 "Interlaken",
 "ref":
 "pmb916"}
 ,  {
 "placeName":
 "Stresa",
 "ref":
 "pmb91850"}
 ,  {
 "placeName":
 "Florenz",
 "ref":
 "pmb263"}
 ,  {
 "placeName":
 "Venedig",
 "ref":
 "pmb462"}
 ]
}
}, {
 "type":
 "wienerschnitzler",
 "color":
 "#ECDA98",
 "caption":
 "Wiener Schnitzler",
 "head":
 "Grindelwald",
 "desc":
{"listPlace":
  [
 {
 "placeName":
 "Grand Hotel Regina Grindelwald",
 "ref":
 ""}
 ]
}
}, {
 "type":
 "wienerschnitzler",
 "color":
 "#ECDA98",
 "caption":
 "Wiener Schnitzler",
 "head":
 "Interlaken",
 "desc":
{"listPlace":
  [
 {
 "placeName":
 "Hotel Beaurivage",
 "ref":
 ""}
 ]
}
}, {
 "type":
 "wienerschnitzler",
 "color":
 "#ECDA98",
 "caption":
 "Wiener Schnitzler",
 "head":
 "Kleine Scheidegg"
}, {
 "type":
 "wienerschnitzler",
 "color":
 "#ECDA98",
 "caption":
 "Wiener Schnitzler",
 "head":
 "Wengen"
}, {
 "type":
 "pollaczek",
 "color":
 "#1e81b0",
 "filename":
 "ckp384",
 "caption":
 "Pollaczek: Schnitzler und ich",
 "idno":
 "https://pollaczek.acdh.oeaw.ac.at/ckp384.html",
 "head":
 "Tagebuch von Clara Katharina Pollaczek, 28.–30. August 1926"
}, {
 "type":
 "pollaczek",
 "color":
 "#1e81b0",
 "filename":
 "ckp385",
 "caption":
 "Pollaczek: Schnitzler und ich",
 "idno":
 "https://pollaczek.acdh.oeaw.ac.at/ckp385.html",
 "head":
 "Tagebuch von Clara Katharina Pollaczek, 30. August – 5. September 1926"
}, {
 "type":
 "schnitzler-cmif",
 "subtype":
 "#n0827e77-245d-4359-a0b0-5b601a5370ee",
 "color":
 "#654321",
 "caption":
 "Gedruckte Briefwechsel",
 "head":
 "Arthur Schnitzler an Hedy Kempny, 30.8.1926",
 "source":
 "Hedy Kempny und Arthur Schnitzler: Das Mädchen mit den dreizehn Seelen. Eine Korrespondenz ergänzt durch Blätter aus Hedy Kempnys Tagebuch sowie durch eine Auswahl ihrer Erzählungen. Hg. v. Heinz P. Adamek. Reinbek bei Hamburg: Rowohlt 1984. (Neue Frau)"
}] 