{
 "date":
 {
 "when-iso":
 "1926-06-02",
 "written":
 "Mittwoch, 2. Juni 1926"
},
"listEvent":
 [{
 "type":
 "pollaczek",
 "idno":
 "https://pollaczek.acdh.oeaw.ac.at/ckp702.html",
 "head":
 "Tagebuch von Clara Katharina Pollaczek, 31. Mai 1929 – 8. Juni 1926"
}, {
 "type":
 "schnitzler-orte",
 "idno":
 "https://pmb.acdh.oeaw.ac.at/entity/50/",
 "head":
 "Wien"
}, {
 "type":
 "schnitzler-briefe",
 "idno":
 "https://schnitzler-briefe.acdh.oeaw.ac.at/L02477.html",
 "head":
 "Stefan Großmann an Arthur Schnitzler, 2. 6. 1926",
 "desc":
{"listPerson":
  [
{
 "persName":
 "Stefan Großmann",
 "ref":
 "pmb11527"},
 {
 "persName":
 "Leopold Schwarzschild",
 "ref":
 "pmb46596"},
 {
 "persName":
 "Carl Ossietzky",
 "ref":
 "pmb47291"}],
 "listBibl":
  [
 {
 "title":
 "Bemerkungen [Korrektur]",
 "ref":
 "pmb47247"}
 ,  {
 "title":
 "Buch der Sprüche und Bedenken",
 "ref":
 "pmb30053"}
 ],
 "listOrg":
  [
 {
 "orgName":
 "Das Tage-Buch",
 "ref":
 "pmb37544"}
 ],
 "listPlace":
  [
 {
 "placeName":
 "Berlin",
 "ref":
 "pmb168"}
 ,  {
 "placeName":
 "Wien",
 "ref":
 "pmb50"}
 ,  {
 "placeName":
 "Beuthstrasse",
 "ref":
 "pmb46598"}
 ,  {
 "placeName":
 "XVIII., Währing",
 "ref":
 "pmb68"}
 ,  {
 "placeName":
 "Sternwartestraße",
 "ref":
 "pmb150"}
 ]}

}, {
 "type":
 "schnitzler-tagebuch",
 "idno":
 "https://schnitzler-tagebuch.acdh.oeaw.ac.at/entry__1926-06-02.html",
 "head":
 "Tagebuch, 2. Juni 1926",
 "desc":
{"listPerson":
  [
{
 "persName":
 "Richard Beer-Hofmann",
 "ref":
 "person_13551"},
 {
 "persName":
 "Egbertje Alida Brevée",
 "ref":
 "person_13969"},
 {
 "persName":
 "Max Reinhardt",
 "ref":
 "person_19154"},
 {
 "persName":
 "Hans Schnitzler",
 "ref":
 "person_19821"},
 {
 "persName":
 "Helene Schnitzler",
 "ref":
 "person_19823"},
 {
 "persName":
 "Anna Donath",
 "ref":
 "person_14481"},
 {
 "persName":
 "Paul Wiegler",
 "ref":
 "person_21298"}],
 "listPlace":
  [
 {
 "placeName":
 "Kaltenleutgeben",
 "ref":
 "pmb44102"}
 ,  {
 "placeName":
 "Berlin",
 "ref":
 "pmb168"}
 ,  {
 "placeName":
 "Klosterneuburg",
 "ref":
 "pmb865"}
 ]}

}] 
}