[{
 "type":
 "schnitzler-tagebuch",
 "color":
 "#037a33",
 "filename":
 "entry__1926-05-01",
 "caption":
 "Tagebuch",
 "idno":
 "https://schnitzler-tagebuch.acdh.oeaw.ac.at/entry__1926-05-01.html",
 "head":
 "Tagebuch, 1. Mai 1926",
 "desc":
{"listPerson":
  [
{
 "persName":
 "Lili Schnitzler",
 "ref":
 "person_14130"},
 {
 "persName":
 "Hedy Kempny",
 "ref":
 "person_16807"},
 {
 "persName":
 "Vilma Lichtenstern",
 "ref":
 "person_17510"},
 {
 "persName":
 "Clara Katharina Pollaczek",
 "ref":
 "person_18863"}],
 "listPlace":
  [
 {
 "placeName":
 "Las Palmas de Gran Canaria",
 "ref":
 "pmb44097"}
 ]
}
}, {
 "type":
 "schnitzler-briefe",
 "color":
 "#A63437",
 "filename":
 "L02472",
 "caption":
 "Briefe mit Autorinnen und Autoren",
 "idno":
 "https://schnitzler-briefe.acdh.oeaw.ac.at/L02472.html",
 "head":
 "Arthur Schnitzler an Georg Brandes, 1. 5. 1926",
 "desc":
{"listPerson":
  [
{
 "persName":
 "Georg Brandes",
 "ref":
 "pmb10992"}],
 "listPlace":
  [
 {
 "placeName":
 "Gran Canaria",
 "ref":
 "pmb1098"}
 ,  {
 "placeName":
 "Königsvilla",
 "ref":
 "pmb1099"}
 ,  {
 "placeName":
 "Sternwartestraße 71",
 "ref":
 "pmb168815"}
 ,  {
 "placeName":
 "Kopenhagen",
 "ref":
 "pmb36300"}
 ,  {
 "placeName":
 "Dänemark",
 "ref":
 "pmb43570"}
 ,  {
 "placeName":
 "Arucas",
 "ref":
 "pmb43999"}
 ,  {
 "placeName":
 "Las Palmas de Gran Canaria",
 "ref":
 "pmb44097"}
 ,  {
 "placeName":
 "XVIII., Währing",
 "ref":
 "pmb68"}
 ,  {
 "placeName":
 "Karlsbad",
 "ref":
 "pmb842"}
 ]
}
}, {
 "type":
 "wienerschnitzler",
 "color":
 "#ECDA98",
 "caption":
 "Wiener Schnitzler",
 "idno":
 "https://wienerschnitzler.org/tag.html#1926-05-01",
 "head":
 "Las Palmas de Gran Canaria",
 "desc":
{"listPlace":
  [
 {
 "placeName":
 "Quiney’s Hotel Metropole",
 "ref":
 ""}
 ,  {
 "placeName":
 "Hafen von Las Palmas",
 "ref":
 ""}
 ]
}
}, {
 "type":
 "schnitzler-traeume",
 "subtype":
 "#ISBN978-3-8353-1029-2",
 "color":
 "#1193CC",
 "caption":
 "Traumtagebuch",
 "head":
 "Traum vom 1. Mai 1926",
 "source":
 "Arthur Schnitzler: Träume. Das Traumtagebuch 1875–1931. Herausgegeben von Peter Michael Braunwarth und Leo A. Lensing. Göttingen: Wallstein 2012 (Bibliothek Janowitz, Bd. 20)"
}] 