[{
 "type":
 "schnitzler-tagebuch",
 "color":
 "#037a33",
 "filename":
 "entry__1926-05-05",
 "caption":
 "Tagebuch",
 "idno":
 "https://schnitzler-tagebuch.acdh.oeaw.ac.at/entry__1926-05-05.html",
 "head":
 "Tagebuch, 5. Mai 1926",
 "desc":
{"listPerson":
  [
{
 "persName":
 "Reinold Freytag",
 "ref":
 "person_15191"},
 {
 "persName":
 "Maximiliano Grillo",
 "ref":
 "person_15660"},
 {
 "persName":
 "Schwartz",
 "ref":
 "person_19954"},
 {
 "persName":
 "Eduard Vallo",
 "ref":
 "person_20915"}],
 "listPlace":
  [
 {
 "placeName":
 "São Paulo",
 "ref":
 "pmb46191"}
 ,  {
 "placeName":
 "Berlin",
 "ref":
 "pmb168"}
 ,  {
 "placeName":
 "Bahía Blanca",
 "ref":
 "pmb90302"}
 ,  {
 "placeName":
 "Hamburg",
 "ref":
 "pmb506"}
 ]
}
}, {
 "type":
 "schnitzler-briefe",
 "color":
 "#A63437",
 "filename":
 "L02473",
 "caption":
 "Briefe mit Autorinnen und Autoren",
 "idno":
 "https://schnitzler-briefe.acdh.oeaw.ac.at/L02473.html",
 "head":
 "Arthur Schnitzler an Richard Beer-Hofmann, 5. 5. 1926",
 "desc":
{"listPerson":
  [
{
 "persName":
 "Richard Beer-Hofmann",
 "ref":
 "pmb10863"}],
 "listPlace":
  [
 {
 "placeName":
 "Hamburg",
 "ref":
 "pmb506"}
 ,  {
 "placeName":
 "Mittelmeer",
 "ref":
 "pmb41016"}
 ,  {
 "placeName":
 "Wien",
 "ref":
 "pmb50"}
 ,  {
 "placeName":
 "XVIII., Währing",
 "ref":
 "pmb68"}
 ,  {
 "placeName":
 "Hasenauerstraße",
 "ref":
 "pmb383"}
 ,  {
 "placeName":
 "Österreich",
 "ref":
 "pmb41240"}
 ,  {
 "placeName":
 "Las Palmas de Gran Canaria",
 "ref":
 "pmb44097"}
 ,  {
 "placeName":
 "Lissabon",
 "ref":
 "pmb15227"}
 ]
}
}, {
 "type":
 "schnitzler-orte",
 "color":
 "#045344",
 "caption":
 "Aufenthaltsorte",
 "head":
 "?? [nicht näher bestimmter Punkt zwischen Lissabon und Las Palmas]"
}] 