[{
 "type":
 "schnitzler-tagebuch",
 "color":
 "#037a33",
 "filename":
 "entry__1926-09-07",
 "caption":
 "Tagebuch",
 "idno":
 "https://schnitzler-tagebuch.acdh.oeaw.ac.at/entry__1926-09-07.html",
 "head":
 "Tagebuch, 7. September 1926",
 "desc":
{"listPerson":
  [
{
 "persName":
 "Julius Schnitzler",
 "ref":
 "person_19827"},
 {
 "persName":
 "Louise Schnitzler",
 "ref":
 "person_19831"},
 {
 "persName":
 "Johann Schnitzler",
 "ref":
 "person_19824"}],
 "listBibl":
  [
 {
 "title":
 "Wien bleibt Wien",
 "ref":
 "pmb81155"}
 ],
 "listPlace":
  [
 {
 "placeName":
 "Luzern",
 "ref":
 "pmb967"}
 ,  {
 "placeName":
 "Vitznau",
 "ref":
 "pmb92021"}
 ,  {
 "placeName":
 "Rigi Kaltbad",
 "ref":
 "pmb90983"}
 ,  {
 "placeName":
 "Kleine Scheidegg",
 "ref":
 "pmb91679"}
 ,  {
 "placeName":
 "Rigi Kulm",
 "ref":
 "pmb91598"}
 ]
}
}, {
 "type":
 "schnitzler-orte",
 "color":
 "#045344",
 "caption":
 "Aufenthaltsorte",
 "head":
 "Luzern",
 "desc":
{"listPlace":
  [
 {
 "placeName":
 "Hotel Sankt Gotthard-Terminus",
 "ref":
 ""}
 ]
}
}, {
 "type":
 "schnitzler-orte",
 "color":
 "#045344",
 "caption":
 "Aufenthaltsorte",
 "head":
 "Rigi Kaltbad",
 "desc":
{"listPlace":
  [
 {
 "placeName":
 "Rigi-Kaltbad-Scheidegg-Bahn",
 "ref":
 ""}
 ]
}
}, {
 "type":
 "schnitzler-orte",
 "color":
 "#045344",
 "caption":
 "Aufenthaltsorte",
 "head":
 "Rigi Scheidegg",
 "desc":
{"listPlace":
  [
 {
 "placeName":
 "Rigi-Kaltbad-Scheidegg-Bahn",
 "ref":
 ""}
 ]
}
}, {
 "type":
 "schnitzler-orte",
 "color":
 "#045344",
 "caption":
 "Aufenthaltsorte",
 "head":
 "Vitznau",
 "desc":
{"listPlace":
  [
 {
 "placeName":
 "Vitznau-Rigi-Bahn",
 "ref":
 ""}
 ]
}
}, {
 "type":
 "schnitzler-orte",
 "color":
 "#045344",
 "caption":
 "Aufenthaltsorte",
 "head":
 "Rigi Kulm"
}, {
 "type":
 "pollaczek",
 "color":
 "#1e81b0",
 "filename":
 "ckp389",
 "caption":
 "Pollaczek: Schnitzler und ich",
 "idno":
 "https://pollaczek.acdh.oeaw.ac.at/ckp389.html",
 "head":
 "Clara Katharina Pollaczek an Arthur Schnitzler, 7. September 1926"
}, {
 "type":
 "schnitzler-events",
 "color":
 "#9BC53D",
 "filename":
 "entity/210842/",
 "caption":
 "Ereignisse in der PMB",
 "idno":
 "https://pmb.acdh.oeaw.ac.at/entity/210842/",
 "head":
 "Filmvorführung von The Greater Glory, 7.9.1926",
 "desc":
{"listBibl":
  [
 {
 "title":
 "The Greater Glory",
 "ref":
 ""}
 ],
 "listPerson":
  [
{
 "persName":
 "Arthur Schnitzler",
 "ref":
 ""}],
 "listPlace":
  [
 {
 "placeName":
 "Luzern",
 "ref":
 ""}
 ]
}
}, {
 "type":
 "schnitzler-kino-buch",
 "subtype":
 "#ISBN978-3205787464",
 "color":
 "#B43C9C",
 "caption":
 "Kino",
 "head":
 "Schnitzler geht ins Kino in Luzern, 7. September 1926",
 "source":
 "»A. ist manchmal wie ein kleines Kind«. Clara Katharina Pollaczek und Arthur Schnitzler gehen ins Kino. Herausgegeben von Stephan Kurz und Michael Rohrwasser unter Mitarbeit von Daniel Schopper. Wien, Köln, Weimar: Böhlau Verlag 2012."
}] 