[{
 "type":
 "schnitzler-tagebuch",
 "color":
 "#037a33",
 "filename":
 "entry__1926-05-16",
 "caption":
 "Tagebuch",
 "idno":
 "https://schnitzler-tagebuch.acdh.oeaw.ac.at/entry__1926-05-16.html",
 "head":
 "Tagebuch, 16. Mai 1926",
 "desc":
{"listPerson":
  [
{
 "persName":
 "Raoul Auernheimer",
 "ref":
 "person_13305"},
 {
 "persName":
 "Lili Schnitzler",
 "ref":
 "person_14130"},
 {
 "persName":
 "Karl Federn",
 "ref":
 "person_14904"},
 {
 "persName":
 "Ludwig Fulda",
 "ref":
 "person_15306"},
 {
 "persName":
 "Hans Jacob",
 "ref":
 "person_16462"},
 {
 "persName":
 "Dora Michaelis",
 "ref":
 "person_18137"},
 {
 "persName":
 "Emil Orlik",
 "ref":
 "person_18576"},
 {
 "persName":
 "Edmund Pietrkowski",
 "ref":
 "person_18793"},
 {
 "persName":
 "Clara Katharina Pollaczek",
 "ref":
 "person_18863"},
 {
 "persName":
 "Jules Romains",
 "ref":
 "person_19338"},
 {
 "persName":
 "Heinrich Schnitzler",
 "ref":
 "person_19822"},
 {
 "persName":
 "Robert Schumann",
 "ref":
 "person_19942"},
 {
 "persName":
 "Siegfried Trebitsch",
 "ref":
 "person_20796"},
 {
 "persName":
 "Giuseppe Verdi",
 "ref":
 "person_20942"},
 {
 "persName":
 "Roger Martin du Gard",
 "ref":
 "person_17948"},
 {
 "persName":
 "Lotte Leonard",
 "ref":
 "person_17450"},
 {
 "persName":
 "Olga Schnitzler",
 "ref":
 "person_19832"},
 {
 "persName":
 "Franz Peter Schubert",
 "ref":
 "person_19902"}],
 "listBibl":
  [
 {
 "title":
 "Missa da Requiem",
 "ref":
 "pmb76696"}
 ],
 "listPlace":
  [
 {
 "placeName":
 "Berlin",
 "ref":
 "pmb168"}
 ,  {
 "placeName":
 "Wien",
 "ref":
 "pmb50"}
 ,  {
 "placeName":
 "Schadowstr.",
 "ref":
 "pmb92510"}
 ,  {
 "placeName":
 "Niederlande",
 "ref":
 "pmb44016"}
 ,  {
 "placeName":
 "Dänemark",
 "ref":
 "pmb43570"}
 ,  {
 "placeName":
 "Dahlem",
 "ref":
 "pmb90508"}
 ,  {
 "placeName":
 "Podbielski Allee",
 "ref":
 "pmb92451"}
 ,  {
 "placeName":
 "Vereinigte Staaten von Amerika (USA)",
 "ref":
 "pmb43406"}
 ]
}
}, {
 "type":
 "wienerschnitzler",
 "color":
 "#ECDA98",
 "caption":
 "Wiener Schnitzler",
 "idno":
 "https://wienerschnitzler.org/tag.html#1926-05-16",
 "head":
 "Berlin",
 "desc":
{"listPlace":
  [
 {
 "placeName":
 "Hotel Esplanade [Berlin]",
 "ref":
 ""}
 ,  {
 "placeName":
 "Olivaer Platz 1",
 "ref":
 ""}
 ,  {
 "placeName":
 "Restaurant Frolics",
 "ref":
 ""}
 ,  {
 "placeName":
 "Dahlem",
 "ref":
 ""}
 ,  {
 "placeName":
 "Podbielskiallee 35–37",
 "ref":
 ""}
 ]
}
}, {
 "type":
 "wienerschnitzler",
 "color":
 "#ECDA98",
 "caption":
 "Wiener Schnitzler",
 "idno":
 "https://wienerschnitzler.org/tag.html#1926-05-16",
 "head":
 "Schadowstraße 6/7"
}, {
 "type":
 "pollaczek",
 "color":
 "#1e81b0",
 "filename":
 "ckp339",
 "caption":
 "Pollaczek: Schnitzler und ich",
 "idno":
 "https://pollaczek.acdh.oeaw.ac.at/ckp339.html",
 "head":
 "Clara Katharina Pollaczek an Arthur Schnitzler, 16. Mai 1926"
}, {
 "type":
 "schnitzler-events",
 "color":
 "#9BC53D",
 "filename":
 "entity/250475/",
 "caption":
 "Ereignisse in der PMB",
 "idno":
 "https://pmb.acdh.oeaw.ac.at/entity/250475/",
 "head":
 "Empfang zum vierten internationalen PEN-Kongress, 16.5.1926",
 "desc":
{"listOrg":
  [
 {
 "orgName":
 "PEN International",
 "ref":
 ""}
 ],
 "listPerson":
  [
{
 "persName":
 "Arthur Schnitzler",
 "ref":
 ""}],
 "listPlace":
  [
 {
 "placeName":
 "Schadowstraße 6/7",
 "ref":
 ""}
 ]
}
}] 