[{
 "type":
 "schnitzler-tagebuch",
 "color":
 "#037a33",
 "filename":
 "entry__1926-02-06",
 "caption":
 "Tagebuch",
 "idno":
 "https://schnitzler-tagebuch.acdh.oeaw.ac.at/entry__1926-02-06.html",
 "head":
 "Tagebuch, 6. Februar 1926",
 "desc":
{"listPerson":
  [
{
 "persName":
 "Bettina Bauer",
 "ref":
 "person_13466"},
 {
 "persName":
 "Elisabeth Bergner",
 "ref":
 "person_13643"},
 {
 "persName":
 "Lili Schnitzler",
 "ref":
 "person_14130"},
 {
 "persName":
 "Georg Engel",
 "ref":
 "person_14754"},
 {
 "persName":
 "Lucie Mannheim",
 "ref":
 "person_17841"},
 {
 "persName":
 "Alice Meisel",
 "ref":
 "person_18048"},
 {
 "persName":
 "Dora Michaelis",
 "ref":
 "person_18137"},
 {
 "persName":
 "Heinrich Schnitzler",
 "ref":
 "person_19822"},
 {
 "persName":
 "Victor Barnowsky",
 "ref":
 "person_13428"},
 {
 "persName":
 "Geisler",
 "ref":
 "person_15373"},
 {
 "persName":
 "Nazary Kantorowicz",
 "ref":
 "person_16694"},
 {
 "persName":
 "Günther Birkenfeld",
 "ref":
 "person_13741"},
 {
 "persName":
 "Andreas Albert Michaelis",
 "ref":
 "person_18136"},
 {
 "persName":
 "Olga Schnitzler",
 "ref":
 "person_19832"}],
 "listBibl":
  [
 {
 "title":
 "Fräulein Else",
 "ref":
 "pmb29941"}
 ,  {
 "title":
 "Jugend",
 "ref":
 "pmb77411"}
 ],
 "listPlace":
  [
 {
 "placeName":
 "Berlin",
 "ref":
 "pmb168"}
 ,  {
 "placeName":
 "Olivaerplatz",
 "ref":
 "pmb92429"}
 ,  {
 "placeName":
 "Schillertheater",
 "ref":
 "pmb334"}
 ]
}
}, {
 "type":
 "wienerschnitzler",
 "color":
 "#ECDA98",
 "caption":
 "Wiener Schnitzler",
 "head":
 "Berlin",
 "desc":
{"listPlace":
  [
 {
 "placeName":
 "Hotel Esplanade [Berlin]",
 "ref":
 ""}
 ,  {
 "placeName":
 "Reichstag",
 "ref":
 ""}
 ,  {
 "placeName":
 "Welserstraße 19",
 "ref":
 ""}
 ,  {
 "placeName":
 "Olivaer Platz 1",
 "ref":
 ""}
 ,  {
 "placeName":
 "Schiller-Theater",
 "ref":
 ""}
 ]
}
}, {
 "type":
 "wienerschnitzler",
 "color":
 "#ECDA98",
 "caption":
 "Wiener Schnitzler",
 "head":
 "Wien",
 "desc":
{"listPlace":
  [
 {
 "placeName":
 "XVIII., Währing",
 "ref":
 ""}
 ]
}
}, {
 "type":
 "schnitzler-events",
 "color":
 "#9BC53D",
 "filename":
 "entity/249504/",
 "caption":
 "Ereignisse in der PMB",
 "idno":
 "https://pmb.acdh.oeaw.ac.at/entity/249504/",
 "head":
 "Aufführung von Jugend, 6.2.1926",
 "desc":
{"listBibl":
  [
 {
 "title":
 "Jugend",
 "ref":
 ""}
 ],
 "listPerson":
  [
{
 "persName":
 "Heinrich Schnitzler",
 "ref":
 ""},
 {
 "persName":
 "Arthur Schnitzler",
 "ref":
 ""}],
 "listPlace":
  [
 {
 "placeName":
 "Schiller-Theater",
 "ref":
 ""}
 ]
}
}] 