[{
 "type":
 "schnitzler-tagebuch",
 "color":
 "#037a33",
 "filename":
 "entry__1927-05-18",
 "caption":
 "Tagebuch",
 "idno":
 "https://schnitzler-tagebuch.acdh.oeaw.ac.at/entry__1927-05-18.html",
 "head":
 "Tagebuch, 18. Mai 1927",
 "desc":
{"listPerson":
  [
{
 "persName":
 "Ludwig Bauer",
 "ref":
 "person_13473"},
 {
 "persName":
 "Lili Schnitzler",
 "ref":
 "person_14130"},
 {
 "persName":
 "Johannes von Guenther",
 "ref":
 "person_15731"},
 {
 "persName":
 "Hedy Kempny",
 "ref":
 "person_16807"},
 {
 "persName":
 "Thomas Mann",
 "ref":
 "person_17838"},
 {
 "persName":
 "Ruth Lindberg",
 "ref":
 "person_17562"},
 {
 "persName":
 "Jakob Wassermann",
 "ref":
 "person_21107"},
 {
 "persName":
 "Josef II.",
 "ref":
 "person_16586"},
 {
 "persName":
 "Olga Schnitzler",
 "ref":
 "person_19832"}],
 "listBibl":
  [
 {
 "title":
 "Kaiser Josef II.",
 "ref":
 "pmb30843"}
 ,  {
 "title":
 "Reigen. Zehn Dialoge",
 "ref":
 "pmb29855"}
 ],
 "listPlace":
  [
 {
 "placeName":
 "Karlsbad",
 "ref":
 "pmb842"}
 ,  {
 "placeName":
 "Basel",
 "ref":
 "pmb854"}
 ,  {
 "placeName":
 "Paris",
 "ref":
 "pmb182"}
 ,  {
 "placeName":
 "Prater",
 "ref":
 "pmb91530"}
 ]
}
}, {
 "type":
 "schnitzler-briefe",
 "color":
 "#A63437",
 "filename":
 "L03674",
 "caption":
 "Briefe mit Autorinnen und Autoren",
 "idno":
 "https://schnitzler-briefe.acdh.oeaw.ac.at/L03674.html",
 "head":
 "Stefan Zweig an Arthur Schnitzler, 18. 5. 1927",
 "desc":
{"listPerson":
  [
{
 "persName":
 "Stefan Zweig",
 "ref":
 "pmb13212"},
 {
 "persName":
 "Arthur Schnitzler",
 "ref":
 "pmb2121"},
 {
 "persName":
 "Stefan Zweig",
 "ref":
 "pmb13212"}],
 "listBibl":
  [
 {
 "title":
 "Spiel im Morgengrauen. Novelle",
 "ref":
 "pmb32131"}
 ,  {
 "title":
 "Berliner Illustrirte Zeitung",
 "ref":
 "pmb167632"}
 ,  {
 "title":
 "Der Gang zum Weiher. Dramatische Dichtung",
 "ref":
 "pmb30775"}
 ,  {
 "title":
 "Fräulein Else",
 "ref":
 "pmb29941"}
 ,  {
 "title":
 "Börsenblatt für den Deutschen Buchhandel",
 "ref":
 "pmb47979"}
 ],
 "listPlace":
  [
 {
 "placeName":
 "Salzburg",
 "ref":
 "pmb30"}
 ,  {
 "placeName":
 "Paschinger Schlössl",
 "ref":
 "pmb253003"}
 ,  {
 "placeName":
 "XIII., Hietzing",
 "ref":
 "pmb63"}
 ],
 "listOrg":
  [
 {
 "orgName":
 "S. Fischer Verlag",
 "ref":
 "pmb29639"}
 ,  {
 "orgName":
 "Burgtheater",
 "ref":
 "pmb36247"}
 ]
}
}, {
 "type":
 "wienerschnitzler",
 "color":
 "#6F5106",
 "caption":
 "Wiener Schnitzler",
 "idno":
 "https://wienerschnitzler.org/tag.html#1927-05-18",
 "head":
 "Wien",
 "desc":
{"listPlace":
  [
 {
 "placeName":
 "II., Leopoldstadt",
 "ref":
 ""}
 ,  {
 "placeName":
 "XVIII., Währing",
 "ref":
 ""}
 ,  {
 "placeName":
 "I., Innere Stadt",
 "ref":
 ""}
 ]
}
}, {
 "type":
 "schnitzler-cmif",
 "subtype":
 "#v02efeb3-b382-4ed8-a71f-1366a4647e76",
 "color":
 "#654321",
 "caption":
 "Gedruckte Briefwechsel",
 "head":
 "Raoul Auernheimer an Arthur Schnitzler, 18.5.1927",
 "source":
 "The Correspondence of Arthur Schnitzler and Raoul Auernheimer with Raoul Auernheimer’s Aphorism. Edited with introduction and notes by Donald G. Daviau and Jorun B. Johns. Chapel Hill: The University of North Carolina Press, 1972 (University of North Carolina Studies in the Germanic Languages and Literatures, 73)."
}] 