[{
 "type":
 "schnitzler-orte",
 "color":
 "#045344",
 "caption":
 "Aufenthaltsorte",
 "idno":
 "https://pmb.acdh.oeaw.ac.at/entity/50/",
 "head":
 "Wien"
}, {
 "type":
 "schnitzler-briefe",
 "color":
 "#A63437",
 "caption":
 "Briefe mit Autorinnen und Autoren",
 "idno":
 "https://schnitzler-briefe.acdh.oeaw.ac.at/L02482.html",
 "head":
 "Arthur Schnitzler an Hugo von Hofmannsthal, 26. 2. 1927",
 "desc":
{"listPerson":
  [
{
 "persName":
 "Hugo von Hofmannsthal",
 "ref":
 "pmb11740"},
 {
 "persName":
 "Heinz Schulbaur",
 "ref":
 "pmb10736"}],
 "listBibl":
  [
 {
 "title":
 "Der weiße Fächer. Ein Zwischenspiel",
 "ref":
 "pmb32069"}
 ],
 "listPlace":
  [
 {
 "placeName":
 "Wien",
 "ref":
 "pmb50"}
 ,  {
 "placeName":
 "XVIII., Währing",
 "ref":
 "pmb68"}
 ,  {
 "placeName":
 "Sternwartestraße",
 "ref":
 "pmb150"}
 ,  {
 "placeName":
 "Badgasse",
 "ref":
 "pmb1006"}
 ,  {
 "placeName":
 "Rodaun",
 "ref":
 "pmb173"}
 ,  {
 "placeName":
 "Agrigento",
 "ref":
 "pmb36499"}
 ,  {
 "placeName":
 "Volkstheater",
 "ref":
 "pmb20"}
 ,  {
 "placeName":
 "Hochschule und Akademie für Musik und Darstellende Kunst",
 "ref":
 "pmb25"}
 ,  {
 "placeName":
 "Sizilien",
 "ref":
 "pmb451"}
 ,  {
 "placeName":
 "Taormina",
 "ref":
 "pmb906"}
 ,  {
 "placeName":
 "Syrakus",
 "ref":
 "pmb48769"}
 ]
}
}, {
 "type":
 "schnitzler-tagebuch",
 "color":
 "#037a33",
 "caption":
 "Tagebuch",
 "idno":
 "https://schnitzler-tagebuch.acdh.oeaw.ac.at/entry__1927-02-26.html",
 "head":
 "Tagebuch, 26. Februar 1927",
 "desc":
{"listPerson":
  [
{
 "persName":
 "Kazimierz von Chłedowski",
 "ref":
 "person_14198"},
 {
 "persName":
 "Wladimir von Hartlieb",
 "ref":
 "person_15942"},
 {
 "persName":
 "Franz Josef Lichtenstern",
 "ref":
 "person_17507"},
 {
 "persName":
 "Robert Lichtenstern",
 "ref":
 "person_17509"},
 {
 "persName":
 "Vilma Lichtenstern",
 "ref":
 "person_17510"},
 {
 "persName":
 "George Bernard Shaw",
 "ref":
 "person_20080"},
 {
 "persName":
 "Albert Vandal",
 "ref":
 "person_20920"}],
 "listBibl":
  [
 {
 "title":
 "Aphoristisches",
 "ref":
 "pmb35745"}
 ,  {
 "title":
 "Landsknecht",
 "ref":
 "pmb30753"}
 ,  {
 "title":
 "Italien",
 "ref":
 "pmb80663"}
 ,  {
 "title":
 "Zurück zu Methusalem",
 "ref":
 "pmb77112"}
 ,  {
 "title":
 "L’avènement de Bonaparte",
 "ref":
 "pmb81438"}
 ]
}
}] 