[{
 "type":
 "schnitzler-tagebuch",
 "color":
 "#037a33",
 "filename":
 "entry__1927-10-12",
 "caption":
 "Tagebuch",
 "idno":
 "https://schnitzler-tagebuch.acdh.oeaw.ac.at/entry__1927-10-12.html",
 "head":
 "Tagebuch, 12. Oktober 1927",
 "desc":
{"listPerson":
  [
{
 "persName":
 "Helene Binder",
 "ref":
 "person_13733"},
 {
 "persName":
 "Sybille Binder",
 "ref":
 "person_13735"},
 {
 "persName":
 "Samuel Glückselig",
 "ref":
 "person_15482"},
 {
 "persName":
 "Robert Lichtenstern",
 "ref":
 "person_17509"},
 {
 "persName":
 "Vilma Lichtenstern",
 "ref":
 "person_17510"},
 {
 "persName":
 "Philipp Menczel",
 "ref":
 "person_18063"},
 {
 "persName":
 "Ruth Lindberg",
 "ref":
 "person_17562"},
 {
 "persName":
 "Erwin Piscator",
 "ref":
 "person_18810"},
 {
 "persName":
 "Frieda Pollak",
 "ref":
 "person_18881"},
 {
 "persName":
 "Olga Schnitzler",
 "ref":
 "person_19832"}],
 "listBibl":
  [
 {
 "title":
 "Luisenhof",
 "ref":
 "pmb32021"}
 ],
 "listPlace":
  [
 {
 "placeName":
 "Berlin",
 "ref":
 "pmb168"}
 ]
}
}, {
 "type":
 "schnitzler-briefe",
 "color":
 "#A63437",
 "filename":
 "L03745",
 "caption":
 "Briefe mit Autorinnen und Autoren",
 "idno":
 "https://schnitzler-briefe.acdh.oeaw.ac.at/L03745.html",
 "head":
 "Arthur Schnitzler an Stefan Zweig, 12. 10. 1927",
 "desc":
{"listPerson":
  [
{
 "persName":
 "Arthur Schnitzler",
 "ref":
 "pmb2121"},
 {
 "persName":
 "Stefan Zweig",
 "ref":
 "pmb13212"},
 {
 "persName":
 "Stefan Zweig",
 "ref":
 "pmb13212"},
 {
 "persName":
 "Lili Cappellini",
 "ref":
 "pmb2238"},
 {
 "persName":
 "Arnoldo Cappellini",
 "ref":
 "pmb14850"}],
 "listBibl":
  [
 {
 "title":
 "Smjatenie Chusto",
 "ref":
 "pmb295117"}
 ,  {
 "title":
 "Žgučaja tajna. Pervye pereživanija",
 "ref":
 "pmb295087"}
 ,  {
 "title":
 "Amok. Novelly",
 "ref":
 "pmb295101"}
 ,  {
 "title":
 "Verwirrung der Gefühle",
 "ref":
 "pmb296173"}
 ,  {
 "title":
 "Brief einer Unbekannten",
 "ref":
 "pmb295334"}
 ,  {
 "title":
 "Therese. Chronik eines Frauenlebens",
 "ref":
 "pmb30817"}
 ],
 "listPlace":
  [
 {
 "placeName":
 "Wien",
 "ref":
 "pmb50"}
 ,  {
 "placeName":
 "Salzburg",
 "ref":
 "pmb30"}
 ,  {
 "placeName":
 "Deutschland",
 "ref":
 "pmb151"}
 ,  {
 "placeName":
 "Russland",
 "ref":
 "pmb34438"}
 ,  {
 "placeName":
 "Dolomiten",
 "ref":
 "pmb58636"}
 ,  {
 "placeName":
 "Südtirol",
 "ref":
 "pmb969"}
 ,  {
 "placeName":
 "Italien",
 "ref":
 "pmb40306"}
 ,  {
 "placeName":
 "Venedig",
 "ref":
 "pmb462"}
 ,  {
 "placeName":
 "Lido",
 "ref":
 "pmb259"}
 ,  {
 "placeName":
 "Santa Maria Gloriosa dei Frari",
 "ref":
 "pmb248606"}
 ],
 "listOrg":
  [
 {
 "orgName":
 "Wremja",
 "ref":
 "pmb294981"}
 ]
}
}, {
 "type":
 "wienerschnitzler",
 "color":
 "#6F5106",
 "caption":
 "Wiener Schnitzler",
 "idno":
 "https://wienerschnitzler.org/tag.html#1927-10-12",
 "head":
 "Wien",
 "desc":
{"listPlace":
  [
 {
 "placeName":
 "VIII., Josefstadt",
 "ref":
 ""}
 ,  {
 "placeName":
 "IV., Wieden",
 "ref":
 ""}
 ,  {
 "placeName":
 "XVIII., Währing",
 "ref":
 ""}
 ,  {
 "placeName":
 "I., Innere Stadt",
 "ref":
 ""}
 ]
}
}, {
 "type":
 "kalliope-verbund",
 "color":
 "#003574",
 "caption":
 "Kalliope Verbundkatalog",
 "idno":
 "http://kalliope-verbund.info/DE-2498-HS00043588",
 "head":
 "Stiastny, Ernst an Schnitzler, Arthur [Briefe]",
 "text":
 "2 Bl."
}] 