[{
 "type":
 "pollaczek",
 "idno":
 "https://pollaczek.acdh.oeaw.ac.at/ckp515.html",
 "head":
 "Tagebuch von Clara Katharina Pollaczek, 22. Dezember 1927 – 8. Januar
                  1928"
}, {
 "type":
 "schnitzler-orte",
 "idno":
 "https://pmb.acdh.oeaw.ac.at/entity/50/",
 "head":
 "Wien"
}, {
 "type":
 "schnitzler-briefe",
 "idno":
 "https://schnitzler-briefe.acdh.oeaw.ac.at/L02494.html",
 "head":
 "Felix Braun an Arthur Schnitzler, 25. 12. 1927",
 "desc":
{"listPerson":
  [
{
 "persName":
 "Felix Braun",
 "ref":
 "pmb11002"}],
 "listBibl":
  [
 {
 "title":
 "Buch der Sprüche und Bedenken",
 "ref":
 "pmb30053"}
 ,  {
 "title":
 "Zum Abschied",
 "ref":
 "pmb33261"}
 ],
 "listPlace":
  [
 {
 "placeName":
 "Sieveringer Straße",
 "ref":
 "pmb1092"}
 ,  {
 "placeName":
 "Wien",
 "ref":
 "pmb50"}
 ]}

}, {
 "type":
 "schnitzler-briefe",
 "idno":
 "https://schnitzler-briefe.acdh.oeaw.ac.at/L02495.html",
 "head":
 "Thomas Mann an Arthur Schnitzler, 25. 12. 1927",
 "desc":
{"listPerson":
  [
{
 "persName":
 "Thomas Mann",
 "ref":
 "pmb12176"}],
 "listBibl":
  [
 {
 "title":
 "Buch der Sprüche und Bedenken",
 "ref":
 "pmb30053"}
 ],
 "listPlace":
  [
 {
 "placeName":
 "München",
 "ref":
 "pmb45258"}
 ,  {
 "placeName":
 "Wien",
 "ref":
 "pmb50"}
 ,  {
 "placeName":
 "XVIII., Währing",
 "ref":
 "pmb68"}
 ,  {
 "placeName":
 "Sternwartestraße",
 "ref":
 "pmb150"}
 ,  {
 "placeName":
 "Poschingerstraße",
 "ref":
 "pmb1213"}
 ]}

}, {
 "type":
 "schnitzler-briefe",
 "idno":
 "https://schnitzler-briefe.acdh.oeaw.ac.at/L02568.html",
 "head":
 "Therese Rie an Arthur Schnitzler, 25. 12. 1927",
 "desc":
{"listPerson":
  [
{
 "persName":
 "Therese Rie",
 "ref":
 "pmb4836"},
 {
 "persName":
 "Friedrich Nietzsche",
 "ref":
 "pmb12358"}],
 "listBibl":
  [
 {
 "title":
 "Buch der Sprüche und Bedenken",
 "ref":
 "pmb30053"}
 ,  {
 "title":
 "Morgenröte. Gedanken über die moralischen Vorurteile",
 "ref":
 "pmb55898"}
 ],
 "listPlace":
  [
 {
 "placeName":
 "Wien",
 "ref":
 "pmb50"}
 ,  {
 "placeName":
 "Schönburgstraße",
 "ref":
 "pmb52498"}
 ]}

}, {
 "type":
 "schnitzler-tagebuch",
 "idno":
 "https://schnitzler-tagebuch.acdh.oeaw.ac.at/entry__1927-12-25.html",
 "head":
 "Tagebuch, 25. Dezember 1927",
 "desc":
{"listPerson":
  [
{
 "persName":
 "Charlotte Horn",
 "ref":
 "person_16362"},
 {
 "persName":
 "Lucy von Jacobi",
 "ref":
 "person_16469"},
 {
 "persName":
 "Clara Katharina Pollaczek",
 "ref":
 "person_18863"},
 {
 "persName":
 "Heinrich Schnitzler",
 "ref":
 "person_19822"},
 {
 "persName":
 "Olga Schnitzler",
 "ref":
 "person_19832"}],
 "listBibl":
  [
 {
 "title":
 "Das Wort. Tragikomödie in fünf Akten",
 "ref":
 "pmb30615"}
 ],
 "listPlace":
  [
 {
 "placeName":
 "Berlin",
 "ref":
 "pmb168"}
 ,  {
 "placeName":
 "Dresden",
 "ref":
 "pmb90550"}
 ]}

}] 