[{
 "type":
 "schnitzler-tagebuch",
 "color":
 "#037a33",
 "filename":
 "entry__1927-08-12",
 "caption":
 "Tagebuch",
 "idno":
 "https://schnitzler-tagebuch.acdh.oeaw.ac.at/entry__1927-08-12.html",
 "head":
 "Tagebuch, 12. August 1927",
 "desc":
{"listPerson":
  [
{
 "persName":
 "Lili Schnitzler",
 "ref":
 "person_14130"},
 {
 "persName":
 "Franz Joseph I. von Österreich-Ungarn",
 "ref":
 "person_15150"},
 {
 "persName":
 "Paul Goldmann",
 "ref":
 "person_15529"},
 {
 "persName":
 "Edmund Pietrkowski",
 "ref":
 "person_18793"},
 {
 "persName":
 "August von Plappart-Leenherr",
 "ref":
 "person_18825"},
 {
 "persName":
 "Heinrich Schnitzler",
 "ref":
 "person_19822"},
 {
 "persName":
 "Louise Schnitzler",
 "ref":
 "person_19831"},
 {
 "persName":
 "Alois Dominik von Stefenelli",
 "ref":
 "person_20340"},
 {
 "persName":
 "Edith Schneider",
 "ref":
 "person_19802"},
 {
 "persName":
 "Theodore Rottenberg",
 "ref":
 "person_19434"},
 {
 "persName":
 "Olga Schnitzler",
 "ref":
 "person_19832"}],
 "listPlace":
  [
 {
 "placeName":
 "Bozen",
 "ref":
 "pmb40260"}
 ,  {
 "placeName":
 "Passo della Mendola",
 "ref":
 "pmb91229"}
 ,  {
 "placeName":
 "Malé",
 "ref":
 "pmb90126"}
 ,  {
 "placeName":
 "Campo Carlo Magno",
 "ref":
 "pmb90438"}
 ,  {
 "placeName":
 "Madonna di Campiglio",
 "ref":
 "pmb427"}
 ,  {
 "placeName":
 "Cima Presanella",
 "ref":
 "pmb91540"}
 ,  {
 "placeName":
 "Venedig",
 "ref":
 "pmb462"}
 ,  {
 "placeName":
 "Carezza",
 "ref":
 "pmb91003"}
 ,  {
 "placeName":
 "Madrid",
 "ref":
 "pmb914"}
 ,  {
 "placeName":
 "Riva del Garda",
 "ref":
 "pmb465"}
 ]
}
}, {
 "type":
 "wienerschnitzler",
 "color":
 "#6F5106",
 "caption":
 "Wiener Schnitzler",
 "idno":
 "https://wienerschnitzler.org/tag.html#1927-08-12",
 "head":
 "Bozen",
 "desc":
{"listPlace":
  [
 {
 "placeName":
 "Hotel Laurin",
 "ref":
 ""}
 ]
}
}, {
 "type":
 "wienerschnitzler",
 "color":
 "#6F5106",
 "caption":
 "Wiener Schnitzler",
 "idno":
 "https://wienerschnitzler.org/tag.html#1927-08-12",
 "head":
 "Madonna di Campiglio",
 "desc":
{"listPlace":
  [
 {
 "placeName":
 "Carlo Magno Zeledria Hotel",
 "ref":
 ""}
 ]
}
}, {
 "type":
 "wienerschnitzler",
 "color":
 "#6F5106",
 "caption":
 "Wiener Schnitzler",
 "idno":
 "https://wienerschnitzler.org/tag.html#1927-08-12",
 "head":
 "Mendelpass"
}, {
 "type":
 "wienerschnitzler",
 "color":
 "#6F5106",
 "caption":
 "Wiener Schnitzler",
 "idno":
 "https://wienerschnitzler.org/tag.html#1927-08-12",
 "head":
 "Malé"
}, {
 "type":
 "wienerschnitzler",
 "color":
 "#6F5106",
 "caption":
 "Wiener Schnitzler",
 "idno":
 "https://wienerschnitzler.org/tag.html#1927-08-12",
 "head":
 "Campo Carlo Magno"
}] 