[{
 "type":
 "schnitzler-tagebuch",
 "color":
 "#037a33",
 "filename":
 "entry__1927-05-08",
 "caption":
 "Tagebuch",
 "idno":
 "https://schnitzler-tagebuch.acdh.oeaw.ac.at/entry__1927-05-08.html",
 "head":
 "Tagebuch, 8. Mai 1927",
 "desc":
{"listPerson":
  [
{
 "persName":
 "Rudolf Allers",
 "ref":
 "person_13152"},
 {
 "persName":
 "Horace Liveright",
 "ref":
 "person_17600"},
 {
 "persName":
 "Alma Maria Mahler",
 "ref":
 "person_17784"},
 {
 "persName":
 "Clara Katharina Pollaczek",
 "ref":
 "person_18863"},
 {
 "persName":
 "Julie Wassermann",
 "ref":
 "person_21109"},
 {
 "persName":
 "Franz Werfel",
 "ref":
 "person_21243"},
 {
 "persName":
 "Anna von Zsolnay",
 "ref":
 "person_21584"},
 {
 "persName":
 "Jakob Wassermann",
 "ref":
 "person_21107"},
 {
 "persName":
 "Olga Schnitzler",
 "ref":
 "person_19832"}],
 "listBibl":
  [
 {
 "title":
 "Der Geist im Wort und der Geist in der Tat",
 "ref":
 "pmb30051"}
 ,  {
 "title":
 "Das Werden der sittlichen Person",
 "ref":
 "pmb76962"}
 ,  {
 "title":
 "Paulus unter den Juden",
 "ref":
 "pmb76579"}
 ],
 "listPlace":
  [
 {
 "placeName":
 "Vereinigte Staaten von Amerika (USA)",
 "ref":
 "pmb43406"}
 ,  {
 "placeName":
 "New York City",
 "ref":
 "pmb44053"}
 ,  {
 "placeName":
 "Philadelphia",
 "ref":
 "pmb47628"}
 ,  {
 "placeName":
 "Hollywood",
 "ref":
 "pmb38174"}
 ,  {
 "placeName":
 "Prater",
 "ref":
 "pmb91530"}
 ,  {
 "placeName":
 "New Danube",
 "ref":
 "pmb90538"}
 ]
}
}, {
 "type":
 "wienerschnitzler",
 "color":
 "#6F5106",
 "caption":
 "Wiener Schnitzler",
 "idno":
 "https://wienerschnitzler.org/tag.html#1927-05-08",
 "head":
 "Wien",
 "desc":
{"listPlace":
  [
 {
 "placeName":
 "II., Leopoldstadt",
 "ref":
 ""}
 ,  {
 "placeName":
 "XVIII., WÃ¤hring",
 "ref":
 ""}
 ]
}
}, {
 "type":
 "kalliope-verbund",
 "color":
 "#003574",
 "caption":
 "Kalliope Verbundkatalog",
 "idno":
 "http://kalliope-verbund.info/DE-2498-HS00080733",
 "head":
 "Kesser, Hermann an Schnitzler, Arthur [Briefe]",
 "text":
 "2 Bl.Abschr.",
 "desc":
{"listPerson":
  [
{
 "persName":
 "Hermann (1880-1952) Kesser",
 "ref":
 "http://d-nb.info/gnd/116017899"}]
}
}] 