[{
 "type":
 "schnitzler-tagebuch",
 "color":
 "#037a33",
 "filename":
 "entry__1927-04-25",
 "caption":
 "Tagebuch",
 "idno":
 "https://schnitzler-tagebuch.acdh.oeaw.ac.at/entry__1927-04-25.html",
 "head":
 "Tagebuch, 25. April 1927",
 "desc":
{"listPerson":
  [
{
 "persName":
 "Arnoldo Cappellini",
 "ref":
 "person_14129"},
 {
 "persName":
 "Lili Schnitzler",
 "ref":
 "person_14130"},
 {
 "persName":
 "Alma Maria Mahler",
 "ref":
 "person_17784"},
 {
 "persName":
 "Carl Moll",
 "ref":
 "person_18218"},
 {
 "persName":
 "Anna von Zsolnay",
 "ref":
 "person_21584"}],
 "listPlace":
  [
 {
 "placeName":
 "Venedig",
 "ref":
 "pmb462"}
 ,  {
 "placeName":
 "Wien",
 "ref":
 "pmb50"}
 ,  {
 "placeName":
 "Bonvecchiati",
 "ref":
 "pmb92174"}
 ,  {
 "placeName":
 "Markusplatz",
 "ref":
 "pmb92388"}
 ]
}
}, {
 "type":
 "schnitzler-briefe",
 "color":
 "#A63437",
 "filename":
 "L02687",
 "caption":
 "Briefe mit Autorinnen und Autoren",
 "idno":
 "https://schnitzler-briefe.acdh.oeaw.ac.at/L02687.html",
 "head":
 "Arthur Schnitzler an Paul Goldmann, 25. 4. 1927",
 "desc":
{"listPerson":
  [
{
 "persName":
 "Paul Goldmann",
 "ref":
 "pmb11485"},
 {
 "persName":
 "Rena R. Schlein",
 "ref":
 "pmb89007"},
 {
 "persName":
 "Leo P. Reckford",
 "ref":
 "pmb89004"},
 {
 "persName":
 "Eva Marie Goldmann",
 "ref":
 "pmb17164"},
 {
 "persName":
 "Franziska Goldmann",
 "ref":
 "pmb17167"}],
 "listBibl":
  [
 {
 "title":
 "Ritterlichkeit",
 "ref":
 "pmb30287"}
 ],
 "listPlace":
  [
 {
 "placeName":
 "Stazione di Venezia Santa Lucia",
 "ref":
 "pmb850"}
 ,  {
 "placeName":
 "Venedig",
 "ref":
 "pmb462"}
 ,  {
 "placeName":
 "Wien",
 "ref":
 "pmb50"}
 ,  {
 "placeName":
 "XVIII., Währing",
 "ref":
 "pmb68"}
 ,  {
 "placeName":
 "Sternwartestraße",
 "ref":
 "pmb150"}
 ,  {
 "placeName":
 "Deutschland",
 "ref":
 "pmb151"}
 ,  {
 "placeName":
 "Berlin",
 "ref":
 "pmb168"}
 ,  {
 "placeName":
 "Stauffenbergstraße",
 "ref":
 "pmb89012"}
 ,  {
 "placeName":
 "San Marco",
 "ref":
 "pmb261"}
 ]
}
}, {
 "type":
 "wienerschnitzler",
 "color":
 "#ECDA98",
 "caption":
 "Wiener Schnitzler",
 "head":
 "Venedig",
 "desc":
{"listPlace":
  [
 {
 "placeName":
 "Hotel Bonvecchiati",
 "ref":
 ""}
 ,  {
 "placeName":
 "Piazza San Marco",
 "ref":
 ""}
 ,  {
 "placeName":
 "Campo Sant’Agostin 2545",
 "ref":
 ""}
 ,  {
 "placeName":
 "Hotel Giorgione",
 "ref":
 ""}
 ,  {
 "placeName":
 "Casa Mahler",
 "ref":
 ""}
 ]
}
}, {
 "type":
 "pollaczek",
 "color":
 "#1e81b0",
 "filename":
 "ckp428",
 "caption":
 "Pollaczek: Schnitzler und ich",
 "idno":
 "https://pollaczek.acdh.oeaw.ac.at/ckp428.html",
 "head":
 "Clara Katharina Pollaczek an Arthur Schnitzler, 24.–25.4.1927"
}, {
 "type":
 "pollaczek",
 "color":
 "#1e81b0",
 "filename":
 "ckp432",
 "caption":
 "Pollaczek: Schnitzler und ich",
 "idno":
 "https://pollaczek.acdh.oeaw.ac.at/ckp432.html",
 "head":
 "Arthur Schnitzler an Clara Katharina Pollaczek, 25. April 1927"
}] 