[{
 "type":
 "schnitzler-tagebuch",
 "color":
 "#037a33",
 "filename":
 "entry__1927-04-23",
 "caption":
 "Tagebuch",
 "idno":
 "https://schnitzler-tagebuch.acdh.oeaw.ac.at/entry__1927-04-23.html",
 "head":
 "Tagebuch, 23. April 1927",
 "desc":
{"listPerson":
  [
{
 "persName":
 "Borella",
 "ref":
 "person_13876"},
 {
 "persName":
 "Arnoldo Cappellini",
 "ref":
 "person_14129"},
 {
 "persName":
 "Lili Schnitzler",
 "ref":
 "person_14130"},
 {
 "persName":
 "Vilma Lichtenstern",
 "ref":
 "person_17510"},
 {
 "persName":
 "Olga Schnitzler",
 "ref":
 "person_19832"}],
 "listBibl":
  [
 {
 "title":
 "La Bohème",
 "ref":
 "pmb81447"}
 ],
 "listPlace":
  [
 {
 "placeName":
 "Venedig",
 "ref":
 "pmb462"}
 ,  {
 "placeName":
 "Lido",
 "ref":
 "pmb91143"}
 ,  {
 "placeName":
 "Wien",
 "ref":
 "pmb50"}
 ,  {
 "placeName":
 "Markusplatz",
 "ref":
 "pmb92388"}
 ]
}
}, {
 "type":
 "wienerschnitzler",
 "color":
 "#ECDA98",
 "caption":
 "Wiener Schnitzler",
 "idno":
 "https://wienerschnitzler.org/tag.html#1927-04-23",
 "head":
 "Venedig",
 "desc":
{"listPlace":
  [
 {
 "placeName":
 "Hotel Bonvecchiati",
 "ref":
 ""}
 ,  {
 "placeName":
 "Lido",
 "ref":
 ""}
 ,  {
 "placeName":
 "Piazza San Marco",
 "ref":
 ""}
 ,  {
 "placeName":
 "Caffè Florian",
 "ref":
 ""}
 ,  {
 "placeName":
 "Teatro San Benedetto",
 "ref":
 ""}
 ]
}
}, {
 "type":
 "schnitzler-kultur",
 "color":
 "#6B4C5A",
 "filename":
 "pmb210895",
 "caption":
 "Kulturveranstaltungen",
 "idno":
 "https://schnitzler-kultur.acdh.oeaw.ac.at/pmb210895.html",
 "head":
 "Varieté und Filmvorführung von La Bohème,
                        23.4.1927",
 "desc":
{"listBibl":
  [
 {
 "title":
 "La Bohème",
 "ref":
 ""}
 ],
 "listPerson":
  [
{
 "persName":
 "Arthur Schnitzler",
 "ref":
 ""}],
 "listPlace":
  [
 {
 "placeName":
 "Teatro San Benedetto",
 "ref":
 ""}
 ]
}
}, {
 "type":
 "pollaczek",
 "color":
 "#1e81b0",
 "filename":
 "ckp425",
 "caption":
 "Pollaczek: Schnitzler und ich",
 "idno":
 "https://pollaczek.acdh.oeaw.ac.at/ckp425.html",
 "head":
 "Clara Katharina Pollaczek an Arthur Schnitzler, 23. April 1927"
}, {
 "type":
 "pollaczek",
 "color":
 "#1e81b0",
 "filename":
 "ckp426",
 "caption":
 "Pollaczek: Schnitzler und ich",
 "idno":
 "https://pollaczek.acdh.oeaw.ac.at/ckp426.html",
 "head":
 "Arthur Schnitzler an Clara Katharina Pollaczek, 23. April 1927"
}, {
 "type":
 "schnitzler-cmif",
 "subtype":
 "#y8d39a2f-76d4-4426-8799-986c8bf5bc60",
 "color":
 "#654321",
 "caption":
 "Gedruckte Briefwechsel",
 "head":
 "Samuel Fischer an Arthur Schnitzler, 23.4.1927",
 "source":
 "Samuel Fischer, Hedwig Fischer: Briefwechsel mit Autoren. S. Fischer Verlag, Frankfurt am Main: 1989. (nur Korrespondenz mit Arthur Schnitzler)"
}, {
 "type":
 "schnitzler-kino-buch",
 "subtype":
 "#ISBN978-3205787464",
 "color":
 "#B43C9C",
 "caption":
 "Kino",
 "head":
 "Schnitzler geht ins Kino in Venedig, 23. April 1927",
 "source":
 "»A. ist manchmal wie ein kleines Kind«. Clara Katharina Pollaczek und Arthur Schnitzler gehen ins Kino. Herausgegeben von Stephan Kurz und Michael Rohrwasser unter Mitarbeit von Daniel Schopper. Wien, Köln, Weimar: Böhlau Verlag 2012."
}] 