[{
 "type":
 "schnitzler-tagebuch",
 "color":
 "#037a33",
 "filename":
 "entry__1927-02-21",
 "caption":
 "Tagebuch",
 "idno":
 "https://schnitzler-tagebuch.acdh.oeaw.ac.at/entry__1927-02-21.html",
 "head":
 "Tagebuch, 21. Februar 1927",
 "desc":
{"listPerson":
  [
{
 "persName":
 "Lili Schnitzler",
 "ref":
 "person_14130"},
 {
 "persName":
 "Emil Lucka",
 "ref":
 "person_17719"},
 {
 "persName":
 "Franz Xaver Mayr",
 "ref":
 "person_18029"},
 {
 "persName":
 "Fritz Donath",
 "ref":
 "person_14483"}],
 "listBibl":
  [
 {
 "title":
 "Der Geist im Wort und der Geist in der Tat",
 "ref":
 "pmb30051"}
 ,  {
 "title":
 "Zug der Schatten",
 "ref":
 "pmb32049"}
 ],
 "listPlace":
  [
 {
 "placeName":
 "Spanien",
 "ref":
 "pmb388"}
 ,  {
 "placeName":
 "Italien",
 "ref":
 "pmb40306"}
 ]
}
}, {
 "type":
 "schnitzler-briefe",
 "color":
 "#A63437",
 "filename":
 "L03748",
 "caption":
 "Briefe mit Autorinnen und Autoren",
 "idno":
 "https://schnitzler-briefe.acdh.oeaw.ac.at/L03748.html",
 "head":
 "Arthur Schnitzler an Stefan Zweig, 21. 2. 1927",
 "desc":
{"listPerson":
  [
{
 "persName":
 "Albert Steinrück",
 "ref":
 "pmb12837"},
 {
 "persName":
 "Stefan Zweig",
 "ref":
 "pmb13212"}],
 "listBibl":
  [
 {
 "title":
 "Ben Jonsons »Volpone« Eine lieblose Komödie in drei Akten",
 "ref":
 "pmb182692"}
 ,  {
 "title":
 "Der Geist im Wort und der Geist in der Tat",
 "ref":
 "pmb30051"}
 ],
 "listOrg":
  [
 {
 "orgName":
 "Burgtheater",
 "ref":
 "pmb36247"}
 ],
 "listPlace":
  [
 {
 "placeName":
 "Burgtheater",
 "ref":
 "pmb14"}
 ,  {
 "placeName":
 "Sternwartestraße",
 "ref":
 "pmb150"}
 ,  {
 "placeName":
 "Berlin",
 "ref":
 "pmb168"}
 ,  {
 "placeName":
 "Sternwartestraße 71",
 "ref":
 "pmb168815"}
 ,  {
 "placeName":
 "Paschinger Schlössl",
 "ref":
 "pmb253003"}
 ,  {
 "placeName":
 "Kapuzinerberg",
 "ref":
 "pmb297"}
 ,  {
 "placeName":
 "Salzburg",
 "ref":
 "pmb30"}
 ,  {
 "placeName":
 "Wien",
 "ref":
 "pmb50"}
 ,  {
 "placeName":
 "XVIII., Währing",
 "ref":
 "pmb68"}
 ,  {
 "placeName":
 "Freie Volksbühne",
 "ref":
 "pmb739"}
 ]
}
}, {
 "type":
 "wienerschnitzler",
 "color":
 "#6F5106",
 "caption":
 "Wiener Schnitzler",
 "idno":
 "https://wienerschnitzler.org/tag.html#1927-02-21",
 "head":
 "Wien",
 "desc":
{"listPlace":
  [
 {
 "placeName":
 "XVIII., Währing",
 "ref":
 ""}
 ]
}
}] 