[{
 "type":
 "schnitzler-tagebuch",
 "color":
 "#037a33",
 "filename":
 "entry__1927-06-08",
 "caption":
 "Tagebuch",
 "idno":
 "https://schnitzler-tagebuch.acdh.oeaw.ac.at/entry__1927-06-08.html",
 "head":
 "Tagebuch, 8. Juni 1927",
 "desc":
{"listPerson":
  [
{
 "persName":
 "Lili Schnitzler",
 "ref":
 "person_14130"},
 {
 "persName":
 "Franz Joseph I. von Österreich-Ungarn",
 "ref":
 "person_15150"},
 {
 "persName":
 "Hedy Kempny",
 "ref":
 "person_16807"},
 {
 "persName":
 "Ferdinand Kende",
 "ref":
 "person_16811"},
 {
 "persName":
 "Franz Josef Lichtenstern",
 "ref":
 "person_17507"},
 {
 "persName":
 "Robert Lichtenstern",
 "ref":
 "person_17509"},
 {
 "persName":
 "Vilma Lichtenstern",
 "ref":
 "person_17510"},
 {
 "persName":
 "Alma Maria Mahler",
 "ref":
 "person_17784"},
 {
 "persName":
 "Rudolf von Österreich-Ungarn",
 "ref":
 "person_19455"},
 {
 "persName":
 "Ruth Lindberg",
 "ref":
 "person_17562"},
 {
 "persName":
 "Egon Friedell",
 "ref":
 "person_15210"}],
 "listBibl":
  [
 {
 "title":
 "Aphoristisches",
 "ref":
 "pmb35745"}
 ],
 "listPlace":
  [
 {
 "placeName":
 "Schönbrunn",
 "ref":
 "pmb92518"}
 ,  {
 "placeName":
 "Inzersdorf",
 "ref":
 "pmb49464"}
 ,  {
 "placeName":
 "Sollenau",
 "ref":
 "pmb91770"}
 ,  {
 "placeName":
 "Prater",
 "ref":
 "pmb91530"}
 ,  {
 "placeName":
 "New Danube",
 "ref":
 "pmb90538"}
 ,  {
 "placeName":
 "Tegetthoff-Denkmal",
 "ref":
 "pmb549"}
 ]
}
}, {
 "type":
 "schnitzler-briefe",
 "color":
 "#A63437",
 "filename":
 "L02488",
 "caption":
 "Briefe mit Autorinnen und Autoren",
 "idno":
 "https://schnitzler-briefe.acdh.oeaw.ac.at/L02488.html",
 "head":
 "Miriam Beer-Hofmann an Arthur Schnitzler, 8. 6. 1927",
 "desc":
{"listPerson":
  [
{
 "persName":
 "Richard Beer-Hofmann",
 "ref":
 "pmb10863"},
 {
 "persName":
 "Arnoldo Cappellini",
 "ref":
 "pmb14850"},
 {
 "persName":
 "Lili Cappellini",
 "ref":
 "pmb2238"},
 {
 "persName":
 "Mirjam Beer-Hofmann",
 "ref":
 "pmb2668"},
 {
 "persName":
 "Dora Michaelis",
 "ref":
 "pmb2774"},
 {
 "persName":
 "Ernst Lens",
 "ref":
 "pmb29134"},
 {
 "persName":
 "Karl Michaelis",
 "ref":
 "pmb3064"}],
 "listPlace":
  [
 {
 "placeName":
 "Berlin",
 "ref":
 "pmb168"}
 ,  {
 "placeName":
 "Wien",
 "ref":
 "pmb50"}
 ]
}
}, {
 "type":
 "wienerschnitzler",
 "color":
 "#ECDA98",
 "caption":
 "Wiener Schnitzler",
 "idno":
 "https://wienerschnitzler.org/tag.html#1927-06-08",
 "head":
 "Wien",
 "desc":
{"listPlace":
  [
 {
 "placeName":
 "VIII., Josefstadt",
 "ref":
 ""}
 ,  {
 "placeName":
 "II., Leopoldstadt",
 "ref":
 ""}
 ,  {
 "placeName":
 "XVIII., Währing",
 "ref":
 ""}
 ]
}
}, {
 "type":
 "schnitzler-traeume",
 "subtype":
 "#ISBN978-3-8353-1029-2",
 "color":
 "#1193CC",
 "caption":
 "Traumtagebuch",
 "head":
 "Traum vom 8. Juni 1927",
 "source":
 "Arthur Schnitzler: Träume. Das Traumtagebuch 1875–1931. Herausgegeben von Peter Michael Braunwarth und Leo A. Lensing. Göttingen: Wallstein 2012 (Bibliothek Janowitz, Bd. 20)"
}, {
 "type":
 "kalliope-verbund",
 "color":
 "#003574",
 "caption":
 "Kalliope Verbundkatalog",
 "idno":
 "http://kalliope-verbund.info/DE-2498-HS00072603",
 "head":
 "Löffler, Fritz an Schnitzler, Arthur [Briefe]",
 "text":
 "1 Bl."
}, {
 "type":
 "kalliope-verbund",
 "color":
 "#003574",
 "caption":
 "Kalliope Verbundkatalog",
 "idno":
 "http://kalliope-verbund.info/DE-2498-HS00077521",
 "head":
 "Pantheon Irodalmi Intézet R-T &lt;Budapest&gt; an Schnitzler, Arthur [Briefe]",
 "text":
 "1 Bl."
}] 