[{
 "type":
 "schnitzler-tagebuch",
 "color":
 "#037a33",
 "filename":
 "entry__1927-12-01",
 "caption":
 "Tagebuch",
 "idno":
 "https://schnitzler-tagebuch.acdh.oeaw.ac.at/entry__1927-12-01.html",
 "head":
 "Tagebuch, 1. Dezember 1927",
 "desc":
{"listPerson":
  [
{
 "persName":
 "Elisabeth Bergner",
 "ref":
 "person_13643"},
 {
 "persName":
 "Gerhart Hauptmann",
 "ref":
 "person_15980"},
 {
 "persName":
 "Werner Krauss",
 "ref":
 "person_17120"},
 {
 "persName":
 "Karl Michaelis",
 "ref":
 "person_18140"},
 {
 "persName":
 "Thomas Valentin Michaelis",
 "ref":
 "person_18143"},
 {
 "persName":
 "Heinrich Schnitzler",
 "ref":
 "person_19822"},
 {
 "persName":
 "Paul Wiegler",
 "ref":
 "person_21298"},
 {
 "persName":
 "Wenzel Goldbaum",
 "ref":
 "person_15513"},
 {
 "persName":
 "Andreas Albert Michaelis",
 "ref":
 "person_18136"},
 {
 "persName":
 "Olga Schnitzler",
 "ref":
 "person_19832"}],
 "listBibl":
  [
 {
 "title":
 "Fräulein Else",
 "ref":
 "pmb29941"}
 ,  {
 "title":
 "Therese. Chronik eines Frauenlebens",
 "ref":
 "pmb30817"}
 ,  {
 "title":
 "Dorothea Angermann",
 "ref":
 "pmb76926"}
 ],
 "listPlace":
  [
 {
 "placeName":
 "Berlin",
 "ref":
 "pmb168"}
 ,  {
 "placeName":
 "Leipzig",
 "ref":
 "pmb864"}
 ]
}
}, {
 "type":
 "wienerschnitzler",
 "color":
 "#6F5106",
 "caption":
 "Wiener Schnitzler",
 "idno":
 "https://wienerschnitzler.org/tag.html#1927-12-01",
 "head":
 "Berlin",
 "desc":
{"listPlace":
  [
 {
 "placeName":
 "Hotel Bristol Berlin",
 "ref":
 ""}
 ,  {
 "placeName":
 "Deutsches Theater Berlin",
 "ref":
 ""}
 ,  {
 "placeName":
 "Wilhelmstraße 52",
 "ref":
 ""}
 ,  {
 "placeName":
 "Ullsteinhaus",
 "ref":
 ""}
 ,  {
 "placeName":
 "Grill am Zoo",
 "ref":
 ""}
 ]
}
}, {
 "type":
 "URL",
 "subtype":
 "schnitzler-kultur",
 "filename":
 "pmb210430",
 "idno":
 "https://schnitzler-kultur.acdh.oeaw.ac.at/pmb210430.html",
 "head":
 "Aufführung von Dorothea Angermann, 1.12.1927",
 "desc":
{"listOrg":
  [
 {
 "orgName":
 "Deutsches Theater Berlin",
 "ref":
 ""}
 ],
 "listBibl":
  [
 {
 "title":
 "Dorothea Angermann",
 "ref":
 ""}
 ],
 "listPerson":
  [
{
 "persName":
 "Arthur Schnitzler",
 "ref":
 ""}],
 "listPlace":
  [
 {
 "placeName":
 "Deutsches Theater Berlin",
 "ref":
 ""}
 ]
}
}, {
 "type":
 "pollaczek",
 "color":
 "#1e81b0",
 "filename":
 "ckp499",
 "caption":
 "Pollaczek: Schnitzler und ich",
 "idno":
 "https://pollaczek.acdh.oeaw.ac.at/ckp499.html",
 "head":
 "Clara Katharina Pollaczek an Arthur Schnitzler, 30.11.–1.12.1927"
}] 