[{
 "type":
 "schnitzler-tagebuch",
 "color":
 "#037a33",
 "filename":
 "entry__1927-05-28",
 "caption":
 "Tagebuch",
 "idno":
 "https://schnitzler-tagebuch.acdh.oeaw.ac.at/entry__1927-05-28.html",
 "head":
 "Tagebuch, 28. Mai 1927",
 "desc":
{"listPerson":
  [
{
 "persName":
 "Elisabeth Bergner",
 "ref":
 "person_13643"},
 {
 "persName":
 "Hedy Kempny",
 "ref":
 "person_16807"},
 {
 "persName":
 "Karl Ludwig Schröder",
 "ref":
 "person_19893"},
 {
 "persName":
 "Kurt Sonnenfeld",
 "ref":
 "person_20201"},
 {
 "persName":
 "Paul Wertheimer",
 "ref":
 "person_21264"},
 {
 "persName":
 "Viola Gabriele Schlesinger",
 "ref":
 "person_19738"}],
 "listBibl":
  [
 {
 "title":
 "Aphoristisches",
 "ref":
 "pmb35745"}
 ,  {
 "title":
 "Fräulein Else",
 "ref":
 "pmb29941"}
 ,  {
 "title":
 "Spiel im Morgengrauen. Novelle",
 "ref":
 "pmb32131"}
 ]
}
}, {
 "type":
 "schnitzler-briefe",
 "color":
 "#A63437",
 "filename":
 "L02487",
 "caption":
 "Briefe mit Autorinnen und Autoren",
 "idno":
 "https://schnitzler-briefe.acdh.oeaw.ac.at/L02487.html",
 "head":
 "Arthur Schnitzler an Felix Braun, 28. 5. 1927",
 "desc":
{"listPerson":
  [
{
 "persName":
 "Arthur Schnitzler",
 "ref":
 "pmb2121"},
 {
 "persName":
 "Felix Braun",
 "ref":
 "pmb11002"},
 {
 "persName":
 "Felix Braun",
 "ref":
 "pmb11002"},
 {
 "persName":
 "Johannes von Guenther",
 "ref":
 "pmb11536"}],
 "listBibl":
  [
 {
 "title":
 "Die Taten des Herakles. Roman",
 "ref":
 "pmb33574"}
 ],
 "listPlace":
  [
 {
 "placeName":
 "XVIII., Währing",
 "ref":
 "pmb68"}
 ,  {
 "placeName":
 "Wien",
 "ref":
 "pmb50"}
 ,  {
 "placeName":
 "Sternwartestraße 71",
 "ref":
 "pmb168815"}
 ,  {
 "placeName":
 "XIX., Döbling",
 "ref":
 "pmb69"}
 ,  {
 "placeName":
 "Sieveringer Straße",
 "ref":
 "pmb1092"}
 ]
}
}, {
 "type":
 "schnitzler-briefe",
 "color":
 "#A63437",
 "filename":
 "L03744",
 "caption":
 "Briefe mit Autorinnen und Autoren",
 "idno":
 "https://schnitzler-briefe.acdh.oeaw.ac.at/L03744.html",
 "head":
 "Arthur Schnitzler an Stefan Zweig, 28. 5. 1927",
 "desc":
{"listPerson":
  [
{
 "persName":
 "Arthur Schnitzler",
 "ref":
 "pmb2121"},
 {
 "persName":
 "Stefan Zweig",
 "ref":
 "pmb13212"},
 {
 "persName":
 "Stefan Zweig",
 "ref":
 "pmb13212"},
 {
 "persName":
 "Adele Sandrock",
 "ref":
 "pmb12618"},
 {
 "persName":
 "Émile Zola",
 "ref":
 "pmb13194"},
 {
 "persName":
 "Lili Cappellini",
 "ref":
 "pmb2238"}],
 "listBibl":
  [
 {
 "title":
 "Fräulein Else",
 "ref":
 "pmb29941"}
 ,  {
 "title":
 "Der Gang zum Weiher. Dramatische Dichtung",
 "ref":
 "pmb30775"}
 ,  {
 "title":
 "L’œuvre",
 "ref":
 "pmb77626"}
 ],
 "listPlace":
  [
 {
 "placeName":
 "Wien",
 "ref":
 "pmb50"}
 ,  {
 "placeName":
 "Salzburg",
 "ref":
 "pmb30"}
 ,  {
 "placeName":
 "Venedig",
 "ref":
 "pmb462"}
 ,  {
 "placeName":
 "Campo Sant’Agostin 2545",
 "ref":
 "pmb246661"}
 ,  {
 "placeName":
 "Santa Maria Gloriosa dei Frari",
 "ref":
 "pmb248606"}
 ]
}
}, {
 "type":
 "wienerschnitzler",
 "color":
 "#6F5106",
 "caption":
 "Wiener Schnitzler",
 "idno":
 "https://wienerschnitzler.org/tag.html#1927-05-28",
 "head":
 "Wien",
 "desc":
{"listPlace":
  [
 {
 "placeName":
 "XVIII., Währing",
 "ref":
 ""}
 ]
}
}, {
 "type":
 "kalliope-verbund",
 "color":
 "#003574",
 "caption":
 "Kalliope Verbundkatalog",
 "idno":
 "http://kalliope-verbund.info/DE-2498-HS00049714",
 "head":
 "Schnitzler, Arthur an Viehweg, Fritz [Briefe]",
 "text":
 "1 Bl.Durchschl.",
 "desc":
{"listPerson":
  [
{
 "persName":
 "Schauspielhaus &lt;Leipzig&gt;",
 "ref":
 "http://d-nb.info/gnd/63262-4"}]
}
}] 