[{
 "type":
 "schnitzler-tagebuch",
 "color":
 "#037a33",
 "filename":
 "entry__1927-12-05",
 "caption":
 "Tagebuch",
 "idno":
 "https://schnitzler-tagebuch.acdh.oeaw.ac.at/entry__1927-12-05.html",
 "head":
 "Tagebuch, 5. Dezember 1927",
 "desc":
{"listPerson":
  [
{
 "persName":
 "Elisabeth Bergner",
 "ref":
 "person_13643"},
 {
 "persName":
 "Paul Czinner",
 "ref":
 "person_14335"},
 {
 "persName":
 "Franz Karl Feilchenfeld",
 "ref":
 "person_14912"},
 {
 "persName":
 "Isidor Fett",
 "ref":
 "person_14957"},
 {
 "persName":
 "Paul Goldmann",
 "ref":
 "person_15529"},
 {
 "persName":
 "Bela Horovitz",
 "ref":
 "person_16378"},
 {
 "persName":
 "Alfred Kerr",
 "ref":
 "person_16819"},
 {
 "persName":
 "Carl Mayer",
 "ref":
 "person_18013"},
 {
 "persName":
 "Heinrich Schnitzler",
 "ref":
 "person_19822"},
 {
 "persName":
 "Lehmann",
 "ref":
 "person_17402"},
 {
 "persName":
 "Ellis Stampe-Bendix",
 "ref":
 "person_20322"},
 {
 "persName":
 "Paul Wiegler",
 "ref":
 "person_21298"},
 {
 "persName":
 "Olga Schnitzler",
 "ref":
 "person_19832"}],
 "listBibl":
  [
 {
 "title":
 "Fräulein Else",
 "ref":
 "pmb29941"}
 ,  {
 "title":
 "Spiel im Morgengrauen. Novelle",
 "ref":
 "pmb32131"}
 ,  {
 "title":
 "Dorothea Angermann",
 "ref":
 "pmb76926"}
 ],
 "listPlace":
  [
 {
 "placeName":
 "Berlin",
 "ref":
 "pmb168"}
 ,  {
 "placeName":
 "Grunewald",
 "ref":
 "pmb129"}
 ,  {
 "placeName":
 "Wien",
 "ref":
 "pmb50"}
 ]
}
}, {
 "type":
 "schnitzler-orte",
 "color":
 "#045344",
 "caption":
 "Aufenthaltsorte",
 "head":
 "Berlin",
 "desc":
{"listPlace":
  [
 {
 "placeName":
 "Hotel Bristol Berlin",
 "ref":
 ""}
 ,  {
 "placeName":
 "Bank für Auswärtigen Handel",
 "ref":
 ""}
 ,  {
 "placeName":
 "Grunewald",
 "ref":
 ""}
 ,  {
 "placeName":
 "Hegewald Film",
 "ref":
 ""}
 ,  {
 "placeName":
 "Hotel Bristol Berlin",
 "ref":
 ""}
 ]
}
}, {
 "type":
 "schnitzler-orte",
 "color":
 "#045344",
 "caption":
 "Aufenthaltsorte",
 "head":
 "Stauffenbergstraße 36"
}, {
 "type":
 "pollaczek",
 "color":
 "#1e81b0",
 "filename":
 "ckp506",
 "caption":
 "Pollaczek: Schnitzler und ich",
 "idno":
 "https://pollaczek.acdh.oeaw.ac.at/ckp506.html",
 "head":
 "Clara Katharina Pollaczek an Arthur Schnitzler, 5. Dezember 1927"
}] 