{
 "date":
 {
 "when-iso":
 "1927-09-05",
 "written":
 "Montag, 5. September 1927"
},
"listEvent":
 [{
 "type":
 "schnitzler-orte",
 "idno":
 "https://pmb.acdh.oeaw.ac.at/entity/44153/",
 "head":
 "Verona"
}, {
 "type":
 "schnitzler-orte",
 "idno":
 "https://pmb.acdh.oeaw.ac.at/entity/462/",
 "head":
 "Venedig"
}, {
 "type":
 "schnitzler-cmif",
 "subtype":
 "#n0827e77-245d-4359-a0b0-5b601a5370ee",
 "head":
 "Hedy Kempny an Arthur Schnitzler, 5.9.1927",
 "desc":
{"listPerson":
  [
{
 "persName":
 "Kempny, Hedy",
 "ref":
 "https://d-nb.info/gnd/11872181X"}],
 "bibl":
 "Hedy Kempny und Arthur Schnitzler: Das Mädchen mit den dreizehn Seelen. Eine Korrespondenz ergänzt durch Blätter aus Hedy Kempnys Tagebuch sowie durch eine Auswahl ihrer Erzählungen. Hg. v. Heinz P. Adamek. Reinbek bei Hamburg: Rowohlt 1984. (Neue Frau)"}

}, {
 "type":
 "schnitzler-tagebuch",
 "idno":
 "https://schnitzler-tagebuch.acdh.oeaw.ac.at/entry__1927-09-05.html",
 "head":
 "Tagebuch, 5. September 1927",
 "desc":
{"listPerson":
  [
{
 "persName":
 "Arnoldo Cappellini",
 "ref":
 "person_14129"},
 {
 "persName":
 "Lili Schnitzler",
 "ref":
 "person_14130"},
 {
 "persName":
 "Rosa Menczel",
 "ref":
 "person_18064"},
 {
 "persName":
 "Clara Katharina Pollaczek",
 "ref":
 "person_18863"},
 {
 "persName":
 "Julie",
 "ref":
 "person_16598"},
 {
 "persName":
 "Frieda Pollak",
 "ref":
 "person_18881"},
 {
 "persName":
 "Olga Schnitzler",
 "ref":
 "person_19832"}],
 "listPlace":
  [
 {
 "placeName":
 "Verona",
 "ref":
 "pmb44153"}
 ,  {
 "placeName":
 "Mestre",
 "ref":
 "pmb91237"}
 ,  {
 "placeName":
 "Wien",
 "ref":
 "pmb50"}
 ,  {
 "placeName":
 "Venedig",
 "ref":
 "pmb462"}
 ,  {
 "placeName":
 "Sestière di San Polo",
 "ref":
 "pmb91657"}
 ,  {
 "placeName":
 "Lido",
 "ref":
 "pmb91143"}
 ,  {
 "placeName":
 "Bad Aussee",
 "ref":
 "pmb415"}
 ,  {
 "placeName":
 "Sankt Moritz",
 "ref":
 "pmb44374"}
 ]}

}] 
}