[{
 "type":
 "schnitzler-tagebuch",
 "color":
 "#037a33",
 "filename":
 "entry__1927-05-04",
 "caption":
 "Tagebuch",
 "idno":
 "https://schnitzler-tagebuch.acdh.oeaw.ac.at/entry__1927-05-04.html",
 "head":
 "Tagebuch, 4. Mai 1927",
 "desc":
{"listPerson":
  [
{
 "persName":
 "Raoul Aslan",
 "ref":
 "person_13286"},
 {
 "persName":
 "Hans Brahm",
 "ref":
 "person_13911"},
 {
 "persName":
 "Georg Engel",
 "ref":
 "person_14754"},
 {
 "persName":
 "Paul Géraldy",
 "ref":
 "person_15395"},
 {
 "persName":
 "Ludwig Karpath",
 "ref":
 "person_16736"},
 {
 "persName":
 "Vilma Lichtenstern",
 "ref":
 "person_17510"},
 {
 "persName":
 "Alma Maria Mahler",
 "ref":
 "person_17784"},
 {
 "persName":
 "Alexander Moissi",
 "ref":
 "person_18209"},
 {
 "persName":
 "Clara Katharina Pollaczek",
 "ref":
 "person_18863"},
 {
 "persName":
 "Julius Schnitzler",
 "ref":
 "person_19827"},
 {
 "persName":
 "Gustav Schwarzkopf",
 "ref":
 "person_19986"},
 {
 "persName":
 "Emmerich von Thun-Hohenstein",
 "ref":
 "person_20733"},
 {
 "persName":
 "Franz Werfel",
 "ref":
 "person_21243"},
 {
 "persName":
 "Anton Wildgans",
 "ref":
 "person_21328"},
 {
 "persName":
 "Else Wohlgemuth",
 "ref":
 "person_21423"},
 {
 "persName":
 "Adolph von Zsolnay",
 "ref":
 "person_21582"},
 {
 "persName":
 "Paul von Zsolnay",
 "ref":
 "person_21586"},
 {
 "persName":
 "Berta Zuckerkandl",
 "ref":
 "person_21594"},
 {
 "persName":
 "August Kral",
 "ref":
 "person_17079"},
 {
 "persName":
 "Benito Mussolini",
 "ref":
 "person_18335"},
 {
 "persName":
 "Olga Schnitzler",
 "ref":
 "person_19832"},
 {
 "persName":
 "Fritz von Unruh",
 "ref":
 "person_20885"}],
 "listBibl":
  [
 {
 "title":
 "Aphoristisches",
 "ref":
 "pmb35745"}
 ,  {
 "title":
 "Der Geist im Wort und der Geist in der Tat",
 "ref":
 "pmb30051"}
 ,  {
 "title":
 "Der grüne Kakadu. Groteske in einem Akt",
 "ref":
 "pmb29843"}
 ,  {
 "title":
 "Große Szene",
 "ref":
 "pmb31429"}
 ,  {
 "title":
 "Paulus unter den Juden",
 "ref":
 "pmb76579"}
 ,  {
 "title":
 "Liebe",
 "ref":
 "pmb77877"}
 ],
 "listPlace":
  [
 {
 "placeName":
 "Istanbul",
 "ref":
 "pmb966"}
 ,  {
 "placeName":
 "Balkan Peninsula",
 "ref":
 "pmb90306"}
 ,  {
 "placeName":
 "Paris",
 "ref":
 "pmb182"}
 ,  {
 "placeName":
 "Berlin",
 "ref":
 "pmb168"}
 ,  {
 "placeName":
 "Hollywood",
 "ref":
 "pmb38174"}
 ,  {
 "placeName":
 "Österreich",
 "ref":
 "pmb41240"}
 ]
}
}, {
 "type":
 "wienerschnitzler",
 "color":
 "#ECDA98",
 "caption":
 "Wiener Schnitzler",
 "idno":
 "https://wienerschnitzler.org/tag.html#1927-05-04",
 "head":
 "Wien",
 "desc":
{"listPlace":
  [
 {
 "placeName":
 "I., Innere Stadt",
 "ref":
 ""}
 ,  {
 "placeName":
 "VIII., Josefstadt",
 "ref":
 ""}
 ,  {
 "placeName":
 "XVIII., Währing",
 "ref":
 ""}
 ]
}
}] 