[{
 "type":
 "schnitzler-tagebuch",
 "color":
 "#037a33",
 "filename":
 "entry__1927-12-03",
 "caption":
 "Tagebuch",
 "idno":
 "https://schnitzler-tagebuch.acdh.oeaw.ac.at/entry__1927-12-03.html",
 "head":
 "Tagebuch, 3. Dezember 1927",
 "desc":
{"listPerson":
  [
{
 "persName":
 "Elisabeth Bergner",
 "ref":
 "person_13643"},
 {
 "persName":
 "Paul Czinner",
 "ref":
 "person_14335"},
 {
 "persName":
 "Helen Gosewisch",
 "ref":
 "person_15578"},
 {
 "persName":
 "Bronisław Huberman",
 "ref":
 "person_16403"},
 {
 "persName":
 "Kraus",
 "ref":
 "person_17101"},
 {
 "persName":
 "Reinhold Otte",
 "ref":
 "person_18607"},
 {
 "persName":
 "Clara Katharina Pollaczek",
 "ref":
 "person_18863"},
 {
 "persName":
 "Heinrich Schnitzler",
 "ref":
 "person_19822"},
 {
 "persName":
 "Emil Scholl",
 "ref":
 "person_19858"},
 {
 "persName":
 "Martha Wassermann",
 "ref":
 "person_21110"},
 {
 "persName":
 "Paul Wertheimer",
 "ref":
 "person_21264"},
 {
 "persName":
 "Ilse Dernburg",
 "ref":
 "person_14412"},
 {
 "persName":
 "Ellis Stampe-Bendix",
 "ref":
 "person_20322"},
 {
 "persName":
 "Jakob Wassermann",
 "ref":
 "person_21107"},
 {
 "persName":
 "Samuel Fischer",
 "ref":
 "person_15009"},
 {
 "persName":
 "Erwin Piscator",
 "ref":
 "person_18810"},
 {
 "persName":
 "Olga Schnitzler",
 "ref":
 "person_19832"},
 {
 "persName":
 "Karen Stampe-Bendix",
 "ref":
 "person_20323"}],
 "listBibl":
  [
 {
 "title":
 "Fräulein Else",
 "ref":
 "pmb29941"}
 ,  {
 "title":
 "Therese. Chronik eines Frauenlebens",
 "ref":
 "pmb30817"}
 ,  {
 "title":
 "Hausgeister (Gespenster im Hause, Ratten)",
 "ref":
 "pmb78327"}
 ],
 "listPlace":
  [
 {
 "placeName":
 "Berlin",
 "ref":
 "pmb168"}
 ,  {
 "placeName":
 "Deutsches Volkstheater",
 "ref":
 "pmb92202"}
 ,  {
 "placeName":
 "Freiherr vom Steinstr.",
 "ref":
 "pmb92243"}
 ,  {
 "placeName":
 "Moscow",
 "ref":
 "pmb91304"}
 ]
}
}, {
 "type":
 "URL",
 "subtype":
 "wienerschnitzler",
 "head":
 "Berlin",
 "desc":
{"listPlace":
  [
 {
 "placeName":
 "Hotel Bristol Berlin",
 "ref":
 ""}
 ,  {
 "placeName":
 "Piscator-Bühne",
 "ref":
 ""}
 ,  {
 "placeName":
 "?? [Wohnung von Olga Schnitzler, Berlin 1927]",
 "ref":
 ""}
 ,  {
 "placeName":
 "Erdener Straße 8",
 "ref":
 ""}
 ,  {
 "placeName":
 "Grill am Zoo",
 "ref":
 ""}
 ,  {
 "placeName":
 "Herbert-von-Karajan-Straße 4",
 "ref":
 ""}
 ]
}
}, {
 "type":
 "pollaczek",
 "color":
 "#1e81b0",
 "filename":
 "ckp493",
 "caption":
 "Pollaczek: Schnitzler und ich",
 "idno":
 "https://pollaczek.acdh.oeaw.ac.at/ckp493.html",
 "head":
 "Tagebuch von Clara Katharina Pollaczek, 24. November – 4. Dezember 1927"
}, {
 "type":
 "pollaczek",
 "color":
 "#1e81b0",
 "filename":
 "ckp502",
 "caption":
 "Pollaczek: Schnitzler und ich",
 "idno":
 "https://pollaczek.acdh.oeaw.ac.at/ckp502.html",
 "head":
 "Clara Katharina Pollaczek an Arthur Schnitzler, 3. Dezember 1927"
}, {
 "type":
 "schnitzler-events",
 "color":
 "#9BC53D",
 "filename":
 "entity/210432/",
 "caption":
 "Ereignisse in der PMB",
 "idno":
 "https://pmb.acdh.oeaw.ac.at/entity/210432/",
 "head":
 "Aufführung von Rasputin, 3.12.1927",
 "desc":
{"listBibl":
  [
 {
 "title":
 "Rasputin",
 "ref":
 ""}
 ],
 "listPerson":
  [
{
 "persName":
 "Arthur Schnitzler",
 "ref":
 ""}],
 "listPlace":
  [
 {
 "placeName":
 "Piscator-Bühne",
 "ref":
 ""}
 ]
}
}] 