[{
 "type":
 "schnitzler-tagebuch",
 "color":
 "#037a33",
 "filename":
 "entry__1928-05-15",
 "caption":
 "Tagebuch",
 "idno":
 "https://schnitzler-tagebuch.acdh.oeaw.ac.at/entry__1928-05-15.html",
 "head":
 "Tagebuch, 15. Mai 1928",
 "desc":
{"listPerson":
  [
{
 "persName":
 "Johann Jakob Bachofen",
 "ref":
 "person_13353"},
 {
 "persName":
 "Eugenie Bachrach",
 "ref":
 "person_13355"},
 {
 "persName":
 "Herta Boss",
 "ref":
 "person_13888"},
 {
 "persName":
 "Lili Schnitzler",
 "ref":
 "person_14130"},
 {
 "persName":
 "Helen Gosewisch",
 "ref":
 "person_15578"},
 {
 "persName":
 "Ferdinand Gregorovius",
 "ref":
 "person_15641"},
 {
 "persName":
 "Gisela Hajek",
 "ref":
 "person_15854"},
 {
 "persName":
 "Elisabeth Kallina",
 "ref":
 "person_16667"},
 {
 "persName":
 "Margarete von Klimbacher",
 "ref":
 "person_16908"},
 {
 "persName":
 "Béla Kun",
 "ref":
 "person_17190"},
 {
 "persName":
 "Hans Licht",
 "ref":
 "person_17501"},
 {
 "persName":
 "Zoltan Lippay",
 "ref":
 "person_17581"},
 {
 "persName":
 "Maurice Paléologue",
 "ref":
 "person_18639"},
 {
 "persName":
 "Clara Katharina Pollaczek",
 "ref":
 "person_18863"},
 {
 "persName":
 "Heinrich Schnitzler",
 "ref":
 "person_19822"},
 {
 "persName":
 "Julius Schnitzler",
 "ref":
 "person_19827"},
 {
 "persName":
 "Paul Wertheimer",
 "ref":
 "person_21264"},
 {
 "persName":
 "Georg von Lukács",
 "ref":
 "person_17737"},
 {
 "persName":
 "Maxim Gorkij",
 "ref":
 "person_15573"},
 {
 "persName":
 "Olga Schnitzler",
 "ref":
 "person_19832"}],
 "listBibl":
  [
 {
 "title":
 "Therese. Chronik eines Frauenlebens",
 "ref":
 "pmb30817"}
 ,  {
 "title":
 "Griechische Reise",
 "ref":
 "pmb80108"}
 ,  {
 "title":
 "Lebenserinnerungen",
 "ref":
 "pmb78193"}
 ,  {
 "title":
 "Athenais",
 "ref":
 "pmb80625"}
 ,  {
 "title":
 "Der chinesische Papagei",
 "ref":
 "pmb80861"}
 ,  {
 "title":
 "Sittengeschichte Griechenlands",
 "ref":
 "pmb80889"}
 ,  {
 "title":
 "Der junge Aar",
 "ref":
 "pmb77231"}
 ],
 "listPlace":
  [
 {
 "placeName":
 "Breslau",
 "ref":
 "pmb677"}
 ,  {
 "placeName":
 "Neuwaldegg",
 "ref":
 "pmb170"}
 ,  {
 "placeName":
 "Pressbaum",
 "ref":
 "pmb44271"}
 ,  {
 "placeName":
 "Hochroterd",
 "ref":
 "pmb90889"}
 ,  {
 "placeName":
 "Heiligenkreuz",
 "ref":
 "pmb90845"}
 ,  {
 "placeName":
 "Brühl",
 "ref":
 "pmb44413"}
 ,  {
 "placeName":
 "Moscow",
 "ref":
 "pmb91304"}
 ,  {
 "placeName":
 "Wien",
 "ref":
 "pmb50"}
 ,  {
 "placeName":
 "Ungarn",
 "ref":
 "pmb35512"}
 ,  {
 "placeName":
 "London",
 "ref":
 "pmb224"}
 ,  {
 "placeName":
 "Prater",
 "ref":
 "pmb91530"}
 ]
}
}, {
 "type":
 "schnitzler-briefe",
 "color":
 "#A63437",
 "filename":
 "L03689",
 "caption":
 "Briefe mit Autorinnen und Autoren",
 "idno":
 "https://schnitzler-briefe.acdh.oeaw.ac.at/L03689.html",
 "head":
 "Stefan Zweig an Arthur Schnitzler, 15. 5. 1928",
 "desc":
{"listPerson":
  [
{
 "persName":
 "Stefan Zweig",
 "ref":
 "pmb13212"},
 {
 "persName":
 "Rembrandt van Rijn",
 "ref":
 "pmb5428"}],
 "listBibl":
  [
 {
 "title":
 "Adam Lux",
 "ref":
 "pmb295218"}
 ,  {
 "title":
 "Der Geist im Wort und der Geist in der Tat",
 "ref":
 "pmb30051"}
 ,  {
 "title":
 "Buch der Sprüche und Bedenken",
 "ref":
 "pmb30053"}
 ,  {
 "title":
 "Therese. Chronik eines Frauenlebens",
 "ref":
 "pmb30817"}
 ,  {
 "title":
 "Traumnovelle",
 "ref":
 "pmb30851"}
 ,  {
 "title":
 "Spiel im Morgengrauen. Novelle",
 "ref":
 "pmb32131"}
 ],
 "listPlace":
  [
 {
 "placeName":
 "Paschinger Schlössl",
 "ref":
 "pmb253003"}
 ,  {
 "placeName":
 "Salzburg",
 "ref":
 "pmb30"}
 ,  {
 "placeName":
 "Wien",
 "ref":
 "pmb50"}
 ,  {
 "placeName":
 "Österreich-Ungarn",
 "ref":
 "pmb687"}
 ]
}
}, {
 "type":
 "wienerschnitzler",
 "color":
 "#ECDA98",
 "caption":
 "Wiener Schnitzler",
 "idno":
 "https://wienerschnitzler.org/tag.html#1928-05-15",
 "head":
 "Wien",
 "desc":
{"listPlace":
  [
 {
 "placeName":
 "II., Leopoldstadt",
 "ref":
 ""}
 ,  {
 "placeName":
 "XVII., Hernals",
 "ref":
 ""}
 ,  {
 "placeName":
 "XVIII., Währing",
 "ref":
 ""}
 ]
}
}, {
 "type":
 "wienerschnitzler",
 "color":
 "#ECDA98",
 "caption":
 "Wiener Schnitzler",
 "idno":
 "https://wienerschnitzler.org/tag.html#1928-05-15",
 "head":
 "Heiligenkreuz",
 "desc":
{"listPlace":
  [
 {
 "placeName":
 "Stift Heiligenkreuz",
 "ref":
 ""}
 ]
}
}, {
 "type":
 "wienerschnitzler",
 "color":
 "#ECDA98",
 "caption":
 "Wiener Schnitzler",
 "idno":
 "https://wienerschnitzler.org/tag.html#1928-05-15",
 "head":
 "Hochroterd"
}, {
 "type":
 "wienerschnitzler",
 "color":
 "#ECDA98",
 "caption":
 "Wiener Schnitzler",
 "idno":
 "https://wienerschnitzler.org/tag.html#1928-05-15",
 "head":
 "Brühl"
}, {
 "type":
 "wienerschnitzler",
 "color":
 "#ECDA98",
 "caption":
 "Wiener Schnitzler",
 "idno":
 "https://wienerschnitzler.org/tag.html#1928-05-15",
 "head":
 "Pressbaum"
}, {
 "type":
 "wienerschnitzler",
 "color":
 "#ECDA98",
 "caption":
 "Wiener Schnitzler",
 "idno":
 "https://wienerschnitzler.org/tag.html#1928-05-15",
 "head":
 "Mödling",
 "desc":
{"listPlace":
  [
 {
 "placeName":
 "Hotel Hajek",
 "ref":
 ""}
 ,  {
 "placeName":
 "Königswiese",
 "ref":
 ""}
 ]
}
}, {
 "type":
 "schnitzler-kultur",
 "color":
 "#6B4C5A",
 "filename":
 "pmb210993",
 "caption":
 "Kulturveranstaltungen",
 "idno":
 "https://schnitzler-kultur.acdh.oeaw.ac.at/pmb210993.html",
 "head":
 "Filmvorführung von Der chinesische Papagei,
                        15.5.1928",
 "desc":
{"listBibl":
  [
 {
 "title":
 "Der chinesische Papagei",
 "ref":
 ""}
 ],
 "listPerson":
  [
{
 "persName":
 "Arthur Schnitzler",
 "ref":
 ""},
 {
 "persName":
 "Clara Katharina Pollaczek",
 "ref":
 ""}],
 "listPlace":
  [
 {
 "placeName":
 "Zirkus Busch",
 "ref":
 ""}
 ]
}
}, {
 "type":
 "pollaczek",
 "color":
 "#1e81b0",
 "filename":
 "ckp547",
 "caption":
 "Pollaczek: Schnitzler und ich",
 "idno":
 "https://pollaczek.acdh.oeaw.ac.at/ckp547.html",
 "head":
 "Tagebuch von Clara Katharina Pollaczek, 2.–20. Mai 1928"
}, {
 "type":
 "schnitzler-cmif",
 "subtype":
 "#jf7cbca5-b0b6-4bcf-adbf-38e94eed3cb3",
 "color":
 "#654321",
 "caption":
 "Gedruckte Briefwechsel",
 "head":
 "Arthur Schnitzler an Heinrich Schnitzler, 15. 5. 1928",
 "source":
 "Arthur Schnitzler: Briefe 1913–1931. Hrsg. v. Peter Michael Braunwarth, Richard Miklin, Susanne Pertlik und Heinrich Schnitzler. Frankfurt am Main: S. Fischer 1984. (PDF unter: https://schnitzler-briefe.acdh.oeaw.ac.at/)"
}, {
 "type":
 "schnitzler-kino-buch",
 "subtype":
 "#ISBN978-3205787464",
 "color":
 "#B43C9C",
 "caption":
 "Kino",
 "head":
 "Schnitzler und Pollaczek sehen „Der Chinesische Papagei“ (Originaltitel „The Chinese Parrot“) im Zirkus Busch Kino, 15. Mai 1928",
 "source":
 "»A. ist manchmal wie ein kleines Kind«. Clara Katharina Pollaczek und Arthur Schnitzler gehen ins Kino. Herausgegeben von Stephan Kurz und Michael Rohrwasser unter Mitarbeit von Daniel Schopper. Wien, Köln, Weimar: Böhlau Verlag 2012."
}] 