[{
 "type":
 "pollaczek",
 "idno":
 "https://pollaczek.acdh.oeaw.ac.at/ckp555.html",
 "head":
 "Tagebuch von Clara Katharina Pollaczek, 17.–21. Juli 1928"
}, {
 "type":
 "pollaczek",
 "idno":
 "https://pollaczek.acdh.oeaw.ac.at/ckp556.html",
 "head":
 "Tagebuch von Clara Katharina Pollaczek, 21.–27. Juli 1928"
}, {
 "type":
 "schnitzler-orte",
 "idno":
 "https://pmb.acdh.oeaw.ac.at/entity/50/",
 "head":
 "Wien"
}, {
 "type":
 "schnitzler-orte",
 "idno":
 "https://pmb.acdh.oeaw.ac.at/entity/91530/",
 "head":
 "Prater"
}, {
 "type":
 "schnitzler-briefe",
 "idno":
 "https://schnitzler-briefe.acdh.oeaw.ac.at/L02504.html",
 "head":
 "Arthur Schnitzler an Hugo von Hofmannsthal, 21. 7. 1928",
 "desc":
{"listPerson":
  [
{
 "persName":
 "Lili Schnitzler",
 "ref":
 "pmb2238"},
 {
 "persName":
 "Hugo von Hofmannsthal",
 "ref":
 "pmb11740"},
 {
 "persName":
 "Berta Zuckerkandl",
 "ref":
 "pmb2312"},
 {
 "persName":
 "Christiane von Hofmannsthal",
 "ref":
 "pmb3220"},
 {
 "persName":
 "Heinrich Zimmer",
 "ref":
 "pmb13183"},
 {
 "persName":
 "Arnoldo Cappellini",
 "ref":
 "pmb14850"},
 {
 "persName":
 "Carlo Goldoni",
 "ref":
 "pmb5892"},
 {
 "persName":
 "Levi",
 "ref":
 "pmb28947"},
 {
 "persName":
 "Heinrich Schnitzler",
 "ref":
 "pmb12692"}],
 "listBibl":
  [
 {
 "title":
 "Therese. Chronik eines Frauenlebens",
 "ref":
 "pmb30817"}
 ,  {
 "title":
 "Die ägyptische Helena",
 "ref":
 "pmb33704"}
 ,  {
 "title":
 "»Die ägyptische Helena«",
 "ref":
 "pmb33708"}
 ,  {
 "title":
 "Neue Freie Presse",
 "ref":
 "pmb36374"}
 ],
 "listOrg":
  [
 {
 "orgName":
 "Neue Freie Presse",
 "ref":
 "pmb29351"}
 ],
 "listPlace":
  [
 {
 "placeName":
 "Wien",
 "ref":
 "pmb50"}
 ,  {
 "placeName":
 "Heidelberg",
 "ref":
 "pmb882"}
 ,  {
 "placeName":
 "Venedig",
 "ref":
 "pmb462"}
 ,  {
 "placeName":
 "Korfu",
 "ref":
 "pmb41212"}
 ,  {
 "placeName":
 "Athen",
 "ref":
 "pmb505"}
 ,  {
 "placeName":
 "Istanbul",
 "ref":
 "pmb966"}
 ,  {
 "placeName":
 "Rhodos",
 "ref":
 "pmb44292"}
 ,  {
 "placeName":
 "Amerika",
 "ref":
 "pmb175"}
 ,  {
 "placeName":
 "Oper",
 "ref":
 "pmb15"}
 ]}

}, {
 "type":
 "schnitzler-tagebuch",
 "idno":
 "https://schnitzler-tagebuch.acdh.oeaw.ac.at/entry__1928-07-21.html",
 "head":
 "Tagebuch, 21. Juli 1928",
 "desc":
{"listPerson":
  [
{
 "persName":
 "Clara Katharina Pollaczek",
 "ref":
 "person_18863"}],
 "listBibl":
  [
 {
 "title":
 "Der Sekundant",
 "ref":
 "pmb30953"}
 ,  {
 "title":
 "Theaterroman",
 "ref":
 "pmb30321"}
 ,  {
 "title":
 "Zug der Schatten",
 "ref":
 "pmb32049"}
 ,  {
 "title":
 "König der Könige",
 "ref":
 "pmb78468"}
 ],
 "listPlace":
  [
 {
 "placeName":
 "Prater",
 "ref":
 "pmb91530"}
 ]}

}] 