[{
 "type":
 "schnitzler-tagebuch",
 "color":
 "#037a33",
 "filename":
 "entry__1928-05-01",
 "caption":
 "Tagebuch",
 "idno":
 "https://schnitzler-tagebuch.acdh.oeaw.ac.at/entry__1928-05-01.html",
 "head":
 "Tagebuch, 1. Mai 1928",
 "desc":
{"listPerson":
  [
{
 "persName":
 "Arnoldo Cappellini",
 "ref":
 "person_14129"},
 {
 "persName":
 "Lili Schnitzler",
 "ref":
 "person_14130"},
 {
 "persName":
 "Alma Maria Mahler",
 "ref":
 "person_17784"},
 {
 "persName":
 "Hans Pfitzner",
 "ref":
 "person_18745"},
 {
 "persName":
 "Franz Werfel",
 "ref":
 "person_21243"},
 {
 "persName":
 "Johanna Schmidl",
 "ref":
 "person_16852"}],
 "listPlace":
  [
 {
 "placeName":
 "Venedig",
 "ref":
 "pmb462"}
 ,  {
 "placeName":
 "Istanbul",
 "ref":
 "pmb966"}
 ,  {
 "placeName":
 "Markusplatz",
 "ref":
 "pmb92388"}
 ]
}
}, {
 "type":
 "wienerschnitzler",
 "color":
 "#6F5106",
 "caption":
 "Wiener Schnitzler",
 "idno":
 "https://wienerschnitzler.org/tag.html#1928-05-01",
 "head":
 "Venedig",
 "desc":
{"listPlace":
  [
 {
 "placeName":
 "Grand Hotel Luna",
 "ref":
 ""}
 ,  {
 "placeName":
 "Ristorante Pilsen",
 "ref":
 ""}
 ,  {
 "placeName":
 "Piazza San Marco",
 "ref":
 ""}
 ,  {
 "placeName":
 "Caffè Florian",
 "ref":
 ""}
 ]
}
}, {
 "type":
 "schnitzler-interviews",
 "color":
 "#3D5A80",
 "filename":
 "I068",
 "caption":
 "Interviews, Meinungen, Proteste",
 "idno":
 "https://schnitzler-interviews.acdh.oeaw.ac.at/I068.html",
 "head":
 "Arturo Schnitzler di passaggio per il Molo Bersaglieri,
                            1. 5. 1928",
 "desc":
{"listPerson":
  [
{
 "persName":
 "Giosuè Carducci",
 "ref":
 "pmb5362"},
 {
 "persName":
 "Victor Hugo",
 "ref":
 "pmb5359"},
 {
 "persName":
 "Lili Schnitzler",
 "ref":
 "pmb2238"},
 {
 "persName":
 "Arnoldo Cappellini",
 "ref":
 "pmb14850"},
 {
 "persName":
 "Benito Mussolini",
 "ref":
 "pmb12314"},
 {
 "persName":
 "Alice Schmutzer",
 "ref":
 "pmb9734"},
 {
 "persName":
 "Frieda Pollak",
 "ref":
 "pmb22728"}],
 "listBibl":
  [
 {
 "title":
 "Il Piccolo",
 "ref":
 "pmb58346"}
 ,  {
 "title":
 "Arturo Schnitzler di passaggio per il Molo Bersaglieri",
 "ref":
 "pmb33219"}
 ],
 "listPlace":
  [
 {
 "placeName":
 "Molo dei Bersaglieri",
 "ref":
 "pmb1074"}
 ,  {
 "placeName":
 "Deutschland",
 "ref":
 "pmb151"}
 ,  {
 "placeName":
 "Triest",
 "ref":
 "pmb873"}
 ,  {
 "placeName":
 "Europa",
 "ref":
 "pmb468"}
 ,  {
 "placeName":
 "Amerika",
 "ref":
 "pmb175"}
 ,  {
 "placeName":
 "Venedig",
 "ref":
 "pmb462"}
 ,  {
 "placeName":
 "Italien",
 "ref":
 "pmb40306"}
 ,  {
 "placeName":
 "Wien",
 "ref":
 "pmb50"}
 ,  {
 "placeName":
 "Rhodos",
 "ref":
 "pmb44292"}
 ,  {
 "placeName":
 "Korfu",
 "ref":
 "pmb41212"}
 ,  {
 "placeName":
 "Piraeus",
 "ref":
 "pmb49145"}
 ,  {
 "placeName":
 "Elefsina",
 "ref":
 "pmb49147"}
 ,  {
 "placeName":
 "Istanbul",
 "ref":
 "pmb966"}
 ,  {
 "placeName":
 "Kotor",
 "ref":
 "pmb49149"}
 ,  {
 "placeName":
 "Dubrovnik",
 "ref":
 "pmb682"}
 ],
 "listOrg":
  [
 {
 "orgName":
 "Olympische Sommerspiele 1924",
 "ref":
 "pmb58282"}
 ]
}
}, {
 "type":
 "pollaczek",
 "color":
 "#1e81b0",
 "filename":
 "ckp520",
 "caption":
 "Pollaczek: Schnitzler und ich",
 "idno":
 "https://pollaczek.acdh.oeaw.ac.at/ckp520.html",
 "head":
 "Tagebuch von Clara Katharina Pollaczek, 27. März – 1. Mai 1928"
}, {
 "type":
 "schnitzler-cmif",
 "subtype":
 "#n0827e77-245d-4359-a0b0-5b601a5370ee",
 "color":
 "#654321",
 "caption":
 "Gedruckte Briefwechsel",
 "head":
 "Arthur Schnitzler an Hedy Kempny, 1.5.1928",
 "source":
 "Hedy Kempny und Arthur Schnitzler: Das Mädchen mit den dreizehn Seelen. Eine Korrespondenz ergänzt durch Blätter aus Hedy Kempnys Tagebuch sowie durch eine Auswahl ihrer Erzählungen. Hg. v. Heinz P. Adamek. Reinbek bei Hamburg: Rowohlt 1984. (Neue Frau)"
}] 