[{
 "type":
 "schnitzler-tagebuch",
 "color":
 "#037a33",
 "filename":
 "entry__1928-12-18",
 "caption":
 "Tagebuch",
 "idno":
 "https://schnitzler-tagebuch.acdh.oeaw.ac.at/entry__1928-12-18.html",
 "head":
 "Tagebuch, 18. Dezember 1928",
 "desc":
{"listPerson":
  [
{
 "persName":
 "Richard Arnold Bermann",
 "ref":
 "person_13657"},
 {
 "persName":
 "Herbert Cysarz",
 "ref":
 "person_14327"},
 {
 "persName":
 "Hedy Kempny",
 "ref":
 "person_16807"},
 {
 "persName":
 "Heinrich Schnitzler",
 "ref":
 "person_19822"}],
 "listBibl":
  [
 {
 "title":
 "Aphoristisches",
 "ref":
 "pmb35745"}
 ,  {
 "title":
 "Hollywood",
 "ref":
 "pmb78529"}
 ],
 "listPlace":
  [
 {
 "placeName":
 "Prag",
 "ref":
 "pmb652"}
 ]
}
}, {
 "type":
 "wienerschnitzler",
 "color":
 "#ECDA98",
 "caption":
 "Wiener Schnitzler",
 "idno":
 "https://wienerschnitzler.org/tag.html#1928-12-18",
 "head":
 "Wien",
 "desc":
{"listPlace":
  [
 {
 "placeName":
 "XVIII., Währing",
 "ref":
 ""}
 ]
}
}, {
 "type":
 "schnitzler-interviews",
 "color":
 "#3D5A80",
 "filename":
 "I087",
 "caption":
 "Interviews, Meinungen, Proteste",
 "idno":
 "https://schnitzler-interviews.acdh.oeaw.ac.at/I087.html",
 "head":
 "Karl Schauermann: Old Vienna Goes American, 18. 12. 1928",
 "desc":
{"listPerson":
  [
{
 "persName":
 "Karl Schauermann",
 "ref":
 "pmb24073"},
 {
 "persName":
 "Anthonis van Dyck",
 "ref":
 "pmb15581"},
 {
 "persName":
 "Thomas Seltzer",
 "ref":
 "pmb24825"},
 {
 "persName":
 "Benjamin Horace Stern",
 "ref":
 "pmb25465"},
 {
 "persName":
 "Gustav Schauermann",
 "ref":
 "pmb58562"},
 {
 "persName":
 "Karl Schauermann",
 "ref":
 "pmb58567"},
 {
 "persName":
 "Frederick H. Schauermann",
 "ref":
 "pmb58571"},
 {
 "persName":
 "Alice Schauermann",
 "ref":
 "pmb58565"}],
 "listBibl":
  [
 {
 "title":
 "Fräulein Else",
 "ref":
 "pmb29941"}
 ,  {
 "title":
 "Beatrice and Other Stories",
 "ref":
 "pmb36048"}
 ,  {
 "title":
 "Traumnovelle",
 "ref":
 "pmb30851"}
 ,  {
 "title":
 "Therese. Chronik eines Frauenlebens",
 "ref":
 "pmb30817"}
 ,  {
 "title":
 "Anatol",
 "ref":
 "pmb29935"}
 ,  {
 "title":
 "Reigen. Zehn Dialoge",
 "ref":
 "pmb29855"}
 ,  {
 "title":
 "Liebelei. Schauspiel in drei Akten",
 "ref":
 "pmb29917"}
 ,  {
 "title":
 "Broadway",
 "ref":
 "pmb58219"}
 ,  {
 "title":
 "Chicago",
 "ref":
 "pmb58214"}
 ,  {
 "title":
 "An American Tragedy",
 "ref":
 "pmb58226"}
 ,  {
 "title":
 "The Trial of Mary Dugan",
 "ref":
 "pmb58208"}
 ,  {
 "title":
 "Casanova’s Homecoming",
 "ref":
 "pmb42883"}
 ,  {
 "title":
 "Der junge Medardus. Dramatische Historie in einem Vorspiel und fünf Aufzügen",
 "ref":
 "pmb29937"}
 ,  {
 "title":
 "Das weite Land. Tragikomödie in fünf Akten",
 "ref":
 "pmb30207"}
 ,  {
 "title":
 "Komödie der Verführung. In drei Akten",
 "ref":
 "pmb30205"}
 ,  {
 "title":
 "Old Vienna goes American",
 "ref":
 "pmb58559"}
 ,  {
 "title":
 "Milwaukee Journal",
 "ref":
 "pmb58558"}
 ],
 "listPlace":
  [
 {
 "placeName":
 "Wien",
 "ref":
 "pmb50"}
 ,  {
 "placeName":
 "Vereinigte Staaten von Amerika (USA)",
 "ref":
 "pmb43406"}
 ,  {
 "placeName":
 "Amerika",
 "ref":
 "pmb175"}
 ,  {
 "placeName":
 "Sternwartestraße",
 "ref":
 "pmb150"}
 ,  {
 "placeName":
 "Österreich",
 "ref":
 "pmb41240"}
 ,  {
 "placeName":
 "Deutschland",
 "ref":
 "pmb151"}
 ,  {
 "placeName":
 "New York City",
 "ref":
 "pmb44053"}
 ,  {
 "placeName":
 "Europa",
 "ref":
 "pmb468"}
 ,  {
 "placeName":
 "Milwaukee",
 "ref":
 "pmb49803"}
 ,  {
 "placeName":
 "Koblenz",
 "ref":
 "pmb58556"}
 ],
 "listOrg":
  [
 {
 "orgName":
 "Milwaukee Newspaper Union",
 "ref":
 "pmb56586"}
 ,  {
 "orgName":
 "Burgtheater",
 "ref":
 "pmb36247"}
 ]
}
}] 