[{
 "type":
 "schnitzler-tagebuch",
 "color":
 "#037a33",
 "filename":
 "entry__1928-07-27",
 "caption":
 "Tagebuch",
 "idno":
 "https://schnitzler-tagebuch.acdh.oeaw.ac.at/entry__1928-07-27.html",
 "head":
 "Tagebuch, 27. Juli 1928",
 "desc":
{"listPerson":
  [
{
 "persName":
 "Jean Billiter",
 "ref":
 "person_13730"},
 {
 "persName":
 "Arnoldo Cappellini",
 "ref":
 "person_14129"},
 {
 "persName":
 "Console",
 "ref":
 "person_14271"},
 {
 "persName":
 "Anna von Zsolnay",
 "ref":
 "person_21584"},
 {
 "persName":
 "Edith Schneider",
 "ref":
 "person_19802"},
 {
 "persName":
 "Frieda Pollak",
 "ref":
 "person_18881"},
 {
 "persName":
 "Olga Schnitzler",
 "ref":
 "person_19832"}],
 "listPlace":
  [
 {
 "placeName":
 "Berlin",
 "ref":
 "pmb168"}
 ,  {
 "placeName":
 "Venedig",
 "ref":
 "pmb462"}
 ]
}
}, {
 "type":
 "URL",
 "subtype":
 "wienerschnitzler",
 "head":
 "Wien",
 "desc":
{"listPlace":
  [
 {
 "placeName":
 "I., Innere Stadt",
 "ref":
 ""}
 ,  {
 "placeName":
 "XXII., Donaustadt",
 "ref":
 ""}
 ,  {
 "placeName":
 "XVIII., Währing",
 "ref":
 ""}
 ]
}
}, {
 "type":
 "URL",
 "subtype":
 "wienerschnitzler",
 "head":
 "Venedig",
 "desc":
{"listPlace":
  [
 {
 "placeName":
 "Grand Hotel Britannia",
 "ref":
 ""}
 ,  {
 "placeName":
 "Fiaschetteria Toscana",
 "ref":
 ""}
 ,  {
 "placeName":
 "Flugplatz Venedig-Lido",
 "ref":
 ""}
 ]
}
}, {
 "type":
 "pollaczek",
 "color":
 "#1e81b0",
 "filename":
 "ckp556",
 "caption":
 "Pollaczek: Schnitzler und ich",
 "idno":
 "https://pollaczek.acdh.oeaw.ac.at/ckp556.html",
 "head":
 "Tagebuch von Clara Katharina Pollaczek, 21.–27. Juli 1928"
}, {
 "type":
 "pollaczek",
 "color":
 "#1e81b0",
 "filename":
 "ckp559",
 "caption":
 "Pollaczek: Schnitzler und ich",
 "idno":
 "https://pollaczek.acdh.oeaw.ac.at/ckp559.html",
 "head":
 "Clara Katharina Pollaczek an Arthur Schnitzler, 27. Juli 1928"
}] 