[{
 "type":
 "schnitzler-tagebuch",
 "color":
 "#037a33",
 "filename":
 "entry__1928-04-22",
 "caption":
 "Tagebuch",
 "idno":
 "https://schnitzler-tagebuch.acdh.oeaw.ac.at/entry__1928-04-22.html",
 "head":
 "Tagebuch, 22. April 1928",
 "desc":
{"listPerson":
  [
{
 "persName":
 "Arnoldo Cappellini",
 "ref":
 "person_14129"},
 {
 "persName":
 "Lili Schnitzler",
 "ref":
 "person_14130"},
 {
 "persName":
 "Heinrich Schnitzler",
 "ref":
 "person_19822"},
 {
 "persName":
 "Julius Schnitzler",
 "ref":
 "person_19827"}],
 "listPlace":
  [
 {
 "placeName":
 "Istanbul",
 "ref":
 "pmb966"}
 ,  {
 "placeName":
 "Eyüpsultan",
 "ref":
 "pmb90575"}
 ,  {
 "placeName":
 "Beyoğlu",
 "ref":
 "pmb91449"}
 ]
}
}, {
 "type":
 "wienerschnitzler",
 "color":
 "#6F5106",
 "caption":
 "Wiener Schnitzler",
 "idno":
 "https://wienerschnitzler.org/tag.html#1928-04-22",
 "head":
 "Istanbul",
 "desc":
{"listPlace":
  [
 {
 "placeName":
 "Beyoğlu",
 "ref":
 ""}
 ,  {
 "placeName":
 "Galatabrücke",
 "ref":
 ""}
 ,  {
 "placeName":
 "Sultan-Ahmed-Moschee",
 "ref":
 ""}
 ,  {
 "placeName":
 "Theodosianische Mauer",
 "ref":
 ""}
 ,  {
 "placeName":
 "Rumeli Hisarı",
 "ref":
 ""}
 ]
}
}, {
 "type":
 "wienerschnitzler",
 "color":
 "#6F5106",
 "caption":
 "Wiener Schnitzler",
 "idno":
 "https://wienerschnitzler.org/tag.html#1928-04-22",
 "head":
 "Eyüpsultan",
 "desc":
{"listPlace":
  [
 {
 "placeName":
 "Eyüp-Sultan-Moschee",
 "ref":
 ""}
 ,  {
 "placeName":
 "Friedhof Eyüp",
 "ref":
 ""}
 ]
}
}, {
 "type":
 "pollaczek",
 "color":
 "#1e81b0",
 "filename":
 "ckp520",
 "caption":
 "Pollaczek: Schnitzler und ich",
 "idno":
 "https://pollaczek.acdh.oeaw.ac.at/ckp520.html",
 "head":
 "Tagebuch von Clara Katharina Pollaczek, 27. März – 1. Mai 1928"
}, {
 "type":
 "pollaczek",
 "color":
 "#1e81b0",
 "filename":
 "ckp534",
 "caption":
 "Pollaczek: Schnitzler und ich",
 "idno":
 "https://pollaczek.acdh.oeaw.ac.at/ckp534.html",
 "head":
 "Arthur Schnitzler an Clara Katharina Pollaczek, 22. April 1928"
}, {
 "type":
 "schnitzler-traeume",
 "subtype":
 "#ISBN978-3-8353-1029-2",
 "color":
 "#1193CC",
 "caption":
 "Traumtagebuch",
 "head":
 "Traum vom 22. April 1928",
 "source":
 "Arthur Schnitzler: Träume. Das Traumtagebuch 1875–1931. Herausgegeben von Peter Michael Braunwarth und Leo A. Lensing. Göttingen: Wallstein 2012 (Bibliothek Janowitz, Bd. 20)"
}] 