{
 "date":
 {
 "when-iso":
 "1928-04-23",
 "written":
 "Montag, 23. April 1928"
},
"listEvent":
 [{
 "type":
 "pollaczek",
 "idno":
 "https://pollaczek.acdh.oeaw.ac.at/ckp536.html",
 "head":
 "Clara Katharina Pollaczek an Arthur Schnitzler, 23. April 1928"
}, {
 "type":
 "schnitzler-orte",
 "idno":
 "https://pmb.acdh.oeaw.ac.at/entity/966/",
 "head":
 "Istanbul"
}, {
 "type":
 "schnitzler-orte",
 "idno":
 "https://pmb.acdh.oeaw.ac.at/entity/90386/",
 "head":
 "Bosporus"
}, {
 "type":
 "schnitzler-orte",
 "idno":
 "https://pmb.acdh.oeaw.ac.at/entity/91034/",
 "head":
 "Anatolia"
}, {
 "type":
 "schnitzler-orte",
 "idno":
 "https://pmb.acdh.oeaw.ac.at/entity/92271/",
 "head":
 "Hamria"
}, {
 "type":
 "schnitzler-orte",
 "idno":
 "https://pmb.acdh.oeaw.ac.at/entity/91449/",
 "head":
 "Beyoğlu"
}, {
 "type":
 "schnitzler-briefe",
 "idno":
 "https://schnitzler-briefe.acdh.oeaw.ac.at/L02499.html",
 "head":
 "Arthur Schnitzler an Richard Beer-Hofmann, 23. 4. 1928",
 "desc":
{"listPerson":
  [
{
 "persName":
 "Richard Beer-Hofmann",
 "ref":
 "pmb10863"}],
 "listPlace":
  [
 {
 "placeName":
 "Istanbul",
 "ref":
 "pmb966"}
 ,  {
 "placeName":
 "Wien",
 "ref":
 "pmb50"}
 ,  {
 "placeName":
 "XVIII., Währing",
 "ref":
 "pmb68"}
 ,  {
 "placeName":
 "Hasenauerstraße",
 "ref":
 "pmb383"}
 ,  {
 "placeName":
 "Österreich",
 "ref":
 "pmb41240"}
 ,  {
 "placeName":
 "Goldenes Horn",
 "ref":
 "pmb52752"}
 ]}

}, {
 "type":
 "schnitzler-cmif",
 "subtype":
 "#n0827e77-245d-4359-a0b0-5b601a5370ee",
 "head":
 "Arthur Schnitzler an Hedy Kempny, 23.4.1928",
 "desc":
{"listPerson":
  [
{
 "persName":
 "Kempny, Hedy",
 "ref":
 "https://d-nb.info/gnd/11872181X"}],
 "bibl":
 "Hedy Kempny und Arthur Schnitzler: Das Mädchen mit den dreizehn Seelen. Eine Korrespondenz ergänzt durch Blätter aus Hedy Kempnys Tagebuch sowie durch eine Auswahl ihrer Erzählungen. Hg. v. Heinz P. Adamek. Reinbek bei Hamburg: Rowohlt 1984. (Neue Frau)"}

}, {
 "type":
 "schnitzler-tagebuch",
 "idno":
 "https://schnitzler-tagebuch.acdh.oeaw.ac.at/entry__1928-04-23.html",
 "head":
 "Tagebuch, 23. April 1928",
 "desc":
{"listPerson":
  [
{
 "persName":
 "Ali Adnan",
 "ref":
 "person_13113"},
 {
 "persName":
 "Arnoldo Cappellini",
 "ref":
 "person_14129"},
 {
 "persName":
 "Lili Schnitzler",
 "ref":
 "person_14130"},
 {
 "persName":
 "Justinian I.",
 "ref":
 "person_16605"},
 {
 "persName":
 "Leopold Jessner",
 "ref":
 "person_16550"}],
 "listPlace":
  [
 {
 "placeName":
 "Istanbul",
 "ref":
 "pmb966"}
 ,  {
 "placeName":
 "Bosporus",
 "ref":
 "pmb90386"}
 ,  {
 "placeName":
 "Anatolia",
 "ref":
 "pmb91034"}
 ,  {
 "placeName":
 "Haydarpaşa",
 "ref":
 "pmb142321"}
 ,  {
 "placeName":
 "Beyoğlu",
 "ref":
 "pmb91449"}
 ]}

}] 
}