[{
 "type":
 "schnitzler-tagebuch",
 "color":
 "#037a33",
 "filename":
 "entry__1928-08-27",
 "caption":
 "Tagebuch",
 "idno":
 "https://schnitzler-tagebuch.acdh.oeaw.ac.at/entry__1928-08-27.html",
 "head":
 "Tagebuch, 27. August 1928",
 "desc":
{"listPerson":
  [
{
 "persName":
 "Arnoldo Cappellini",
 "ref":
 "person_14129"},
 {
 "persName":
 "Lili Schnitzler",
 "ref":
 "person_14130"},
 {
 "persName":
 "Marianne Pollaczek",
 "ref":
 "person_18868"},
 {
 "persName":
 "Heinrich Schnitzler",
 "ref":
 "person_19822"},
 {
 "persName":
 "Ruth Schnitzler",
 "ref":
 "person_13139"},
 {
 "persName":
 "Samuel Fischer",
 "ref":
 "person_15009"},
 {
 "persName":
 "Otto Paul Schinnerer",
 "ref":
 "person_19704"},
 {
 "persName":
 "Olga Schnitzler",
 "ref":
 "person_19832"}],
 "listBibl":
  [
 {
 "title":
 "Reigen. Zehn Dialoge",
 "ref":
 "pmb29855"}
 ],
 "listPlace":
  [
 {
 "placeName":
 "Hohenschwangau",
 "ref":
 "pmb90895"}
 ,  {
 "placeName":
 "Wien",
 "ref":
 "pmb50"}
 ,  {
 "placeName":
 "Reutte",
 "ref":
 "pmb91582"}
 ,  {
 "placeName":
 "Fernpass",
 "ref":
 "pmb90625"}
 ,  {
 "placeName":
 "Lermoos",
 "ref":
 "pmb91139"}
 ,  {
 "placeName":
 "Berchtesgaden",
 "ref":
 "pmb797"}
 ,  {
 "placeName":
 "Ehrwald",
 "ref":
 "pmb49664"}
 ]
}
}, {
 "type":
 "URL",
 "subtype":
 "wienerschnitzler",
 "head":
 "Schwangau",
 "desc":
{"listPlace":
  [
 {
 "placeName":
 "Hohenschwangau",
 "ref":
 ""}
 ]
}
}, {
 "type":
 "URL",
 "subtype":
 "wienerschnitzler",
 "head":
 "Reutte",
 "desc":
{"listPlace":
  [
 {
 "placeName":
 "Tiroler Zugspitzbahn",
 "ref":
 ""}
 ]
}
}, {
 "type":
 "URL",
 "subtype":
 "wienerschnitzler",
 "head":
 "Fernpass"
}, {
 "type":
 "URL",
 "subtype":
 "wienerschnitzler",
 "head":
 "Lermoos"
}, {
 "type":
 "URL",
 "subtype":
 "wienerschnitzler",
 "head":
 "Ehrwald"
}, {
 "type":
 "URL",
 "subtype":
 "wienerschnitzler",
 "head":
 "Zugspitze",
 "desc":
{"listPlace":
  [
 {
 "placeName":
 "Tiroler Zugspitzbahn",
 "ref":
 ""}
 ]
}
}, {
 "type":
 "pollaczek",
 "color":
 "#1e81b0",
 "filename":
 "ckp584",
 "caption":
 "Pollaczek: Schnitzler und ich",
 "idno":
 "https://pollaczek.acdh.oeaw.ac.at/ckp584.html",
 "head":
 "Clara Katharina Pollaczek an Arthur Schnitzler, 27. August 1928"
}, {
 "type":
 "pollaczek",
 "color":
 "#1e81b0",
 "filename":
 "ckp591",
 "caption":
 "Pollaczek: Schnitzler und ich",
 "idno":
 "https://pollaczek.acdh.oeaw.ac.at/ckp591.html",
 "head":
 "Tagebuch von Clara Katharina Pollaczek, 25.â€“31. August 1928"
}] 