[{
 "type":
 "schnitzler-tagebuch",
 "color":
 "#037a33",
 "filename":
 "entry__1929-08-22",
 "caption":
 "Tagebuch",
 "idno":
 "https://schnitzler-tagebuch.acdh.oeaw.ac.at/entry__1929-08-22.html",
 "head":
 "Tagebuch, 22. August 1929",
 "desc":
{"listPlace":
  [
 {
 "placeName":
 "Lausanne",
 "ref":
 "pmb50004"}
 ,  {
 "placeName":
 "Vevey",
 "ref":
 "pmb64657"}
 ,  {
 "placeName":
 "Mont-Pelerin",
 "ref":
 "pmb91808"}
 ,  {
 "placeName":
 "Blonay",
 "ref":
 "pmb90364"}
 ,  {
 "placeName":
 "Glion",
 "ref":
 "pmb40483"}
 ,  {
 "placeName":
 "Caux",
 "ref":
 "pmb90460"}
 ,  {
 "placeName":
 "Territet",
 "ref":
 "pmb52051"}
 ]
}
}, {
 "type":
 "URL",
 "subtype":
 "wienerschnitzler",
 "head":
 "Lausanne",
 "desc":
{"listPlace":
  [
 {
 "placeName":
 "Beau-Rivage Palace",
 "ref":
 ""}
 ]
}
}, {
 "type":
 "URL",
 "subtype":
 "wienerschnitzler",
 "head":
 "Glion"
}, {
 "type":
 "URL",
 "subtype":
 "wienerschnitzler",
 "head":
 "Mont-Pelerin"
}, {
 "type":
 "URL",
 "subtype":
 "wienerschnitzler",
 "head":
 "Blonay"
}, {
 "type":
 "URL",
 "subtype":
 "wienerschnitzler",
 "head":
 "Caux",
 "desc":
{"listPlace":
  [
 {
 "placeName":
 "Grand Hotel Excelsior Regina",
 "ref":
 ""}
 ]
}
}, {
 "type":
 "URL",
 "subtype":
 "wienerschnitzler",
 "head":
 "Les Avants"
}, {
 "type":
 "URL",
 "subtype":
 "wienerschnitzler",
 "head":
 "Territet",
 "desc":
{"listPlace":
  [
 {
 "placeName":
 "Hôtel des Alpes-Grand Hôtel",
 "ref":
 ""}
 ]
}
}, {
 "type":
 "URL",
 "subtype":
 "wienerschnitzler",
 "head":
 "Vevey"
}, {
 "type":
 "schnitzler-cmif",
 "subtype":
 "#n0827e77-245d-4359-a0b0-5b601a5370ee",
 "color":
 "#654321",
 "caption":
 "Gedruckte Briefwechsel",
 "head":
 "Arthur Schnitzler an Hedy Kempny, 22.8.1929",
 "source":
 "Hedy Kempny und Arthur Schnitzler: Das Mädchen mit den dreizehn Seelen. Eine Korrespondenz ergänzt durch Blätter aus Hedy Kempnys Tagebuch sowie durch eine Auswahl ihrer Erzählungen. Hg. v. Heinz P. Adamek. Reinbek bei Hamburg: Rowohlt 1984. (Neue Frau)"
}, {
 "type":
 "kalliope-verbund",
 "color":
 "#003574",
 "caption":
 "Kalliope Verbundkatalog",
 "idno":
 "http://kalliope-verbund.info/DE-2498-HS00083115",
 "head":
 "Schnitzler, Arthur: Im Spiel der Sommerlüfte [Dramatisches] (Drucktitel)",
 "text":
 "Letztes Objekt aus der Mappe. ca 72 Bl.Druckfahnen mit Korr."
}] 