[{
 "type":
 "schnitzler-tagebuch",
 "color":
 "#037a33",
 "filename":
 "entry__1929-11-04",
 "caption":
 "Tagebuch",
 "idno":
 "https://schnitzler-tagebuch.acdh.oeaw.ac.at/entry__1929-11-04.html",
 "head":
 "Tagebuch, 4. November 1929",
 "desc":
{"listPerson":
  [
{
 "persName":
 "Suzanne Clauser",
 "ref":
 "person_14234"},
 {
 "persName":
 "Ferenc Molnár",
 "ref":
 "person_18225"},
 {
 "persName":
 "Max Pallenberg",
 "ref":
 "person_18643"},
 {
 "persName":
 "Clara Katharina Pollaczek",
 "ref":
 "person_18863"},
 {
 "persName":
 "Fritz Donath",
 "ref":
 "person_14483"}],
 "listBibl":
  [
 {
 "title":
 "Eins, zwei, drei",
 "ref":
 "pmb77984"}
 ,  {
 "title":
 "Souper",
 "ref":
 "pmb77986"}
 ]
}
}, {
 "type":
 "schnitzler-briefe",
 "color":
 "#A63437",
 "filename":
 "L03734",
 "caption":
 "Briefe mit Autorinnen und Autoren",
 "idno":
 "https://schnitzler-briefe.acdh.oeaw.ac.at/L03734.html",
 "head":
 "Arthur Schnitzler an Stefan Zweig, 4. 11. 1929",
 "desc":
{"listPerson":
  [
{
 "persName":
 "Samuel Fischer",
 "ref":
 "pmb11324"},
 {
 "persName":
 "Hugo von Hofmannsthal",
 "ref":
 "pmb11740"},
 {
 "persName":
 "Clara Katharina Pollaczek",
 "ref":
 "pmb12435"},
 {
 "persName":
 "Stefan Zweig",
 "ref":
 "pmb13212"},
 {
 "persName":
 "Julio Álvarez del Vayo",
 "ref":
 "pmb295284"}],
 "listBibl":
  [
 {
 "title":
 "Angst",
 "ref":
 "pmb294945"}
 ,  {
 "title":
 "Kleine Chronik",
 "ref":
 "pmb295299"}
 ,  {
 "title":
 "Gringoire",
 "ref":
 "pmb296220"}
 ,  {
 "title":
 "?? [Peur, Film von Arthur Schnitzler]",
 "ref":
 "pmb296222"}
 ,  {
 "title":
 "Hugo von Hofmannsthal. Gedächtnisrede zur Trauerfeier im Wiener Burgtheater",
 "ref":
 "pmb296238"}
 ,  {
 "title":
 "Der Thor und der Tod",
 "ref":
 "pmb30279"}
 ,  {
 "title":
 "Joseph Fouché. Bildnis eines politischen Menschen",
 "ref":
 "pmb76770"}
 ,  {
 "title":
 "Angst",
 "ref":
 "pmb81352"}
 ],
 "listPlace":
  [
 {
 "placeName":
 "Burgtheater",
 "ref":
 "pmb14"}
 ,  {
 "placeName":
 "Sternwartestraße 71",
 "ref":
 "pmb168815"}
 ,  {
 "placeName":
 "Paris",
 "ref":
 "pmb182"}
 ,  {
 "placeName":
 "Gartenbaukino",
 "ref":
 "pmb190636"}
 ,  {
 "placeName":
 "Imperialkino",
 "ref":
 "pmb253"}
 ,  {
 "placeName":
 "Salzburg",
 "ref":
 "pmb30"}
 ,  {
 "placeName":
 "Spanien",
 "ref":
 "pmb388"}
 ,  {
 "placeName":
 "Wien",
 "ref":
 "pmb50"}
 ]
}
}, {
 "type":
 "wienerschnitzler",
 "color":
 "#ECDA98",
 "caption":
 "Wiener Schnitzler",
 "idno":
 "https://wienerschnitzler.org/tag.html#1929-11-04",
 "head":
 "Wien",
 "desc":
{"listPlace":
  [
 {
 "placeName":
 "VI., Mariahilf",
 "ref":
 ""}
 ,  {
 "placeName":
 "XVIII., Währing",
 "ref":
 ""}
 ]
}
}, {
 "type":
 "schnitzler-kultur",
 "color":
 "#6B4C5A",
 "filename":
 "pmb237110",
 "caption":
 "Kulturveranstaltungen",
 "idno":
 "https://schnitzler-kultur.acdh.oeaw.ac.at/pmb237110.html",
 "head":
 "Aufführung von Souper und Eins, zwei, drei,
                        4.11.1929",
 "desc":
{"listBibl":
  [
 {
 "title":
 "Eins, zwei, drei",
 "ref":
 ""}
 ,  {
 "title":
 "Souper",
 "ref":
 ""}
 ],
 "listPerson":
  [
{
 "persName":
 "Arthur Schnitzler",
 "ref":
 ""}],
 "listPlace":
  [
 {
 "placeName":
 "Raimund-Theater",
 "ref":
 ""}
 ]
}
}, {
 "type":
 "kalliope-verbund",
 "color":
 "#003574",
 "caption":
 "Kalliope Verbundkatalog",
 "idno":
 "http://kalliope-verbund.info/DE-2498-HS00032443",
 "head":
 "Bloch, Chaim an Schnitzler, Arthur [Briefe]",
 "text":
 "2 Br. 3 Bl."
}, {
 "type":
 "kalliope-verbund",
 "color":
 "#003574",
 "caption":
 "Kalliope Verbundkatalog",
 "idno":
 "http://kalliope-verbund.info/DE-2498-HS00078445",
 "head":
 "Schnitzler, Arthur an Lloyd, Mary E. [Briefe]",
 "text":
 "1 Bl.Durchschl."
}] 