[{
 "type":
 "schnitzler-tagebuch",
 "color":
 "#037a33",
 "filename":
 "entry__1929-09-14",
 "caption":
 "Tagebuch",
 "idno":
 "https://schnitzler-tagebuch.acdh.oeaw.ac.at/entry__1929-09-14.html",
 "head":
 "Tagebuch, 14. September 1929",
 "desc":
{"listPerson":
  [
{
 "persName":
 "Richard Beer-Hofmann",
 "ref":
 "person_13551"},
 {
 "persName":
 "Rudolf Binding",
 "ref":
 "person_13736"},
 {
 "persName":
 "Clara Katharina Pollaczek",
 "ref":
 "person_18863"},
 {
 "persName":
 "Paula Beer-Hofmann",
 "ref":
 "person_13550"}],
 "listBibl":
  [
 {
 "title":
 "Erlebtes Leben",
 "ref":
 "pmb78076"}
 ,  {
 "title":
 "Mitternachtssonne",
 "ref":
 "pmb80258"}
 ],
 "listPlace":
  [
 {
 "placeName":
 "Marienbad",
 "ref":
 "pmb772"}
 ]
}
}, {
 "type":
 "schnitzler-orte",
 "color":
 "#045344",
 "caption":
 "Aufenthaltsorte",
 "head":
 "Marienbad",
 "desc":
{"listPlace":
  [
 {
 "placeName":
 "Grand Hotel Marienbad",
 "ref":
 ""}
 ,  {
 "placeName":
 "Hotel Neptun",
 "ref":
 ""}
 ,  {
 "placeName":
 "Kurpark Marienbad",
 "ref":
 ""}
 ,  {
 "placeName":
 "Café Forstwarte",
 "ref":
 ""}
 ,  {
 "placeName":
 "Höhencafé und Restaurant »Alm«",
 "ref":
 ""}
 ,  {
 "placeName":
 "Wiener Haus",
 "ref":
 ""}
 ,  {
 "placeName":
 "Kursaal Marienbad",
 "ref":
 ""}
 ,  {
 "placeName":
 "Hauptkolonnade (Maxim Gorki Kolonnade)",
 "ref":
 ""}
 ]
}
}, {
 "type":
 "pollaczek",
 "color":
 "#1e81b0",
 "filename":
 "ckp721",
 "caption":
 "Pollaczek: Schnitzler und ich",
 "idno":
 "https://pollaczek.acdh.oeaw.ac.at/ckp721.html",
 "head":
 "Tagebuch von Clara Katharina Pollaczek, 12.–15. September 1929"
}, {
 "type":
 "pollaczek",
 "color":
 "#1e81b0",
 "filename":
 "ckp725",
 "caption":
 "Pollaczek: Schnitzler und ich",
 "idno":
 "https://pollaczek.acdh.oeaw.ac.at/ckp725.html",
 "head":
 "Clara Katharina Pollaczek an Arthur Schnitzler, 14. September 1929"
}, {
 "type":
 "schnitzler-events",
 "color":
 "#9BC53D",
 "filename":
 "entity/211091/",
 "caption":
 "Ereignisse in der PMB",
 "idno":
 "https://pmb.acdh.oeaw.ac.at/entity/211091/",
 "head":
 "Filmvorführung von Mitternachtssonne, 14.9.1929",
 "desc":
{"listBibl":
  [
 {
 "title":
 "Mitternachtssonne",
 "ref":
 ""}
 ],
 "listPerson":
  [
{
 "persName":
 "Arthur Schnitzler",
 "ref":
 ""},
 {
 "persName":
 "Richard Beer-Hofmann",
 "ref":
 ""},
 {
 "persName":
 "Paula Beer-Hofmann",
 "ref":
 ""}],
 "listPlace":
  [
 {
 "placeName":
 "Marienbad",
 "ref":
 ""}
 ]
}
}, {
 "type":
 "schnitzler-kino-buch",
 "subtype":
 "#ISBN978-3205787464",
 "color":
 "#B43C9C",
 "caption":
 "Kino",
 "head":
 "Schnitzler geht ins Kino in Marienbad, 14. September 1929",
 "source":
 "»A. ist manchmal wie ein kleines Kind«. Clara Katharina Pollaczek und Arthur Schnitzler gehen ins Kino. Herausgegeben von Stephan Kurz und Michael Rohrwasser unter Mitarbeit von Daniel Schopper. Wien, Köln, Weimar: Böhlau Verlag 2012."
}] 