[{
 "type":
 "schnitzler-orte",
 "idno":
 "https://pmb.acdh.oeaw.ac.at/entity/64219/",
 "head":
 "Döbling"
}, {
 "type":
 "schnitzler-orte",
 "idno":
 "https://pmb.acdh.oeaw.ac.at/entity/49210/",
 "head":
 "Steinriegl"
}, {
 "type":
 "schnitzler-orte",
 "idno":
 "https://pmb.acdh.oeaw.ac.at/entity/34354/",
 "head":
 "Königstetten"
}, {
 "type":
 "schnitzler-orte",
 "idno":
 "https://pmb.acdh.oeaw.ac.at/entity/1246/",
 "head":
 "St. Andrä-Wördern"
}, {
 "type":
 "schnitzler-orte",
 "idno":
 "https://pmb.acdh.oeaw.ac.at/entity/46976/",
 "head":
 "Kierling"
}, {
 "type":
 "schnitzler-orte",
 "idno":
 "https://pmb.acdh.oeaw.ac.at/entity/865/",
 "head":
 "Klosterneuburg"
}, {
 "type":
 "schnitzler-orte",
 "idno":
 "https://pmb.acdh.oeaw.ac.at/entity/50/",
 "head":
 "Wien"
}, {
 "type":
 "schnitzler-tagebuch",
 "idno":
 "https://schnitzler-tagebuch.acdh.oeaw.ac.at/entry__1929-07-14.html",
 "head":
 "Tagebuch, 14. Juli 1929",
 "desc":
{"listPerson":
  [
{
 "persName":
 "Arnoldo Cappellini",
 "ref":
 "person_14129"},
 {
 "persName":
 "Dora Michaelis",
 "ref":
 "person_18137"},
 {
 "persName":
 "Clara Katharina Pollaczek",
 "ref":
 "person_18863"},
 {
 "persName":
 "Paula Schmidl",
 "ref":
 "person_19756"},
 {
 "persName":
 "Heinrich Schnitzler",
 "ref":
 "person_19822"},
 {
 "persName":
 "Ruth Schnitzler",
 "ref":
 "person_13139"},
 {
 "persName":
 "Olga Schnitzler",
 "ref":
 "person_19832"}],
 "listPlace":
  [
 {
 "placeName":
 "Berlin",
 "ref":
 "pmb168"}
 ,  {
 "placeName":
 "Döbling",
 "ref":
 "pmb64219"}
 ,  {
 "placeName":
 "Steinriegl",
 "ref":
 "pmb49210"}
 ,  {
 "placeName":
 "Königstetten",
 "ref":
 "pmb34354"}
 ,  {
 "placeName":
 "St. Andrä-Wördern",
 "ref":
 "pmb1246"}
 ,  {
 "placeName":
 "Kierling",
 "ref":
 "pmb46976"}
 ,  {
 "placeName":
 "Klosterneuburg",
 "ref":
 "pmb865"}
 ,  {
 "placeName":
 "Wien",
 "ref":
 "pmb50"}
 ,  {
 "placeName":
 "Molveno",
 "ref":
 "pmb91265"}
 ,  {
 "placeName":
 "Bozen",
 "ref":
 "pmb40260"}
 ]}

}] 