[{
 "type":
 "schnitzler-orte",
 "color":
 "#045344",
 "caption":
 "Aufenthaltsorte",
 "idno":
 "https://pmb.acdh.oeaw.ac.at/entity/52051/",
 "head":
 "Territet"
}{
 "type":
 "schnitzler-orte",
 "color":
 "#045344",
 "caption":
 "Aufenthaltsorte",
 "idno":
 "https://pmb.acdh.oeaw.ac.at/entity/50004/",
 "head":
 "Lausanne"
}{
 "type":
 "schnitzler-orte",
 "color":
 "#045344",
 "caption":
 "Aufenthaltsorte",
 "idno":
 "https://pmb.acdh.oeaw.ac.at/entity/90623/",
 "head":
 "Ferney-Voltaire"
}{
 "type":
 "schnitzler-orte",
 "color":
 "#045344",
 "caption":
 "Aufenthaltsorte",
 "idno":
 "https://pmb.acdh.oeaw.ac.at/entity/562/",
 "head":
 "Genf"
}{
 "type":
 "schnitzler-orte",
 "color":
 "#045344",
 "caption":
 "Aufenthaltsorte",
 "idno":
 "https://pmb.acdh.oeaw.ac.at/entity/90607/",
 "head":
 "Évian-les-Bains"
}{
 "type":
 "schnitzler-orte",
 "color":
 "#045344",
 "caption":
 "Aufenthaltsorte",
 "idno":
 "https://pmb.acdh.oeaw.ac.at/entity/92015/",
 "head":
 "Villeneuve"
}{
 "type":
 "schnitzler-tagebuch",
 "color":
 "#037a33",
 "caption":
 "Tagebuch",
 "idno":
 "https://schnitzler-tagebuch.acdh.oeaw.ac.at/entry__1929-09-04.html",
 "head":
 "Tagebuch, 4. September 1929",
 "desc":
{"listPerson":
  [
{
 "persName":
 "Clara Katharina Pollaczek",
 "ref":
 "person_18863"},
 {
 "persName":
 "Voltaire",
 "ref":
 "person_20987"},
 {
 "persName":
 "Otto Paul Schinnerer",
 "ref":
 "person_19704"},
 {
 "persName":
 "Olga Schnitzler",
 "ref":
 "person_19832"}],
 "listPlace":
  [
 {
 "placeName":
 "Territet",
 "ref":
 "pmb52051"}
 ,  {
 "placeName":
 "Lausanne",
 "ref":
 "pmb50004"}
 ,  {
 "placeName":
 "Ferney-Voltaire",
 "ref":
 "pmb90623"}
 ,  {
 "placeName":
 "Genf",
 "ref":
 "pmb562"}
 ,  {
 "placeName":
 "Évian-les-Bains",
 "ref":
 "pmb90607"}
 ,  {
 "placeName":
 "Villeneuve",
 "ref":
 "pmb92015"}
 ,  {
 "placeName":
 "Altaussee",
 "ref":
 "pmb90229"}
 ,  {
 "placeName":
 "Salzburg",
 "ref":
 "pmb30"}
 ,  {
 "placeName":
 "Luzern",
 "ref":
 "pmb967"}
 ]
}
}] 