[{
 "type":
 "schnitzler-tagebuch",
 "color":
 "#037a33",
 "filename":
 "entry__1929-06-02",
 "caption":
 "Tagebuch",
 "idno":
 "https://schnitzler-tagebuch.acdh.oeaw.ac.at/entry__1929-06-02.html",
 "head":
 "Tagebuch, 2. Juni 1929",
 "desc":
{"listPerson":
  [
{
 "persName":
 "Clara Katharina Pollaczek",
 "ref":
 "person_18863"},
 {
 "persName":
 "Olga Schnitzler",
 "ref":
 "person_19832"}],
 "listBibl":
  [
 {
 "title":
 "Im Spiel der Sommerlüfte. In drei Aufzügen",
 "ref":
 "pmb30945"}
 ],
 "listPlace":
  [
 {
 "placeName":
 "Berlin",
 "ref":
 "pmb168"}
 ,  {
 "placeName":
 "Lainzer Tiergarten",
 "ref":
 "pmb91099"}
 ,  {
 "placeName":
 "Kalksburg",
 "ref":
 "pmb90979"}
 ,  {
 "placeName":
 "Laab im Walde",
 "ref":
 "pmb91091"}
 ,  {
 "placeName":
 "Hochroterd",
 "ref":
 "pmb90889"}
 ,  {
 "placeName":
 "Kaltenleutgeben",
 "ref":
 "pmb44102"}
 ,  {
 "placeName":
 "Lainz",
 "ref":
 "pmb49452"}
 ]
}
}, {
 "type":
 "wienerschnitzler",
 "color":
 "#6F5106",
 "caption":
 "Wiener Schnitzler",
 "idno":
 "https://wienerschnitzler.org/tag.html#1929-06-02",
 "head":
 "Wien",
 "desc":
{"listPlace":
  [
 {
 "placeName":
 "XIII., Hietzing",
 "ref":
 ""}
 ,  {
 "placeName":
 "XXIII., Liesing",
 "ref":
 ""}
 ,  {
 "placeName":
 "XVIII., Währing",
 "ref":
 ""}
 ]
}
}, {
 "type":
 "wienerschnitzler",
 "color":
 "#6F5106",
 "caption":
 "Wiener Schnitzler",
 "idno":
 "https://wienerschnitzler.org/tag.html#1929-06-02",
 "head":
 "Hochroterd"
}, {
 "type":
 "wienerschnitzler",
 "color":
 "#6F5106",
 "caption":
 "Wiener Schnitzler",
 "idno":
 "https://wienerschnitzler.org/tag.html#1929-06-02",
 "head":
 "Laab im Walde"
}, {
 "type":
 "wienerschnitzler",
 "color":
 "#6F5106",
 "caption":
 "Wiener Schnitzler",
 "idno":
 "https://wienerschnitzler.org/tag.html#1929-06-02",
 "head":
 "Kaltenleutgeben",
 "desc":
{"listPlace":
  [
 {
 "placeName":
 "Pfarrkirche Kaltenleutgeben",
 "ref":
 ""}
 ]
}
}, {
 "type":
 "wienerschnitzler",
 "color":
 "#6F5106",
 "caption":
 "Wiener Schnitzler",
 "idno":
 "https://wienerschnitzler.org/tag.html#1929-06-02",
 "head":
 "Lainz"
}, {
 "type":
 "pollaczek",
 "color":
 "#1e81b0",
 "filename":
 "ckp702",
 "caption":
 "Pollaczek: Schnitzler und ich",
 "idno":
 "https://pollaczek.acdh.oeaw.ac.at/ckp702.html",
 "head":
 "Tagebuch von Clara Katharina Pollaczek, 31. Mai 1929 – 8. Juni 1929"
}] 