[{
 "type":
 "schnitzler-tagebuch",
 "color":
 "#037a33",
 "filename":
 "entry__1929-07-06",
 "caption":
 "Tagebuch",
 "idno":
 "https://schnitzler-tagebuch.acdh.oeaw.ac.at/entry__1929-07-06.html",
 "head":
 "Tagebuch, 6. Juli 1929",
 "desc":
{"listPerson":
  [
{
 "persName":
 "Trude Donath",
 "ref":
 "person_14485"},
 {
 "persName":
 "Anna Epstein",
 "ref":
 "person_14772"},
 {
 "persName":
 "Clara Katharina Pollaczek",
 "ref":
 "person_18863"},
 {
 "persName":
 "Heinrich Schnitzler",
 "ref":
 "person_19822"},
 {
 "persName":
 "Friedrich Schreyvogl",
 "ref":
 "person_19891"},
 {
 "persName":
 "Anna Donath",
 "ref":
 "person_14481"},
 {
 "persName":
 "Ruth Schnitzler",
 "ref":
 "person_13139"},
 {
 "persName":
 "Frieda Pollak",
 "ref":
 "person_18881"},
 {
 "persName":
 "Olga Schnitzler",
 "ref":
 "person_19832"}],
 "listBibl":
  [
 {
 "title":
 "Im Spiel der Sommerlüfte. In drei Aufzügen",
 "ref":
 "pmb30945"}
 ],
 "listPlace":
  [
 {
 "placeName":
 "Berlin",
 "ref":
 "pmb168"}
 ]
}
}, {
 "type":
 "schnitzler-briefe",
 "color":
 "#A63437",
 "filename":
 "L03690",
 "caption":
 "Briefe mit Autorinnen und Autoren",
 "idno":
 "https://schnitzler-briefe.acdh.oeaw.ac.at/L03690.html",
 "head":
 "Stefan Zweig an Arthur Schnitzler, 6. 7. 1929",
 "desc":
{"listPerson":
  [
{
 "persName":
 "John Galsworthy",
 "ref":
 "pmb11398"},
 {
 "persName":
 "Stefan Zweig",
 "ref":
 "pmb13212"},
 {
 "persName":
 "George Bernard Shaw",
 "ref":
 "pmb2381"},
 {
 "persName":
 "Alexander Roda Roda",
 "ref":
 "pmb9546"}],
 "listBibl":
  [
 {
 "title":
 "Der grüne Kakadu. Groteske in einem Akt",
 "ref":
 "pmb29843"}
 ,  {
 "title":
 "Das Lamm des Armen. Tragikomödie in drei Akten",
 "ref":
 "pmb76766"}
 ],
 "listOrg":
  [
 {
 "orgName":
 "Österreichischer PEN-Club",
 "ref":
 "pmb250515"}
 ],
 "listPlace":
  [
 {
 "placeName":
 "Deutschland",
 "ref":
 "pmb151"}
 ,  {
 "placeName":
 "Berlin",
 "ref":
 "pmb168"}
 ,  {
 "placeName":
 "Paschinger Schlössl",
 "ref":
 "pmb253003"}
 ,  {
 "placeName":
 "Salzburg",
 "ref":
 "pmb30"}
 ,  {
 "placeName":
 "Ferleiten",
 "ref":
 "pmb40632"}
 ,  {
 "placeName":
 "Schweiz",
 "ref":
 "pmb43435"}
 ,  {
 "placeName":
 "Wien",
 "ref":
 "pmb50"}
 ]
}
}, {
 "type":
 "wienerschnitzler",
 "color":
 "#ECDA98",
 "caption":
 "Wiener Schnitzler",
 "idno":
 "https://wienerschnitzler.org/tag.html#1929-07-06",
 "head":
 "Wien",
 "desc":
{"listPlace":
  [
 {
 "placeName":
 "XVIII., Währing",
 "ref":
 ""}
 ]
}
}, {
 "type":
 "pollaczek",
 "color":
 "#1e81b0",
 "filename":
 "ckp707",
 "caption":
 "Pollaczek: Schnitzler und ich",
 "idno":
 "https://pollaczek.acdh.oeaw.ac.at/ckp707.html",
 "head":
 "Tagebuch von Clara Katharina Pollaczek, 4. Juli 1929 – 11. Juli 1929"
}] 