[{
 "type":
 "schnitzler-tagebuch",
 "color":
 "#037a33",
 "filename":
 "entry__1929-06-14",
 "caption":
 "Tagebuch",
 "idno":
 "https://schnitzler-tagebuch.acdh.oeaw.ac.at/entry__1929-06-14.html",
 "head":
 "Tagebuch, 14. Juni 1929",
 "desc":
{"listPerson":
  [
{
 "persName":
 "Hans Brahm",
 "ref":
 "person_13911"},
 {
 "persName":
 "Otto Brahm",
 "ref":
 "person_13913"},
 {
 "persName":
 "Bertolt Brecht",
 "ref":
 "person_13943"},
 {
 "persName":
 "Clara Katharina Pollaczek",
 "ref":
 "person_18863"},
 {
 "persName":
 "Ruth Lindberg",
 "ref":
 "person_17562"}],
 "listBibl":
  [
 {
 "title":
 "Die Verführte",
 "ref":
 "pmb81352"}
 ]
}
}, {
 "type":
 "schnitzler-briefe",
 "color":
 "#A63437",
 "filename":
 "L02512",
 "caption":
 "Briefe mit Autorinnen und Autoren",
 "idno":
 "https://schnitzler-briefe.acdh.oeaw.ac.at/L02512.html",
 "head":
 "Arthur Schnitzler an Robert Adam, 14. 6. 1929",
 "desc":
{"listPerson":
  [
{
 "persName":
 "Robert Adam",
 "ref":
 "pmb12438"}],
 "listBibl":
  [
 {
 "title":
 "Margot und das Jugendgericht",
 "ref":
 "pmb33618"}
 ],
 "listPlace":
  [
 {
 "placeName":
 "XVIII., Währing",
 "ref":
 "pmb68"}
 ,  {
 "placeName":
 "Wien",
 "ref":
 "pmb50"}
 ,  {
 "placeName":
 "Sternwartestraße",
 "ref":
 "pmb150"}
 ,  {
 "placeName":
 "XII., Meidling",
 "ref":
 "pmb62"}
 ,  {
 "placeName":
 "Meidlinger Hauptstraße",
 "ref":
 "pmb1239"}
 ,  {
 "placeName":
 "Semmering",
 "ref":
 "pmb189"}
 ]
}
}, {
 "type":
 "wienerschnitzler",
 "color":
 "#ECDA98",
 "caption":
 "Wiener Schnitzler",
 "head":
 "Wien",
 "desc":
{"listPlace":
  [
 {
 "placeName":
 "XVIII., Währing",
 "ref":
 ""}
 ,  {
 "placeName":
 "I., Innere Stadt",
 "ref":
 ""}
 ]
}
}, {
 "type":
 "pollaczek",
 "color":
 "#1e81b0",
 "filename":
 "ckp703",
 "caption":
 "Pollaczek: Schnitzler und ich",
 "idno":
 "https://pollaczek.acdh.oeaw.ac.at/ckp703.html",
 "head":
 "Tagebuch von Clara Katharina Pollaczek, 8. Juni 1929 – 14. Juni 1929"
}, {
 "type":
 "schnitzler-events",
 "color":
 "#9BC53D",
 "filename":
 "entity/211082/",
 "caption":
 "Ereignisse in der PMB",
 "idno":
 "https://pmb.acdh.oeaw.ac.at/entity/211082/",
 "head":
 "Filmvorführung von Angst, 14.6.1929",
 "desc":
{"listBibl":
  [
 {
 "title":
 "Angst",
 "ref":
 ""}
 ],
 "listPerson":
  [
{
 "persName":
 "Arthur Schnitzler",
 "ref":
 ""},
 {
 "persName":
 "Clara Katharina Pollaczek",
 "ref":
 ""}],
 "listPlace":
  [
 {
 "placeName":
 "Wien",
 "ref":
 ""}
 ]
}
}, {
 "type":
 "schnitzler-kino-buch",
 "subtype":
 "#ISBN978-3205787464",
 "color":
 "#B43C9C",
 "caption":
 "Kino",
 "head":
 "Schnitzler und Pollaczek sehen „Angst“ (Ut. „Die Verführte“ / „Die schwache Stunde einer Frau“), 14. Juni 1929",
 "source":
 "»A. ist manchmal wie ein kleines Kind«. Clara Katharina Pollaczek und Arthur Schnitzler gehen ins Kino. Herausgegeben von Stephan Kurz und Michael Rohrwasser unter Mitarbeit von Daniel Schopper. Wien, Köln, Weimar: Böhlau Verlag 2012."
}] 