[{
 "type":
 "schnitzler-tagebuch",
 "color":
 "#037a33",
 "filename":
 "entry__1929-03-24",
 "caption":
 "Tagebuch",
 "idno":
 "https://schnitzler-tagebuch.acdh.oeaw.ac.at/entry__1929-03-24.html",
 "head":
 "Tagebuch, 24. März 1929",
 "desc":
{"listPerson":
  [
{
 "persName":
 "Elisabeth Bergner",
 "ref":
 "person_13643"},
 {
 "persName":
 "Otto Brahm",
 "ref":
 "person_13913"},
 {
 "persName":
 "Hedy Kempny",
 "ref":
 "person_16807"},
 {
 "persName":
 "Wilhelm Lehmbruck",
 "ref":
 "person_17408"},
 {
 "persName":
 "Theodor Loos",
 "ref":
 "person_17679"},
 {
 "persName":
 "Lina Lossen",
 "ref":
 "person_17692"},
 {
 "persName":
 "Eleonore von Mendelssohn",
 "ref":
 "person_18065"},
 {
 "persName":
 "Kate Pohli-MacLeod",
 "ref":
 "person_18851"},
 {
 "persName":
 "Clara Katharina Pollaczek",
 "ref":
 "person_18863"},
 {
 "persName":
 "Hans José Rehfisch",
 "ref":
 "person_19111"},
 {
 "persName":
 "Heinrich Schnitzler",
 "ref":
 "person_19822"},
 {
 "persName":
 "Paul Wegener",
 "ref":
 "person_21135"},
 {
 "persName":
 "Robert Klein",
 "ref":
 "person_16897"},
 {
 "persName":
 "Olga Schnitzler",
 "ref":
 "person_19832"}],
 "listBibl":
  [
 {
 "title":
 "Fräulein Else",
 "ref":
 "pmb29941"}
 ,  {
 "title":
 "Aretino",
 "ref":
 "pmb77696"}
 ],
 "listPlace":
  [
 {
 "placeName":
 "Berlin",
 "ref":
 "pmb168"}
 ,  {
 "placeName":
 "Tiergarten",
 "ref":
 "pmb91893"}
 ,  {
 "placeName":
 "Friedrichshain",
 "ref":
 "pmb90659"}
 ,  {
 "placeName":
 "Wien",
 "ref":
 "pmb50"}
 ,  {
 "placeName":
 "Schillertheater",
 "ref":
 "pmb334"}
 ]
}
}, {
 "type":
 "wienerschnitzler",
 "color":
 "#6F5106",
 "caption":
 "Wiener Schnitzler",
 "idno":
 "https://wienerschnitzler.org/tag.html#1929-03-24",
 "head":
 "Berlin",
 "desc":
{"listPlace":
  [
 {
 "placeName":
 "Hotel Esplanade [Berlin]",
 "ref":
 ""}
 ,  {
 "placeName":
 "Tiergarten",
 "ref":
 ""}
 ,  {
 "placeName":
 "Schiller-Theater",
 "ref":
 ""}
 ,  {
 "placeName":
 "Herbert-von-Karajan-Straße 15",
 "ref":
 ""}
 ,  {
 "placeName":
 "Lanzsch &amp; Co.",
 "ref":
 ""}
 ]
}
}, {
 "type":
 "wienerschnitzler",
 "color":
 "#6F5106",
 "caption":
 "Wiener Schnitzler",
 "idno":
 "https://wienerschnitzler.org/tag.html#1929-03-24",
 "head":
 "Friedrichshain"
}, {
 "type":
 "schnitzler-kultur",
 "color":
 "#6B4C5A",
 "filename":
 "pmb235986",
 "caption":
 "Kulturveranstaltungen",
 "idno":
 "https://schnitzler-kultur.acdh.oeaw.ac.at/pmb235986.html",
 "head":
 "Aufführung von Aretino, 24.3.1929",
 "desc":
{"listOrg":
  [
 {
 "orgName":
 "Schiller-Theater",
 "ref":
 ""}
 ],
 "listBibl":
  [
 {
 "title":
 "Aretino",
 "ref":
 ""}
 ],
 "listPerson":
  [
{
 "persName":
 "Arthur Schnitzler",
 "ref":
 ""},
 {
 "persName":
 "Heinrich Schnitzler",
 "ref":
 ""}],
 "listPlace":
  [
 {
 "placeName":
 "Schiller-Theater",
 "ref":
 ""}
 ]
}
}, {
 "type":
 "pollaczek",
 "color":
 "#1e81b0",
 "filename":
 "ckp676",
 "caption":
 "Pollaczek: Schnitzler und ich",
 "idno":
 "https://pollaczek.acdh.oeaw.ac.at/ckp676.html",
 "head":
 "Tagebuch von Clara Katharina Pollaczek, 19.–27. März 1929"
}] 