[{
 "type":
 "schnitzler-tagebuch",
 "color":
 "#037a33",
 "filename":
 "entry__1929-09-10",
 "caption":
 "Tagebuch",
 "idno":
 "https://schnitzler-tagebuch.acdh.oeaw.ac.at/entry__1929-09-10.html",
 "head":
 "Tagebuch, 10. September 1929",
 "desc":
{"listPerson":
  [
{
 "persName":
 "Dora Michaelis",
 "ref":
 "person_18137"},
 {
 "persName":
 "Clara Katharina Pollaczek",
 "ref":
 "person_18863"},
 {
 "persName":
 "Heinrich Schnitzler",
 "ref":
 "person_19822"},
 {
 "persName":
 "Otto Paul Schinnerer",
 "ref":
 "person_19704"},
 {
 "persName":
 "Olga Schnitzler",
 "ref":
 "person_19832"}],
 "listPlace":
  [
 {
 "placeName":
 "Territet",
 "ref":
 "pmb52051"}
 ,  {
 "placeName":
 "Olten",
 "ref":
 "pmb44181"}
 ,  {
 "placeName":
 "Berlin",
 "ref":
 "pmb168"}
 ,  {
 "placeName":
 "Göteborg",
 "ref":
 "pmb40700"}
 ,  {
 "placeName":
 "Vereinigte Staaten von Amerika (USA)",
 "ref":
 "pmb43406"}
 ,  {
 "placeName":
 "Zürich",
 "ref":
 "pmb484"}
 ,  {
 "placeName":
 "Franzensbad",
 "ref":
 "pmb390"}
 ]
}
}, {
 "type":
 "wienerschnitzler",
 "color":
 "#6F5106",
 "caption":
 "Wiener Schnitzler",
 "idno":
 "https://wienerschnitzler.org/tag.html#1929-09-10",
 "head":
 "Territet",
 "desc":
{"listPlace":
  [
 {
 "placeName":
 "Hôtel des Alpes-Grand Hôtel",
 "ref":
 ""}
 ]
}
}, {
 "type":
 "wienerschnitzler",
 "color":
 "#6F5106",
 "caption":
 "Wiener Schnitzler",
 "idno":
 "https://wienerschnitzler.org/tag.html#1929-09-10",
 "head":
 "Zürich",
 "desc":
{"listPlace":
  [
 {
 "placeName":
 "Hotel St. Gotthard Zürich",
 "ref":
 ""}
 ,  {
 "placeName":
 "Schweizerhof Zürich",
 "ref":
 ""}
 ]
}
}, {
 "type":
 "pollaczek",
 "color":
 "#1e81b0",
 "filename":
 "ckp720",
 "caption":
 "Pollaczek: Schnitzler und ich",
 "idno":
 "https://pollaczek.acdh.oeaw.ac.at/ckp720.html",
 "head":
 "Tagebuch von Clara Katharina Pollaczek, 8.–12. September 1929"
}] 