[{
 "type":
 "schnitzler-tagebuch",
 "color":
 "#037a33",
 "filename":
 "entry__1930-04-15",
 "caption":
 "Tagebuch",
 "idno":
 "https://schnitzler-tagebuch.acdh.oeaw.ac.at/entry__1930-04-15.html",
 "head":
 "Tagebuch, 15. April 1930",
 "desc":
{"listPerson":
  [
{
 "persName":
 "Suzanne Clauser",
 "ref":
 "person_14234"},
 {
 "persName":
 "Gertrude De Antoni",
 "ref":
 "person_14369"},
 {
 "persName":
 "Ferdinand Donath",
 "ref":
 "person_14482"},
 {
 "persName":
 "Wilhelm Herzog",
 "ref":
 "person_16168"},
 {
 "persName":
 "Hedy Kempny",
 "ref":
 "person_16807"},
 {
 "persName":
 "Clara Katharina Pollaczek",
 "ref":
 "person_18863"},
 {
 "persName":
 "Hans José Rehfisch",
 "ref":
 "person_19111"},
 {
 "persName":
 "Franz Werfel",
 "ref":
 "person_21243"},
 {
 "persName":
 "Olga Schnitzler",
 "ref":
 "person_19832"}],
 "listBibl":
  [
 {
 "title":
 "Theaterroman",
 "ref":
 "pmb30321"}
 ,  {
 "title":
 "Die Affaire Dreyfus",
 "ref":
 "pmb77693"}
 ],
 "listPlace":
  [
 {
 "placeName":
 "Wien",
 "ref":
 "pmb50"}
 ,  {
 "placeName":
 "Deutsches Volkstheater",
 "ref":
 "pmb92202"}
 ]
}
}, {
 "type":
 "wienerschnitzler",
 "color":
 "#6F5106",
 "caption":
 "Wiener Schnitzler",
 "idno":
 "https://wienerschnitzler.org/tag.html#1930-04-15",
 "head":
 "Wien",
 "desc":
{"listPlace":
  [
 {
 "placeName":
 "VII., Neubau",
 "ref":
 ""}
 ,  {
 "placeName":
 "I., Innere Stadt",
 "ref":
 ""}
 ,  {
 "placeName":
 "XIX., Döbling",
 "ref":
 ""}
 ,  {
 "placeName":
 "XVIII., Währing",
 "ref":
 ""}
 ,  {
 "placeName":
 "IV., Wieden",
 "ref":
 ""}
 ]
}
}, {
 "type":
 "URL",
 "subtype":
 "schnitzler-kultur",
 "filename":
 "pmb238031",
 "idno":
 "https://schnitzler-kultur.acdh.oeaw.ac.at/pmb238031.html",
 "head":
 "Aufführung von Die Affaire Dreyfus, 15.4.1930",
 "desc":
{"listBibl":
  [
 {
 "title":
 "Die Affaire Dreyfus",
 "ref":
 ""}
 ],
 "listPerson":
  [
{
 "persName":
 "Arthur Schnitzler",
 "ref":
 ""}],
 "listPlace":
  [
 {
 "placeName":
 "Volkstheater",
 "ref":
 ""}
 ]
}
}] 