[{
 "type":
 "schnitzler-tagebuch",
 "color":
 "#037a33",
 "filename":
 "entry__1930-01-11",
 "caption":
 "Tagebuch",
 "idno":
 "https://schnitzler-tagebuch.acdh.oeaw.ac.at/entry__1930-01-11.html",
 "head":
 "Tagebuch, 11. Januar 1930",
 "desc":
{"listPerson":
  [
{
 "persName":
 "Gottfried Bermann Fischer",
 "ref":
 "person_13659"},
 {
 "persName":
 "Suzanne Clauser",
 "ref":
 "person_14234"},
 {
 "persName":
 "Gisela Hajek",
 "ref":
 "person_15854"},
 {
 "persName":
 "Alfred Kerr",
 "ref":
 "person_16819"},
 {
 "persName":
 "Paul Marx",
 "ref":
 "person_17958"},
 {
 "persName":
 "Albert Patry",
 "ref":
 "person_18674"},
 {
 "persName":
 "Rudolf Presber",
 "ref":
 "person_18956"},
 {
 "persName":
 "Paula Schmidl",
 "ref":
 "person_19756"},
 {
 "persName":
 "Heinrich Schnitzler",
 "ref":
 "person_19822"},
 {
 "persName":
 "Louise Schnitzler",
 "ref":
 "person_19831"},
 {
 "persName":
 "Johann Schnitzler",
 "ref":
 "person_19824"},
 {
 "persName":
 "Anna Luise Hauser",
 "ref":
 "person_15987"},
 {
 "persName":
 "Olga Schnitzler",
 "ref":
 "person_19832"}],
 "listBibl":
  [
 {
 "title":
 "Es tut sich was beim Film",
 "ref":
 "pmb81446"}
 ],
 "listPlace":
  [
 {
 "placeName":
 "Berlin",
 "ref":
 "pmb168"}
 ,  {
 "placeName":
 "Paris",
 "ref":
 "pmb182"}
 ,  {
 "placeName":
 "Milchgasse",
 "ref":
 "pmb92403"}
 ,  {
 "placeName":
 "Unter den Linden",
 "ref":
 "pmb91975"}
 ,  {
 "placeName":
 "Grunewald",
 "ref":
 "pmb129"}
 ,  {
 "placeName":
 "Chile",
 "ref":
 "pmb48169"}
 ]
}
}, {
 "type":
 "wienerschnitzler",
 "color":
 "#6F5106",
 "caption":
 "Wiener Schnitzler",
 "idno":
 "https://wienerschnitzler.org/tag.html#1930-01-11",
 "head":
 "Berlin",
 "desc":
{"listPlace":
  [
 {
 "placeName":
 "Hotel Esplanade [Berlin]",
 "ref":
 ""}
 ,  {
 "placeName":
 "Grunewald",
 "ref":
 ""}
 ,  {
 "placeName":
 "Unter den Linden",
 "ref":
 ""}
 ,  {
 "placeName":
 "Lanzsch &amp; Co.",
 "ref":
 ""}
 ,  {
 "placeName":
 "Gloria-Palast",
 "ref":
 ""}
 ,  {
 "placeName":
 "Schauspielhaus Berlin",
 "ref":
 ""}
 ,  {
 "placeName":
 "Gneiststraße 7",
 "ref":
 ""}
 ]
}
}, {
 "type":
 "URL",
 "subtype":
 "schnitzler-kultur",
 "filename":
 "pmb211126",
 "idno":
 "https://schnitzler-kultur.acdh.oeaw.ac.at/pmb211126.html",
 "head":
 "Filmvorführung von Es tut sich was beim Film, 11.1.1930",
 "desc":
{"listBibl":
  [
 {
 "title":
 "Es tut sich was beim Film",
 "ref":
 ""}
 ],
 "listPerson":
  [
{
 "persName":
 "Arthur Schnitzler",
 "ref":
 ""}],
 "listPlace":
  [
 {
 "placeName":
 "Gloria-Palast",
 "ref":
 ""}
 ]
}
}, {
 "type":
 "schnitzler-cmif",
 "subtype":
 "#n0827e77-245d-4359-a0b0-5b601a5370ee",
 "color":
 "#654321",
 "caption":
 "Gedruckte Briefwechsel",
 "head":
 "Arthur Schnitzler an Hedy Kempny, 11.1.1930",
 "source":
 "Hedy Kempny und Arthur Schnitzler: Das Mädchen mit den dreizehn Seelen. Eine Korrespondenz ergänzt durch Blätter aus Hedy Kempnys Tagebuch sowie durch eine Auswahl ihrer Erzählungen. Hg. v. Heinz P. Adamek. Reinbek bei Hamburg: Rowohlt 1984. (Neue Frau)"
}, {
 "type":
 "schnitzler-traeume",
 "subtype":
 "#ISBN978-3-8353-1029-2",
 "color":
 "#1193CC",
 "caption":
 "Traumtagebuch",
 "head":
 "Traum vom 11. Januar 1930",
 "source":
 "Arthur Schnitzler: Träume. Das Traumtagebuch 1875–1931. Herausgegeben von Peter Michael Braunwarth und Leo A. Lensing. Göttingen: Wallstein 2012 (Bibliothek Janowitz, Bd. 20)"
}, {
 "type":
 "schnitzler-kino-buch",
 "subtype":
 "#ISBN978-3205787464",
 "color":
 "#B43C9C",
 "caption":
 "Kino",
 "head":
 "Schnitzler geht ins Kino in Berlin, 11. Januar 1930",
 "source":
 "»A. ist manchmal wie ein kleines Kind«. Clara Katharina Pollaczek und Arthur Schnitzler gehen ins Kino. Herausgegeben von Stephan Kurz und Michael Rohrwasser unter Mitarbeit von Daniel Schopper. Wien, Köln, Weimar: Böhlau Verlag 2012."
}, {
 "type":
 "kalliope-verbund",
 "color":
 "#003574",
 "caption":
 "Kalliope Verbundkatalog",
 "idno":
 "http://kalliope-verbund.info/DE-2498-HS00032434",
 "head":
 "Björnson, Björn an Schnitzler, Arthur [Briefe]",
 "text":
 "4 Bl. geschr. von fremder Hand"
}] 