[{
 "type":
 "schnitzler-tagebuch",
 "color":
 "#037a33",
 "filename":
 "entry__1930-06-09",
 "caption":
 "Tagebuch",
 "idno":
 "https://schnitzler-tagebuch.acdh.oeaw.ac.at/entry__1930-06-09.html",
 "head":
 "Tagebuch, 9. Juni 1930",
 "desc":
{"listPerson":
  [
{
 "persName":
 "Hedy Kempny",
 "ref":
 "person_16807"},
 {
 "persName":
 "Clara Katharina Pollaczek",
 "ref":
 "person_18863"},
 {
 "persName":
 "Olga Schnitzler",
 "ref":
 "person_19832"}],
 "listBibl":
  [
 {
 "title":
 "Tagebuch",
 "ref":
 "pmb33243"}
 ],
 "listPlace":
  [
 {
 "placeName":
 "Franzensbad",
 "ref":
 "pmb390"}
 ,  {
 "placeName":
 "Rekawinkel",
 "ref":
 "pmb54767"}
 ,  {
 "placeName":
 "Kronstein",
 "ref":
 "pmb92351"}
 ,  {
 "placeName":
 "Tulln",
 "ref":
 "pmb91959"}
 ,  {
 "placeName":
 "New Danube",
 "ref":
 "pmb90538"}
 ,  {
 "placeName":
 "St. Andrä-Wördern",
 "ref":
 "pmb1246"}
 ,  {
 "placeName":
 "Gugging",
 "ref":
 "pmb90801"}
 ]
}
}, {
 "type":
 "URL",
 "subtype":
 "wienerschnitzler",
 "head":
 "Wien",
 "desc":
{"listPlace":
  [
 {
 "placeName":
 "XVIII., Währing",
 "ref":
 ""}
 ,  {
 "placeName":
 "Donau [Wien]",
 "ref":
 ""}
 ]
}
}, {
 "type":
 "URL",
 "subtype":
 "wienerschnitzler",
 "head":
 "Tulln an der Donau",
 "desc":
{"listPlace":
  [
 {
 "placeName":
 "Gasthaus Pfannhauser",
 "ref":
 ""}
 ]
}
}, {
 "type":
 "URL",
 "subtype":
 "wienerschnitzler",
 "head":
 "St. Andrä-Wördern"
}, {
 "type":
 "URL",
 "subtype":
 "wienerschnitzler",
 "head":
 "Kronstein [Tulln]"
}, {
 "type":
 "URL",
 "subtype":
 "wienerschnitzler",
 "head":
 "Gugging"
}, {
 "type":
 "URL",
 "subtype":
 "wienerschnitzler",
 "head":
 "Rekawinkel"
}] 