[{
 "type":
 "schnitzler-tagebuch",
 "color":
 "#037a33",
 "filename":
 "entry__1930-07-20",
 "caption":
 "Tagebuch",
 "idno":
 "https://schnitzler-tagebuch.acdh.oeaw.ac.at/entry__1930-07-20.html",
 "head":
 "Tagebuch, 20. Juli 1930",
 "desc":
{"listPerson":
  [
{
 "persName":
 "Lili Schnitzler",
 "ref":
 "person_14130"},
 {
 "persName":
 "Suzanne Clauser",
 "ref":
 "person_14234"},
 {
 "persName":
 "Emil Ludwig",
 "ref":
 "person_17726"},
 {
 "persName":
 "Newton",
 "ref":
 "person_18433"},
 {
 "persName":
 "Clara Katharina Pollaczek",
 "ref":
 "person_18863"},
 {
 "persName":
 "Heinrich Schnitzler",
 "ref":
 "person_19822"},
 {
 "persName":
 "Jakob Wassermann",
 "ref":
 "person_21107"},
 {
 "persName":
 "Samuel Fischer",
 "ref":
 "person_15009"},
 {
 "persName":
 "Hugo von Hofmannsthal",
 "ref":
 "person_16293"},
 {
 "persName":
 "Bruno Walter",
 "ref":
 "person_21080"}],
 "listPlace":
  [
 {
 "placeName":
 "Sankt Moritz",
 "ref":
 "pmb44374"}
 ,  {
 "placeName":
 "Pontresina",
 "ref":
 "pmb34946"}
 ,  {
 "placeName":
 "Fuorcla Surlej",
 "ref":
 "pmb90675"}
 ,  {
 "placeName":
 "Sils-Segl Maria",
 "ref":
 "pmb91753"}
 ]
}
}, {
 "type":
 "wienerschnitzler",
 "color":
 "#6F5106",
 "caption":
 "Wiener Schnitzler",
 "idno":
 "https://wienerschnitzler.org/tag.html#1930-07-20",
 "head":
 "St. Moritz",
 "desc":
{"listPlace":
  [
 {
 "placeName":
 "Grand Hotel Victoria",
 "ref":
 ""}
 ,  {
 "placeName":
 "St. Moritzersee",
 "ref":
 ""}
 ,  {
 "placeName":
 "Landgasthof Meierei",
 "ref":
 ""}
 ]
}
}, {
 "type":
 "wienerschnitzler",
 "color":
 "#6F5106",
 "caption":
 "Wiener Schnitzler",
 "idno":
 "https://wienerschnitzler.org/tag.html#1930-07-20",
 "head":
 "Pontresina",
 "desc":
{"listPlace":
  [
 {
 "placeName":
 "Schlosshotel [Pontresina]",
 "ref":
 ""}
 ]
}
}, {
 "type":
 "wienerschnitzler",
 "color":
 "#6F5106",
 "caption":
 "Wiener Schnitzler",
 "idno":
 "https://wienerschnitzler.org/tag.html#1930-07-20",
 "head":
 "Sils im Engadin/Segl"
}, {
 "type":
 "pollaczek",
 "color":
 "#1e81b0",
 "filename":
 "ckp800",
 "caption":
 "Pollaczek: Schnitzler und ich",
 "idno":
 "https://pollaczek.acdh.oeaw.ac.at/ckp800.html",
 "head":
 "Tagebuch von Clara Katharina Pollaczek, 15.–20. Juli 1930"
}, {
 "type":
 "pollaczek",
 "color":
 "#1e81b0",
 "filename":
 "ckp801",
 "caption":
 "Pollaczek: Schnitzler und ich",
 "idno":
 "https://pollaczek.acdh.oeaw.ac.at/ckp801.html",
 "head":
 "Tagebuch von Clara Katharina Pollaczek, 20.–22. Juli 1930"
}] 