[{
 "type":
 "schnitzler-tagebuch",
 "color":
 "#037a33",
 "filename":
 "entry__1930-06-13",
 "caption":
 "Tagebuch",
 "idno":
 "https://schnitzler-tagebuch.acdh.oeaw.ac.at/entry__1930-06-13.html",
 "head":
 "Tagebuch, 13. Juni 1930",
 "desc":
{"listPerson":
  [
{
 "persName":
 "Suzanne Clauser",
 "ref":
 "person_14234"},
 {
 "persName":
 "Clara Katharina Pollaczek",
 "ref":
 "person_18863"}],
 "listBibl":
  [
 {
 "title":
 "Tagebuch",
 "ref":
 "pmb33243"}
 ,  {
 "title":
 "Zug der Schatten",
 "ref":
 "pmb32049"}
 ],
 "listPlace":
  [
 {
 "placeName":
 "Prater",
 "ref":
 "pmb91530"}
 ,  {
 "placeName":
 "Thalheim bei Wels",
 "ref":
 "pmb91887"}
 ,  {
 "placeName":
 "Mödling",
 "ref":
 "pmb968"}
 ]
}
}, {
 "type":
 "schnitzler-briefe",
 "color":
 "#A63437",
 "filename":
 "L02537",
 "caption":
 "Briefe mit Autorinnen und Autoren",
 "idno":
 "https://schnitzler-briefe.acdh.oeaw.ac.at/L02537.html",
 "head":
 "Richard Beer-Hofmann an Arthur Schnitzler, 13. 6. 1930",
 "desc":
{"listPerson":
  [
{
 "persName":
 "Richard Beer-Hofmann",
 "ref":
 "pmb10863"},
 {
 "persName":
 "Paula Beer-Hofmann",
 "ref":
 "pmb10860"}],
 "listPlace":
  [
 {
 "placeName":
 "Mariazell",
 "ref":
 "pmb431"}
 ,  {
 "placeName":
 "Wien",
 "ref":
 "pmb50"}
 ,  {
 "placeName":
 "XVIII., Währing",
 "ref":
 "pmb68"}
 ,  {
 "placeName":
 "Sternwartestraße",
 "ref":
 "pmb150"}
 ,  {
 "placeName":
 "Steiermark",
 "ref":
 "pmb17"}
 ,  {
 "placeName":
 "Basilika Mariä Geburt",
 "ref":
 "pmb52179"}
 ]
}
}, {
 "type":
 "schnitzler-orte",
 "color":
 "#045344",
 "filename":
 "entity/50/",
 "caption":
 "Aufenthaltsorte",
 "idno":
 "https://pmb.acdh.oeaw.ac.at/entity/50/",
 "head":
 "Wien"
}, {
 "type":
 "schnitzler-orte",
 "color":
 "#045344",
 "filename":
 "entity/968/",
 "caption":
 "Aufenthaltsorte",
 "idno":
 "https://pmb.acdh.oeaw.ac.at/entity/968/",
 "head":
 "Mödling"
}] 