[{
 "type":
 "schnitzler-tagebuch",
 "color":
 "#037a33",
 "filename":
 "entry__1930-05-17",
 "caption":
 "Tagebuch",
 "idno":
 "https://schnitzler-tagebuch.acdh.oeaw.ac.at/entry__1930-05-17.html",
 "head":
 "Tagebuch, 17. Mai 1930",
 "desc":
{"listPerson":
  [
{
 "persName":
 "Arnoldo Cappellini",
 "ref":
 "person_14129"},
 {
 "persName":
 "Suzanne Clauser",
 "ref":
 "person_14234"},
 {
 "persName":
 "Hedy Kempny",
 "ref":
 "person_16807"},
 {
 "persName":
 "Heinrich Schnitzler",
 "ref":
 "person_19822"},
 {
 "persName":
 "Ruth Schnitzler",
 "ref":
 "person_13139"}],
 "listPlace":
  [
 {
 "placeName":
 "Schönbrunn",
 "ref":
 "pmb92518"}
 ,  {
 "placeName":
 "Thalheim bei Wels",
 "ref":
 "pmb91887"}
 ]
}
}, {
 "type":
 "schnitzler-briefe",
 "color":
 "#A63437",
 "filename":
 "L03533",
 "caption":
 "Briefe mit Autorinnen und Autoren",
 "idno":
 "https://schnitzler-briefe.acdh.oeaw.ac.at/L03533.html",
 "head":
 "Felix Salten an Arthur Schnitzler, 17. 5. 1930",
 "desc":
{"listPerson":
  [
{
 "persName":
 "Felix Salten",
 "ref":
 "pmb2167"}],
 "listOrg":
  [
 {
 "orgName":
 "Deutsch-amerikanische Seepost",
 "ref":
 "pmb147552"}
 ,  {
 "orgName":
 "Norddeutscher Lloyd",
 "ref":
 "pmb53340"}
 ,  {
 "orgName":
 "Dampfer Berlin",
 "ref":
 "pmb148348"}
 ],
 "listPlace":
  [
 {
 "placeName":
 "Atlantischer Ozean",
 "ref":
 "pmb12376"}
 ,  {
 "placeName":
 "New York City",
 "ref":
 "pmb44053"}
 ,  {
 "placeName":
 "Wien",
 "ref":
 "pmb50"}
 ,  {
 "placeName":
 "Europa",
 "ref":
 "pmb468"}
 ,  {
 "placeName":
 "Österreich",
 "ref":
 "pmb41240"}
 ,  {
 "placeName":
 "Sternwartestraße",
 "ref":
 "pmb150"}
 ]
}
}, {
 "type":
 "schnitzler-orte",
 "color":
 "#045344",
 "filename":
 "entity/50/",
 "caption":
 "Aufenthaltsorte",
 "idno":
 "https://pmb.acdh.oeaw.ac.at/entity/50/",
 "head":
 "Wien"
}, {
 "type":
 "schnitzler-orte",
 "color":
 "#045344",
 "filename":
 "entity/96/",
 "caption":
 "Aufenthaltsorte",
 "idno":
 "https://pmb.acdh.oeaw.ac.at/entity/96/",
 "head":
 "Meissl &amp; Schadn"
}, {
 "type":
 "schnitzler-orte",
 "color":
 "#045344",
 "filename":
 "entity/92518/",
 "caption":
 "Aufenthaltsorte",
 "idno":
 "https://pmb.acdh.oeaw.ac.at/entity/92518/",
 "head":
 "Schlosspark Schönbrunn"
}] 