[{
 "type":
 "schnitzler-tagebuch",
 "color":
 "#037a33",
 "filename":
 "entry__1930-06-18",
 "caption":
 "Tagebuch",
 "idno":
 "https://schnitzler-tagebuch.acdh.oeaw.ac.at/entry__1930-06-18.html",
 "head":
 "Tagebuch, 18. Juni 1930",
 "desc":
{"listPerson":
  [
{
 "persName":
 "Hugo Burghauser",
 "ref":
 "person_14077"},
 {
 "persName":
 "Lili Schnitzler",
 "ref":
 "person_14130"},
 {
 "persName":
 "Suzanne Clauser",
 "ref":
 "person_14234"},
 {
 "persName":
 "Dora Michaelis",
 "ref":
 "person_18137"},
 {
 "persName":
 "Clara Katharina Pollaczek",
 "ref":
 "person_18863"},
 {
 "persName":
 "Frieda Pollak",
 "ref":
 "person_18881"},
 {
 "persName":
 "Olga Schnitzler",
 "ref":
 "person_19832"}],
 "listBibl":
  [
 {
 "title":
 "Aphoristisches",
 "ref":
 "pmb35745"}
 ,  {
 "title":
 "Zug der Schatten",
 "ref":
 "pmb32049"}
 ],
 "listPlace":
  [
 {
 "placeName":
 "Vereinigte Staaten von Amerika (USA)",
 "ref":
 "pmb43406"}
 ]
}
}, {
 "type":
 "schnitzler-briefe",
 "color":
 "#A63437",
 "filename":
 "L03592",
 "caption":
 "Briefe mit Autorinnen und Autoren",
 "idno":
 "https://schnitzler-briefe.acdh.oeaw.ac.at/L03592.html",
 "head":
 "Felix Salten an Arthur Schnitzler, 18. 6. 1930",
 "desc":
{"listPerson":
  [
{
 "persName":
 "Felix Salten",
 "ref":
 "pmb2167"},
 {
 "persName":
 "Upton Sinclair",
 "ref":
 "pmb5182"}],
 "listPlace":
  [
 {
 "placeName":
 "San Francisco",
 "ref":
 "pmb38216"}
 ,  {
 "placeName":
 "Wien",
 "ref":
 "pmb50"}
 ,  {
 "placeName":
 "Europa",
 "ref":
 "pmb468"}
 ,  {
 "placeName":
 "Österreich",
 "ref":
 "pmb41240"}
 ,  {
 "placeName":
 "Sternwartestraße",
 "ref":
 "pmb150"}
 ,  {
 "placeName":
 "Chinatown",
 "ref":
 "pmb143776"}
 ,  {
 "placeName":
 "Pasadena",
 "ref":
 "pmb38192"}
 ]
}
}, {
 "type":
 "URL",
 "subtype":
 "wienerschnitzler",
 "head":
 "Wien",
 "desc":
{"listPlace":
  [
 {
 "placeName":
 "XIX., Döbling",
 "ref":
 ""}
 ,  {
 "placeName":
 "XVIII., Währing",
 "ref":
 ""}
 ]
}
}, {
 "type":
 "pollaczek",
 "color":
 "#1e81b0",
 "filename":
 "ckp780",
 "caption":
 "Pollaczek: Schnitzler und ich",
 "idno":
 "https://pollaczek.acdh.oeaw.ac.at/ckp780.html",
 "head":
 "Tagebuch von Clara Katharina Pollaczek, 30. Mai – 19. Juni 1930"
}, {
 "type":
 "schnitzler-mikrofilme-daten",
 "color":
 "#6e7b8b",
 "filename":
 "1589031_0288",
 "caption":
 "Mikroverfilmung des Nachlasses",
 "idno":
 "https://schnitzler-mikrofilme.acdh.oeaw.ac.at/1589031_0288.html",
 "head":
 "Mappe A225",
 "text":
 "Datumsangabe auf Blatt von Zug der Schatten"
}] 