[{
 "type":
 "pollaczek",
 "idno":
 "https://pollaczek.acdh.oeaw.ac.at/ckp768.html",
 "head":
 "Tagebuch von Clara Katharina Pollaczek, 9.–30. März 1930"
}, {
 "type":
 "schnitzler-orte",
 "idno":
 "https://pmb.acdh.oeaw.ac.at/entity/50/",
 "head":
 "Wien"
}, {
 "type":
 "schnitzler-briefe",
 "idno":
 "https://schnitzler-briefe.acdh.oeaw.ac.at/L02533.html",
 "head":
 "Arthur Schnitzler an Hermann Bahr, 17. 3. 1930",
 "desc":
{"listPerson":
  [
{
 "persName":
 "Hermann Bahr",
 "ref":
 "pmb10815"},
 {
 "persName":
 "Anna Bahr-Mildenburg",
 "ref":
 "pmb10818"},
 {
 "persName":
 "Berta Zuckerkandl",
 "ref":
 "pmb2312"},
 {
 "persName":
 "Leopold von Andrian-Werburg",
 "ref":
 "pmb10765"}],
 "listOrg":
  [
 {
 "orgName":
 "Bauernfeld-Preis",
 "ref":
 "pmb29675"}
 ],
 "listPlace":
  [
 {
 "placeName":
 "Wien",
 "ref":
 "pmb50"}
 ,  {
 "placeName":
 "München",
 "ref":
 "pmb45258"}
 ,  {
 "placeName":
 "Österreich",
 "ref":
 "pmb41240"}
 ,  {
 "placeName":
 "Burgtheater",
 "ref":
 "pmb14"}
 ,  {
 "placeName":
 "Oper",
 "ref":
 "pmb15"}
 ]}

}, {
 "type":
 "schnitzler-tagebuch",
 "idno":
 "https://schnitzler-tagebuch.acdh.oeaw.ac.at/entry__1930-03-17.html",
 "head":
 "Tagebuch, 17. März 1930",
 "desc":
{"listPerson":
  [
{
 "persName":
 "Clara Katharina Pollaczek",
 "ref":
 "person_18863"},
 {
 "persName":
 "Ruth Lindberg",
 "ref":
 "person_17562"},
 {
 "persName":
 "Frieda Pollak",
 "ref":
 "person_18881"}]}

}, {
 "type":
 "schnitzler-bahr",
 "idno":
 "https://schnitzler-bahr.acdh.oeaw.ac.at/L041141.html",
 "head":
 "Schnitzler an Bahr, 17. 3. 1930",
 "desc":
{"listPerson":
  [
{
 "persName":
 "Hermann Bahr",
 "ref":
 "pmb10815"},
 {
 "persName":
 "Anna Bahr-Mildenburg",
 "ref":
 "pmb10818"},
 {
 "persName":
 "Berta Zuckerkandl",
 "ref":
 "pmb2312"},
 {
 "persName":
 "Leopold von Andrian-Werburg",
 "ref":
 "pmb10765"}],
 "listPlace":
  [
 {
 "placeName":
 "Wien",
 "ref":
 "pmb50"}
 ,  {
 "placeName":
 "München",
 "ref":
 "pmb45258"}
 ,  {
 "placeName":
 "Österreich",
 "ref":
 "pmb41240"}
 ,  {
 "placeName":
 "Burgtheater",
 "ref":
 "pmb14"}
 ,  {
 "placeName":
 "Oper",
 "ref":
 "pmb15"}
 ],
 "listOrg":
  [
 {
 "orgName":
 "Bauernfeld-Preis",
 "ref":
 "pmb29675"}
 ]}

}] 