[{
 "type":
 "schnitzler-tagebuch",
 "color":
 "#037a33",
 "filename":
 "entry__1930-06-06",
 "caption":
 "Tagebuch",
 "idno":
 "https://schnitzler-tagebuch.acdh.oeaw.ac.at/entry__1930-06-06.html",
 "head":
 "Tagebuch, 6. Juni 1930",
 "desc":
{"listPerson":
  [
{
 "persName":
 "Bernhard Aschner",
 "ref":
 "person_13279"},
 {
 "persName":
 "Rudolf Beer",
 "ref":
 "person_13545"},
 {
 "persName":
 "Richard Beer-Hofmann",
 "ref":
 "person_13551"},
 {
 "persName":
 "Elisabeth Bergner",
 "ref":
 "person_13643"},
 {
 "persName":
 "Suzanne Clauser",
 "ref":
 "person_14234"},
 {
 "persName":
 "Ferdinand Donath",
 "ref":
 "person_14482"},
 {
 "persName":
 "Rosa Menczel",
 "ref":
 "person_18064"},
 {
 "persName":
 "Clara Katharina Pollaczek",
 "ref":
 "person_18863"},
 {
 "persName":
 "Julius Schnitzler",
 "ref":
 "person_19827"},
 {
 "persName":
 "Anna Donath",
 "ref":
 "person_14481"},
 {
 "persName":
 "Paula Beer-Hofmann",
 "ref":
 "person_13550"},
 {
 "persName":
 "Heinrich Glücksmann",
 "ref":
 "person_15483"}],
 "listBibl":
  [
 {
 "title":
 "Fräulein Else",
 "ref":
 "pmb29941"}
 ,  {
 "title":
 "Zug der Schatten",
 "ref":
 "pmb32049"}
 ,  {
 "title":
 "Iphigenie auf Tauris",
 "ref":
 "pmb32951"}
 ],
 "listPlace":
  [
 {
 "placeName":
 "Berlin",
 "ref":
 "pmb168"}
 ]
}
}, {
 "type":
 "schnitzler-briefe",
 "color":
 "#A63437",
 "filename":
 "L03591",
 "caption":
 "Briefe mit Autorinnen und Autoren",
 "idno":
 "https://schnitzler-briefe.acdh.oeaw.ac.at/L03591.html",
 "head":
 "Felix Salten an Arthur Schnitzler, 6. 6. 1930",
 "desc":
{"listPerson":
  [
{
 "persName":
 "Felix Salten",
 "ref":
 "pmb2167"}],
 "listPlace":
  [
 {
 "placeName":
 "Grand Canyon",
 "ref":
 "pmb143761"}
 ,  {
 "placeName":
 "Grand Canyon Village",
 "ref":
 "pmb148423"}
 ,  {
 "placeName":
 "Wien",
 "ref":
 "pmb50"}
 ,  {
 "placeName":
 "Europa",
 "ref":
 "pmb468"}
 ,  {
 "placeName":
 "Österreich",
 "ref":
 "pmb41240"}
 ,  {
 "placeName":
 "Sternwartestraße 71",
 "ref":
 "pmb168815"}
 ,  {
 "placeName":
 "Old Kaibab Trail",
 "ref":
 "pmb143764"}
 ,  {
 "placeName":
 "Arizona",
 "ref":
 "pmb143770"}
 ,  {
 "placeName":
 "Bright Angel Creek",
 "ref":
 "pmb143767"}
 ,  {
 "placeName":
 "El Tovar Hotel",
 "ref":
 "pmb143773"}
 ]
}
}, {
 "type":
 "wienerschnitzler",
 "color":
 "#ECDA98",
 "caption":
 "Wiener Schnitzler",
 "idno":
 "https://wienerschnitzler.org/tag.html#1930-06-06",
 "head":
 "Wien",
 "desc":
{"listPlace":
  [
 {
 "placeName":
 "VII., Neubau",
 "ref":
 ""}
 ,  {
 "placeName":
 "VIII., Josefstadt",
 "ref":
 ""}
 ,  {
 "placeName":
 "XVIII., Währing",
 "ref":
 ""}
 ,  {
 "placeName":
 "I., Innere Stadt",
 "ref":
 ""}
 ]
}
}] 