[{
 "type":
 "schnitzler-tagebuch",
 "color":
 "#037a33",
 "filename":
 "entry__1930-08-01",
 "caption":
 "Tagebuch",
 "idno":
 "https://schnitzler-tagebuch.acdh.oeaw.ac.at/entry__1930-08-01.html",
 "head":
 "Tagebuch, 1. August 1930",
 "desc":
{"listPerson":
  [
{
 "persName":
 "Lili Schnitzler",
 "ref":
 "person_14130"},
 {
 "persName":
 "Suzanne Clauser",
 "ref":
 "person_14234"},
 {
 "persName":
 "Denise Andrea Heller",
 "ref":
 "person_16065"},
 {
 "persName":
 "Clara Katharina Pollaczek",
 "ref":
 "person_18863"},
 {
 "persName":
 "Emil Rameau",
 "ref":
 "person_19042"},
 {
 "persName":
 "Heinrich Schnitzler",
 "ref":
 "person_19822"},
 {
 "persName":
 "Walter Stross",
 "ref":
 "person_20545"},
 {
 "persName":
 "Martha Wassermann",
 "ref":
 "person_21110"},
 {
 "persName":
 "Jakob Wassermann",
 "ref":
 "person_21107"},
 {
 "persName":
 "Ruth Schnitzler",
 "ref":
 "person_13139"},
 {
 "persName":
 "Samuel Fischer",
 "ref":
 "person_15009"},
 {
 "persName":
 "Ernst Legal",
 "ref":
 "person_17398"}],
 "listBibl":
  [
 {
 "title":
 "Zug der Schatten",
 "ref":
 "pmb32049"}
 ],
 "listPlace":
  [
 {
 "placeName":
 "Sankt Moritz",
 "ref":
 "pmb44374"}
 ,  {
 "placeName":
 "Campfer",
 "ref":
 "pmb90434"}
 ,  {
 "placeName":
 "Julier Pass",
 "ref":
 "pmb90967"}
 ,  {
 "placeName":
 "Frankreich",
 "ref":
 "pmb166"}
 ,  {
 "placeName":
 "Pontresina",
 "ref":
 "pmb34946"}
 ,  {
 "placeName":
 "Adelboden",
 "ref":
 "pmb90188"}
 ]
}
}, {
 "type":
 "schnitzler-orte",
 "color":
 "#045344",
 "caption":
 "Aufenthaltsorte",
 "head":
 "St. Moritz",
 "desc":
{"listPlace":
  [
 {
 "placeName":
 "Grand Hotel Victoria",
 "ref":
 ""}
 ,  {
 "placeName":
 "Villa Story",
 "ref":
 ""}
 ]
}
}, {
 "type":
 "schnitzler-orte",
 "color":
 "#045344",
 "caption":
 "Aufenthaltsorte",
 "head":
 "Pontresina",
 "desc":
{"listPlace":
  [
 {
 "placeName":
 "Schlosshotel [Pontresina]",
 "ref":
 ""}
 ]
}
}, {
 "type":
 "schnitzler-orte",
 "color":
 "#045344",
 "caption":
 "Aufenthaltsorte",
 "head":
 "Champfèr"
}, {
 "type":
 "pollaczek",
 "color":
 "#1e81b0",
 "filename":
 "ckp818",
 "caption":
 "Pollaczek: Schnitzler und ich",
 "idno":
 "https://pollaczek.acdh.oeaw.ac.at/ckp818.html",
 "head":
 "Clara Katharina Pollaczek an Arthur Schnitzler, 1. August 1930"
}, {
 "type":
 "schnitzler-traeume",
 "subtype":
 "#ISBN978-3-8353-1029-2",
 "color":
 "#1193CC",
 "caption":
 "Traumtagebuch",
 "head":
 "Traum vom 1. August 1930",
 "source":
 "Arthur Schnitzler: Träume. Das Traumtagebuch 1875–1931. Herausgegeben von Peter Michael Braunwarth und Leo A. Lensing. Göttingen: Wallstein 2012 (Bibliothek Janowitz, Bd. 20)"
}] 