[{
 "type":
 "schnitzler-tagebuch",
 "color":
 "#037a33",
 "filename":
 "entry__1931-08-15",
 "caption":
 "Tagebuch",
 "idno":
 "https://schnitzler-tagebuch.acdh.oeaw.ac.at/entry__1931-08-15.html",
 "head":
 "Tagebuch, 15. August 1931",
 "desc":
{"listPerson":
  [
{
 "persName":
 "Suzanne Clauser",
 "ref":
 "person_14234"},
 {
 "persName":
 "Heinrich Schnitzler",
 "ref":
 "person_19822"},
 {
 "persName":
 "Johann Schnitzler",
 "ref":
 "person_19824"},
 {
 "persName":
 "Johannes Urzidil",
 "ref":
 "person_20896"},
 {
 "persName":
 "Olga Schnitzler",
 "ref":
 "person_19832"}],
 "listBibl":
  [
 {
 "title":
 "Der Ruf des Lebens. Schauspiel in drei Akten",
 "ref":
 "pmb29905"}
 ],
 "listPlace":
  [
 {
 "placeName":
 "Gmunden",
 "ref":
 "pmb874"}
 ,  {
 "placeName":
 "Thalheim bei Wels",
 "ref":
 "pmb91887"}
 ,  {
 "placeName":
 "Prag",
 "ref":
 "pmb652"}
 ]
}
}, {
 "type":
 "schnitzler-orte",
 "color":
 "#045344",
 "filename":
 "entity/874/",
 "caption":
 "Aufenthaltsorte",
 "idno":
 "https://pmb.acdh.oeaw.ac.at/entity/874/",
 "text":
 "Gmunden"
}, {
 "type":
 "schnitzler-interviews",
 "color":
 "#3D5A80",
 "filename":
 "I066",
 "caption":
 "Interviews, Meinungen, Proteste",
 "idno":
 "https://schnitzler-interviews.acdh.oeaw.ac.at/I066.html",
 "head":
 "Jób Paál: Schnitzler Arthur büszke arra, hogy magyar zsidó,
                            15. 8. 1931",
 "desc":
{"listPerson":
  [
{
 "persName":
 "Jób Paál",
 "ref":
 "pmb5134"},
 {
 "persName":
 "József Kiss",
 "ref":
 "pmb56482"},
 {
 "persName":
 "Miksa Szabolcsi",
 "ref":
 "pmb5347"},
 {
 "persName":
 "Ludwig Zerkovitz",
 "ref":
 "pmb27466"},
 {
 "persName":
 "Felix Salten",
 "ref":
 "pmb2167"},
 {
 "persName":
 "Max Reinhardt",
 "ref":
 "pmb12504"},
 {
 "persName":
 "Emmerich Kálmán",
 "ref":
 "pmb12015"},
 {
 "persName":
 "Artúr Lajos Halmi",
 "ref":
 "pmb5352"},
 {
 "persName":
 "Heinrich Schnitzler",
 "ref":
 "pmb12692"},
 {
 "persName":
 "János Paál",
 "ref":
 "pmb5142"},
 {
 "persName":
 "Josef Schnitzler",
 "ref":
 "pmb24427"},
 {
 "persName":
 "Rosalie Schnitzler",
 "ref":
 "pmb24439"},
 {
 "persName":
 "Amalia Markbreiter",
 "ref":
 "pmb21009"},
 {
 "persName":
 "Johann Schnitzler",
 "ref":
 "pmb12695"}],
 "listBibl":
  [
 {
 "title":
 "Jehova",
 "ref":
 "pmb56488"}
 ,  {
 "title":
 "Feuer",
 "ref":
 "pmb56481"}
 ,  {
 "title":
 "Egyenlőség",
 "ref":
 "pmb56438"}
 ,  {
 "title":
 "Neues Wiener Journal",
 "ref":
 "pmb36376"}
 ,  {
 "title":
 "Tagebuch",
 "ref":
 "pmb33243"}
 ,  {
 "title":
 "Die Frau des Weisen. Novelletten",
 "ref":
 "pmb32460"}
 ,  {
 "title":
 "Jugend in Wien",
 "ref":
 "pmb33838"}
 ,  {
 "title":
 "Alle Gedichte. Taschenbuch",
 "ref":
 "pmb56490"}
 ,  {
 "title":
 "Bambi. Eine Lebensgeschichte aus dem Walde",
 "ref":
 "pmb31519"}
 ,  {
 "title":
 "Arthur Schnitzler ist stolz darauf, Jude aus Ungarn zu sein",
 "ref":
 "pmb33209"}
 ],
 "listPlace":
  [
 {
 "placeName":
 "Ungarn",
 "ref":
 "pmb35512"}
 ,  {
 "placeName":
 "Semmering",
 "ref":
 "pmb189"}
 ,  {
 "placeName":
 "Südbahnhotel",
 "ref":
 "pmb413"}
 ,  {
 "placeName":
 "Arad",
 "ref":
 "pmb45359"}
 ,  {
 "placeName":
 "Salzkammergut",
 "ref":
 "pmb429"}
 ,  {
 "placeName":
 "Nagykanizsa",
 "ref":
 "pmb45549"}
 ,  {
 "placeName":
 "Wien",
 "ref":
 "pmb50"}
 ,  {
 "placeName":
 "Budapest",
 "ref":
 "pmb43471"}
 ,  {
 "placeName":
 "Balaton",
 "ref":
 "pmb56475"}
 ,  {
 "placeName":
 "Népszínház utca",
 "ref":
 "pmb56503"}
 ,  {
 "placeName":
 "Edlach",
 "ref":
 "pmb470"}
 ,  {
 "placeName":
 "Szombathely",
 "ref":
 "pmb49143"}
 ,  {
 "placeName":
 "Kaposvár",
 "ref":
 "pmb44548"}
 ,  {
 "placeName":
 "Kőszeg",
 "ref":
 "pmb35513"}
 ,  {
 "placeName":
 "Baden bei Wien",
 "ref":
 "pmb662"}
 ,  {
 "placeName":
 "Europa",
 "ref":
 "pmb468"}
 ],
 "listOrg":
  [
 {
 "orgName":
 "Salzburger Festspiele",
 "ref":
 "pmb29300"}
 ]
}
}, {
 "type":
 "pollaczek",
 "color":
 "#1e81b0",
 "filename":
 "ckp970",
 "caption":
 "Pollazczek: Schnitzler und ich",
 "idno":
 "https://pollaczek.acdh.oeaw.ac.at/ckp970.html",
 "head":
 "Tagebuch von Clara Katharina Pollaczek, 12.–16. August 1931"
}] 