[{
 "type":
 "schnitzler-interviews",
 "color":
 "#3D5A80",
 "filename":
 "I069",
 "caption":
 "Interviews, Meinungen, Proteste",
 "idno":
 "https://schnitzler-interviews.acdh.oeaw.ac.at/I069.html",
 "head":
 "Hans Habe: Utolsó beszélgetés Arthur Schnitzlerrel,
                            25. 12. 1931",
 "desc":
{"listPerson":
  [
{
 "persName":
 "Hans Habe",
 "ref":
 "pmb5365"},
 {
 "persName":
 "Eugen Steinach",
 "ref":
 "pmb5257"},
 {
 "persName":
 "Serge Voronoff",
 "ref":
 "pmb56551"},
 {
 "persName":
 "Wladimir Iljitsch Lenin",
 "ref":
 "pmb5252"},
 {
 "persName":
 "Christoph Kolumbus",
 "ref":
 "pmb5265"},
 {
 "persName":
 "Sigmund Freud",
 "ref":
 "pmb11370"},
 {
 "persName":
 "Benito Mussolini",
 "ref":
 "pmb12314"},
 {
 "persName":
 "Thomas Mann",
 "ref":
 "pmb12176"},
 {
 "persName":
 "Heinrich Mann",
 "ref":
 "pmb12170"},
 {
 "persName":
 "Jakob Wassermann",
 "ref":
 "pmb13055"},
 {
 "persName":
 "Alfred Kerr",
 "ref":
 "pmb11910"},
 {
 "persName":
 "Ernst Toller",
 "ref":
 "pmb12961"},
 {
 "persName":
 "Woodrow Wilson",
 "ref":
 "pmb4016"},
 {
 "persName":
 "Raymond Poincaré",
 "ref":
 "pmb12431"},
 {
 "persName":
 "Marcus Tullius Cicero",
 "ref":
 "pmb3511"},
 {
 "persName":
 "Lucius Sergius Catilina",
 "ref":
 "pmb58098"},
 {
 "persName":
 "George Sylvester Viereck",
 "ref":
 "pmb5248"},
 {
 "persName":
 "Heinrich Schnitzler",
 "ref":
 "pmb12692"},
 {
 "persName":
 "Lili Schnitzler",
 "ref":
 "pmb2238"},
 {
 "persName":
 "Olga Schnitzler",
 "ref":
 "pmb2173"},
 {
 "persName":
 "Wilhelm Grosz",
 "ref":
 "pmb3112"}],
 "listBibl":
  [
 {
 "title":
 "Anatol",
 "ref":
 "pmb29935"}
 ,  {
 "title":
 "Professor Bernhardi. Komödie in fünf Akten",
 "ref":
 "pmb30203"}
 ,  {
 "title":
 "Spiel im Morgengrauen. Novelle",
 "ref":
 "pmb32131"}
 ,  {
 "title":
 "Die Welt Arthur Schnitzlers",
 "ref":
 "pmb33239"}
 ,  {
 "title":
 "Reigen. Zehn Dialoge",
 "ref":
 "pmb29855"}
 ,  {
 "title":
 "Arturo Schnitzler di passaggio per il Molo Bersaglieri",
 "ref":
 "pmb33219"}
 ,  {
 "title":
 "Letztes Gespräch mit Arthur Schnitzler über sich selbst als Arzt, über Steinach und Voronoff, über die Erotik, über Lenin und den Krieg",
 "ref":
 "pmb33221"}
 ,  {
 "title":
 "Prágai Magyar Hírlap",
 "ref":
 "pmb56546"}
 ],
 "listPlace":
  [
 {
 "placeName":
 "Edlach",
 "ref":
 "pmb470"}
 ,  {
 "placeName":
 "Semmering",
 "ref":
 "pmb189"}
 ,  {
 "placeName":
 "Indien",
 "ref":
 "pmb55724"}
 ,  {
 "placeName":
 "Wien",
 "ref":
 "pmb50"}
 ,  {
 "placeName":
 "Baden bei Wien",
 "ref":
 "pmb662"}
 ,  {
 "placeName":
 "Paris",
 "ref":
 "pmb182"}
 ,  {
 "placeName":
 "Amerika",
 "ref":
 "pmb175"}
 ,  {
 "placeName":
 "Berlin",
 "ref":
 "pmb168"}
 ,  {
 "placeName":
 "Europa",
 "ref":
 "pmb468"}
 ],
 "listOrg":
  [
 {
 "orgName":
 "Ku-Klux-Klan",
 "ref":
 "pmb29481"}
 ,  {
 "orgName":
 "Volkstheater",
 "ref":
 "pmb36430"}
 ]
}
}] 