[{
 "type":
 "schnitzler-tagebuch",
 "color":
 "#037a33",
 "filename":
 "entry__1931-05-31",
 "caption":
 "Tagebuch",
 "idno":
 "https://schnitzler-tagebuch.acdh.oeaw.ac.at/entry__1931-05-31.html",
 "head":
 "Tagebuch, 31. Mai 1931",
 "desc":
{"listPerson":
  [
{
 "persName":
 "Johann Sebastian Bach",
 "ref":
 "person_13344"},
 {
 "persName":
 "Albert Bassermann",
 "ref":
 "person_13457"},
 {
 "persName":
 "Friedrich Carl Clauser",
 "ref":
 "person_14230"},
 {
 "persName":
 "Suzanne Clauser",
 "ref":
 "person_14234"},
 {
 "persName":
 "Clara Katharina Pollaczek",
 "ref":
 "person_18863"},
 {
 "persName":
 "Heinrich Schnitzler",
 "ref":
 "person_19822"},
 {
 "persName":
 "Olga Schnitzler",
 "ref":
 "person_19832"}],
 "listBibl":
  [
 {
 "title":
 "König Lear",
 "ref":
 "pmb31623"}
 ,  {
 "title":
 "D-Zug 13 hat Verspätung",
 "ref":
 "pmb81525"}
 ],
 "listPlace":
  [
 {
 "placeName":
 "Thalheim bei Wels",
 "ref":
 "pmb91887"}
 ,  {
 "placeName":
 "Franzensbad",
 "ref":
 "pmb390"}
 ,  {
 "placeName":
 "Purkersdorf",
 "ref":
 "pmb91552"}
 ,  {
 "placeName":
 "Laab im Walde",
 "ref":
 "pmb91091"}
 ,  {
 "placeName":
 "Kalksburg",
 "ref":
 "pmb90979"}
 ,  {
 "placeName":
 "Wien",
 "ref":
 "pmb50"}
 ,  {
 "placeName":
 "Prater",
 "ref":
 "pmb91530"}
 ]
}
}, {
 "type":
 "schnitzler-orte",
 "color":
 "#045344",
 "caption":
 "Aufenthaltsorte",
 "head":
 "Wien",
 "desc":
{"listPlace":
  [
 {
 "placeName":
 "II., Leopoldstadt",
 "ref":
 ""}
 ,  {
 "placeName":
 "XXIII., Liesing",
 "ref":
 ""}
 ,  {
 "placeName":
 "I., Innere Stadt",
 "ref":
 ""}
 ,  {
 "placeName":
 "XVIII., Währing",
 "ref":
 ""}
 ]
}
}, {
 "type":
 "schnitzler-orte",
 "color":
 "#045344",
 "caption":
 "Aufenthaltsorte",
 "head":
 "Purkersdorf"
}, {
 "type":
 "schnitzler-orte",
 "color":
 "#045344",
 "caption":
 "Aufenthaltsorte",
 "head":
 "Laab im Walde"
}, {
 "type":
 "schnitzler-orte",
 "color":
 "#045344",
 "caption":
 "Aufenthaltsorte",
 "head":
 "Gregor-Mendel-Straße 34"
}, {
 "type":
 "pollaczek",
 "color":
 "#1e81b0",
 "filename":
 "ckp916",
 "caption":
 "Pollaczek: Schnitzler und ich",
 "idno":
 "https://pollaczek.acdh.oeaw.ac.at/ckp916.html",
 "head":
 "Tagebuch von Clara Katharina Pollaczek, 31. Mai – 1. Juni 1931"
}, {
 "type":
 "schnitzler-events",
 "color":
 "#9BC53D",
 "filename":
 "entity/211247/",
 "caption":
 "Ereignisse in der PMB",
 "idno":
 "https://pmb.acdh.oeaw.ac.at/entity/211247/",
 "head":
 "Filmvorführung von D-Zug 13 hat Verspätung, 31.5.1931",
 "desc":
{"listBibl":
  [
 {
 "title":
 "D-Zug 13 hat Verspätung",
 "ref":
 ""}
 ],
 "listPerson":
  [
{
 "persName":
 "Arthur Schnitzler",
 "ref":
 ""},
 {
 "persName":
 "Clara Katharina Pollaczek",
 "ref":
 ""}],
 "listPlace":
  [
 {
 "placeName":
 "Zentralkino",
 "ref":
 ""}
 ]
}
}, {
 "type":
 "schnitzler-mikrofilme-daten",
 "color":
 "#6e7b8b",
 "filename":
 "1428132_0106",
 "caption":
 "Mikroverfilmung des Nachlasses",
 "idno":
 "https://schnitzler-mikrofilme.acdh.oeaw.ac.at/1428132_0106.html",
 "head":
 "Mappe A38",
 "text":
 "Datumsangabe auf Blatt von Roman-Fragment (Wurstl): »Oben auf der Bühne sprach..«"
}, {
 "type":
 "schnitzler-mikrofilme-daten",
 "color":
 "#6e7b8b",
 "filename":
 "1428698_0190",
 "caption":
 "Mikroverfilmung des Nachlasses",
 "idno":
 "https://schnitzler-mikrofilme.acdh.oeaw.ac.at/1428698_0190.html",
 "head":
 "Mappe A196",
 "text":
 "Datumsangabe auf Blatt von Das Wort"
}, {
 "type":
 "schnitzler-kino-buch",
 "subtype":
 "#ISBN978-3205787464",
 "color":
 "#B43C9C",
 "caption":
 "Kino",
 "head":
 "Schnitzler und Pollaczek sehen „D-Zug 13 hat Verspätung“ im Zentralkino / Ufa-Ton-Kino, 31. Mai 1931",
 "source":
 "»A. ist manchmal wie ein kleines Kind«. Clara Katharina Pollaczek und Arthur Schnitzler gehen ins Kino. Herausgegeben von Stephan Kurz und Michael Rohrwasser unter Mitarbeit von Daniel Schopper. Wien, Köln, Weimar: Böhlau Verlag 2012."
}] 