[{
 "type":
 "schnitzler-tagebuch",
 "color":
 "#037a33",
 "filename":
 "entry__1931-10-18",
 "caption":
 "Tagebuch",
 "idno":
 "https://schnitzler-tagebuch.acdh.oeaw.ac.at/entry__1931-10-18.html",
 "head":
 "Tagebuch, 18. Oktober 1931",
 "desc":
{"listPerson":
  [
{
 "persName":
 "Ernst Benedikt",
 "ref":
 "person_13589"},
 {
 "persName":
 "Richard Arnold Bermann",
 "ref":
 "person_13657"},
 {
 "persName":
 "Rose Meller",
 "ref":
 "person_17762"},
 {
 "persName":
 "Karl Menger",
 "ref":
 "person_18075"},
 {
 "persName":
 "Platon",
 "ref":
 "person_18829"},
 {
 "persName":
 "Clara Katharina Pollaczek",
 "ref":
 "person_18863"},
 {
 "persName":
 "Else Singer",
 "ref":
 "person_19143"}],
 "listBibl":
  [
 {
 "title":
 "Leutnant Komma",
 "ref":
 "pmb80942"}
 ,  {
 "title":
 "Moral, Wille und Weltgestaltung",
 "ref":
 "pmb81003"}
 ],
 "listPlace":
  [
 {
 "placeName":
 "Vereinigte Staaten von Amerika (USA)",
 "ref":
 "pmb43406"}
 ,  {
 "placeName":
 "Kanada",
 "ref":
 "pmb45794"}
 ,  {
 "placeName":
 "Burgenland",
 "ref":
 "pmb90416"}
 ,  {
 "placeName":
 "Sahara",
 "ref":
 "pmb91638"}
 ]
}
}, {
 "type":
 "wienerschnitzler",
 "color":
 "#ECDA98",
 "caption":
 "Wiener Schnitzler",
 "head":
 "Wien",
 "desc":
{"listPlace":
  [
 {
 "placeName":
 "IX., Alsergrund",
 "ref":
 ""}
 ,  {
 "placeName":
 "III., Landstraße",
 "ref":
 ""}
 ,  {
 "placeName":
 "XVIII., Währing",
 "ref":
 ""}
 ]
}
}, {
 "type":
 "schnitzler-interviews",
 "color":
 "#3D5A80",
 "filename":
 "M056",
 "caption":
 "Interviews, Meinungen, Proteste",
 "idno":
 "https://schnitzler-interviews.acdh.oeaw.ac.at/M056.html",
 "head":
 "Roy Temple House: The Writer and His Daily Bread, 18. 10. 1931",
 "desc":
{"listPerson":
  [
{
 "persName":
 "Roy Temple House",
 "ref":
 "pmb29075"},
 {
 "persName":
 "Alan Dunn",
 "ref":
 "pmb59407"},
 {
 "persName":
 "am
                                        Hungertod gestorben] ?? [Französischer Schriftsteller",
 "ref":
 "pmb58317"},
 {
 "persName":
 "Dietzenschmidt",
 "ref":
 "pmb5281"},
 {
 "persName":
 "Léon Lemonnier",
 "ref":
 "pmb5277"},
 {
 "persName":
 "Luc Durtain",
 "ref":
 "pmb29080"},
 {
 "persName":
 "Gustav Frenssen",
 "ref":
 "pmb11367"},
 {
 "persName":
 "Robert Neumann",
 "ref":
 "pmb12345"},
 {
 "persName":
 "Wilhelm Emanuel Süskind",
 "ref":
 "pmb5272"}],
 "listBibl":
  [
 {
 "title":
 "The Writer and His Daily Bread",
 "ref":
 "pmb33135"}
 ,  {
 "title":
 "New York Herald Tribune",
 "ref":
 "pmb58538"}
 ],
 "listPlace":
  [
 {
 "placeName":
 "Europa",
 "ref":
 "pmb468"}
 ,  {
 "placeName":
 "Deutschland",
 "ref":
 "pmb151"}
 ,  {
 "placeName":
 "Amerika",
 "ref":
 "pmb175"}
 ,  {
 "placeName":
 "Frankreich",
 "ref":
 "pmb166"}
 ,  {
 "placeName":
 "Tschechische Republik",
 "ref":
 "pmb43430"}
 ,  {
 "placeName":
 "Teplice",
 "ref":
 "pmb955"}
 ,  {
 "placeName":
 "Österreich",
 "ref":
 "pmb41240"}
 ,  {
 "placeName":
 "Nürnbergerstraße",
 "ref":
 "pmb1056"}
 ,  {
 "placeName":
 "Annagasse",
 "ref":
 "pmb1055"}
 ],
 "listOrg":
  [
 {
 "orgName":
 "Books Abroad",
 "ref":
 "pmb29457"}
 ,  {
 "orgName":
 "Schutzverband deutscher Schriftsteller",
 "ref":
 "pmb29337"}
 ,  {
 "orgName":
 "Schutzverband deutscher Schriftsteller in Österreich",
 "ref":
 "pmb29458"}
 ]
}
}, {
 "type":
 "pollaczek",
 "color":
 "#1e81b0",
 "filename":
 "ckp987",
 "caption":
 "Pollaczek: Schnitzler und ich",
 "idno":
 "https://pollaczek.acdh.oeaw.ac.at/ckp987.html",
 "head":
 "Tagebuch von Clara Katharina Pollaczek, 15.–18. Oktober 1931"
}, {
 "type":
 "pollaczek",
 "color":
 "#1e81b0",
 "filename":
 "ckp988",
 "caption":
 "Pollaczek: Schnitzler und ich",
 "idno":
 "https://pollaczek.acdh.oeaw.ac.at/ckp988.html",
 "head":
 "Tagebuch von Clara Katharina Pollaczek, 18.–21. Oktober 1931"
}, {
 "type":
 "schnitzler-events",
 "color":
 "#9BC53D",
 "filename":
 "entity/245708/",
 "caption":
 "Ereignisse in der PMB",
 "idno":
 "https://pmb.acdh.oeaw.ac.at/entity/245708/",
 "head":
 "Aufführung von Leutnant Komma, 18.10.1931",
 "desc":
{"listBibl":
  [
 {
 "title":
 "Leutnant Komma",
 "ref":
 ""}
 ],
 "listPerson":
  [
{
 "persName":
 "Arthur Schnitzler",
 "ref":
 ""}],
 "listPlace":
  [
 {
 "placeName":
 "Akademietheater",
 "ref":
 ""}
 ]
}
}, {
 "type":
 "kalliope-verbund",
 "color":
 "#003574",
 "caption":
 "Kalliope Verbundkatalog",
 "idno":
 "http://kalliope-verbund.info/DE-2498-HS00035457",
 "head":
 "Orsini Gravina, Gustav an Schnitzler, Arthur [Briefe]",
 "text":
 "1 Kte, 1 Tel. 2 Bl."
}] 