[{
 "type":
 "schnitzler-tagebuch",
 "color":
 "#037a33",
 "filename":
 "entry__1931-08-02",
 "caption":
 "Tagebuch",
 "idno":
 "https://schnitzler-tagebuch.acdh.oeaw.ac.at/entry__1931-08-02.html",
 "head":
 "Tagebuch, 2. August 1931",
 "desc":
{"listPerson":
  [
{
 "persName":
 "Suzanne Clauser",
 "ref":
 "person_14234"},
 {
 "persName":
 "Wolfgang von Ferstel",
 "ref":
 "person_14955"},
 {
 "persName":
 "Hedy Kempny",
 "ref":
 "person_16807"},
 {
 "persName":
 "Dora Michaelis",
 "ref":
 "person_18137"},
 {
 "persName":
 "Minna Stangl",
 "ref":
 "person_18181"},
 {
 "persName":
 "Clara Katharina Pollaczek",
 "ref":
 "person_18863"},
 {
 "persName":
 "Heinrich Schnitzler",
 "ref":
 "person_19822"},
 {
 "persName":
 "Gladys Gertrude Shott",
 "ref":
 "person_20086"},
 {
 "persName":
 "Otto Paul Schinnerer",
 "ref":
 "person_19704"},
 {
 "persName":
 "Olga Schnitzler",
 "ref":
 "person_19832"}],
 "listBibl":
  [
 {
 "title":
 "Der Sekundant",
 "ref":
 "pmb30953"}
 ],
 "listPlace":
  [
 {
 "placeName":
 "Berlin",
 "ref":
 "pmb168"}
 ,  {
 "placeName":
 "Mayerling",
 "ref":
 "pmb49690"}
 ,  {
 "placeName":
 "Thalheim bei Wels",
 "ref":
 "pmb91887"}
 ]
}
}, {
 "type":
 "schnitzler-briefe",
 "color":
 "#A63437",
 "filename":
 "L03518",
 "caption":
 "Briefe mit Autorinnen und Autoren",
 "idno":
 "https://schnitzler-briefe.acdh.oeaw.ac.at/L03518.html",
 "head":
 "Paul Goldmann an Arthur Schnitzler, 2. 8. 1931",
 "desc":
{"listPerson":
  [
{
 "persName":
 "Paul Goldmann",
 "ref":
 "pmb11485"},
 {
 "persName":
 "Eva Marie Goldmann",
 "ref":
 "pmb17164"}],
 "listBibl":
  [
 {
 "title":
 "?? [Roman mit erotischen Schilderungen]",
 "ref":
 "pmb167765"}
 ],
 "listOrg":
  [
 {
 "orgName":
 "Neue Freie Presse",
 "ref":
 "pmb29351"}
 ],
 "listPlace":
  [
 {
 "placeName":
 "Berlin",
 "ref":
 "pmb168"}
 ,  {
 "placeName":
 "Wien",
 "ref":
 "pmb50"}
 ,  {
 "placeName":
 "Stauffenbergstraße",
 "ref":
 "pmb63858"}
 ,  {
 "placeName":
 "Velden am Wörthersee",
 "ref":
 "pmb909"}
 ]
}
}, {
 "type":
 "wienerschnitzler",
 "color":
 "#6F5106",
 "caption":
 "Wiener Schnitzler",
 "idno":
 "https://wienerschnitzler.org/tag.html#1931-08-02",
 "head":
 "Wien",
 "desc":
{"listPlace":
  [
 {
 "placeName":
 "XIX., Döbling",
 "ref":
 ""}
 ,  {
 "placeName":
 "IV., Wieden",
 "ref":
 ""}
 ,  {
 "placeName":
 "XVIII., Währing",
 "ref":
 ""}
 ]
}
}, {
 "type":
 "schnitzler-interviews",
 "color":
 "#3D5A80",
 "filename":
 "I016",
 "caption":
 "Interviews, Meinungen, Proteste",
 "idno":
 "https://schnitzler-interviews.acdh.oeaw.ac.at/I016.html",
 "head":
 "Jób Paál: Gespräch mit Artur Schnitzler, 2. 8. 1931",
 "desc":
{"listPerson":
  [
{
 "persName":
 "Jób Paál",
 "ref":
 "pmb5134"},
 {
 "persName":
 "Karl Rostler",
 "ref":
 "pmb23635"},
 {
 "persName":
 "Rafael Hualla",
 "ref":
 "pmb58156"},
 {
 "persName":
 "Otto Paul Schinnerer",
 "ref":
 "pmb4412"},
 {
 "persName":
 "János Paál",
 "ref":
 "pmb5142"},
 {
 "persName":
 "Ernst Benedikt",
 "ref":
 "pmb10872"}],
 "listBibl":
  [
 {
 "title":
 "Das weite Land. Tragikomödie in fünf Akten",
 "ref":
 "pmb30207"}
 ,  {
 "title":
 "Wie Schnitzler seine Menschen zeichnete. Was der Portier vom Südbahnhotel am Semmering erzählt",
 "ref":
 "pmb56450"}
 ,  {
 "title":
 "Neues Wiener Journal",
 "ref":
 "pmb36376"}
 ,  {
 "title":
 "Schnitzler-Held in Not",
 "ref":
 "pmb58159"}
 ,  {
 "title":
 "Der Morgen. Wiener Montagsblatt",
 "ref":
 "pmb42403"}
 ,  {
 "title":
 "Die Frau des Weisen. Novelletten",
 "ref":
 "pmb32460"}
 ,  {
 "title":
 "Gespräch mit Artur Schnitzler",
 "ref":
 "pmb32943"}
 ],
 "listPlace":
  [
 {
 "placeName":
 "Semmering",
 "ref":
 "pmb189"}
 ,  {
 "placeName":
 "Südbahnhotel",
 "ref":
 "pmb413"}
 ,  {
 "placeName":
 "New York City",
 "ref":
 "pmb44053"}
 ,  {
 "placeName":
 "Ungarn",
 "ref":
 "pmb35512"}
 ,  {
 "placeName":
 "Schubertring",
 "ref":
 "pmb63189"}
 ,  {
 "placeName":
 "Fichtegasse",
 "ref":
 "pmb716"}
 ,  {
 "placeName":
 "I., Innere Stadt",
 "ref":
 "pmb51"}
 ,  {
 "placeName":
 "Wien",
 "ref":
 "pmb50"}
 ],
 "listOrg":
  [
 {
 "orgName":
 "Burgtheater",
 "ref":
 "pmb36247"}
 ,  {
 "orgName":
 "Cambridge University Library",
 "ref":
 "pmb29355"}
 ,  {
 "orgName":
 "Neue Freie Presse",
 "ref":
 "pmb29351"}
 ]
}
}, {
 "type":
 "pollaczek",
 "color":
 "#1e81b0",
 "filename":
 "ckp941",
 "caption":
 "Pollaczek: Schnitzler und ich",
 "idno":
 "https://pollaczek.acdh.oeaw.ac.at/ckp941.html",
 "head":
 "Tagebuch von Clara Katharina Pollaczek, 29. Juli – 3. August 1931"
}, {
 "type":
 "kalliope-verbund",
 "color":
 "#003574",
 "caption":
 "Kalliope Verbundkatalog",
 "idno":
 "http://kalliope-verbund.info/DE-2498-HS00036208",
 "head":
 "Hardy, Franz an Schnitzler, Arthur [Briefe]",
 "text":
 "1 Kte"
}] 