[{
 "type":
 "schnitzler-tagebuch",
 "color":
 "#037a33",
 "filename":
 "entry__1931-04-28",
 "caption":
 "Tagebuch",
 "idno":
 "https://schnitzler-tagebuch.acdh.oeaw.ac.at/entry__1931-04-28.html",
 "head":
 "Tagebuch, 28. April 1931",
 "desc":
{"listPerson":
  [
{
 "persName":
 "Suzanne Clauser",
 "ref":
 "person_14234"},
 {
 "persName":
 "Josef Peter",
 "ref":
 "person_18722"},
 {
 "persName":
 "Clara Katharina Pollaczek",
 "ref":
 "person_18863"},
 {
 "persName":
 "Karl Schnitzler",
 "ref":
 "person_19828"},
 {
 "persName":
 "Elly Schnitzler",
 "ref":
 "person_19819"}],
 "listBibl":
  [
 {
 "title":
 "Etzel Andergast",
 "ref":
 "pmb76948"}
 ],
 "listPlace":
  [
 {
 "placeName":
 "Schönbrunn",
 "ref":
 "pmb92518"}
 ,  {
 "placeName":
 "Paris",
 "ref":
 "pmb182"}
 ,  {
 "placeName":
 "Ronacher",
 "ref":
 "pmb92490"}
 ]
}
}, {
 "type":
 "wienerschnitzler",
 "color":
 "#ECDA98",
 "caption":
 "Wiener Schnitzler",
 "idno":
 "https://wienerschnitzler.org/tag.html#1931-04-28",
 "head":
 "Wien",
 "desc":
{"listPlace":
  [
 {
 "placeName":
 "XIII., Hietzing",
 "ref":
 ""}
 ,  {
 "placeName":
 "IV., Wieden",
 "ref":
 ""}
 ,  {
 "placeName":
 "XVIII., Währing",
 "ref":
 ""}
 ,  {
 "placeName":
 "I., Innere Stadt",
 "ref":
 ""}
 ]
}
}, {
 "type":
 "schnitzler-kultur",
 "color":
 "#6B4C5A",
 "filename":
 "pmb244949",
 "caption":
 "Kulturveranstaltungen",
 "idno":
 "https://schnitzler-kultur.acdh.oeaw.ac.at/pmb244949.html",
 "head":
 "Varieté im Ronacher, 28.4.1931",
 "desc":
{"listPerson":
  [
{
 "persName":
 "Arthur Schnitzler",
 "ref":
 ""}],
 "listPlace":
  [
 {
 "placeName":
 "Ronacher",
 "ref":
 ""}
 ]
}
}, {
 "type":
 "pollaczek",
 "color":
 "#1e81b0",
 "filename":
 "ckp902",
 "caption":
 "Pollaczek: Schnitzler und ich",
 "idno":
 "https://pollaczek.acdh.oeaw.ac.at/ckp902.html",
 "head":
 "Tagebuch von Clara Katharina Pollaczek, 26.–29. April 1931"
}, {
 "type":
 "schnitzler-chronik-manuell",
 "color":
 "#AAAAFA",
 "caption":
 "Ergänzungen",
 "idno":
 "doi.org/10.5771/9783968217109",
 "head":
 "Robert Adam: Besuch bei Schnitzler, 28. 4. 1931",
 "text":
 "Quelle: Besuche bei Arthur Schnitzler Private Aufzeichnungen von Albert Ehrenstein, Victor Klemperer und Robert Adam. Mitgeteilt von Martin Anton Müller. In: Hofmannsthal. Jahrbuch zur europäischen Moderne, Band 27, 2019, S. 131–164."
}] 