[{
 "type":
 "schnitzler-tagebuch",
 "color":
 "#037a33",
 "filename":
 "entry__1931-08-23",
 "caption":
 "Tagebuch",
 "idno":
 "https://schnitzler-tagebuch.acdh.oeaw.ac.at/entry__1931-08-23.html",
 "head":
 "Tagebuch, 23. August 1931",
 "desc":
{"listPerson":
  [
{
 "persName":
 "Suzanne Clauser",
 "ref":
 "person_14234"},
 {
 "persName":
 "Heinrich Schnitzler",
 "ref":
 "person_19822"},
 {
 "persName":
 "Ruth Schnitzler",
 "ref":
 "person_13139"},
 {
 "persName":
 "Julien Green",
 "ref":
 "person_15634"},
 {
 "persName":
 "Olga Schnitzler",
 "ref":
 "person_19832"}],
 "listBibl":
  [
 {
 "title":
 "Liebelei. Schauspiel in drei Akten",
 "ref":
 "pmb29917"}
 ,  {
 "title":
 "Der junge Medardus. Dramatische Historie in einem Vorspiel und fünf Aufzügen",
 "ref":
 "pmb29937"}
 ,  {
 "title":
 "Der Ruf des Lebens. Schauspiel in drei Akten",
 "ref":
 "pmb29905"}
 ,  {
 "title":
 "Leviathan",
 "ref":
 "pmb80624"}
 ],
 "listPlace":
  [
 {
 "placeName":
 "Gmunden",
 "ref":
 "pmb874"}
 ,  {
 "placeName":
 "Weyer",
 "ref":
 "pmb38726"}
 ,  {
 "placeName":
 "VIII., Josefstadt",
 "ref":
 "pmb58"}
 ,  {
 "placeName":
 "Deutsches Volkstheater",
 "ref":
 "pmb92202"}
 ,  {
 "placeName":
 "Sternwartestraße",
 "ref":
 "pmb150"}
 ]
}
}, {
 "type":
 "wienerschnitzler",
 "color":
 "#ECDA98",
 "caption":
 "Wiener Schnitzler",
 "head":
 "Gmunden",
 "desc":
{"listPlace":
  [
 {
 "placeName":
 "Hotel Austria [Gmunden]",
 "ref":
 ""}
 ,  {
 "placeName":
 "Seehotel im Weyer",
 "ref":
 ""}
 ,  {
 "placeName":
 "Café-Konditorei Grellinger",
 "ref":
 ""}
 ,  {
 "placeName":
 "Bahnhof Gmunden",
 "ref":
 ""}
 ]
}
}, {
 "type":
 "pollaczek",
 "color":
 "#1e81b0",
 "filename":
 "ckp972",
 "caption":
 "Pollaczek: Schnitzler und ich",
 "idno":
 "https://pollaczek.acdh.oeaw.ac.at/ckp972.html",
 "head":
 "Tagebuch von Clara Katharina Pollaczek, 18.–25. August 1931"
}] 