[{
 "type":
 "schnitzler-interviews",
 "color":
 "#3D5A80",
 "filename":
 "I071",
 "caption":
 "Interviews, Meinungen, Proteste",
 "idno":
 "https://schnitzler-interviews.acdh.oeaw.ac.at/I071.html",
 "head":
 "Emil Bønnelycke: Digteren og Dramatikeren Arthur Schnitzler i
                            Kjøbenhavn, 11. 5. 1923",
 "desc":
{"listPerson":
  [
{
 "persName":
 "Emil Bønnelycke",
 "ref":
 "pmb5375"},
 {
 "persName":
 "Viggo Petersen",
 "ref":
 "pmb22464"},
 {
 "persName":
 "Georg Brandes",
 "ref":
 "pmb10992"},
 {
 "persName":
 "Voltaire",
 "ref":
 "pmb3124"},
 {
 "persName":
 "Karin Michaëlis",
 "ref":
 "pmb4408"},
 {
 "persName":
 "Sophus Michaëlis",
 "ref":
 "pmb12251"},
 {
 "persName":
 "Henrik Pontoppidan",
 "ref":
 "pmb5380"},
 {
 "persName":
 "Peter Nansen",
 "ref":
 "pmb2357"},
 {
 "persName":
 "Johannes Vilhelm Jensen",
 "ref":
 "pmb11820"},
 {
 "persName":
 "Oswald Spengler",
 "ref":
 "pmb12819"},
 {
 "persName":
 "Friedrich Nietzsche",
 "ref":
 "pmb12358"},
 {
 "persName":
 "Clara Augusta Hammerich",
 "ref":
 "pmb17789"},
 {
 "persName":
 "Louis Leonor Hammerich",
 "ref":
 "pmb17793"},
 {
 "persName":
 "Silman Jay Kaufman",
 "ref":
 "pmb19210"},
 {
 "persName":
 "Wendell Philipps Dodge",
 "ref":
 "pmb58295"},
 {
 "persName":
 "Gertrud Eysoldt",
 "ref":
 "pmb11284"},
 {
 "persName":
 "Maximilian Sladek",
 "ref":
 "pmb4441"}],
 "listBibl":
  [
 {
 "title":
 "Paracelsus. Versspiel in einem Akt",
 "ref":
 "pmb30403"}
 ,  {
 "title":
 "Af Livets Komedie. Udvalgte Noveller og Enaktere",
 "ref":
 "pmb33233"}
 ,  {
 "title":
 "Anatol",
 "ref":
 "pmb29935"}
 ,  {
 "title":
 "Reigen. Zehn Dialoge",
 "ref":
 "pmb29855"}
 ,  {
 "title":
 "Professor Bernhardi. Komödie in fünf Akten",
 "ref":
 "pmb30203"}
 ,  {
 "title":
 "Voltaire und sein Jahrhundert",
 "ref":
 "pmb33237"}
 ,  {
 "title":
 "Æbelø",
 "ref":
 "pmb33235"}
 ,  {
 "title":
 "Der Untergang des Abendlandes",
 "ref":
 "pmb33229"}
 ,  {
 "title":
 "Also sprach Zarathustra",
 "ref":
 "pmb30611"}
 ,  {
 "title":
 "Die dreifache Warnung",
 "ref":
 "pmb33061"}
 ,  {
 "title":
 "Die letzten Masken",
 "ref":
 "pmb29877"}
 ,  {
 "title":
 "Der Weg ins Freie. Roman",
 "ref":
 "pmb29923"}
 ,  {
 "title":
 "Zum großen Wurstel",
 "ref":
 "pmb29951"}
 ,  {
 "title":
 "Sobraniye sochineniy [Gesammelte Werke]",
 "ref":
 "pmb36067"}
 ,  {
 "title":
 "Gesammelte Werke",
 "ref":
 "pmb30313"}
 ,  {
 "title":
 "Ein Kirchenraub. Erzählungen",
 "ref":
 "pmb33231"}
 ,  {
 "title":
 "Tagebuch",
 "ref":
 "pmb33243"}
 ,  {
 "title":
 "Der Dichter und Dramatiker Arthur Schnitzler in Kopenhagen",
 "ref":
 "pmb33227"}
 ,  {
 "title":
 "Politiken",
 "ref":
 "pmb36357"}
 ],
 "listPlace":
  [
 {
 "placeName":
 "Kopenhagen",
 "ref":
 "pmb36300"}
 ,  {
 "placeName":
 "Dänemark",
 "ref":
 "pmb43570"}
 ,  {
 "placeName":
 "Österreich",
 "ref":
 "pmb41240"}
 ,  {
 "placeName":
 "Wien",
 "ref":
 "pmb50"}
 ,  {
 "placeName":
 "Warnemünde",
 "ref":
 "pmb49158"}
 ,  {
 "placeName":
 "Ostsee",
 "ref":
 "pmb44599"}
 ,  {
 "placeName":
 "Prater",
 "ref":
 "pmb8"}
 ,  {
 "placeName":
 "Falster",
 "ref":
 "pmb49217"}
 ,  {
 "placeName":
 "Berlin",
 "ref":
 "pmb168"}
 ,  {
 "placeName":
 "Masnedsundbrücke",
 "ref":
 "pmb1088"}
 ,  {
 "placeName":
 "Amerika",
 "ref":
 "pmb175"}
 ,  {
 "placeName":
 "Russland",
 "ref":
 "pmb34438"}
 ,  {
 "placeName":
 "England",
 "ref":
 "pmb254"}
 ,  {
 "placeName":
 "Skandinavien",
 "ref":
 "pmb745"}
 ,  {
 "placeName":
 "Niederlande",
 "ref":
 "pmb44016"}
 ,  {
 "placeName":
 "Finnland",
 "ref":
 "pmb44244"}
 ,  {
 "placeName":
 "Deutschland",
 "ref":
 "pmb151"}
 ,  {
 "placeName":
 "München",
 "ref":
 "pmb45258"}
 ,  {
 "placeName":
 "Belasco Theatre",
 "ref":
 "pmb1080"}
 ,  {
 "placeName":
 "The Green Room Club",
 "ref":
 "pmb1081"}
 ,  {
 "placeName":
 "Gedser",
 "ref":
 "pmb58984"}
 ],
 "listOrg":
  [
 {
 "orgName":
 "Kammerspiele Berlin",
 "ref":
 "pmb37177"}
 ,  {
 "orgName":
 "Studentersamfundet",
 "ref":
 "pmb29482"}
 ,  {
 "orgName":
 "Det Kongelige Teater",
 "ref":
 "pmb58993"}
 ,  {
 "orgName":
 "Burgtheater",
 "ref":
 "pmb36247"}
 ,  {
 "orgName":
 "Kleines Schauspielhaus",
 "ref":
 "pmb61824"}
 ,  {
 "orgName":
 "Residenz-Theater Berlin",
 "ref":
 "pmb61685"}
 ,  {
 "orgName":
 "Trianon-Theater",
 "ref":
 "pmb61673"}
 ,  {
 "orgName":
 "R. Ioganson",
 "ref":
 "pmb59843"}
 ,  {
 "orgName":
 "V. M. Sablin",
 "ref":
 "pmb59870"}
 ,  {
 "orgName":
 "Münchner Schauspielhaus",
 "ref":
 "pmb47085"}
 ,  {
 "orgName":
 "Politiken",
 "ref":
 "pmb29628"}
 ]
}
}] 